#DEBUG: Format Typ    -> comma
#DEBUG: Time Period   -> 2017-08-30 00:00:00+00:00 2018-01-02 00:00:00+00:00
#DEBUG: Time Zone     -> Etc/UTC
#DEBUG: Data Contact   -> daryl herzmann akrherz@iastate.edu 515-294-5978
#DEBUG: Entries Found -> -1
station,valid,lon,lat,tmpf,dwpf,relh,drct,sknt,p01i,alti,mslp,vsby,gust,skyc1,skyc2,skyc3,skyc4,skyl1,skyl2,skyl3,skyl4,wxcodes,ice_accretion_1hr,ice_accretion_3hr,ice_accretion_6hr,peak_wind_gust,peak_wind_drct,peak_wind_time,feel,metar
LPAR,2017-08-30 08:00,-9.0333,38.8833,68.00,62.60,M,M,M,0.00,30.00,M,6.21,M,FEW,M,M,M,1200.00,M,M,M,M,M,M,M,M,M,M,M,LPAR 300800Z /////KT 9999 FEW012 20/17 Q1016
LPAR,2017-08-30 09:00,-9.0333,38.8833,71.60,62.60,M,M,M,0.00,30.03,M,6.21,M,SCT,SCT,M,M,1400.00,2000.00,M,M,M,M,M,M,M,M,M,M,LPAR 300900Z /////KT 9999 SCT014 SCT020 22/17 Q1017
LPAR,2017-08-30 10:00,-9.0333,38.8833,75.20,62.60,M,M,M,0.00,30.00,M,6.21,M,FEW,M,M,M,2000.00,M,M,M,M,M,M,M,M,M,M,M,LPAR 301000Z /////KT 9999 FEW020 24/17 Q1016
LPAR,2017-08-30 11:00,-9.0333,38.8833,78.80,62.60,M,M,M,0.00,30.00,M,6.21,M,FEW,M,M,M,2300.00,M,M,M,M,M,M,M,M,M,M,M,LPAR 301100Z /////KT 9999 FEW023 26/17 Q1016
LPAR,2017-08-30 12:00,-9.0333,38.8833,78.80,64.40,M,M,M,0.00,30.00,M,6.21,M,SCT,M,M,M,2300.00,M,M,M,M,M,M,M,M,M,M,M,LPAR 301200Z /////KT 9999 SCT023 26/18 Q1016
LPAR,2017-08-30 13:00,-9.0333,38.8833,78.80,62.60,M,M,M,0.00,30.00,M,6.21,M,BKN,M,M,M,2500.00,M,M,M,M,M,M,M,M,M,M,M,LPAR 301300Z /////KT 9999 BKN025 26/17 Q1016
LPAR,2017-08-30 14:00,-9.0333,38.8833,82.40,62.60,M,M,M,0.00,29.97,M,6.21,M,SCT,M,M,M,2500.00,M,M,M,M,M,M,M,M,M,M,M,LPAR 301400Z /////KT 9999 SCT025 28/17 Q1015
LPAR,2017-08-30 15:00,-9.0333,38.8833,82.40,62.60,M,M,M,0.00,29.97,M,6.21,M,FEW,M,M,M,2500.00,M,M,M,M,M,M,M,M,M,M,M,LPAR 301500Z /////KT 9999 FEW025 28/17 Q1015
LPAR,2017-08-30 16:00,-9.0333,38.8833,80.60,62.60,M,M,M,0.00,29.97,M,6.21,M,FEW,M,M,M,2500.00,M,M,M,M,M,M,M,M,M,M,M,LPAR 301600Z /////KT 9999 FEW025 27/17 Q1015
LPAR,2017-08-31 08:00,-9.0333,38.8833,69.80,60.80,M,M,M,0.00,30.03,M,6.21,M,FEW,M,M,M,1200.00,M,M,M,M,M,M,M,M,M,M,M,LPAR 310800Z /////KT 9999 FEW012 21/16 Q1017
LPAR,2017-08-31 09:00,-9.0333,38.8833,71.60,60.80,M,M,M,0.00,30.03,M,6.21,M,FEW,M,M,M,1200.00,M,M,M,M,M,M,M,M,M,M,M,LPAR 310900Z /////KT 9999 FEW012 22/16 Q1017
LPAR,2017-08-31 10:00,-9.0333,38.8833,75.20,60.80,M,M,M,0.00,30.03,M,6.21,M,M,M,M,M,M,M,M,M,M,M,M,M,M,M,M,M,LPAR 311000Z /////KT CAVOK 24/16 Q1017
LPAR,2017-08-31 11:00,-9.0333,38.8833,80.60,60.80,M,M,M,0.00,30.03,M,6.21,M,M,M,M,M,M,M,M,M,M,M,M,M,M,M,M,M,LPAR 311100Z /////KT CAVOK 27/16 Q1017
LPAR,2017-08-31 12:00,-9.0333,38.8833,80.60,60.80,M,M,M,0.00,30.03,M,6.21,M,M,M,M,M,M,M,M,M,M,M,M,M,M,M,M,M,LPAR 311200Z /////KT CAVOK 27/16 Q1017
LPAR,2017-08-31 13:00,-9.0333,38.8833,82.40,62.60,M,M,M,0.00,30.00,M,6.21,M,FEW,M,M,M,2000.00,M,M,M,M,M,M,M,M,M,M,M,LPAR 311300Z /////KT 9999 FEW020 28/17 Q1016
LPAR,2017-08-31 14:00,-9.0333,38.8833,86.00,62.60,M,M,M,0.00,30.00,M,6.21,M,FEW,M,M,M,2500.00,M,M,M,M,M,M,M,M,M,M,M,LPAR 311400Z /////KT 9999 FEW025 30/17 Q1016
LPAR,2017-08-31 15:00,-9.0333,38.8833,86.00,60.80,M,M,M,0.00,29.97,M,6.21,M,FEW,M,M,M,2500.00,M,M,M,M,M,M,M,M,M,M,M,LPAR 311500Z /////KT 9999 FEW025 30/16 Q1015
LPAR,2017-08-31 16:00,-9.0333,38.8833,82.40,59.00,M,M,M,0.00,29.97,M,6.21,M,FEW,M,M,M,2500.00,M,M,M,M,M,M,M,M,M,M,M,LPAR 311600Z /////KT 9999 FEW025 28/15 Q1015
LPAR,2017-09-01 08:00,-9.0333,38.8833,69.80,57.20,M,M,M,0.00,30.03,M,6.21,M,M,M,M,M,M,M,M,M,M,M,M,M,M,M,M,M,LPAR 010800Z /////KT CAVOK 21/14 Q1017
LPAR,2017-09-01 09:00,-9.0333,38.8833,75.20,55.40,M,M,M,0.00,30.03,M,6.21,M,M,M,M,M,M,M,M,M,M,M,M,M,M,M,M,M,LPAR 010900Z /////KT CAVOK 24/13 Q1017
LPAR,2017-09-01 10:00,-9.0333,38.8833,78.80,57.20,M,M,M,0.00,30.06,M,6.21,M,M,M,M,M,M,M,M,M,M,M,M,M,M,M,M,M,LPAR 011000Z /////KT CAVOK 26/14 Q1018
LPAR,2017-09-01 11:00,-9.0333,38.8833,82.40,57.20,M,M,M,0.00,30.03,M,6.21,M,M,M,M,M,M,M,M,M,M,M,M,M,M,M,M,M,LPAR 011100Z /////KT CAVOK 28/14 Q1017
LPAR,2017-09-01 12:00,-9.0333,38.8833,84.20,57.20,M,M,M,0.00,30.03,M,6.21,M,M,M,M,M,M,M,M,M,M,M,M,M,M,M,M,M,LPAR 011200Z /////KT CAVOK 29/14 Q1017
LPAR,2017-09-01 13:00,-9.0333,38.8833,87.80,59.00,M,M,M,0.00,30.00,M,6.21,M,M,M,M,M,M,M,M,M,M,M,M,M,M,M,M,M,LPAR 011300Z /////KT CAVOK 31/15 Q1016
LPAR,2017-09-01 14:00,-9.0333,38.8833,87.80,57.20,M,M,M,0.00,30.00,M,6.21,M,M,M,M,M,M,M,M,M,M,M,M,M,M,M,M,M,LPAR 011400Z /////KT CAVOK 31/14 Q1016
LPAR,2017-09-01 15:00,-9.0333,38.8833,84.20,55.40,M,M,M,0.00,30.00,M,6.21,M,M,M,M,M,M,M,M,M,M,M,M,M,M,M,M,M,LPAR 011500Z /////KT CAVOK 29/13 Q1016
LPAR,2017-09-01 16:00,-9.0333,38.8833,84.20,53.60,M,M,M,0.00,30.00,M,6.21,M,M,M,M,M,M,M,M,M,M,M,M,M,M,M,M,M,LPAR 011600Z /////KT CAVOK 29/12 Q1016
LPAR,2017-09-04 08:00,-9.0333,38.8833,69.80,66.20,M,M,M,0.00,30.03,M,6.21,M,SCT,BKN,M,M,600.00,1500.00,M,M,M,M,M,M,M,M,M,M,LPAR 040800Z /////KT 9999 SCT006 BKN015 21/19 Q1017
LPAR,2017-09-04 09:00,-9.0333,38.8833,73.40,68.00,M,M,M,0.00,30.06,M,6.21,M,BKN,SCT,M,M,1600.00,2500.00,M,M,M,M,M,M,M,M,M,M,LPAR 040900Z /////KT 9999 BKN016 SCT025 23/20 Q1018
LPAR,2017-09-04 10:00,-9.0333,38.8833,75.20,66.20,M,M,M,0.00,30.06,M,6.21,M,FEW,BKN,M,M,1500.00,2000.00,M,M,M,M,M,M,M,M,M,M,LPAR 041000Z /////KT 9999 FEW015 BKN020 24/19 Q1018
LPAR,2017-09-04 11:00,-9.0333,38.8833,77.00,64.40,M,M,M,0.00,30.06,M,6.21,M,FEW,BKN,M,M,1500.00,2300.00,M,M,M,M,M,M,M,M,M,M,LPAR 041100Z /////KT 9999 FEW015 BKN023 25/18 Q1018
LPAR,2017-09-04 12:00,-9.0333,38.8833,78.80,62.60,M,M,M,0.00,30.06,M,6.21,M,FEW,M,M,M,2500.00,M,M,M,M,M,M,M,M,M,M,M,LPAR 041200Z /////KT 9999 FEW025 26/17 Q1018
LPAR,2017-09-04 13:00,-9.0333,38.8833,80.60,60.80,M,M,M,0.00,30.06,M,6.21,M,FEW,M,M,M,2500.00,M,M,M,M,M,M,M,M,M,M,M,LPAR 041300Z /////KT 9999 FEW025 27/16 Q1018
LPAR,2017-09-04 14:00,-9.0333,38.8833,80.60,62.60,M,M,M,0.00,30.06,M,6.21,M,FEW,M,M,M,3000.00,M,M,M,M,M,M,M,M,M,M,M,LPAR 041400Z /////KT 9999 FEW030 27/17 Q1018
LPAR,2017-09-04 15:00,-9.0333,38.8833,82.40,62.60,M,M,M,0.00,30.03,M,6.21,M,FEW,M,M,M,2500.00,M,M,M,M,M,M,M,M,M,M,M,LPAR 041500Z /////KT 9999 FEW025 28/17 Q1017
LPAR,2017-09-04 16:00,-9.0333,38.8833,80.60,62.60,M,M,M,0.00,30.03,M,6.21,M,FEW,M,M,M,2500.00,M,M,M,M,M,M,M,M,M,M,M,LPAR 041600Z /////KT 9999 FEW025 27/17 Q1017
LPAR,2017-09-05 08:00,-9.0333,38.8833,69.80,60.80,M,M,M,0.00,30.15,M,6.21,M,SCT,M,M,M,2000.00,M,M,M,M,M,M,M,M,M,M,M,LPAR 050800Z /////KT 9999 SCT020 21/16 Q1021
LPAR,2017-09-05 09:00,-9.0333,38.8833,71.60,62.60,M,M,M,0.00,30.15,M,6.21,M,SCT,M,M,M,2000.00,M,M,M,M,M,M,M,M,M,M,M,LPAR 050900Z /////KT 9999 SCT020 22/17 Q1021
LPAR,2017-09-05 10:00,-9.0333,38.8833,75.20,60.80,M,M,M,0.00,30.15,M,6.21,M,FEW,M,M,M,2200.00,M,M,M,M,M,M,M,M,M,M,M,LPAR 051000Z /////KT 9999 FEW022 24/16 Q1021
LPAR,2017-09-05 11:00,-9.0333,38.8833,78.80,62.60,M,M,M,0.00,30.15,M,6.21,M,FEW,M,M,M,2200.00,M,M,M,M,M,M,M,M,M,M,M,LPAR 051100Z /////KT 9999 FEW022 26/17 Q1021
LPAR,2017-09-05 12:00,-9.0333,38.8833,80.60,62.60,M,M,M,0.00,30.15,M,6.21,M,M,M,M,M,M,M,M,M,M,M,M,M,M,M,M,M,LPAR 051200Z /////KT CAVOK 27/17 Q1021
LPAR,2017-09-05 13:00,-9.0333,38.8833,82.40,64.40,M,M,M,0.00,30.12,M,6.21,M,M,M,M,M,M,M,M,M,M,M,M,M,M,M,M,M,LPAR 051300Z /////KT CAVOK 28/18 Q1020
LPAR,2017-09-05 14:00,-9.0333,38.8833,84.20,62.60,M,M,M,0.00,30.12,M,6.21,M,M,M,M,M,M,M,M,M,M,M,M,M,M,M,M,M,LPAR 051400Z /////KT CAVOK 29/17 Q1020
LPAR,2017-09-05 15:00,-9.0333,38.8833,84.20,62.60,M,M,M,0.00,30.12,M,6.21,M,M,M,M,M,M,M,M,M,M,M,M,M,M,M,M,M,LPAR 051500Z /////KT CAVOK 29/17 Q1020
LPAR,2017-09-05 16:00,-9.0333,38.8833,82.40,62.60,M,M,M,0.00,30.12,M,6.21,M,M,M,M,M,M,M,M,M,M,M,M,M,M,M,M,M,LPAR 051600Z /////KT CAVOK 28/17 Q1020
LPAR,2017-09-06 08:00,-9.0333,38.8833,71.60,62.60,M,M,M,0.00,30.12,M,6.21,M,FEW,M,M,M,1400.00,M,M,M,M,M,M,M,M,M,M,M,LPAR 060800Z /////KT 9999 FEW014 22/17 Q1020
LPAR,2017-09-06 09:00,-9.0333,38.8833,75.20,62.60,M,M,M,0.00,30.12,M,6.21,M,FEW,M,M,M,1500.00,M,M,M,M,M,M,M,M,M,M,M,LPAR 060900Z /////KT 9999 FEW015 24/17 Q1020
LPAR,2017-09-06 10:00,-9.0333,38.8833,78.80,62.60,M,M,M,0.00,30.12,M,6.21,M,M,M,M,M,M,M,M,M,M,M,M,M,M,M,M,M,LPAR 061000Z /////KT CAVOK 26/17 Q1020
LPAR,2017-09-06 11:00,-9.0333,38.8833,82.40,62.60,M,M,M,0.00,30.12,M,6.21,M,M,M,M,M,M,M,M,M,M,M,M,M,M,M,M,M,LPAR 061100Z /////KT CAVOK 28/17 Q1020
LPAR,2017-09-06 12:00,-9.0333,38.8833,82.40,62.60,M,M,M,0.00,30.12,M,6.21,M,M,M,M,M,M,M,M,M,M,M,M,M,M,M,M,M,LPAR 061200Z /////KT CAVOK 28/17 Q1020
LPAR,2017-09-06 13:00,-9.0333,38.8833,87.80,62.60,M,M,M,0.00,30.09,M,6.21,M,M,M,M,M,M,M,M,M,M,M,M,M,M,M,M,M,LPAR 061300Z /////KT CAVOK 31/17 Q1019
LPAR,2017-09-06 14:00,-9.0333,38.8833,89.60,62.60,M,M,M,0.00,30.06,M,6.21,M,M,M,M,M,M,M,M,M,M,M,M,M,M,M,M,M,LPAR 061400Z /////KT CAVOK 32/17 Q1018
LPAR,2017-09-06 15:00,-9.0333,38.8833,89.60,60.80,M,M,M,0.00,30.03,M,6.21,M,M,M,M,M,M,M,M,M,M,M,M,M,M,M,M,M,LPAR 061500Z /////KT CAVOK 32/16 Q1017
LPAR,2017-09-06 16:00,-9.0333,38.8833,87.80,60.80,M,M,M,0.00,30.03,M,6.21,M,M,M,M,M,M,M,M,M,M,M,M,M,M,M,M,M,LPAR 061600Z /////KT CAVOK 31/16 Q1017
LPAR,2017-09-07 08:00,-9.0333,38.8833,68.00,62.60,M,M,M,0.00,30.00,M,6.21,M,M,M,M,M,M,M,M,M,M,M,M,M,M,M,M,M,LPAR 070800Z /////KT CAVOK 20/17 Q1016
LPAR,2017-09-07 09:00,-9.0333,38.8833,73.40,62.60,M,M,M,0.00,30.03,M,6.21,M,M,M,M,M,M,M,M,M,M,M,M,M,M,M,M,M,LPAR 070900Z /////KT CAVOK 23/17 Q1017
LPAR,2017-09-07 10:00,-9.0333,38.8833,82.40,59.00,M,M,M,0.00,30.03,M,6.21,M,M,M,M,M,M,M,M,M,M,M,M,M,M,M,M,M,LPAR 071000Z /////KT CAVOK 28/15 Q1017
LPAR,2017-09-07 11:00,-9.0333,38.8833,86.00,59.00,M,M,M,0.00,30.03,M,6.21,M,M,M,M,M,M,M,M,M,M,M,M,M,M,M,M,M,LPAR 071100Z /////KT CAVOK 30/15 Q1017
LPAR,2017-09-07 12:00,-9.0333,38.8833,91.40,57.20,M,M,M,0.00,30.00,M,6.21,M,M,M,M,M,M,M,M,M,M,M,M,M,M,M,M,M,LPAR 071200Z /////KT CAVOK 33/14 Q1016
LPAR,2017-09-07 13:00,-9.0333,38.8833,95.00,55.40,M,M,M,0.00,30.00,M,6.21,M,M,M,M,M,M,M,M,M,M,M,M,M,M,M,M,M,LPAR 071300Z /////KT CAVOK 35/13 Q1016
LPAR,2017-09-07 14:00,-9.0333,38.8833,95.00,50.00,M,M,M,0.00,29.97,M,6.21,M,M,M,M,M,M,M,M,M,M,M,M,M,M,M,M,M,LPAR 071400Z /////KT CAVOK 35/10 Q1015
LPAR,2017-09-07 15:00,-9.0333,38.8833,95.00,50.00,M,M,M,0.00,29.97,M,6.21,M,M,M,M,M,M,M,M,M,M,M,M,M,M,M,M,M,LPAR 071500Z /////KT CAVOK 35/10 Q1015
LPAR,2017-09-07 16:00,-9.0333,38.8833,93.20,51.80,M,M,M,0.00,29.94,M,6.21,M,M,M,M,M,M,M,M,M,M,M,M,M,M,M,M,M,LPAR 071600Z /////KT CAVOK 34/11 Q1014
LPAR,2017-09-08 08:00,-9.0333,38.8833,69.80,51.80,M,M,M,0.00,29.97,M,6.21,M,M,M,M,M,M,M,M,M,M,M,M,M,M,M,M,M,LPAR 080800Z /////KT CAVOK 21/11 Q1015
LPAR,2017-09-08 09:00,-9.0333,38.8833,71.60,53.60,M,M,M,0.00,30.00,M,6.21,M,M,M,M,M,M,M,M,M,M,M,M,M,M,M,M,M,LPAR 080900Z /////KT CAVOK 22/12 Q1016
LPAR,2017-09-08 10:00,-9.0333,38.8833,77.00,50.00,M,M,M,0.00,30.00,M,6.21,M,M,M,M,M,M,M,M,M,M,M,M,M,M,M,M,M,LPAR 081000Z /////KT CAVOK 25/10 Q1016
LPAR,2017-09-08 12:00,-9.0333,38.8833,80.60,51.80,M,M,M,0.00,30.00,M,6.21,M,M,M,M,M,M,M,M,M,M,M,M,M,M,M,M,M,LPAR 081200Z /////KT CAVOK 27/11 Q1016
LPAR,2017-09-08 13:00,-9.0333,38.8833,80.60,50.00,M,M,M,0.00,29.97,M,6.21,M,M,M,M,M,M,M,M,M,M,M,M,M,M,M,M,M,LPAR 081300Z /////KT CAVOK 27/10 Q1015
LPAR,2017-09-08 14:00,-9.0333,38.8833,80.60,51.80,M,M,M,0.00,29.97,M,6.21,M,M,M,M,M,M,M,M,M,M,M,M,M,M,M,M,M,LPAR 081400Z /////KT CAVOK 27/11 Q1015
LPAR,2017-09-08 15:00,-9.0333,38.8833,78.80,53.60,M,M,M,0.00,29.97,M,6.21,M,M,M,M,M,M,M,M,M,M,M,M,M,M,M,M,M,LPAR 081500Z /////KT CAVOK 26/12 Q1015
LPAR,2017-09-08 16:00,-9.0333,38.8833,77.00,53.60,M,M,M,0.00,29.94,M,6.21,M,M,M,M,M,M,M,M,M,M,M,M,M,M,M,M,M,LPAR 081600Z /////KT CAVOK 25/12 Q1014
LPAR,2017-09-11 08:00,-9.0333,38.8833,68.00,60.80,M,M,M,0.00,30.03,M,6.21,M,FEW,M,M,M,1200.00,M,M,M,M,M,M,M,M,M,M,M,LPAR 110800Z /////KT 9999 FEW012 20/16 Q1017
LPAR,2017-09-11 09:00,-9.0333,38.8833,71.60,62.60,M,M,M,0.00,30.03,M,6.21,M,FEW,M,M,M,1500.00,M,M,M,M,M,M,M,M,M,M,M,LPAR 110900Z /////KT 9999 FEW015 22/17 Q1017
LPAR,2017-09-11 10:00,-9.0333,38.8833,75.20,62.60,M,M,M,0.00,30.03,M,6.21,M,FEW,M,M,M,1500.00,M,M,M,M,M,M,M,M,M,M,M,LPAR 111000Z /////KT 9999 FEW015 24/17 Q1017
LPAR,2017-09-11 11:00,-9.0333,38.8833,77.00,62.60,M,M,M,0.00,30.03,M,6.21,M,FEW,M,M,M,1500.00,M,M,M,M,M,M,M,M,M,M,M,LPAR 111100Z /////KT 9999 FEW015 25/17 Q1017
LPAR,2017-09-11 12:00,-9.0333,38.8833,78.80,64.40,M,M,M,0.00,30.03,M,6.21,M,M,M,M,M,M,M,M,M,M,M,M,M,M,M,M,M,LPAR 111200Z /////KT CAVOK 26/18 Q1017
LPAR,2017-09-11 13:00,-9.0333,38.8833,84.20,62.60,M,M,M,0.00,30.03,M,6.21,M,M,M,M,M,M,M,M,M,M,M,M,M,M,M,M,M,LPAR 111300Z /////KT CAVOK 29/17 Q1017
LPAR,2017-09-11 14:00,-9.0333,38.8833,84.20,62.60,M,M,M,0.00,30.00,M,6.21,M,M,M,M,M,M,M,M,M,M,M,M,M,M,M,M,M,LPAR 111400Z /////KT CAVOK 29/17 Q1016
LPAR,2017-09-11 15:00,-9.0333,38.8833,84.20,62.60,M,M,M,0.00,29.97,M,6.21,M,M,M,M,M,M,M,M,M,M,M,M,M,M,M,M,M,LPAR 111500Z /////KT CAVOK 29/17 Q1015
LPAR,2017-09-11 16:00,-9.0333,38.8833,82.40,62.60,M,M,M,0.00,29.97,M,6.21,M,M,M,M,M,M,M,M,M,M,M,M,M,M,M,M,M,LPAR 111600Z /////KT CAVOK 28/17 Q1015
LPAR,2017-09-13 08:00,-9.0333,38.8833,68.00,60.80,M,M,M,0.00,30.15,M,6.21,M,M,M,M,M,M,M,M,M,M,M,M,M,M,M,M,M,LPAR 130800Z /////KT CAVOK 20/16 Q1021
LPAR,2017-09-13 09:00,-9.0333,38.8833,75.20,60.80,M,M,M,0.00,30.15,M,6.21,M,M,M,M,M,M,M,M,M,M,M,M,M,M,M,M,M,LPAR 130900Z /////KT CAVOK 24/16 Q1021
LPAR,2017-09-13 10:00,-9.0333,38.8833,77.00,62.60,M,M,M,0.00,30.15,M,6.21,M,M,M,M,M,M,M,M,M,M,M,M,M,M,M,M,M,LPAR 131000Z /////KT CAVOK 25/17 Q1021
LPAR,2017-09-13 11:00,-9.0333,38.8833,80.60,62.60,M,M,M,0.00,30.15,M,6.21,M,M,M,M,M,M,M,M,M,M,M,M,M,M,M,M,M,LPAR 131100Z /////KT CAVOK 27/17 Q1021
LPAR,2017-09-13 12:00,-9.0333,38.8833,84.20,62.60,M,M,M,0.00,30.12,M,6.21,M,M,M,M,M,M,M,M,M,M,M,M,M,M,M,M,M,LPAR 131200Z /////KT CAVOK 29/17 Q1020
LPAR,2017-09-13 14:00,-9.0333,38.8833,89.60,62.60,M,M,M,0.00,30.09,M,6.21,M,M,M,M,M,M,M,M,M,M,M,M,M,M,M,M,M,LPAR 131400Z /////KT CAVOK 32/17 Q1019
LPAR,2017-09-13 15:00,-9.0333,38.8833,87.80,60.80,M,M,M,0.00,30.09,M,6.21,M,M,M,M,M,M,M,M,M,M,M,M,M,M,M,M,M,LPAR 131500Z /////KT CAVOK 31/16 Q1019
LPAR,2017-09-13 16:00,-9.0333,38.8833,84.20,62.60,M,M,M,0.00,30.09,M,6.21,M,M,M,M,M,M,M,M,M,M,M,M,M,M,M,M,M,LPAR 131600Z /////KT CAVOK 29/17 Q1019
LPAR,2017-09-14 08:00,-9.0333,38.8833,68.00,60.80,M,M,M,0.00,30.18,M,6.21,M,SCT,M,M,M,1800.00,M,M,M,M,M,M,M,M,M,M,M,LPAR 140800Z /////KT 9999 SCT018 20/16 Q1022
LPAR,2017-09-14 09:00,-9.0333,38.8833,69.80,60.80,M,M,M,0.00,30.18,M,6.21,M,FEW,M,M,M,1800.00,M,M,M,M,M,M,M,M,M,M,M,LPAR 140900Z /////KT 9999 FEW018 21/16 Q1022
LPAR,2017-09-14 11:00,-9.0333,38.8833,75.20,60.80,M,M,M,0.00,30.18,M,6.21,M,FEW,M,M,M,1800.00,M,M,M,M,M,M,M,M,M,M,M,LPAR 141100Z /////KT 9999 FEW018 24/16 Q1022
LPAR,2017-09-14 12:00,-9.0333,38.8833,78.80,62.60,M,M,M,0.00,30.15,M,6.21,M,FEW,M,M,M,2000.00,M,M,M,M,M,M,M,M,M,M,M,LPAR 141200Z /////KT 9999 FEW020 26/17 Q1021
LPAR,2017-09-15 08:00,-9.0333,38.8833,62.60,50.00,M,M,M,0.00,30.06,M,6.21,M,M,M,M,M,M,M,M,M,M,M,M,M,M,M,M,M,LPAR 150800Z /////KT CAVOK 17/10 Q1018
LPAR,2017-09-15 09:00,-9.0333,38.8833,64.40,50.00,M,M,M,0.00,30.06,M,6.21,M,M,M,M,M,M,M,M,M,M,M,M,M,M,M,M,M,LPAR 150900Z /////KT CAVOK 18/10 Q1018
LPAR,2017-09-15 10:00,-9.0333,38.8833,69.80,46.40,M,M,M,0.00,30.06,M,6.21,M,M,M,M,M,M,M,M,M,M,M,M,M,M,M,M,M,LPAR 151000Z /////KT CAVOK 21/08 Q1018
LPAR,2017-09-15 11:00,-9.0333,38.8833,69.80,46.40,M,M,M,0.00,30.06,M,6.21,M,M,M,M,M,M,M,M,M,M,M,M,M,M,M,M,M,LPAR 151100Z /////KT CAVOK 21/08 Q1018
LPAR,2017-09-15 12:00,-9.0333,38.8833,71.60,46.40,M,M,M,0.00,30.06,M,6.21,M,M,M,M,M,M,M,M,M,M,M,M,M,M,M,M,M,LPAR 151200Z /////KT CAVOK 22/08 Q1018
LPAR,2017-09-15 13:00,-9.0333,38.8833,71.60,42.80,M,M,M,0.00,30.03,M,6.21,M,M,M,M,M,M,M,M,M,M,M,M,M,M,M,M,M,LPAR 151300Z /////KT CAVOK 22/06 Q1017
LPAR,2017-09-15 14:00,-9.0333,38.8833,71.60,44.60,M,M,M,0.00,30.03,M,6.21,M,M,M,M,M,M,M,M,M,M,M,M,M,M,M,M,M,LPAR 151400Z /////KT CAVOK 22/07 Q1017
LPAR,2017-09-15 15:00,-9.0333,38.8833,71.60,44.60,M,M,M,0.00,30.03,M,6.21,M,M,M,M,M,M,M,M,M,M,M,M,M,M,M,M,M,LPAR 151500Z /////KT CAVOK 22/07 Q1017
LPAR,2017-09-15 16:00,-9.0333,38.8833,69.80,44.60,M,M,M,0.00,30.00,M,6.21,M,M,M,M,M,M,M,M,M,M,M,M,M,M,M,M,M,LPAR 151600Z /////KT CAVOK 21/07 Q1016
LPAR,2017-09-18 08:00,-9.0333,38.8833,62.60,57.20,M,M,M,0.00,30.18,M,6.21,M,SCT,BKN,M,M,1200.00,2200.00,M,M,M,M,M,M,M,M,M,M,LPAR 180800Z /////KT 9999 SCT012 BKN022 17/14 Q1022
LPAR,2017-09-18 09:00,-9.0333,38.8833,68.00,60.80,M,M,M,0.00,30.18,M,6.21,M,FEW,BKN,M,M,1400.00,2500.00,M,M,M,M,M,M,M,M,M,M,LPAR 180900Z /////KT 9999 FEW014 BKN025 20/16 Q1022
LPAR,2017-09-18 10:00,-9.0333,38.8833,68.00,62.60,M,M,M,0.00,30.18,M,6.21,M,SCT,BKN,M,M,1200.00,2500.00,M,M,VCSH,M,M,M,M,M,M,M,LPAR 181000Z /////KT 9999 VCSH SCT012 BKN025 20/17 Q1022
LPAR,2017-09-18 11:00,-9.0333,38.8833,73.40,60.80,M,M,M,0.00,30.18,M,6.21,M,SCT,SCT,M,M,1500.00,2500.00,M,M,M,M,M,M,M,M,M,M,LPAR 181100Z /////KT 9999 SCT015 SCT025 23/16 Q1022
LPAR,2017-09-18 12:00,-9.0333,38.8833,75.20,59.00,M,M,M,0.00,30.18,M,6.21,M,FEW,SCT,M,M,1500.00,2500.00,M,M,M,M,M,M,M,M,M,M,LPAR 181200Z /////KT 9999 FEW015 SCT025 24/15 Q1022
LPAR,2017-09-18 13:00,-9.0333,38.8833,78.80,55.40,M,M,M,0.00,30.18,M,6.21,M,FEW,M,M,M,2500.00,M,M,M,M,M,M,M,M,M,M,M,LPAR 181300Z /////KT 9999 FEW025 26/13 Q1022
LPAR,2017-09-18 14:00,-9.0333,38.8833,78.80,51.80,M,M,M,0.00,30.18,M,6.21,M,FEW,M,M,M,2500.00,M,M,M,M,M,M,M,M,M,M,M,LPAR 181400Z /////KT 9999 FEW025 26/11 Q1022
LPAR,2017-09-18 15:00,-9.0333,38.8833,78.80,53.60,M,M,M,0.00,30.15,M,6.21,M,FEW,M,M,M,2500.00,M,M,M,M,M,M,M,M,M,M,M,LPAR 181500Z /////KT 9999 FEW025 26/12 Q1021
LPAR,2017-09-18 16:00,-9.0333,38.8833,75.20,55.40,M,M,M,0.00,30.15,M,6.21,M,FEW,M,M,M,2500.00,M,M,M,M,M,M,M,M,M,M,M,LPAR 181600Z /////KT 9999 FEW025 24/13 Q1021
LPAR,2017-09-19 08:00,-9.0333,38.8833,66.20,59.00,M,M,M,0.00,30.21,M,6.21,M,FEW,M,M,M,1500.00,M,M,M,M,M,M,M,M,M,M,M,LPAR 190800Z /////KT 9999 FEW015 19/15 Q1023
LPAR,2017-09-19 09:00,-9.0333,38.8833,68.00,59.00,M,M,M,0.00,30.21,M,6.21,M,FEW,M,M,M,2000.00,M,M,M,M,M,M,M,M,M,M,M,LPAR 190900Z /////KT 9999 FEW020 20/15 Q1023
LPAR,2017-09-19 11:00,-9.0333,38.8833,75.20,57.20,M,M,M,0.00,30.21,M,6.21,M,M,M,M,M,M,M,M,M,M,M,M,M,M,M,M,M,LPAR 191100Z /////KT CAVOK 24/14 Q1023
LPAR,2017-09-19 12:00,-9.0333,38.8833,77.00,59.00,M,M,M,0.00,30.21,M,6.21,M,M,M,M,M,M,M,M,M,M,M,M,M,M,M,M,M,LPAR 191200Z /////KT CAVOK 25/15 Q1023
LPAR,2017-09-19 13:00,-9.0333,38.8833,78.80,57.20,M,M,M,0.00,30.18,M,6.21,M,M,M,M,M,M,M,M,M,M,M,M,M,M,M,M,M,LPAR 191300Z /////KT CAVOK 26/14 Q1022
LPAR,2017-09-19 14:00,-9.0333,38.8833,78.80,55.40,M,M,M,0.00,30.15,M,6.21,M,M,M,M,M,M,M,M,M,M,M,M,M,M,M,M,M,LPAR 191400Z /////KT CAVOK 26/13 Q1021
LPAR,2017-09-19 15:00,-9.0333,38.8833,78.80,57.20,M,M,M,0.00,30.15,M,6.21,M,M,M,M,M,M,M,M,M,M,M,M,M,M,M,M,M,LPAR 191500Z /////KT CAVOK 26/14 Q1021
LPAR,2017-09-19 16:00,-9.0333,38.8833,78.80,57.20,M,M,M,0.00,30.12,M,6.21,M,M,M,M,M,M,M,M,M,M,M,M,M,M,M,M,M,LPAR 191600Z /////KT CAVOK 26/14 Q1020
LPAR,2017-09-20 08:00,-9.0333,38.8833,60.80,57.20,M,M,M,0.00,30.09,M,6.21,M,FEW,M,M,M,1400.00,M,M,M,M,M,M,M,M,M,M,M,LPAR 200800Z /////KT 9999 FEW014 16/14 Q1019
LPAR,2017-09-20 09:00,-9.0333,38.8833,62.60,57.20,M,M,M,0.00,30.09,M,6.21,M,FEW,M,M,M,1400.00,M,M,M,M,M,M,M,M,M,M,M,LPAR 200900Z /////KT 9999 FEW014 17/14 Q1019
LPAR,2017-09-20 10:00,-9.0333,38.8833,69.80,55.40,M,M,M,0.00,30.09,M,6.21,M,M,M,M,M,M,M,M,M,M,M,M,M,M,M,M,M,LPAR 201000Z /////KT CAVOK 21/13 Q1019
LPAR,2017-09-20 11:00,-9.0333,38.8833,69.80,55.40,M,M,M,0.00,30.09,M,6.21,M,M,M,M,M,M,M,M,M,M,M,M,M,M,M,M,M,LPAR 201100Z /////KT CAVOK 21/13 Q1019
LPAR,2017-09-20 12:00,-9.0333,38.8833,73.40,60.80,M,M,M,0.00,30.09,M,6.21,M,M,M,M,M,M,M,M,M,M,M,M,M,M,M,M,M,LPAR 201200Z /////KT CAVOK 23/16 Q1019
LPAR,2017-09-20 13:00,-9.0333,38.8833,75.20,60.80,M,M,M,0.00,30.06,M,6.21,M,M,M,M,M,M,M,M,M,M,M,M,M,M,M,M,M,LPAR 201300Z /////KT CAVOK 24/16 Q1018
LPAR,2017-09-20 14:00,-9.0333,38.8833,77.00,60.80,M,M,M,0.00,30.03,M,6.21,M,M,M,M,M,M,M,M,M,M,M,M,M,M,M,M,M,LPAR 201400Z /////KT CAVOK 25/16 Q1017
LPAR,2017-09-20 15:00,-9.0333,38.8833,78.80,60.80,M,M,M,0.00,30.00,M,6.21,M,M,M,M,M,M,M,M,M,M,M,M,M,M,M,M,M,LPAR 201500Z /////KT CAVOK 26/16 Q1016
LPAR,2017-09-20 16:00,-9.0333,38.8833,77.00,59.00,M,M,M,0.00,30.00,M,6.21,M,M,M,M,M,M,M,M,M,M,M,M,M,M,M,M,M,LPAR 201600Z /////KT CAVOK 25/15 Q1016
LPAR,2017-09-21 09:00,-9.0333,38.8833,69.80,60.80,M,M,M,0.00,30.09,M,6.21,M,FEW,M,M,M,1200.00,M,M,M,M,M,M,M,M,M,M,M,LPAR 210900Z /////KT 9999 FEW012 21/16 Q1019
LPAR,2017-09-21 11:00,-9.0333,38.8833,73.40,60.80,M,M,M,0.00,30.06,M,6.21,M,FEW,M,M,M,1800.00,M,M,M,M,M,M,M,M,M,M,M,LPAR 211100Z /////KT 9999 FEW018 23/16 Q1018
LPAR,2017-09-21 12:00,-9.0333,38.8833,75.20,62.60,M,M,M,0.00,30.06,M,6.21,M,FEW,M,M,M,2000.00,M,M,M,M,M,M,M,M,M,M,M,LPAR 211200Z /////KT 9999 FEW020 24/17 Q1018
LPAR,2017-09-21 13:00,-9.0333,38.8833,77.00,60.80,M,M,M,0.00,30.03,M,6.21,M,FEW,M,M,M,2200.00,M,M,M,M,M,M,M,M,M,M,M,LPAR 211300Z /////KT 9999 FEW022 25/16 Q1017
LPAR,2017-09-21 14:00,-9.0333,38.8833,78.80,59.00,M,M,M,0.00,30.03,M,6.21,M,SCT,M,M,M,2500.00,M,M,M,M,M,M,M,M,M,M,M,LPAR 211400Z /////KT 9999 SCT025 26/15 Q1017
LPAR,2017-09-21 16:00,-9.0333,38.8833,78.80,60.80,M,M,M,0.00,30.03,M,6.21,M,SCT,M,M,M,2500.00,M,M,M,M,M,M,M,M,M,M,M,LPAR 211600Z /////KT 9999 SCT025 26/16 Q1017
LPAR,2017-09-22 08:00,-9.0333,38.8833,62.60,55.40,M,M,M,0.00,30.06,M,6.21,M,FEW,M,M,M,1400.00,M,M,M,M,M,M,M,M,M,M,M,LPAR 220800Z /////KT 9999 FEW014 17/13 Q1018
LPAR,2017-09-22 09:00,-9.0333,38.8833,66.20,55.40,M,M,M,0.00,30.06,M,6.21,M,FEW,M,M,M,1500.00,M,M,M,M,M,M,M,M,M,M,M,LPAR 220900Z /////KT 9999 FEW015 19/13 Q1018
LPAR,2017-09-22 10:00,-9.0333,38.8833,69.80,55.40,M,M,M,0.00,30.06,M,6.21,M,M,M,M,M,M,M,M,M,M,M,M,M,M,M,M,M,LPAR 221000Z /////KT CAVOK 21/13 Q1018
LPAR,2017-09-22 11:00,-9.0333,38.8833,73.40,57.20,M,M,M,0.00,30.06,M,6.21,M,M,M,M,M,M,M,M,M,M,M,M,M,M,M,M,M,LPAR 221100Z /////KT CAVOK 23/14 Q1018
LPAR,2017-09-22 12:00,-9.0333,38.8833,77.00,57.20,M,M,M,0.00,30.06,M,6.21,M,M,M,M,M,M,M,M,M,M,M,M,M,M,M,M,M,LPAR 221200Z /////KT CAVOK 25/14 Q1018
LPAR,2017-09-22 13:00,-9.0333,38.8833,78.80,55.40,M,M,M,0.00,30.03,M,6.21,M,M,M,M,M,M,M,M,M,M,M,M,M,M,M,M,M,LPAR 221300Z /////KT CAVOK 26/13 Q1017
LPAR,2017-09-22 14:00,-9.0333,38.8833,80.60,57.20,M,M,M,0.00,30.03,M,6.21,M,M,M,M,M,M,M,M,M,M,M,M,M,M,M,M,M,LPAR 221400Z /////KT CAVOK 27/14 Q1017
LPAR,2017-09-22 15:00,-9.0333,38.8833,80.60,57.20,M,M,M,0.00,30.00,M,6.21,M,M,M,M,M,M,M,M,M,M,M,M,M,M,M,M,M,LPAR 221500Z /////KT CAVOK 27/14 Q1016
LPAR,2017-09-22 16:00,-9.0333,38.8833,78.80,57.20,M,M,M,0.00,30.00,M,6.21,M,M,M,M,M,M,M,M,M,M,M,M,M,M,M,M,M,LPAR 221600Z /////KT CAVOK 26/14 Q1016
LPAR,2017-09-25 08:00,-9.0333,38.8833,66.20,59.00,M,M,M,0.00,30.18,M,6.21,M,FEW,M,M,M,1200.00,M,M,M,M,M,M,M,M,M,M,M,LPAR 250800Z /////KT 9999 FEW012 19/15 Q1022
LPAR,2017-09-25 09:00,-9.0333,38.8833,68.00,59.00,M,M,M,0.00,30.21,M,6.21,M,FEW,M,M,M,1200.00,M,M,M,M,M,M,M,M,M,M,M,LPAR 250900Z /////KT 9999 FEW012 20/15 Q1023
LPAR,2017-09-25 10:00,-9.0333,38.8833,69.80,60.80,M,M,M,0.00,30.21,M,6.21,M,FEW,M,M,M,1500.00,M,M,M,M,M,M,M,M,M,M,M,LPAR 251000Z /////KT 9999 FEW015 21/16 Q1023
LPAR,2017-09-25 11:00,-9.0333,38.8833,71.60,59.00,M,M,M,0.00,30.21,M,6.21,M,FEW,M,M,M,1500.00,M,M,M,M,M,M,M,M,M,M,M,LPAR 251100Z /////KT 9999 FEW015 22/15 Q1023
LPAR,2017-09-25 12:00,-9.0333,38.8833,75.20,59.00,M,M,M,0.00,30.21,M,6.21,M,M,M,M,M,M,M,M,M,M,M,M,M,M,M,M,M,LPAR 251200Z /////KT CAVOK 24/15 Q1023
LPAR,2017-09-25 13:00,-9.0333,38.8833,78.80,57.20,M,M,M,0.00,30.18,M,6.21,M,M,M,M,M,M,M,M,M,M,M,M,M,M,M,M,M,LPAR 251300Z /////KT CAVOK 26/14 Q1022
LPAR,2017-09-25 14:00,-9.0333,38.8833,80.60,51.80,M,M,M,0.00,30.15,M,6.21,M,M,M,M,M,M,M,M,M,M,M,M,M,M,M,M,M,LPAR 251400Z /////KT CAVOK 27/11 Q1021
LPAR,2017-09-25 15:00,-9.0333,38.8833,80.60,51.80,M,M,M,0.00,30.15,M,6.21,M,M,M,M,M,M,M,M,M,M,M,M,M,M,M,M,M,LPAR 251500Z /////KT CAVOK 27/11 Q1021
LPAR,2017-09-25 16:00,-9.0333,38.8833,78.80,50.00,M,M,M,0.00,30.15,M,6.21,M,M,M,M,M,M,M,M,M,M,M,M,M,M,M,M,M,LPAR 251600Z /////KT CAVOK 26/10 Q1021
LPAR,2017-09-26 08:00,-9.0333,38.8833,64.40,51.80,M,M,M,0.00,30.12,M,6.21,M,M,M,M,M,M,M,M,M,M,M,M,M,M,M,M,M,LPAR 260800Z /////KT CAVOK 18/11 Q1020
LPAR,2017-09-26 09:00,-9.0333,38.8833,69.80,48.20,M,M,M,0.00,30.12,M,6.21,M,M,M,M,M,M,M,M,M,M,M,M,M,M,M,M,M,LPAR 260900Z /////KT CAVOK 21/09 Q1020
LPAR,2017-09-26 10:00,-9.0333,38.8833,71.60,53.60,M,M,M,0.00,30.12,M,6.21,M,M,M,M,M,M,M,M,M,M,M,M,M,M,M,M,M,LPAR 261000Z /////KT CAVOK 22/12 Q1020
LPAR,2017-09-26 11:00,-9.0333,38.8833,77.00,50.00,M,M,M,0.00,30.12,M,6.21,M,M,M,M,M,M,M,M,M,M,M,M,M,M,M,M,M,LPAR 261100Z /////KT CAVOK 25/10 Q1020
LPAR,2017-09-26 12:00,-9.0333,38.8833,78.80,46.40,M,M,M,0.00,30.12,M,6.21,M,M,M,M,M,M,M,M,M,M,M,M,M,M,M,M,M,LPAR 261200Z /////KT CAVOK 26/08 Q1020
LPAR,2017-09-26 13:00,-9.0333,38.8833,80.60,42.80,M,M,M,0.00,30.09,M,6.21,M,M,M,M,M,M,M,M,M,M,M,M,M,M,M,M,M,LPAR 261300Z /////KT CAVOK 27/06 Q1019
LPAR,2017-09-26 14:00,-9.0333,38.8833,84.20,39.20,M,M,M,0.00,30.06,M,6.21,M,M,M,M,M,M,M,M,M,M,M,M,M,M,M,M,M,LPAR 261400Z /////KT CAVOK 29/04 Q1018
LPAR,2017-09-26 15:00,-9.0333,38.8833,82.40,41.00,M,M,M,0.00,30.06,M,6.21,M,M,M,M,M,M,M,M,M,M,M,M,M,M,M,M,M,LPAR 261500Z /////KT CAVOK 28/05 Q1018
LPAR,2017-09-26 16:00,-9.0333,38.8833,80.60,44.60,M,M,M,0.00,30.06,M,6.21,M,M,M,M,M,M,M,M,M,M,M,M,M,M,M,M,M,LPAR 261600Z /////KT CAVOK 27/07 Q1018
LPAR,2017-09-27 08:00,-9.0333,38.8833,60.80,53.60,M,M,M,0.00,30.06,M,6.21,M,M,M,M,M,M,M,M,M,M,M,M,M,M,M,M,M,LPAR 270800Z /////KT CAVOK 16/12 Q1018
LPAR,2017-09-27 09:00,-9.0333,38.8833,62.60,53.60,M,M,M,0.00,30.09,M,6.21,M,M,M,M,M,M,M,M,M,M,M,M,M,M,M,M,M,LPAR 270900Z /////KT CAVOK 17/12 Q1019
LPAR,2017-09-27 10:00,-9.0333,38.8833,66.20,55.40,M,M,M,0.00,30.09,M,6.21,M,M,M,M,M,M,M,M,M,M,M,M,M,M,M,M,M,LPAR 271000Z /////KT CAVOK 19/13 Q1019
LPAR,2017-09-27 11:00,-9.0333,38.8833,73.40,57.20,M,M,M,0.00,30.09,M,6.21,M,FEW,M,M,M,2500.00,M,M,M,M,M,M,M,M,M,M,M,LPAR 271100Z /////KT 9999 FEW025 23/14 Q1019
LPAR,2017-09-27 12:00,-9.0333,38.8833,77.00,57.20,M,M,M,0.00,30.09,M,6.21,M,FEW,M,M,M,2500.00,M,M,M,M,M,M,M,M,M,M,M,LPAR 271200Z /////KT 9999 FEW025 25/14 Q1019
LPAR,2017-09-27 13:00,-9.0333,38.8833,80.60,57.20,M,M,M,0.00,30.09,M,6.21,M,FEW,M,M,M,2500.00,M,M,M,M,M,M,M,M,M,M,M,LPAR 271300Z /////KT 9999 FEW025 27/14 Q1019
LPAR,2017-09-27 14:00,-9.0333,38.8833,80.60,59.00,M,M,M,0.00,30.06,M,6.21,M,FEW,M,M,M,2500.00,M,M,M,M,M,M,M,M,M,M,M,LPAR 271400Z /////KT 9999 FEW025 27/15 Q1018
LPAR,2017-09-27 15:00,-9.0333,38.8833,78.80,60.80,M,M,M,0.00,30.06,M,6.21,M,FEW,M,M,M,2500.00,M,M,M,M,M,M,M,M,M,M,M,LPAR 271500Z /////KT 9999 FEW025 26/16 Q1018
LPAR,2017-09-27 16:00,-9.0333,38.8833,78.80,62.60,M,M,M,0.00,30.03,M,6.21,M,FEW,M,M,M,2500.00,M,M,M,M,M,M,M,M,M,M,M,LPAR 271600Z /////KT 9999 FEW025 26/17 Q1017
LPAR,2017-09-27 17:00,-9.0333,38.8833,80.60,62.60,M,M,M,0.00,30.06,M,6.21,M,FEW,M,M,M,2500.00,M,M,M,M,M,M,M,M,M,M,M,LPAR 271700Z /////KT 9999 FEW025 27/17 Q1018
LPAR,2017-09-28 08:00,-9.0333,38.8833,60.80,60.80,M,M,M,0.00,30.15,M,3.73,M,FEW,M,M,M,400.00,M,M,M,M,M,M,M,M,M,M,M,LPAR 280800Z /////KT 6000 FEW004 16/16 Q1021
LPAR,2017-09-28 09:00,-9.0333,38.8833,64.40,60.80,M,M,M,0.00,30.18,M,6.21,M,M,M,M,M,M,M,M,M,M,M,M,M,M,M,M,M,LPAR 280900Z /////KT CAVOK 18/16 Q1022
LPAR,2017-09-28 10:00,-9.0333,38.8833,69.80,62.60,M,M,M,0.00,30.18,M,6.21,M,M,M,M,M,M,M,M,M,M,M,M,M,M,M,M,M,LPAR 281000Z /////KT CAVOK 21/17 Q1022
LPAR,2017-09-28 11:00,-9.0333,38.8833,77.00,62.60,M,M,M,0.00,30.18,M,6.21,M,M,M,M,M,M,M,M,M,M,M,M,M,M,M,M,M,LPAR 281100Z /////KT CAVOK 25/17 Q1022
LPAR,2017-09-28 12:00,-9.0333,38.8833,78.80,62.60,M,M,M,0.00,30.15,M,6.21,M,M,M,M,M,M,M,M,M,M,M,M,M,M,M,M,M,LPAR 281200Z /////KT CAVOK 26/17 Q1021
LPAR,2017-09-28 13:00,-9.0333,38.8833,78.80,59.00,M,M,M,0.00,30.15,M,6.21,M,FEW,M,M,M,2500.00,M,M,M,M,M,M,M,M,M,M,M,LPAR 281300Z /////KT 9999 FEW025 26/15 Q1021
LPAR,2017-09-28 14:00,-9.0333,38.8833,82.40,59.00,M,M,M,0.00,30.12,M,6.21,M,FEW,M,M,M,2500.00,M,M,M,M,M,M,M,M,M,M,M,LPAR 281400Z /////KT 9999 FEW025 28/15 Q1020
LPAR,2017-09-28 15:00,-9.0333,38.8833,84.20,57.20,M,M,M,0.00,30.12,M,6.21,M,FEW,M,M,M,2500.00,M,M,M,M,M,M,M,M,M,M,M,LPAR 281500Z /////KT 9999 FEW025 29/14 Q1020
LPAR,2017-09-28 16:00,-9.0333,38.8833,84.20,59.00,M,M,M,0.00,30.12,M,6.21,M,FEW,M,M,M,2500.00,M,M,M,M,M,M,M,M,M,M,M,LPAR 281600Z /////KT 9999 FEW025 29/15 Q1020
LPAR,2017-09-29 08:00,-9.0333,38.8833,64.40,55.40,M,M,M,0.00,30.18,M,6.21,M,FEW,M,M,M,500.00,M,M,M,M,M,M,M,M,M,M,M,LPAR 290800Z /////KT 9999 FEW005 18/13 Q1022
LPAR,2017-09-29 09:00,-9.0333,38.8833,68.00,57.20,M,M,M,0.00,30.18,M,6.21,M,M,M,M,M,M,M,M,M,M,M,M,M,M,M,M,M,LPAR 290900Z /////KT CAVOK 20/14 Q1022
LPAR,2017-09-29 10:00,-9.0333,38.8833,73.40,55.40,M,M,M,0.00,30.18,M,6.21,M,M,M,M,M,M,M,M,M,M,M,M,M,M,M,M,M,LPAR 291000Z /////KT CAVOK 23/13 Q1022
LPAR,2017-09-29 11:00,-9.0333,38.8833,77.00,55.40,M,M,M,0.00,30.18,M,6.21,M,M,M,M,M,M,M,M,M,M,M,M,M,M,M,M,M,LPAR 291100Z /////KT CAVOK 25/13 Q1022
LPAR,2017-09-29 12:00,-9.0333,38.8833,78.80,55.40,M,M,M,0.00,30.15,M,6.21,M,M,M,M,M,M,M,M,M,M,M,M,M,M,M,M,M,LPAR 291200Z /////KT CAVOK 26/13 Q1021
LPAR,2017-09-29 13:00,-9.0333,38.8833,80.60,53.60,M,M,M,0.00,30.15,M,6.21,M,M,M,M,M,M,M,M,M,M,M,M,M,M,M,M,M,LPAR 291300Z /////KT CAVOK 27/12 Q1021
LPAR,2017-09-29 14:00,-9.0333,38.8833,80.60,55.40,M,M,M,0.00,30.12,M,6.21,M,M,M,M,M,M,M,M,M,M,M,M,M,M,M,M,M,LPAR 291400Z /////KT CAVOK 27/13 Q1020
LPAR,2017-09-29 15:00,-9.0333,38.8833,86.00,55.40,M,M,M,0.00,30.12,M,6.21,M,M,M,M,M,M,M,M,M,M,M,M,M,M,M,M,M,LPAR 291500Z /////KT CAVOK 30/13 Q1020
LPAR,2017-09-29 16:00,-9.0333,38.8833,86.00,55.40,M,M,M,0.00,30.09,M,6.21,M,M,M,M,M,M,M,M,M,M,M,M,M,M,M,M,M,LPAR 291600Z /////KT CAVOK 30/13 Q1019
LPAR,2017-10-01 09:00,-9.0333,38.8833,71.60,57.20,M,M,M,0.00,30.15,M,6.21,M,M,M,M,M,M,M,M,M,M,M,M,M,M,M,M,M,LPAR 010900Z /////KT CAVOK 22/14 Q1021
LPAR,2017-10-01 10:00,-9.0333,38.8833,77.00,57.20,M,M,M,0.00,30.15,M,6.21,M,M,M,M,M,M,M,M,M,M,M,M,M,M,M,M,M,LPAR 011000Z /////KT CAVOK 25/14 Q1021
LPAR,2017-10-01 11:00,-9.0333,38.8833,80.60,59.00,M,M,M,0.00,30.15,M,6.21,M,M,M,M,M,M,M,M,M,M,M,M,M,M,M,M,M,LPAR 011100Z /////KT CAVOK 27/15 Q1021
LPAR,2017-10-01 12:00,-9.0333,38.8833,84.20,59.00,M,M,M,0.00,30.12,M,6.21,M,M,M,M,M,M,M,M,M,M,M,M,M,M,M,M,M,LPAR 011200Z /////KT CAVOK 29/15 Q1020
LPAR,2017-10-02 08:00,-9.0333,38.8833,73.40,59.00,M,M,M,0.00,30.15,M,6.21,M,M,M,M,M,M,M,M,M,M,M,M,M,M,M,M,M,LPAR 020800Z /////KT CAVOK 23/15 Q1021
LPAR,2017-10-02 09:00,-9.0333,38.8833,78.80,55.40,M,M,M,0.00,30.18,M,6.21,M,M,M,M,M,M,M,M,M,M,M,M,M,M,M,M,M,LPAR 020900Z /////KT CAVOK 26/13 Q1022
LPAR,2017-10-02 11:00,-9.0333,38.8833,84.20,57.20,M,M,M,0.00,30.18,M,6.21,M,M,M,M,M,M,M,M,M,M,M,M,M,M,M,M,M,LPAR 021100Z /////KT CAVOK 29/14 Q1022
LPAR,2017-10-02 12:00,-9.0333,38.8833,87.80,59.00,M,M,M,0.00,30.15,M,6.21,M,M,M,M,M,M,M,M,M,M,M,M,M,M,M,M,M,LPAR 021200Z /////KT CAVOK 31/15 Q1021
LPAR,2017-10-02 13:00,-9.0333,38.8833,91.40,57.20,M,M,M,0.00,30.15,M,6.21,M,M,M,M,M,M,M,M,M,M,M,M,M,M,M,M,M,LPAR 021300Z /////KT CAVOK 33/14 Q1021
LPAR,2017-10-02 14:00,-9.0333,38.8833,93.20,57.20,M,M,M,0.00,30.09,M,6.21,M,M,M,M,M,M,M,M,M,M,M,M,M,M,M,M,M,LPAR 021400Z /////KT CAVOK 34/14 Q1019
LPAR,2017-10-02 15:00,-9.0333,38.8833,93.20,55.40,M,M,M,0.00,30.09,M,6.21,M,M,M,M,M,M,M,M,M,M,M,M,M,M,M,M,M,LPAR 021500Z /////KT CAVOK 34/13 Q1019
LPAR,2017-10-02 16:00,-9.0333,38.8833,95.00,55.40,M,M,M,0.00,30.09,M,6.21,M,M,M,M,M,M,M,M,M,M,M,M,M,M,M,M,M,LPAR 021600Z /////KT CAVOK 35/13 Q1019
LPAR,2017-10-03 08:00,-9.0333,38.8833,66.20,60.80,M,M,M,0.00,30.12,M,6.21,M,FEW,M,M,M,1500.00,M,M,M,M,M,M,M,M,M,M,M,LPAR 030800Z /////KT 9999 FEW015 19/16 Q1020
LPAR,2017-10-03 09:00,-9.0333,38.8833,69.80,62.60,M,M,M,0.00,30.12,M,6.21,M,M,M,M,M,M,M,M,M,M,M,M,M,M,M,M,M,LPAR 030900Z /////KT CAVOK 21/17 Q1020
LPAR,2017-10-03 10:00,-9.0333,38.8833,75.20,62.60,M,M,M,0.00,30.15,M,6.21,M,M,M,M,M,M,M,M,M,M,M,M,M,M,M,M,M,LPAR 031000Z /////KT CAVOK 24/17 Q1021
LPAR,2017-10-03 11:00,-9.0333,38.8833,78.80,62.60,M,M,M,0.00,30.12,M,6.21,M,M,M,M,M,M,M,M,M,M,M,M,M,M,M,M,M,LPAR 031100Z /////KT CAVOK 26/17 Q1020
LPAR,2017-10-03 12:00,-9.0333,38.8833,84.20,66.20,M,M,M,0.00,30.12,M,6.21,M,M,M,M,M,M,M,M,M,M,M,M,M,M,M,M,M,LPAR 031200Z /////KT CAVOK 29/19 Q1020
LPAR,2017-10-03 13:00,-9.0333,38.8833,87.80,66.20,M,M,M,0.00,30.09,M,6.21,M,M,M,M,M,M,M,M,M,M,M,M,M,M,M,M,M,LPAR 031300Z /////KT CAVOK 31/19 Q1019
LPAR,2017-10-03 14:00,-9.0333,38.8833,87.80,66.20,M,M,M,0.00,30.06,M,6.21,M,M,M,M,M,M,M,M,M,M,M,M,M,M,M,M,M,LPAR 031400Z /////KT CAVOK 31/19 Q1018
LPAR,2017-10-03 15:00,-9.0333,38.8833,87.80,64.40,M,M,M,0.00,30.03,M,6.21,M,M,M,M,M,M,M,M,M,M,M,M,M,M,M,M,M,LPAR 031500Z /////KT CAVOK 31/18 Q1017
LPAR,2017-10-03 16:00,-9.0333,38.8833,89.60,60.80,M,M,M,0.00,30.06,M,6.21,M,M,M,M,M,M,M,M,M,M,M,M,M,M,M,M,M,LPAR 031600Z /////KT CAVOK 32/16 Q1018
LPAR,2017-10-04 08:00,-9.0333,38.8833,64.40,59.00,M,M,M,0.00,30.12,M,6.21,M,FEW,M,M,M,1200.00,M,M,M,M,M,M,M,M,M,M,M,LPAR 040800Z /////KT 9999 FEW012 18/15 Q1020
LPAR,2017-10-04 09:00,-9.0333,38.8833,64.40,60.80,M,M,M,0.00,30.15,M,6.21,M,FEW,M,M,M,1400.00,M,M,M,M,M,M,M,M,M,M,M,LPAR 040900Z /////KT 9999 FEW014 18/16 Q1021
LPAR,2017-10-04 10:00,-9.0333,38.8833,68.00,60.80,M,M,M,0.00,30.15,M,6.21,M,M,M,M,M,M,M,M,M,M,M,M,M,M,M,M,M,LPAR 041000Z /////KT CAVOK 20/16 Q1021
LPAR,2017-10-04 11:00,-9.0333,38.8833,71.60,60.80,M,M,M,0.00,30.15,M,6.21,M,M,M,M,M,M,M,M,M,M,M,M,M,M,M,M,M,LPAR 041100Z /////KT CAVOK 22/16 Q1021
LPAR,2017-10-04 12:00,-9.0333,38.8833,75.20,62.60,M,M,M,0.00,30.15,M,6.21,M,M,M,M,M,M,M,M,M,M,M,M,M,M,M,M,M,LPAR 041200Z /////KT CAVOK 24/17 Q1021
LPAR,2017-10-04 13:00,-9.0333,38.8833,77.00,62.60,M,M,M,0.00,30.12,M,6.21,M,M,M,M,M,M,M,M,M,M,M,M,M,M,M,M,M,LPAR 041300Z /////KT CAVOK 25/17 Q1020
LPAR,2017-10-04 14:00,-9.0333,38.8833,78.80,60.80,M,M,M,0.00,30.12,M,6.21,M,M,M,M,M,M,M,M,M,M,M,M,M,M,M,M,M,LPAR 041400Z /////KT CAVOK 26/16 Q1020
LPAR,2017-10-04 15:00,-9.0333,38.8833,78.80,59.00,M,M,M,0.00,30.09,M,6.21,M,M,M,M,M,M,M,M,M,M,M,M,M,M,M,M,M,LPAR 041500Z /////KT CAVOK 26/15 Q1019
LPAR,2017-10-04 16:00,-9.0333,38.8833,78.80,60.80,M,M,M,0.00,30.09,M,6.21,M,M,M,M,M,M,M,M,M,M,M,M,M,M,M,M,M,LPAR 041600Z /////KT CAVOK 26/16 Q1019
LPAR,2017-10-05 07:00,-9.0333,38.8833,57.20,55.40,M,M,M,0.00,30.18,M,3.11,M,FEW,M,M,M,700.00,M,M,M,BR,M,M,M,M,M,M,M,LPAR 050700Z /////KT 5000 BR FEW007 14/13 Q1022
LPAR,2017-10-05 08:00,-9.0333,38.8833,57.20,57.20,M,M,M,0.00,30.18,M,3.11,M,FEW,M,M,M,700.00,M,M,M,BR,M,M,M,M,M,M,M,LPAR 050800Z /////KT 5000 BR FEW007 14/14 Q1022
LPAR,2017-10-05 09:00,-9.0333,38.8833,59.00,57.20,M,M,M,0.00,30.18,M,1.86,M,BKN,M,M,M,500.00,M,M,M,BR,M,M,M,M,M,M,M,LPAR 050900Z /////KT 3000 BR BKN005 15/14 Q1022
LPAR,2017-10-05 10:00,-9.0333,38.8833,62.60,57.20,M,M,M,0.00,30.21,M,2.49,M,FEW,M,M,M,700.00,M,M,M,BR,M,M,M,M,M,M,M,LPAR 051000Z /////KT 4000 BR FEW007 17/14 Q1023
LPAR,2017-10-05 15:00,-9.0333,38.8833,84.20,62.60,M,M,M,0.00,30.09,M,6.21,M,M,M,M,M,M,M,M,M,M,M,M,M,M,M,M,M,LPAR 051500Z /////KT CAVOK 29/17 Q1019
LPAR,2017-10-05 16:00,-9.0333,38.8833,86.00,57.20,M,M,M,0.00,30.09,M,6.21,M,M,M,M,M,M,M,M,M,M,M,M,M,M,M,M,M,LPAR 051600Z /////KT CAVOK 30/14 Q1019
LPAR,2017-10-05 17:00,-9.0333,38.8833,82.40,53.60,M,M,M,0.00,30.09,M,6.21,M,M,M,M,M,M,M,M,M,M,M,M,M,M,M,M,M,LPAR 051700Z /////KT CAVOK 28/12 Q1019
LPAR,2017-10-06 09:00,-9.0333,38.8833,64.40,55.40,M,M,M,0.00,30.09,M,6.21,M,M,M,M,M,M,M,M,M,M,M,M,M,M,M,M,M,LPAR 060900Z /////KT CAVOK 18/13 Q1019
LPAR,2017-10-06 10:00,-9.0333,38.8833,71.60,59.00,M,M,M,0.00,30.09,M,6.21,M,M,M,M,M,M,M,M,M,M,M,M,M,M,M,M,M,LPAR 061000Z /////KT CAVOK 22/15 Q1019
LPAR,2017-10-09 08:00,-9.0333,38.8833,55.40,55.40,M,M,M,0.00,30.09,M,0.12,M,BKN,M,M,M,400.00,M,M,M,FG,M,M,M,M,M,M,M,LPAR 090800Z /////KT 0200 FG BKN004 13/13 Q1019
LPAR,2017-10-09 11:00,-9.0333,38.8833,66.20,59.00,M,M,M,0.00,30.09,M,4.35,M,FEW,M,M,M,1000.00,M,M,M,M,M,M,M,M,M,M,M,LPAR 091100Z /////KT 7000 FEW010 19/15 Q1019
LPAR,2017-10-09 12:00,-9.0333,38.8833,73.40,59.00,M,M,M,0.00,30.09,M,6.21,M,M,M,M,M,M,M,M,M,M,M,M,M,M,M,M,M,LPAR 091200Z /////KT CAVOK 23/15 Q1019
LPAR,2017-10-09 13:00,-9.0333,38.8833,78.80,59.00,M,M,M,0.00,30.06,M,6.21,M,M,M,M,M,M,M,M,M,M,M,M,M,M,M,M,M,LPAR 091300Z /////KT CAVOK 26/15 Q1018
LPAR,2017-10-09 14:00,-9.0333,38.8833,80.60,51.80,M,M,M,0.00,30.06,M,6.21,M,M,M,M,M,M,M,M,M,M,M,M,M,M,M,M,M,LPAR 091400Z /////KT CAVOK 27/11 Q1018
LPAR,2017-10-09 15:00,-9.0333,38.8833,82.40,41.00,M,M,M,0.00,30.03,M,6.21,M,M,M,M,M,M,M,M,M,M,M,M,M,M,M,M,M,LPAR 091500Z /////KT CAVOK 28/05 Q1017
LPAR,2017-10-09 16:00,-9.0333,38.8833,82.40,46.40,M,M,M,0.00,30.03,M,6.21,M,M,M,M,M,M,M,M,M,M,M,M,M,M,M,M,M,LPAR 091600Z /////KT CAVOK 28/08 Q1017
LPAR,2017-10-10 08:00,-9.0333,38.8833,55.40,53.60,M,M,M,0.00,30.09,M,2.49,M,NSC,M,M,M,M,M,M,M,BR,M,M,M,M,M,M,M,LPAR 100800Z /////KT 4000 BR NSC 13/12 Q1019
LPAR,2017-10-10 09:00,-9.0333,38.8833,59.00,53.60,M,M,M,0.00,30.09,M,2.49,M,NSC,M,M,M,M,M,M,M,BR,M,M,M,M,M,M,M,LPAR 100900Z /////KT 4000 BR NSC 15/12 Q1019
LPAR,2017-10-10 10:00,-9.0333,38.8833,62.60,55.40,M,M,M,0.00,30.09,M,3.11,M,NSC,M,M,M,M,M,M,M,BR,M,M,M,M,M,M,M,LPAR 101000Z /////KT 5000 BR NSC 17/13 Q1019
LPAR,2017-10-10 11:00,-9.0333,38.8833,68.00,53.60,M,M,M,0.00,30.09,M,3.73,M,NSC,M,M,M,M,M,M,M,M,M,M,M,M,M,M,M,LPAR 101100Z /////KT 6000 NSC 20/12 Q1019
LPAR,2017-10-10 12:00,-9.0333,38.8833,71.60,51.80,M,M,M,0.00,30.09,M,4.35,M,NSC,M,M,M,M,M,M,M,M,M,M,M,M,M,M,M,LPAR 101200Z /////KT 7000 NSC 22/11 Q1019
LPAR,2017-10-10 13:00,-9.0333,38.8833,77.00,50.00,M,M,M,0.00,30.06,M,5.59,M,NSC,M,M,M,M,M,M,M,M,M,M,M,M,M,M,M,LPAR 101300Z /////KT 9000 NSC 25/10 Q1018
LPAR,2017-10-10 14:00,-9.0333,38.8833,82.40,46.40,M,M,M,0.00,30.03,M,6.21,M,M,M,M,M,M,M,M,M,M,M,M,M,M,M,M,M,LPAR 101400Z /////KT CAVOK 28/08 Q1017
LPAR,2017-10-10 15:00,-9.0333,38.8833,80.60,48.20,M,M,M,0.00,30.03,M,6.21,M,M,M,M,M,M,M,M,M,M,M,M,M,M,M,M,M,LPAR 101500Z /////KT CAVOK 27/09 Q1017
LPAR,2017-10-10 16:00,-9.0333,38.8833,80.60,50.00,M,M,M,0.00,30.03,M,6.21,M,M,M,M,M,M,M,M,M,M,M,M,M,M,M,M,M,LPAR 101600Z /////KT CAVOK 27/10 Q1017
LPAR,2017-10-11 08:00,-9.0333,38.8833,57.20,51.80,M,M,M,0.00,30.12,M,1.86,M,FEW,M,M,M,2000.00,M,M,M,BR,M,M,M,M,M,M,M,LPAR 110800Z /////KT 3000 BR FEW020 14/11 Q1020
LPAR,2017-10-11 09:00,-9.0333,38.8833,59.00,53.60,M,M,M,0.00,30.15,M,2.49,M,FEW,M,M,M,2000.00,M,M,M,BR,M,M,M,M,M,M,M,LPAR 110900Z /////KT 4000 BR FEW020 15/12 Q1021
LPAR,2017-10-11 10:00,-9.0333,38.8833,62.60,55.40,M,M,M,0.00,30.15,M,2.49,M,FEW,M,M,M,2000.00,M,M,M,BR,M,M,M,M,M,M,M,LPAR 111000Z /////KT 4000 BR FEW020 17/13 Q1021
LPAR,2017-10-11 11:00,-9.0333,38.8833,69.80,55.40,M,M,M,0.00,30.15,M,2.80,M,NSC,M,M,M,M,M,M,M,BR,M,M,M,M,M,M,M,LPAR 111100Z /////KT 4500 BR NSC 21/13 Q1021
LPAR,2017-10-11 12:00,-9.0333,38.8833,75.20,51.80,M,M,M,0.00,30.12,M,4.35,M,NSC,M,M,M,M,M,M,M,M,M,M,M,M,M,M,M,LPAR 111200Z /////KT 7000 NSC 24/11 Q1020
LPAR,2017-10-11 13:00,-9.0333,38.8833,78.80,53.60,M,M,M,0.00,30.12,M,4.35,M,NSC,M,M,M,M,M,M,M,M,M,M,M,M,M,M,M,LPAR 111300Z /////KT 7000 NSC 26/12 Q1020
LPAR,2017-10-11 14:00,-9.0333,38.8833,84.20,48.20,M,M,M,0.00,30.09,M,6.21,M,FEW,M,M,M,2500.00,M,M,M,M,M,M,M,M,M,M,M,LPAR 111400Z /////KT 9999 FEW025 29/09 Q1019
LPAR,2017-10-11 15:00,-9.0333,38.8833,86.00,44.60,M,M,M,0.00,30.06,M,6.21,M,FEW,M,M,M,2500.00,M,M,M,M,M,M,M,M,M,M,M,LPAR 111500Z /////KT 9999 FEW025 30/07 Q1018
LPAR,2017-10-11 16:00,-9.0333,38.8833,84.20,48.20,M,M,M,0.00,30.06,M,6.21,M,FEW,M,M,M,2500.00,M,M,M,M,M,M,M,M,M,M,M,LPAR 111600Z /////KT 9999 FEW025 29/09 Q1018
LPAR,2017-10-12 08:00,-9.0333,38.8833,64.40,50.00,M,M,M,0.00,30.15,M,6.21,M,FEW,M,M,M,1200.00,M,M,M,M,M,M,M,M,M,M,M,LPAR 120800Z /////KT 9999 FEW012 18/10 Q1021
LPAR,2017-10-12 09:00,-9.0333,38.8833,66.20,50.00,M,M,M,0.00,30.18,M,6.21,M,SCT,M,M,M,1400.00,M,M,M,M,M,M,M,M,M,M,M,LPAR 120900Z /////KT 9999 SCT014 19/10 Q1022
LPAR,2017-10-12 10:00,-9.0333,38.8833,71.60,50.00,M,M,M,0.00,30.18,M,6.21,M,FEW,M,M,M,1800.00,M,M,M,M,M,M,M,M,M,M,M,LPAR 121000Z /////KT 9999 FEW018 22/10 Q1022
LPAR,2017-10-12 11:00,-9.0333,38.8833,73.40,62.60,M,M,M,0.00,30.18,M,6.21,M,FEW,M,M,M,1800.00,M,M,M,M,M,M,M,M,M,M,M,LPAR 121100Z /////KT 9999 FEW018 23/17 Q1022
LPAR,2017-10-12 12:00,-9.0333,38.8833,75.20,62.60,M,M,M,0.00,30.18,M,6.21,M,FEW,M,M,M,2000.00,M,M,M,M,M,M,M,M,M,M,M,LPAR 121200Z /////KT 9999 FEW020 24/17 Q1022
LPAR,2017-10-12 13:00,-9.0333,38.8833,77.00,60.80,M,M,M,0.00,30.18,M,6.21,M,FEW,M,M,M,2500.00,M,M,M,M,M,M,M,M,M,M,M,LPAR 121300Z /////KT 9999 FEW025 25/16 Q1022
LPAR,2017-10-12 14:00,-9.0333,38.8833,78.80,62.60,M,M,M,0.00,30.15,M,6.21,M,FEW,M,M,M,2500.00,M,M,M,M,M,M,M,M,M,M,M,LPAR 121400Z /////KT 9999 FEW025 26/17 Q1021
LPAR,2017-10-12 15:00,-9.0333,38.8833,78.80,62.60,M,M,M,0.00,30.15,M,6.21,M,FEW,M,M,M,2500.00,M,M,M,M,M,M,M,M,M,M,M,LPAR 121500Z /////KT 9999 FEW025 26/17 Q1021
LPAR,2017-10-12 16:00,-9.0333,38.8833,77.00,62.60,M,M,M,0.00,30.15,M,6.21,M,FEW,M,M,M,2500.00,M,M,M,M,M,M,M,M,M,M,M,LPAR 121600Z /////KT 9999 FEW025 25/17 Q1021
LPAR,2017-10-13 08:00,-9.0333,38.8833,60.80,59.00,M,M,M,0.00,30.24,M,1.12,M,OVC,M,M,M,500.00,M,M,M,BR,M,M,M,M,M,M,M,LPAR 130800Z /////KT 1800 BR OVC005 16/15 Q1024
LPAR,2017-10-13 09:00,-9.0333,38.8833,60.80,60.80,M,M,M,0.00,30.24,M,1.24,M,OVC,M,M,M,500.00,M,M,M,BR,M,M,M,M,M,M,M,LPAR 130900Z /////KT 2000 BR OVC005 16/16 Q1024
LPAR,2017-10-13 10:00,-9.0333,38.8833,62.60,60.80,M,M,M,0.00,30.27,M,2.17,M,OVC,M,M,M,700.00,M,M,M,BR,M,M,M,M,M,M,M,LPAR 131000Z /////KT 3500 BR OVC007 17/16 Q1025
LPAR,2017-10-13 11:00,-9.0333,38.8833,64.40,60.80,M,M,M,0.00,30.27,M,2.49,M,BKN,M,M,M,900.00,M,M,M,BR,M,M,M,M,M,M,M,LPAR 131100Z /////KT 4000 BR BKN009 18/16 Q1025
LPAR,2017-10-13 12:00,-9.0333,38.8833,68.00,62.60,M,M,M,0.00,30.27,M,3.11,M,SCT,M,M,M,900.00,M,M,M,BR,M,M,M,M,M,M,M,LPAR 131200Z /////KT 5000 BR SCT009 20/17 Q1025
LPAR,2017-10-13 13:00,-9.0333,38.8833,73.40,62.60,M,M,M,0.00,30.24,M,4.35,M,FEW,M,M,M,900.00,M,M,M,M,M,M,M,M,M,M,M,LPAR 131300Z /////KT 7000 FEW009 23/17 Q1024
LPAR,2017-10-13 14:00,-9.0333,38.8833,73.40,62.60,M,M,M,0.00,30.21,M,4.97,M,NSC,M,M,M,M,M,M,M,M,M,M,M,M,M,M,M,LPAR 131400Z /////KT 8000 NSC 23/17 Q1023
LPAR,2017-10-13 15:00,-9.0333,38.8833,77.00,64.40,M,M,M,0.00,30.18,M,5.59,M,NSC,M,M,M,M,M,M,M,M,M,M,M,M,M,M,M,LPAR 131500Z /////KT 9000 NSC 25/18 Q1022
LPAR,2017-10-13 16:00,-9.0333,38.8833,77.00,62.60,M,M,M,0.00,30.18,M,6.21,M,M,M,M,M,M,M,M,M,M,M,M,M,M,M,M,M,LPAR 131600Z /////KT CAVOK 25/17 Q1022
LPAR,2017-10-16 08:00,-9.0333,38.8833,68.00,64.40,M,M,M,0.00,30.12,M,3.73,M,OVC,M,M,M,1400.00,M,M,M,M,M,M,M,M,M,M,M,LPAR 160800Z /////KT 6000 OVC014 20/18 Q1020
LPAR,2017-10-16 09:00,-9.0333,38.8833,69.80,62.60,M,M,M,0.00,30.12,M,4.35,M,OVC,M,M,M,1400.00,M,M,M,M,M,M,M,M,M,M,M,LPAR 160900Z /////KT 7000 OVC014 21/17 Q1020
LPAR,2017-10-16 10:00,-9.0333,38.8833,71.60,62.60,M,M,M,0.00,30.15,M,6.21,M,BKN,M,M,M,1400.00,M,M,M,M,M,M,M,M,M,M,M,LPAR 161000Z /////KT 9999 BKN014 22/17 Q1021
LPAR,2017-10-16 11:00,-9.0333,38.8833,73.40,64.40,M,M,M,0.00,30.12,M,4.35,M,FEW,SCT,M,M,1200.00,1600.00,M,M,M,M,M,M,M,M,M,M,LPAR 161100Z /////KT 7000 FEW012 SCT016 23/18 Q1020
LPAR,2017-10-16 12:00,-9.0333,38.8833,77.00,66.20,M,M,M,0.00,30.12,M,3.73,M,FEW,SCT,M,M,1200.00,1800.00,M,M,M,M,M,M,M,M,M,M,LPAR 161200Z /////KT 6000 FEW012 SCT018 25/19 Q1020
LPAR,2017-10-16 13:00,-9.0333,38.8833,77.00,66.20,M,M,M,0.00,30.12,M,3.73,M,FEW,SCT,M,M,1500.00,2000.00,M,M,M,M,M,M,M,M,M,M,LPAR 161300Z /////KT 6000 FEW015 SCT020 25/19 Q1020
LPAR,2017-10-16 14:00,-9.0333,38.8833,77.00,64.40,M,M,M,0.00,30.09,M,6.21,M,FEW,M,M,M,1500.00,M,M,M,M,M,M,M,M,M,M,M,LPAR 161400Z /////KT 9999 FEW015 25/18 Q1019
LPAR,2017-10-16 15:00,-9.0333,38.8833,78.80,66.20,M,M,M,0.00,30.09,M,4.97,M,FEW,M,M,M,1500.00,M,M,M,M,M,M,M,M,M,M,M,LPAR 161500Z /////KT 8000 FEW015 26/19 Q1019
LPAR,2017-10-16 16:00,-9.0333,38.8833,78.80,64.40,M,M,M,0.00,30.09,M,4.97,M,FEW,M,M,M,1500.00,M,M,M,M,M,M,M,M,M,M,M,LPAR 161600Z /////KT 8000 FEW015 26/18 Q1019
LPAR,2017-10-17 08:00,-9.0333,38.8833,60.80,57.20,M,M,M,0.00,30.09,M,6.21,M,M,M,M,M,M,M,M,M,M,M,M,M,M,M,M,M,LPAR 170800Z /////KT CAVOK 16/14 Q1019
LPAR,2017-10-17 09:00,-9.0333,38.8833,62.60,57.20,M,M,M,0.00,30.12,M,6.21,M,FEW,M,M,M,2000.00,M,M,M,M,M,M,M,M,M,M,M,LPAR 170900Z /////KT 9999 FEW020 17/14 Q1020
LPAR,2017-10-17 10:00,-9.0333,38.8833,64.40,55.40,M,M,M,0.00,30.12,M,6.21,M,FEW,M,M,M,2500.00,M,M,M,M,M,M,M,M,M,M,M,LPAR 171000Z /////KT 9999 FEW025 18/13 Q1020
LPAR,2017-10-17 11:00,-9.0333,38.8833,68.00,57.20,M,M,M,0.00,30.09,M,6.21,M,FEW,M,M,M,2500.00,M,M,M,M,M,M,M,M,M,M,M,LPAR 171100Z /////KT 9999 FEW025 20/14 Q1019
LPAR,2017-10-17 12:00,-9.0333,38.8833,69.80,51.80,M,M,M,0.00,30.09,M,6.21,M,FEW,M,M,M,2500.00,M,M,M,M,M,M,M,M,M,M,M,LPAR 171200Z /////KT 9999 FEW025 21/11 Q1019
LPAR,2017-10-17 13:00,-9.0333,38.8833,69.80,55.40,M,M,M,0.00,30.06,M,6.21,M,FEW,M,M,M,2500.00,M,M,M,M,M,M,M,M,M,M,M,LPAR 171300Z /////KT 9999 FEW025 21/13 Q1018
LPAR,2017-10-17 14:00,-9.0333,38.8833,71.60,55.40,M,M,M,0.00,30.06,M,6.21,M,FEW,M,M,M,2500.00,M,M,M,M,M,M,M,M,M,M,M,LPAR 171400Z /////KT 9999 FEW025 22/13 Q1018
LPAR,2017-10-17 15:00,-9.0333,38.8833,69.80,55.40,M,M,M,0.00,30.03,M,6.21,M,FEW,M,M,M,2500.00,M,M,M,M,M,M,M,M,M,M,M,LPAR 171500Z /////KT 9999 FEW025 21/13 Q1017
LPAR,2017-10-17 16:00,-9.0333,38.8833,69.80,57.20,M,M,M,0.00,30.03,M,6.21,M,FEW,M,M,M,2300.00,M,M,M,M,M,M,M,M,M,M,M,LPAR 171600Z /////KT 9999 FEW023 21/14 Q1017
LPAR,2017-10-18 08:00,-9.0333,38.8833,60.80,55.40,M,M,M,0.00,29.91,M,6.21,M,FEW,SCT,M,M,1800.00,3000.00,M,M,-SHRA,M,M,M,M,M,M,M,LPAR 180800Z /////KT 9999 -SHRA FEW018TCU SCT030 16/13 Q1013
LPAR,2017-10-18 09:00,-9.0333,38.8833,62.60,57.20,M,M,M,0.00,29.94,M,6.21,M,FEW,SCT,M,M,2000.00,3000.00,M,M,M,M,M,M,M,M,M,M,LPAR 180900Z /////KT 9999 FEW020 SCT030 17/14 Q1014
LPAR,2017-10-18 10:00,-9.0333,38.8833,64.40,59.00,M,M,M,0.00,29.94,M,6.21,M,SCT,M,M,M,2000.00,M,M,M,M,M,M,M,M,M,M,M,LPAR 181000Z /////KT 9999 SCT020 18/15 Q1014
LPAR,2017-10-18 11:00,-9.0333,38.8833,66.20,57.20,M,M,M,0.00,29.94,M,6.21,M,BKN,FEW,M,M,2500.00,3000.00,M,M,M,M,M,M,M,M,M,M,LPAR 181100Z /////KT 9999 BKN025 FEW030TCU 19/14 Q1014
LPAR,2017-10-18 12:00,-9.0333,38.8833,68.00,53.60,M,M,M,0.00,29.94,M,6.21,M,BKN,FEW,M,M,2500.00,3000.00,M,M,M,M,M,M,M,M,M,M,LPAR 181200Z /////KT 9999 BKN025 FEW030TCU 20/12 Q1014
LPAR,2017-10-18 13:00,-9.0333,38.8833,68.00,53.60,M,M,M,0.00,29.91,M,6.21,M,SCT,SCT,M,M,2500.00,3500.00,M,M,M,M,M,M,M,M,M,M,LPAR 181300Z /////KT 9999 SCT025 SCT035 20/12 Q1013
LPAR,2017-10-18 14:00,-9.0333,38.8833,66.20,53.60,M,M,M,0.00,29.91,M,6.21,M,SCT,SCT,M,M,2500.00,3500.00,M,M,-SHRA,M,M,M,M,M,M,M,LPAR 181400Z /////KT 9999 -SHRA SCT025 SCT035 19/12 Q1013
LPAR,2017-10-18 15:00,-9.0333,38.8833,66.20,55.40,M,M,M,0.00,29.91,M,6.21,M,SCT,SCT,M,M,2500.00,3500.00,M,M,M,M,M,M,M,M,M,M,LPAR 181500Z /////KT 9999 SCT025 SCT035 19/13 Q1013
LPAR,2017-10-19 08:00,-9.0333,38.8833,60.80,59.00,M,M,M,0.00,29.94,M,6.21,M,FEW,SCT,M,M,700.00,3000.00,M,M,M,M,M,M,M,M,M,M,LPAR 190800Z /////KT 9999 FEW007 SCT030 16/15 Q1014
LPAR,2017-10-19 09:00,-9.0333,38.8833,62.60,60.80,M,M,M,0.00,29.97,M,6.21,M,SCT,M,M,M,3000.00,M,M,M,M,M,M,M,M,M,M,M,LPAR 190900Z /////KT 9999 SCT030 17/16 Q1015
LPAR,2017-10-19 10:00,-9.0333,38.8833,64.40,62.60,M,M,M,0.00,29.97,M,6.21,M,FEW,SCT,M,M,700.00,2500.00,M,M,M,M,M,M,M,M,M,M,LPAR 191000Z /////KT 9999 FEW007 SCT025 18/17 Q1015
LPAR,2017-10-19 11:00,-9.0333,38.8833,66.20,62.60,M,M,M,0.00,30.00,M,6.21,M,FEW,SCT,M,M,900.00,2500.00,M,M,M,M,M,M,M,M,M,M,LPAR 191100Z /////KT 9999 FEW009 SCT025 19/17 Q1016
LPAR,2017-10-19 12:00,-9.0333,38.8833,66.20,64.40,M,M,M,0.00,30.00,M,6.21,M,SCT,M,M,M,2500.00,M,M,M,M,M,M,M,M,M,M,M,LPAR 191200Z /////KT 9999 SCT025 19/18 Q1016
LPAR,2017-10-19 13:00,-9.0333,38.8833,69.80,60.80,M,M,M,0.00,29.97,M,6.21,M,SCT,M,M,M,2500.00,M,M,M,M,M,M,M,M,M,M,M,LPAR 191300Z /////KT 9999 SCT025 21/16 Q1015
LPAR,2017-10-19 14:00,-9.0333,38.8833,71.60,59.00,M,M,M,0.00,29.97,M,6.21,M,SCT,M,M,M,2500.00,M,M,M,M,M,M,M,M,M,M,M,LPAR 191400Z /////KT 9999 SCT025 22/15 Q1015
LPAR,2017-10-19 15:00,-9.0333,38.8833,71.60,59.00,M,M,M,0.00,29.97,M,6.21,M,SCT,M,M,M,2800.00,M,M,M,M,M,M,M,M,M,M,M,LPAR 191500Z /////KT 9999 SCT028 22/15 Q1015
LPAR,2017-10-19 16:00,-9.0333,38.8833,71.60,59.00,M,M,M,0.00,29.97,M,6.21,M,FEW,M,M,M,3000.00,M,M,M,M,M,M,M,M,M,M,M,LPAR 191600Z /////KT 9999 FEW030 22/15 Q1015
LPAR,2017-10-20 09:00,-9.0333,38.8833,69.80,68.00,M,M,M,0.00,30.12,M,6.21,M,FEW,SCT,BKN,M,700.00,1200.00,2000.00,M,M,M,M,M,M,M,M,M,LPAR 200900Z /////KT 9999 FEW007 SCT012 BKN020 21/20 Q1020
LPAR,2017-10-20 10:00,-9.0333,38.8833,69.80,68.00,M,M,M,0.00,M,M,6.21,M,FEW,SCT,BKN,M,600.00,1200.00,2000.00,M,-DZ,M,M,M,M,M,M,M,LPAR 201000Z /////KT 9999 -DZ FEW006 SCT012 BKN020 21/20
LPAR,2017-10-20 11:00,-9.0333,38.8833,71.60,66.20,M,M,M,0.00,30.15,M,6.21,M,SCT,BKN,M,M,1400.00,2300.00,M,M,M,M,M,M,M,M,M,M,LPAR 201100Z /////KT 9999 SCT014 BKN023 22/19 Q1021
LPAR,2017-10-20 12:00,-9.0333,38.8833,73.40,64.40,M,M,M,0.00,30.15,M,6.21,M,SCT,BKN,M,M,1400.00,2300.00,M,M,M,M,M,M,M,M,M,M,LPAR 201200Z /////KT 9999 SCT014 BKN023 23/18 Q1021
LPAR,2017-10-20 13:00,-9.0333,38.8833,73.40,64.40,M,M,M,0.00,30.12,M,6.21,M,SCT,BKN,M,M,1500.00,2500.00,M,M,M,M,M,M,M,M,M,M,LPAR 201300Z /////KT 9999 SCT015 BKN025 23/18 Q1020
LPAR,2017-10-20 14:00,-9.0333,38.8833,73.40,66.20,M,M,M,0.00,30.12,M,6.21,M,SCT,BKN,M,M,1500.00,2500.00,M,M,M,M,M,M,M,M,M,M,LPAR 201400Z /////KT 9999 SCT015 BKN025 23/19 Q1020
LPAR,2017-10-20 15:00,-9.0333,38.8833,73.40,66.20,M,M,M,0.00,30.12,M,6.21,M,SCT,BKN,M,M,1500.00,2500.00,M,M,M,M,M,M,M,M,M,M,LPAR 201500Z /////KT 9999 SCT015 BKN025 23/19 Q1020
LPAR,2017-10-20 16:00,-9.0333,38.8833,71.60,66.20,M,M,M,0.00,30.12,M,6.21,M,SCT,BKN,M,M,1500.00,2500.00,M,M,M,M,M,M,M,M,M,M,LPAR 201600Z /////KT 9999 SCT015 BKN025 22/19 Q1020
LPAR,2017-10-23 08:00,-9.0333,38.8833,57.20,51.80,M,M,M,0.00,30.24,M,6.21,M,M,M,M,M,M,M,M,M,M,M,M,M,M,M,M,M,LPAR 230800Z /////KT CAVOK 14/11 Q1024
LPAR,2017-10-23 09:00,-9.0333,38.8833,64.40,46.40,M,M,M,0.00,30.24,M,6.21,M,M,M,M,M,M,M,M,M,M,M,M,M,M,M,M,M,LPAR 230900Z /////KT CAVOK 18/08 Q1024
LPAR,2017-10-23 10:00,-9.0333,38.8833,66.20,46.40,M,M,M,0.00,30.24,M,6.21,M,M,M,M,M,M,M,M,M,M,M,M,M,M,M,M,M,LPAR 231000Z /////KT CAVOK 19/08 Q1024
LPAR,2017-10-23 11:00,-9.0333,38.8833,68.00,46.40,M,M,M,0.00,30.24,M,6.21,M,M,M,M,M,M,M,M,M,M,M,M,M,M,M,M,M,LPAR 231100Z /////KT CAVOK 20/08 Q1024
LPAR,2017-10-23 12:00,-9.0333,38.8833,69.80,50.00,M,M,M,0.00,30.24,M,6.21,M,M,M,M,M,M,M,M,M,M,M,M,M,M,M,M,M,LPAR 231200Z /////KT CAVOK 21/10 Q1024
LPAR,2017-10-23 13:00,-9.0333,38.8833,73.40,50.00,M,M,M,0.00,30.21,M,6.21,M,M,M,M,M,M,M,M,M,M,M,M,M,M,M,M,M,LPAR 231300Z /////KT CAVOK 23/10 Q1023
LPAR,2017-10-23 14:00,-9.0333,38.8833,77.00,51.80,M,M,M,0.00,30.18,M,6.21,M,M,M,M,M,M,M,M,M,M,M,M,M,M,M,M,M,LPAR 231400Z /////KT CAVOK 25/11 Q1022
LPAR,2017-10-23 15:00,-9.0333,38.8833,77.00,51.80,M,M,M,0.00,30.15,M,6.21,M,M,M,M,M,M,M,M,M,M,M,M,M,M,M,M,M,LPAR 231500Z /////KT CAVOK 25/11 Q1021
LPAR,2017-10-23 16:00,-9.0333,38.8833,77.00,51.80,M,M,M,0.00,30.15,M,6.21,M,M,M,M,M,M,M,M,M,M,M,M,M,M,M,M,M,LPAR 231600Z /////KT CAVOK 25/11 Q1021
LPAR,2017-10-24 08:00,-9.0333,38.8833,64.40,46.40,M,M,M,0.00,30.18,M,6.21,M,M,M,M,M,M,M,M,M,M,M,M,M,M,M,M,M,LPAR 240800Z /////KT CAVOK 18/08 Q1022
LPAR,2017-10-24 09:00,-9.0333,38.8833,64.40,46.40,M,M,M,0.00,30.18,M,6.21,M,M,M,M,M,M,M,M,M,M,M,M,M,M,M,M,M,LPAR 240900Z /////KT CAVOK 18/08 Q1022
LPAR,2017-10-24 10:00,-9.0333,38.8833,68.00,48.20,M,M,M,0.00,30.18,M,6.21,M,M,M,M,M,M,M,M,M,M,M,M,M,M,M,M,M,LPAR 241000Z /////KT CAVOK 20/09 Q1022
LPAR,2017-10-24 11:00,-9.0333,38.8833,69.80,50.00,M,M,M,0.00,30.18,M,6.21,M,M,M,M,M,M,M,M,M,M,M,M,M,M,M,M,M,LPAR 241100Z /////KT CAVOK 21/10 Q1022
LPAR,2017-10-24 12:00,-9.0333,38.8833,73.40,51.80,M,M,M,0.00,30.15,M,6.21,M,M,M,M,M,M,M,M,M,M,M,M,M,M,M,M,M,LPAR 241200Z /////KT CAVOK 23/11 Q1021
LPAR,2017-10-24 13:00,-9.0333,38.8833,75.20,55.40,M,M,M,0.00,30.15,M,6.21,M,M,M,M,M,M,M,M,M,M,M,M,M,M,M,M,M,LPAR 241300Z /////KT CAVOK 24/13 Q1021
LPAR,2017-10-24 14:00,-9.0333,38.8833,80.60,57.20,M,M,M,0.00,30.12,M,6.21,M,M,M,M,M,M,M,M,M,M,M,M,M,M,M,M,M,LPAR 241400Z /////KT CAVOK 27/14 Q1020
LPAR,2017-10-24 15:00,-9.0333,38.8833,82.40,57.20,M,M,M,0.00,30.12,M,6.21,M,M,M,M,M,M,M,M,M,M,M,M,M,M,M,M,M,LPAR 241500Z /////KT CAVOK 28/14 Q1020
LPAR,2017-10-24 16:00,-9.0333,38.8833,80.60,57.20,M,M,M,0.00,30.09,M,6.21,M,M,M,M,M,M,M,M,M,M,M,M,M,M,M,M,M,LPAR 241600Z /////KT CAVOK 27/14 Q1019
LPAR,2017-10-25 08:00,-9.0333,38.8833,57.20,53.60,M,M,M,0.00,30.15,M,6.21,M,M,M,M,M,M,M,M,M,M,M,M,M,M,M,M,M,LPAR 250800Z /////KT CAVOK 14/12 Q1021
LPAR,2017-10-25 09:00,-9.0333,38.8833,60.80,55.40,M,M,M,0.00,30.15,M,6.21,M,M,M,M,M,M,M,M,M,M,M,M,M,M,M,M,M,LPAR 250900Z /////KT CAVOK 16/13 Q1021
LPAR,2017-10-25 10:00,-9.0333,38.8833,66.20,57.20,M,M,M,0.00,30.15,M,6.21,M,M,M,M,M,M,M,M,M,M,M,M,M,M,M,M,M,LPAR 251000Z /////KT CAVOK 19/14 Q1021
LPAR,2017-10-25 11:00,-9.0333,38.8833,69.80,59.00,M,M,M,0.00,30.15,M,6.21,M,M,M,M,M,M,M,M,M,M,M,M,M,M,M,M,M,LPAR 251100Z /////KT CAVOK 21/15 Q1021
LPAR,2017-10-25 12:00,-9.0333,38.8833,71.60,57.20,M,M,M,0.00,30.15,M,6.21,M,M,M,M,M,M,M,M,M,M,M,M,M,M,M,M,M,LPAR 251200Z /////KT CAVOK 22/14 Q1021
LPAR,2017-10-25 13:00,-9.0333,38.8833,75.20,57.20,M,M,M,0.00,30.12,M,6.21,M,FEW,M,M,M,2500.00,M,M,M,M,M,M,M,M,M,M,M,LPAR 251300Z /////KT 9999 FEW025 24/14 Q1020
LPAR,2017-10-25 14:00,-9.0333,38.8833,75.20,60.80,M,M,M,0.00,30.12,M,6.21,M,SCT,M,M,M,2500.00,M,M,M,M,M,M,M,M,M,M,M,LPAR 251400Z /////KT 9999 SCT025 24/16 Q1020
LPAR,2017-10-25 15:00,-9.0333,38.8833,75.20,60.80,M,M,M,0.00,30.12,M,6.21,M,SCT,M,M,M,2500.00,M,M,M,M,M,M,M,M,M,M,M,LPAR 251500Z /////KT 9999 SCT025 24/16 Q1020
LPAR,2017-10-25 16:00,-9.0333,38.8833,75.20,60.80,M,M,M,0.00,30.12,M,6.21,M,SCT,M,M,M,2500.00,M,M,M,M,M,M,M,M,M,M,M,LPAR 251600Z /////KT 9999 SCT025 24/16 Q1020
LPAR,2017-10-26 08:00,-9.0333,38.8833,60.80,59.00,M,M,M,0.00,30.24,M,0.93,M,FEW,SCT,M,M,700.00,1200.00,M,M,BR,M,M,M,M,M,M,M,LPAR 260800Z /////KT 1500 BR FEW007 SCT012 16/15 Q1024
LPAR,2017-10-26 09:00,-9.0333,38.8833,60.80,60.80,M,M,M,0.00,30.24,M,0.12,M,VV ,M,M,M,M,M,M,M,FG,M,M,M,M,M,M,M,LPAR 260900Z /////KT 0200 FG VV/// 16/16 Q1024
LPAR,2017-10-26 10:00,-9.0333,38.8833,62.60,60.80,M,M,M,0.00,30.27,M,1.86,M,FEW,M,M,M,700.00,M,M,M,BR,M,M,M,M,M,M,M,LPAR 261000Z /////KT 3000 BR FEW007 17/16 Q1025
LPAR,2017-10-26 11:00,-9.0333,38.8833,68.00,60.80,M,M,M,0.00,30.27,M,4.35,M,NSC,M,M,M,M,M,M,M,M,M,M,M,M,M,M,M,LPAR 261100Z /////KT 7000 NSC 20/16 Q1025
LPAR,2017-10-26 12:00,-9.0333,38.8833,73.40,60.80,M,M,M,0.00,30.24,M,6.21,M,M,M,M,M,M,M,M,M,M,M,M,M,M,M,M,M,LPAR 261200Z /////KT CAVOK 23/16 Q1024
LPAR,2017-10-26 13:00,-9.0333,38.8833,75.20,59.00,M,M,M,0.00,30.24,M,6.21,M,M,M,M,M,M,M,M,M,M,M,M,M,M,M,M,M,LPAR 261300Z /////KT CAVOK 24/15 Q1024
LPAR,2017-10-26 14:00,-9.0333,38.8833,78.80,59.00,M,M,M,0.00,30.21,M,6.21,M,M,M,M,M,M,M,M,M,M,M,M,M,M,M,M,M,LPAR 261400Z /////KT CAVOK 26/15 Q1023
LPAR,2017-10-26 15:00,-9.0333,38.8833,82.40,59.00,M,M,M,0.00,30.21,M,6.21,M,M,M,M,M,M,M,M,M,M,M,M,M,M,M,M,M,LPAR 261500Z /////KT CAVOK 28/15 Q1023
LPAR,2017-10-26 16:00,-9.0333,38.8833,80.60,59.00,M,M,M,0.00,30.21,M,6.21,M,M,M,M,M,M,M,M,M,M,M,M,M,M,M,M,M,LPAR 261600Z /////KT CAVOK 27/15 Q1023
LPAR,2017-10-27 08:00,-9.0333,38.8833,71.60,48.20,M,M,M,0.00,30.27,M,6.21,M,M,M,M,M,M,M,M,M,M,M,M,M,M,M,M,M,LPAR 270800Z /////KT CAVOK 22/09 Q1025
LPAR,2017-10-27 09:00,-9.0333,38.8833,73.40,51.80,M,M,M,0.00,30.30,M,6.21,M,M,M,M,M,M,M,M,M,M,M,M,M,M,M,M,M,LPAR 270900Z /////KT CAVOK 23/11 Q1026
LPAR,2017-10-27 10:00,-9.0333,38.8833,75.20,51.80,M,M,M,0.00,30.30,M,6.21,M,M,M,M,M,M,M,M,M,M,M,M,M,M,M,M,M,LPAR 271000Z /////KT CAVOK 24/11 Q1026
LPAR,2017-10-27 11:00,-9.0333,38.8833,77.00,51.80,M,M,M,0.00,30.30,M,6.21,M,M,M,M,M,M,M,M,M,M,M,M,M,M,M,M,M,LPAR 271100Z /////KT CAVOK 25/11 Q1026
LPAR,2017-10-27 12:00,-9.0333,38.8833,82.40,51.80,M,M,M,0.00,30.30,M,6.21,M,M,M,M,M,M,M,M,M,M,M,M,M,M,M,M,M,LPAR 271200Z /////KT CAVOK 28/11 Q1026
LPAR,2017-10-27 13:00,-9.0333,38.8833,82.40,51.80,M,M,M,0.00,30.27,M,6.21,M,M,M,M,M,M,M,M,M,M,M,M,M,M,M,M,M,LPAR 271300Z /////KT CAVOK 28/11 Q1025
LPAR,2017-10-27 14:00,-9.0333,38.8833,86.00,53.60,M,M,M,0.00,30.24,M,6.21,M,M,M,M,M,M,M,M,M,M,M,M,M,M,M,M,M,LPAR 271400Z /////KT CAVOK 30/12 Q1024
LPAR,2017-10-27 15:00,-9.0333,38.8833,89.60,51.80,M,M,M,0.00,30.21,M,6.21,M,M,M,M,M,M,M,M,M,M,M,M,M,M,M,M,M,LPAR 271500Z /////KT CAVOK 32/11 Q1023
LPAR,2017-10-27 16:00,-9.0333,38.8833,87.80,50.00,M,M,M,0.00,30.21,M,6.21,M,M,M,M,M,M,M,M,M,M,M,M,M,M,M,M,M,LPAR 271600Z /////KT CAVOK 31/10 Q1023
LPAR,2017-10-28 08:00,-9.0333,38.8833,60.80,57.20,M,M,M,0.00,30.18,M,6.21,M,M,M,M,M,M,M,M,M,M,M,M,M,M,M,M,M,LPAR 280800Z /////KT CAVOK 16/14 Q1022
LPAR,2017-10-28 09:00,-9.0333,38.8833,69.80,53.60,M,M,M,0.00,30.21,M,6.21,M,M,M,M,M,M,M,M,M,M,M,M,M,M,M,M,M,LPAR 280900Z /////KT CAVOK 21/12 Q1023
LPAR,2017-10-28 10:00,-9.0333,38.8833,75.20,46.40,M,M,M,0.00,30.21,M,6.21,M,M,M,M,M,M,M,M,M,M,M,M,M,M,M,M,M,LPAR 281000Z /////KT CAVOK 24/08 Q1023
LPAR,2017-10-28 11:00,-9.0333,38.8833,77.00,48.20,M,M,M,0.00,30.18,M,6.21,M,M,M,M,M,M,M,M,M,M,M,M,M,M,M,M,M,LPAR 281100Z /////KT CAVOK 25/09 Q1022
LPAR,2017-10-28 13:00,-9.0333,38.8833,82.40,50.00,M,M,M,0.00,30.15,M,6.21,M,M,M,M,M,M,M,M,M,M,M,M,M,M,M,M,M,LPAR 281300Z /////KT CAVOK 28/10 Q1021
LPAR,2017-10-28 14:00,-9.0333,38.8833,86.00,48.20,M,M,M,0.00,30.12,M,6.21,M,M,M,M,M,M,M,M,M,M,M,M,M,M,M,M,M,LPAR 281400Z /////KT CAVOK 30/09 Q1020
LPAR,2017-10-30 09:00,-9.0333,38.8833,64.40,48.20,M,M,M,0.00,30.03,M,6.21,M,M,M,M,M,M,M,M,M,M,M,M,M,M,M,M,M,LPAR 300900Z /////KT CAVOK 18/09 Q1017
LPAR,2017-10-30 10:00,-9.0333,38.8833,66.20,44.60,M,M,M,0.00,30.03,M,6.21,M,M,M,M,M,M,M,M,M,M,M,M,M,M,M,M,M,LPAR 301000Z /////KT CAVOK 19/07 Q1017
LPAR,2017-10-30 11:00,-9.0333,38.8833,68.00,46.40,M,M,M,0.00,30.00,M,6.21,M,M,M,M,M,M,M,M,M,M,M,M,M,M,M,M,M,LPAR 301100Z /////KT CAVOK 20/08 Q1016
LPAR,2017-10-30 12:00,-9.0333,38.8833,69.80,46.40,M,M,M,0.00,29.97,M,6.21,M,M,M,M,M,M,M,M,M,M,M,M,M,M,M,M,M,LPAR 301200Z /////KT CAVOK 21/08 Q1015
LPAR,2017-10-30 13:00,-9.0333,38.8833,73.40,46.40,M,M,M,0.00,29.97,M,6.21,M,M,M,M,M,M,M,M,M,M,M,M,M,M,M,M,M,LPAR 301300Z /////KT CAVOK 23/08 Q1015
LPAR,2017-10-30 14:00,-9.0333,38.8833,77.00,46.40,M,M,M,0.00,29.94,M,6.21,M,M,M,M,M,M,M,M,M,M,M,M,M,M,M,M,M,LPAR 301400Z /////KT CAVOK 25/08 Q1014
LPAR,2017-10-30 15:00,-9.0333,38.8833,78.80,46.40,M,M,M,0.00,29.91,M,6.21,M,M,M,M,M,M,M,M,M,M,M,M,M,M,M,M,M,LPAR 301500Z /////KT CAVOK 26/08 Q1013
LPAR,2017-10-30 16:00,-9.0333,38.8833,78.80,46.40,M,M,M,0.00,29.91,M,6.21,M,M,M,M,M,M,M,M,M,M,M,M,M,M,M,M,M,LPAR 301600Z /////KT CAVOK 26/08 Q1013
LPAR,2017-10-30 17:00,-9.0333,38.8833,78.80,46.40,M,M,M,0.00,29.91,M,6.21,M,M,M,M,M,M,M,M,M,M,M,M,M,M,M,M,M,LPAR 301700Z /////KT CAVOK 26/08 Q1013
LPAR,2017-10-31 09:00,-9.0333,38.8833,60.80,50.00,M,M,M,0.00,30.03,M,6.21,M,M,M,M,M,M,M,M,M,M,M,M,M,M,M,M,M,LPAR 310900Z /////KT CAVOK 16/10 Q1017
LPAR,2017-10-31 10:00,-9.0333,38.8833,62.60,48.20,M,M,M,0.00,30.06,M,6.21,M,M,M,M,M,M,M,M,M,M,M,M,M,M,M,M,M,LPAR 311000Z /////KT CAVOK 17/09 Q1018
LPAR,2017-10-31 11:00,-9.0333,38.8833,64.40,46.40,M,M,M,0.00,30.06,M,6.21,M,M,M,M,M,M,M,M,M,M,M,M,M,M,M,M,M,LPAR 311100Z /////KT CAVOK 18/08 Q1018
LPAR,2017-10-31 12:00,-9.0333,38.8833,68.00,51.80,M,M,M,0.00,30.03,M,6.21,M,M,M,M,M,M,M,M,M,M,M,M,M,M,M,M,M,LPAR 311200Z /////KT CAVOK 20/11 Q1017
LPAR,2017-10-31 13:00,-9.0333,38.8833,73.40,53.60,M,M,M,0.00,30.03,M,6.21,M,M,M,M,M,M,M,M,M,M,M,M,M,M,M,M,M,LPAR 311300Z /////KT CAVOK 23/12 Q1017
LPAR,2017-10-31 14:00,-9.0333,38.8833,73.40,53.60,M,M,M,0.00,30.03,M,6.21,M,M,M,M,M,M,M,M,M,M,M,M,M,M,M,M,M,LPAR 311400Z /////KT CAVOK 23/12 Q1017
LPAR,2017-10-31 15:00,-9.0333,38.8833,75.20,55.40,M,M,M,0.00,30.00,M,6.21,M,M,M,M,M,M,M,M,M,M,M,M,M,M,M,M,M,LPAR 311500Z /////KT CAVOK 24/13 Q1016
LPAR,2017-10-31 16:00,-9.0333,38.8833,73.40,55.40,M,M,M,0.00,30.00,M,6.21,M,M,M,M,M,M,M,M,M,M,M,M,M,M,M,M,M,LPAR 311600Z /////KT CAVOK 23/13 Q1016
LPAR,2017-10-31 17:00,-9.0333,38.8833,73.40,57.20,M,M,M,0.00,30.00,M,6.21,M,M,M,M,M,M,M,M,M,M,M,M,M,M,M,M,M,LPAR 311700Z /////KT CAVOK 23/14 Q1016
LPAR,2017-11-01 09:00,-9.0333,38.8833,59.00,59.00,M,M,M,0.00,30.06,M,1.12,M,SCT,BKN,M,M,500.00,2000.00,M,M,PRFG,M,M,M,M,M,M,M,LPAR 010900Z /////KT 1800 PRFG SCT005 BKN020 15/15 Q1018
LPAR,2017-11-01 10:00,-9.0333,38.8833,60.80,59.00,M,M,M,0.00,30.06,M,2.49,M,SCT,BKN,M,M,700.00,2000.00,M,M,BR,M,M,M,M,M,M,M,LPAR 011000Z /////KT 4000 BR SCT007 BKN020 16/15 Q1018
LPAR,2017-11-01 11:00,-9.0333,38.8833,62.60,57.20,M,M,M,0.00,30.06,M,4.35,M,FEW,SCT,M,M,700.00,2500.00,M,M,BR,M,M,M,M,M,M,M,LPAR 011100Z /////KT 7000 BR FEW007 SCT025 17/14 Q1018
LPAR,2017-11-01 12:00,-9.0333,38.8833,69.80,59.00,M,M,M,0.00,30.03,M,4.97,M,FEW,M,M,M,2500.00,M,M,M,M,M,M,M,M,M,M,M,LPAR 011200Z /////KT 8000 FEW025 21/15 Q1017
LPAR,2017-11-01 13:00,-9.0333,38.8833,69.80,59.00,M,M,M,0.00,30.00,M,6.21,M,SCT,SCT,M,M,2500.00,3500.00,M,M,M,M,M,M,M,M,M,M,LPAR 011300Z /////KT 9999 SCT025 SCT035 21/15 Q1016
LPAR,2017-11-02 09:00,-9.0333,38.8833,62.60,60.80,M,M,M,0.00,29.97,M,4.97,M,FEW,SCT,BKN,M,800.00,1500.00,3000.00,M,-RA,M,M,M,M,M,M,M,LPAR 020900Z /////KT 8000 -RA FEW008 SCT015 BKN030 17/16 Q1015
LPAR,2017-11-02 10:00,-9.0333,38.8833,64.40,62.60,M,M,M,0.00,29.97,M,6.21,M,FEW,SCT,BKN,M,800.00,1500.00,3500.00,M,M,M,M,M,M,M,M,M,LPAR 021000Z /////KT 9999 FEW008 SCT015 BKN035 18/17 Q1015
LPAR,2017-11-02 11:00,-9.0333,38.8833,66.20,62.60,M,M,M,0.00,29.97,M,6.21,M,SCT,SCT,M,M,1800.00,3500.00,M,M,M,M,M,M,M,M,M,M,LPAR 021100Z /////KT 9999 SCT018 SCT035 19/17 Q1015
LPAR,2017-11-02 12:00,-9.0333,38.8833,66.20,60.80,M,M,M,0.00,29.97,M,6.21,M,SCT,FEW,SCT,M,1800.00,2000.00,4000.00,M,VCSH,M,M,M,M,M,M,M,LPAR 021200Z /////KT 9999 VCSH SCT018 FEW020TCU SCT040 19/16 Q1015
LPAR,2017-11-02 13:00,-9.0333,38.8833,66.20,62.60,M,M,M,0.00,29.94,M,4.97,M,SCT,FEW,SCT,M,1800.00,2000.00,4000.00,M,-SHRA,M,M,M,M,M,M,M,LPAR 021300Z /////KT 8000 -SHRA SCT018 FEW020TCU SCT040 19/17 Q1014
LPAR,2017-11-02 14:00,-9.0333,38.8833,68.00,60.80,M,M,M,0.00,29.91,M,6.21,M,SCT,FEW,SCT,M,1800.00,2000.00,4000.00,M,M,M,M,M,M,M,M,M,LPAR 021400Z /////KT 9999 SCT018 FEW020TCU SCT040 20/16 Q1013
LPAR,2017-11-02 15:00,-9.0333,38.8833,68.00,60.80,M,M,M,0.00,29.91,M,6.21,M,SCT,FEW,M,M,1800.00,2000.00,M,M,M,M,M,M,M,M,M,M,LPAR 021500Z /////KT 9999 SCT018 FEW020TCU 20/16 Q1013
LPAR,2017-11-02 16:00,-9.0333,38.8833,69.80,59.00,M,M,M,0.00,29.91,M,6.21,M,SCT,FEW,M,M,1800.00,2000.00,M,M,M,M,M,M,M,M,M,M,LPAR 021600Z /////KT 9999 SCT018 FEW020TCU 21/15 Q1013
LPAR,2017-11-02 17:00,-9.0333,38.8833,69.80,59.00,M,M,M,0.00,29.91,M,6.21,M,SCT,FEW,M,M,1800.00,2000.00,M,M,M,M,M,M,M,M,M,M,LPAR 021700Z /////KT 9999 SCT018 FEW020TCU 21/15 Q1013
LPAR,2017-11-03 09:00,-9.0333,38.8833,62.60,60.80,M,M,M,0.00,29.88,M,6.21,M,SCT,FEW,M,M,1400.00,1800.00,M,M,M,M,M,M,M,M,M,M,LPAR 030900Z /////KT 9999 SCT014 FEW018TCU 17/16 Q1012
LPAR,2017-11-03 10:00,-9.0333,38.8833,68.00,62.60,M,M,M,0.00,29.88,M,6.21,M,SCT,FEW,M,M,1500.00,2000.00,M,M,VCSH,M,M,M,M,M,M,M,LPAR 031000Z /////KT 9999 VCSH SCT015 FEW020TCU 20/17 Q1012
LPAR,2017-11-03 11:00,-9.0333,38.8833,69.80,60.80,M,M,M,0.00,29.85,M,6.21,M,SCT,FEW,M,M,1500.00,2000.00,M,M,VCSH,M,M,M,M,M,M,M,LPAR 031100Z /////KT 9999 VCSH SCT015 FEW020CB 21/16 Q1011
LPAR,2017-11-03 12:00,-9.0333,38.8833,66.20,59.00,M,M,M,0.00,29.85,M,6.21,M,SCT,FEW,SCT,M,1500.00,2000.00,2500.00,M,VCSH,M,M,M,M,M,M,M,LPAR 031200Z /////KT 9999 VCSH SCT015 FEW020CB SCT025 19/15 Q1011
LPAR,2017-11-03 13:00,-9.0333,38.8833,69.80,59.00,M,M,M,0.00,29.83,M,6.21,M,SCT,FEW,M,M,1800.00,2200.00,M,M,M,M,M,M,M,M,M,M,LPAR 031300Z /////KT 9999 SCT018 FEW022CB 21/15 Q1010
LPAR,2017-11-03 14:00,-9.0333,38.8833,69.80,59.00,M,M,M,0.00,29.80,M,6.21,M,SCT,FEW,M,M,1800.00,2200.00,M,M,M,M,M,M,M,M,M,M,LPAR 031400Z /////KT 9999 SCT018 FEW022CB 21/15 Q1009
LPAR,2017-11-03 15:00,-9.0333,38.8833,68.00,57.20,M,M,M,0.00,29.77,M,6.21,M,SCT,FEW,M,M,1800.00,2200.00,M,M,VCSH,M,M,M,M,M,M,M,LPAR 031500Z /////KT 9999 VCSH SCT018 FEW022CB 20/14 Q1008
LPAR,2017-11-03 17:00,-9.0333,38.8833,62.60,60.80,M,M,M,0.00,29.80,M,3.73,M,SCT,SCT,M,M,2000.00,2500.00,M,M,-SHRA,M,M,M,M,M,M,M,LPAR 031700Z /////KT 6000 -SHRA SCT020 SCT025CB 17/16 Q1009
LPAR,2017-11-06 09:00,-9.0333,38.8833,53.60,46.40,M,M,M,0.00,30.27,M,6.21,M,M,M,M,M,M,M,M,M,M,M,M,M,M,M,M,M,LPAR 060900Z /////KT CAVOK 12/08 Q1025
LPAR,2017-11-06 10:00,-9.0333,38.8833,59.00,41.00,M,M,M,0.00,30.27,M,6.21,M,M,M,M,M,M,M,M,M,M,M,M,M,M,M,M,M,LPAR 061000Z /////KT CAVOK 15/05 Q1025
LPAR,2017-11-06 11:00,-9.0333,38.8833,60.80,42.80,M,M,M,0.00,30.24,M,6.21,M,M,M,M,M,M,M,M,M,M,M,M,M,M,M,M,M,LPAR 061100Z /////KT CAVOK 16/06 Q1024
LPAR,2017-11-06 12:00,-9.0333,38.8833,60.80,44.60,M,M,M,0.00,30.21,M,6.21,M,M,M,M,M,M,M,M,M,M,M,M,M,M,M,M,M,LPAR 061200Z /////KT CAVOK 16/07 Q1023
LPAR,2017-11-06 13:00,-9.0333,38.8833,64.40,46.40,M,M,M,0.00,30.21,M,6.21,M,M,M,M,M,M,M,M,M,M,M,M,M,M,M,M,M,LPAR 061300Z /////KT CAVOK 18/08 Q1023
LPAR,2017-11-06 14:00,-9.0333,38.8833,66.20,44.60,M,M,M,0.00,30.18,M,6.21,M,M,M,M,M,M,M,M,M,M,M,M,M,M,M,M,M,LPAR 061400Z /////KT CAVOK 19/07 Q1022
LPAR,2017-11-06 15:00,-9.0333,38.8833,66.20,44.60,M,M,M,0.00,30.15,M,6.21,M,M,M,M,M,M,M,M,M,M,M,M,M,M,M,M,M,LPAR 061500Z /////KT CAVOK 19/07 Q1021
LPAR,2017-11-06 16:00,-9.0333,38.8833,66.20,44.60,M,M,M,0.00,30.15,M,6.21,M,M,M,M,M,M,M,M,M,M,M,M,M,M,M,M,M,LPAR 061600Z /////KT CAVOK 19/07 Q1021
LPAR,2017-11-06 17:00,-9.0333,38.8833,66.20,44.60,M,M,M,0.00,30.15,M,6.21,M,M,M,M,M,M,M,M,M,M,M,M,M,M,M,M,M,LPAR 061700Z /////KT CAVOK 19/07 Q1021
LPAR,2017-11-07 09:00,-9.0333,38.8833,51.80,48.20,M,M,M,0.00,30.18,M,6.21,M,M,M,M,M,M,M,M,M,M,M,M,M,M,M,M,M,LPAR 070900Z /////KT CAVOK 11/09 Q1022
LPAR,2017-11-07 10:00,-9.0333,38.8833,57.20,50.00,M,M,M,0.00,30.21,M,6.21,M,M,M,M,M,M,M,M,M,M,M,M,M,M,M,M,M,LPAR 071000Z /////KT CAVOK 14/10 Q1023
LPAR,2017-11-07 11:00,-9.0333,38.8833,64.40,50.00,M,M,M,0.00,30.21,M,6.21,M,M,M,M,M,M,M,M,M,M,M,M,M,M,M,M,M,LPAR 071100Z /////KT CAVOK 18/10 Q1023
LPAR,2017-11-07 12:00,-9.0333,38.8833,66.20,50.00,M,M,M,0.00,30.18,M,6.21,M,M,M,M,M,M,M,M,M,M,M,M,M,M,M,M,M,LPAR 071200Z /////KT CAVOK 19/10 Q1022
LPAR,2017-11-07 13:00,-9.0333,38.8833,68.00,48.20,M,M,M,0.00,30.15,M,6.21,M,M,M,M,M,M,M,M,M,M,M,M,M,M,M,M,M,LPAR 071300Z /////KT CAVOK 20/09 Q1021
LPAR,2017-11-07 14:00,-9.0333,38.8833,69.80,50.00,M,M,M,0.00,30.15,M,6.21,M,M,M,M,M,M,M,M,M,M,M,M,M,M,M,M,M,LPAR 071400Z /////KT CAVOK 21/10 Q1021
LPAR,2017-11-07 15:00,-9.0333,38.8833,68.00,50.00,M,M,M,0.00,30.15,M,6.21,M,M,M,M,M,M,M,M,M,M,M,M,M,M,M,M,M,LPAR 071500Z /////KT CAVOK 20/10 Q1021
LPAR,2017-11-07 16:00,-9.0333,38.8833,66.20,50.00,M,M,M,0.00,30.15,M,6.21,M,M,M,M,M,M,M,M,M,M,M,M,M,M,M,M,M,LPAR 071600Z /////KT CAVOK 19/10 Q1021
LPAR,2017-11-07 17:00,-9.0333,38.8833,64.40,50.00,M,M,M,0.00,30.15,M,6.21,M,M,M,M,M,M,M,M,M,M,M,M,M,M,M,M,M,LPAR 071700Z /////KT CAVOK 18/10 Q1021
LPAR,2017-11-08 09:00,-9.0333,38.8833,57.20,42.80,M,M,M,0.00,30.27,M,6.21,M,M,M,M,M,M,M,M,M,M,M,M,M,M,M,M,M,LPAR 080900Z /////KT CAVOK 14/06 Q1025
LPAR,2017-11-08 10:00,-9.0333,38.8833,60.80,44.60,M,M,M,0.00,30.27,M,6.21,M,M,M,M,M,M,M,M,M,M,M,M,M,M,M,M,M,LPAR 081000Z /////KT CAVOK 16/07 Q1025
LPAR,2017-11-08 11:00,-9.0333,38.8833,60.80,44.60,M,M,M,0.00,30.27,M,6.21,M,M,M,M,M,M,M,M,M,M,M,M,M,M,M,M,M,LPAR 081100Z /////KT CAVOK 16/07 Q1025
LPAR,2017-11-08 12:00,-9.0333,38.8833,62.60,42.80,M,M,M,0.00,30.27,M,6.21,M,M,M,M,M,M,M,M,M,M,M,M,M,M,M,M,M,LPAR 081200Z /////KT CAVOK 17/06 Q1025
LPAR,2017-11-08 13:00,-9.0333,38.8833,64.40,44.60,M,M,M,0.00,30.24,M,6.21,M,M,M,M,M,M,M,M,M,M,M,M,M,M,M,M,M,LPAR 081300Z /////KT CAVOK 18/07 Q1024
LPAR,2017-11-08 14:00,-9.0333,38.8833,66.20,44.60,M,M,M,0.00,30.21,M,6.21,M,M,M,M,M,M,M,M,M,M,M,M,M,M,M,M,M,LPAR 081400Z /////KT CAVOK 19/07 Q1023
LPAR,2017-11-08 15:00,-9.0333,38.8833,64.40,44.60,M,M,M,0.00,30.21,M,6.21,M,M,M,M,M,M,M,M,M,M,M,M,M,M,M,M,M,LPAR 081500Z /////KT CAVOK 18/07 Q1023
LPAR,2017-11-08 16:00,-9.0333,38.8833,64.40,46.40,M,M,M,0.00,30.21,M,6.21,M,M,M,M,M,M,M,M,M,M,M,M,M,M,M,M,M,LPAR 081600Z /////KT CAVOK 18/08 Q1023
LPAR,2017-11-08 17:00,-9.0333,38.8833,62.60,44.60,M,M,M,0.00,30.21,M,6.21,M,M,M,M,M,M,M,M,M,M,M,M,M,M,M,M,M,LPAR 081700Z /////KT CAVOK 17/07 Q1023
LPAR,2017-11-09 09:00,-9.0333,38.8833,55.40,35.60,M,M,M,0.00,30.36,M,6.21,M,M,M,M,M,M,M,M,M,M,M,M,M,M,M,M,M,LPAR 090900Z /////KT CAVOK 13/02 Q1028
LPAR,2017-11-09 11:00,-9.0333,38.8833,59.00,37.40,M,M,M,0.00,30.36,M,6.21,M,M,M,M,M,M,M,M,M,M,M,M,M,M,M,M,M,LPAR 091100Z /////KT CAVOK 15/03 Q1028
LPAR,2017-11-09 12:00,-9.0333,38.8833,60.80,37.40,M,M,M,0.00,30.36,M,6.21,M,M,M,M,M,M,M,M,M,M,M,M,M,M,M,M,M,LPAR 091200Z /////KT CAVOK 16/03 Q1028
LPAR,2017-11-09 13:00,-9.0333,38.8833,62.60,39.20,M,M,M,0.00,30.33,M,6.21,M,M,M,M,M,M,M,M,M,M,M,M,M,M,M,M,M,LPAR 091300Z /////KT CAVOK 17/04 Q1027
LPAR,2017-11-09 14:00,-9.0333,38.8833,62.60,35.60,M,M,M,0.00,30.30,M,6.21,M,M,M,M,M,M,M,M,M,M,M,M,M,M,M,M,M,LPAR 091400Z /////KT CAVOK 17/02 Q1026
LPAR,2017-11-09 15:00,-9.0333,38.8833,64.40,35.60,M,M,M,0.00,30.30,M,6.21,M,M,M,M,M,M,M,M,M,M,M,M,M,M,M,M,M,LPAR 091500Z /////KT CAVOK 18/02 Q1026
LPAR,2017-11-09 16:00,-9.0333,38.8833,64.40,35.60,M,M,M,0.00,30.30,M,6.21,M,M,M,M,M,M,M,M,M,M,M,M,M,M,M,M,M,LPAR 091600Z /////KT CAVOK 18/02 Q1026
LPAR,2017-11-09 17:00,-9.0333,38.8833,60.80,41.00,M,M,M,0.00,30.30,M,6.21,M,M,M,M,M,M,M,M,M,M,M,M,M,M,M,M,M,LPAR 091700Z /////KT CAVOK 16/05 Q1026
LPAR,2017-11-10 09:00,-9.0333,38.8833,50.00,44.60,M,M,M,0.00,30.45,M,6.21,M,M,M,M,M,M,M,M,M,M,M,M,M,M,M,M,M,LPAR 100900Z /////KT CAVOK 10/07 Q1031
LPAR,2017-11-10 10:00,-9.0333,38.8833,53.60,46.40,M,M,M,0.00,30.45,M,6.21,M,M,M,M,M,M,M,M,M,M,M,M,M,M,M,M,M,LPAR 101000Z /////KT CAVOK 12/08 Q1031
LPAR,2017-11-10 11:00,-9.0333,38.8833,59.00,48.20,M,M,M,0.00,30.45,M,6.21,M,M,M,M,M,M,M,M,M,M,M,M,M,M,M,M,M,LPAR 101100Z /////KT CAVOK 15/09 Q1031
LPAR,2017-11-10 13:00,-9.0333,38.8833,68.00,46.40,M,M,M,0.00,30.42,M,6.21,M,M,M,M,M,M,M,M,M,M,M,M,M,M,M,M,M,LPAR 101300Z /////KT CAVOK 20/08 Q1030
LPAR,2017-11-10 14:00,-9.0333,38.8833,69.80,46.40,M,M,M,0.00,30.39,M,6.21,M,M,M,M,M,M,M,M,M,M,M,M,M,M,M,M,M,LPAR 101400Z /////KT CAVOK 21/08 Q1029
LPAR,2017-11-10 15:00,-9.0333,38.8833,69.80,44.60,M,M,M,0.00,30.36,M,6.21,M,M,M,M,M,M,M,M,M,M,M,M,M,M,M,M,M,LPAR 101500Z /////KT CAVOK 21/07 Q1028
LPAR,2017-11-10 16:00,-9.0333,38.8833,69.80,48.20,M,M,M,0.00,30.36,M,6.21,M,M,M,M,M,M,M,M,M,M,M,M,M,M,M,M,M,LPAR 101600Z /////KT CAVOK 21/09 Q1028
LPAR,2017-11-10 17:00,-9.0333,38.8833,68.00,50.00,M,M,M,0.00,30.39,M,6.21,M,M,M,M,M,M,M,M,M,M,M,M,M,M,M,M,M,LPAR 101700Z /////KT CAVOK 20/10 Q1029
LPAR,2017-11-13 09:00,-9.0333,38.8833,60.80,51.80,M,M,M,0.00,30.18,M,6.21,M,FEW,M,M,M,900.00,M,M,M,M,M,M,M,M,M,M,M,LPAR 130900Z /////KT 9999 FEW009 16/11 Q1022
LPAR,2017-11-13 10:00,-9.0333,38.8833,62.60,53.60,M,M,M,0.00,30.18,M,6.21,M,FEW,M,M,M,1200.00,M,M,M,M,M,M,M,M,M,M,M,LPAR 131000Z /////KT 9999 FEW012 17/12 Q1022
LPAR,2017-11-13 11:00,-9.0333,38.8833,64.40,53.60,M,M,M,0.00,30.18,M,6.21,M,FEW,M,M,M,1500.00,M,M,M,M,M,M,M,M,M,M,M,LPAR 131100Z /////KT 9999 FEW015 18/12 Q1022
LPAR,2017-11-13 12:00,-9.0333,38.8833,66.20,51.80,M,M,M,0.00,30.15,M,6.21,M,M,M,M,M,M,M,M,M,M,M,M,M,M,M,M,M,LPAR 131200Z /////KT CAVOK 19/11 Q1021
LPAR,2017-11-13 13:00,-9.0333,38.8833,68.00,50.00,M,M,M,0.00,30.12,M,6.21,M,M,M,M,M,M,M,M,M,M,M,M,M,M,M,M,M,LPAR 131300Z /////KT CAVOK 20/10 Q1020
LPAR,2017-11-13 14:00,-9.0333,38.8833,69.80,51.80,M,M,M,0.00,30.12,M,6.21,M,M,M,M,M,M,M,M,M,M,M,M,M,M,M,M,M,LPAR 131400Z /////KT CAVOK 21/11 Q1020
LPAR,2017-11-13 15:00,-9.0333,38.8833,69.80,51.80,M,M,M,0.00,30.09,M,6.21,M,M,M,M,M,M,M,M,M,M,M,M,M,M,M,M,M,LPAR 131500Z /////KT CAVOK 21/11 Q1019
LPAR,2017-11-13 16:00,-9.0333,38.8833,68.00,53.60,M,M,M,0.00,30.09,M,6.21,M,M,M,M,M,M,M,M,M,M,M,M,M,M,M,M,M,LPAR 131600Z /////KT CAVOK 20/12 Q1019
LPAR,2017-11-13 17:00,-9.0333,38.8833,66.20,50.00,M,M,M,0.00,30.06,M,6.21,M,M,M,M,M,M,M,M,M,M,M,M,M,M,M,M,M,LPAR 131700Z /////KT CAVOK 19/10 Q1018
LPAR,2017-11-14 09:00,-9.0333,38.8833,53.60,35.60,M,M,M,0.00,30.12,M,6.21,M,M,M,M,M,M,M,M,M,M,M,M,M,M,M,M,M,LPAR 140900Z /////KT CAVOK 12/02 Q1020
LPAR,2017-11-14 10:00,-9.0333,38.8833,55.40,37.40,M,M,M,0.00,30.12,M,6.21,M,M,M,M,M,M,M,M,M,M,M,M,M,M,M,M,M,LPAR 141000Z /////KT CAVOK 13/03 Q1020
LPAR,2017-11-14 11:00,-9.0333,38.8833,57.20,37.40,M,M,M,0.00,30.12,M,6.21,M,M,M,M,M,M,M,M,M,M,M,M,M,M,M,M,M,LPAR 141100Z /////KT CAVOK 14/03 Q1020
LPAR,2017-11-14 12:00,-9.0333,38.8833,60.80,39.20,M,M,M,0.00,30.12,M,6.21,M,M,M,M,M,M,M,M,M,M,M,M,M,M,M,M,M,LPAR 141200Z /////KT CAVOK 16/04 Q1020
LPAR,2017-11-14 13:00,-9.0333,38.8833,62.60,41.00,M,M,M,0.00,30.09,M,6.21,M,M,M,M,M,M,M,M,M,M,M,M,M,M,M,M,M,LPAR 141300Z /////KT CAVOK 17/05 Q1019
LPAR,2017-11-14 14:00,-9.0333,38.8833,64.40,42.80,M,M,M,0.00,30.06,M,6.21,M,M,M,M,M,M,M,M,M,M,M,M,M,M,M,M,M,LPAR 141400Z /////KT CAVOK 18/06 Q1018
LPAR,2017-11-14 15:00,-9.0333,38.8833,64.40,41.00,M,M,M,0.00,30.03,M,6.21,M,M,M,M,M,M,M,M,M,M,M,M,M,M,M,M,M,LPAR 141500Z /////KT CAVOK 18/05 Q1017
LPAR,2017-11-14 16:00,-9.0333,38.8833,64.40,41.00,M,M,M,0.00,30.03,M,6.21,M,M,M,M,M,M,M,M,M,M,M,M,M,M,M,M,M,LPAR 141600Z /////KT CAVOK 18/05 Q1017
LPAR,2017-11-14 17:00,-9.0333,38.8833,64.40,42.80,M,M,M,0.00,30.03,M,6.21,M,M,M,M,M,M,M,M,M,M,M,M,M,M,M,M,M,LPAR 141700Z /////KT CAVOK 18/06 Q1017
LPAR,2017-11-15 09:00,-9.0333,38.8833,50.00,41.00,M,M,M,0.00,30.12,M,6.21,M,M,M,M,M,M,M,M,M,M,M,M,M,M,M,M,M,LPAR 150900Z /////KT CAVOK 10/05 Q1020
LPAR,2017-11-15 10:00,-9.0333,38.8833,53.60,41.00,M,M,M,0.00,30.12,M,6.21,M,M,M,M,M,M,M,M,M,M,M,M,M,M,M,M,M,LPAR 151000Z /////KT CAVOK 12/05 Q1020
LPAR,2017-11-15 11:00,-9.0333,38.8833,55.40,41.00,M,M,M,0.00,30.12,M,6.21,M,M,M,M,M,M,M,M,M,M,M,M,M,M,M,M,M,LPAR 151100Z /////KT CAVOK 13/05 Q1020
LPAR,2017-11-15 12:00,-9.0333,38.8833,57.20,41.00,M,M,M,0.00,30.12,M,6.21,M,M,M,M,M,M,M,M,M,M,M,M,M,M,M,M,M,LPAR 151200Z /////KT CAVOK 14/05 Q1020
LPAR,2017-11-15 13:00,-9.0333,38.8833,62.60,41.00,M,M,M,0.00,30.09,M,6.21,M,M,M,M,M,M,M,M,M,M,M,M,M,M,M,M,M,LPAR 151300Z /////KT CAVOK 17/05 Q1019
LPAR,2017-11-15 14:00,-9.0333,38.8833,64.40,42.80,M,M,M,0.00,30.09,M,6.21,M,M,M,M,M,M,M,M,M,M,M,M,M,M,M,M,M,LPAR 151400Z /////KT CAVOK 18/06 Q1019
LPAR,2017-11-15 15:00,-9.0333,38.8833,66.20,44.60,M,M,M,0.00,30.06,M,6.21,M,M,M,M,M,M,M,M,M,M,M,M,M,M,M,M,M,LPAR 151500Z /////KT CAVOK 19/07 Q1018
LPAR,2017-11-15 16:00,-9.0333,38.8833,68.00,44.60,M,M,M,0.00,30.06,M,6.21,M,M,M,M,M,M,M,M,M,M,M,M,M,M,M,M,M,LPAR 151600Z /////KT CAVOK 20/07 Q1018
LPAR,2017-11-15 17:00,-9.0333,38.8833,64.40,42.80,M,M,M,0.00,30.06,M,6.21,M,M,M,M,M,M,M,M,M,M,M,M,M,M,M,M,M,LPAR 151700Z /////KT CAVOK 18/06 Q1018
LPAR,2017-11-16 09:00,-9.0333,38.8833,46.40,42.80,M,M,M,0.00,30.15,M,6.21,M,M,M,M,M,M,M,M,M,M,M,M,M,M,M,M,M,LPAR 160900Z /////KT CAVOK 08/06 Q1021
LPAR,2017-11-16 10:00,-9.0333,38.8833,50.00,44.60,M,M,M,0.00,30.15,M,6.21,M,M,M,M,M,M,M,M,M,M,M,M,M,M,M,M,M,LPAR 161000Z /////KT CAVOK 10/07 Q1021
LPAR,2017-11-16 11:00,-9.0333,38.8833,55.40,46.40,M,M,M,0.00,30.15,M,6.21,M,M,M,M,M,M,M,M,M,M,M,M,M,M,M,M,M,LPAR 161100Z /////KT CAVOK 13/08 Q1021
LPAR,2017-11-16 12:00,-9.0333,38.8833,59.00,46.40,M,M,M,0.00,30.15,M,6.21,M,M,M,M,M,M,M,M,M,M,M,M,M,M,M,M,M,LPAR 161200Z /////KT CAVOK 15/08 Q1021
LPAR,2017-11-16 13:00,-9.0333,38.8833,64.40,46.40,M,M,M,0.00,30.09,M,6.21,M,M,M,M,M,M,M,M,M,M,M,M,M,M,M,M,M,LPAR 161300Z /////KT CAVOK 18/08 Q1019
LPAR,2017-11-16 14:00,-9.0333,38.8833,68.00,44.60,M,M,M,0.00,30.09,M,6.21,M,M,M,M,M,M,M,M,M,M,M,M,M,M,M,M,M,LPAR 161400Z /////KT CAVOK 20/07 Q1019
LPAR,2017-11-16 16:00,-9.0333,38.8833,68.00,42.80,M,M,M,0.00,30.06,M,6.21,M,M,M,M,M,M,M,M,M,M,M,M,M,M,M,M,M,LPAR 161600Z /////KT CAVOK 20/06 Q1018
LPAR,2017-11-16 17:00,-9.0333,38.8833,66.20,46.40,M,M,M,0.00,30.06,M,6.21,M,M,M,M,M,M,M,M,M,M,M,M,M,M,M,M,M,LPAR 161700Z /////KT CAVOK 19/08 Q1018
LPAR,2017-11-17 09:00,-9.0333,38.8833,48.20,44.60,M,M,M,0.00,30.15,M,6.21,M,M,M,M,M,M,M,M,M,M,M,M,M,M,M,M,M,LPAR 170900Z /////KT CAVOK 09/07 Q1021
LPAR,2017-11-17 10:00,-9.0333,38.8833,51.80,44.60,M,M,M,0.00,30.15,M,6.21,M,M,M,M,M,M,M,M,M,M,M,M,M,M,M,M,M,LPAR 171000Z /////KT CAVOK 11/07 Q1021
LPAR,2017-11-17 11:00,-9.0333,38.8833,57.20,46.40,M,M,M,0.00,30.15,M,6.21,M,M,M,M,M,M,M,M,M,M,M,M,M,M,M,M,M,LPAR 171100Z /////KT CAVOK 14/08 Q1021
LPAR,2017-11-17 12:00,-9.0333,38.8833,60.80,46.40,M,M,M,0.00,30.12,M,6.21,M,M,M,M,M,M,M,M,M,M,M,M,M,M,M,M,M,LPAR 171200Z /////KT CAVOK 16/08 Q1020
LPAR,2017-11-17 13:00,-9.0333,38.8833,66.20,44.60,M,M,M,0.00,30.09,M,6.21,M,M,M,M,M,M,M,M,M,M,M,M,M,M,M,M,M,LPAR 171300Z /////KT CAVOK 19/07 Q1019
LPAR,2017-11-17 14:00,-9.0333,38.8833,68.00,48.20,M,M,M,0.00,30.09,M,6.21,M,M,M,M,M,M,M,M,M,M,M,M,M,M,M,M,M,LPAR 171400Z /////KT CAVOK 20/09 Q1019
LPAR,2017-11-17 15:00,-9.0333,38.8833,69.80,44.60,M,M,M,0.00,30.06,M,6.21,M,M,M,M,M,M,M,M,M,M,M,M,M,M,M,M,M,LPAR 171500Z /////KT CAVOK 21/07 Q1018
LPAR,2017-11-17 16:00,-9.0333,38.8833,68.00,48.20,M,M,M,0.00,30.06,M,6.21,M,M,M,M,M,M,M,M,M,M,M,M,M,M,M,M,M,LPAR 171600Z /////KT CAVOK 20/09 Q1018
LPAR,2017-11-17 17:00,-9.0333,38.8833,66.20,50.00,M,M,M,0.00,30.06,M,6.21,M,M,M,M,M,M,M,M,M,M,M,M,M,M,M,M,M,LPAR 171700Z /////KT CAVOK 19/10 Q1018
LPAR,2017-11-18 09:00,-9.0333,38.8833,48.20,46.40,M,M,M,0.00,30.09,M,4.97,M,NSC,M,M,M,M,M,M,M,M,M,M,M,M,M,M,M,LPAR 180900Z /////KT 8000 NSC 09/08 Q1019
LPAR,2017-11-18 10:00,-9.0333,38.8833,50.00,46.40,M,M,M,0.00,30.12,M,6.21,M,M,M,M,M,M,M,M,M,M,M,M,M,M,M,M,M,LPAR 181000Z /////KT CAVOK 10/08 Q1020
LPAR,2017-11-18 11:00,-9.0333,38.8833,59.00,50.00,M,M,M,0.00,30.12,M,6.21,M,M,M,M,M,M,M,M,M,M,M,M,M,M,M,M,M,LPAR 181100Z /////KT CAVOK 15/10 Q1020
LPAR,2017-11-18 12:00,-9.0333,38.8833,64.40,46.40,M,M,M,0.00,30.09,M,6.21,M,M,M,M,M,M,M,M,M,M,M,M,M,M,M,M,M,LPAR 181200Z /////KT CAVOK 18/08 Q1019
LPAR,2017-11-18 13:00,-9.0333,38.8833,66.20,46.40,M,M,M,0.00,30.06,M,6.21,M,M,M,M,M,M,M,M,M,M,M,M,M,M,M,M,M,LPAR 181300Z /////KT CAVOK 19/08 Q1018
LPAR,2017-11-18 14:00,-9.0333,38.8833,69.80,46.40,M,M,M,0.00,30.06,M,6.21,M,M,M,M,M,M,M,M,M,M,M,M,M,M,M,M,M,LPAR 181400Z /////KT CAVOK 21/08 Q1018
LPAR,2017-11-18 15:00,-9.0333,38.8833,69.80,51.80,M,M,M,0.00,30.03,M,6.21,M,M,M,M,M,M,M,M,M,M,M,M,M,M,M,M,M,LPAR 181500Z /////KT CAVOK 21/11 Q1017
LPAR,2017-11-18 16:00,-9.0333,38.8833,68.00,51.80,M,M,M,0.00,30.03,M,6.21,M,M,M,M,M,M,M,M,M,M,M,M,M,M,M,M,M,LPAR 181600Z /////KT CAVOK 20/11 Q1017
LPAR,2017-11-20 09:00,-9.0333,38.8833,50.00,44.60,M,M,M,0.00,30.21,M,6.21,M,M,M,M,M,M,M,M,M,M,M,M,M,M,M,M,M,LPAR 200900Z /////KT CAVOK 10/07 Q1023
LPAR,2017-11-20 10:00,-9.0333,38.8833,55.40,46.40,M,M,M,0.00,30.21,M,6.21,M,M,M,M,M,M,M,M,M,M,M,M,M,M,M,M,M,LPAR 201000Z /////KT CAVOK 13/08 Q1023
LPAR,2017-11-20 11:00,-9.0333,38.8833,59.00,42.80,M,M,M,0.00,30.21,M,6.21,M,M,M,M,M,M,M,M,M,M,M,M,M,M,M,M,M,LPAR 201100Z /////KT CAVOK 15/06 Q1023
LPAR,2017-11-20 12:00,-9.0333,38.8833,60.80,44.60,M,M,M,0.00,30.18,M,6.21,M,M,M,M,M,M,M,M,M,M,M,M,M,M,M,M,M,LPAR 201200Z /////KT CAVOK 16/07 Q1022
LPAR,2017-11-20 13:00,-9.0333,38.8833,62.60,44.60,M,M,M,0.00,30.18,M,6.21,M,M,M,M,M,M,M,M,M,M,M,M,M,M,M,M,M,LPAR 201300Z /////KT CAVOK 17/07 Q1022
LPAR,2017-11-20 14:00,-9.0333,38.8833,68.00,44.60,M,M,M,0.00,30.12,M,6.21,M,M,M,M,M,M,M,M,M,M,M,M,M,M,M,M,M,LPAR 201400Z /////KT CAVOK 20/07 Q1020
LPAR,2017-11-20 15:00,-9.0333,38.8833,69.80,46.40,M,M,M,0.00,30.12,M,6.21,M,M,M,M,M,M,M,M,M,M,M,M,M,M,M,M,M,LPAR 201500Z /////KT CAVOK 21/08 Q1020
LPAR,2017-11-20 16:00,-9.0333,38.8833,69.80,46.40,M,M,M,0.00,30.12,M,6.21,M,M,M,M,M,M,M,M,M,M,M,M,M,M,M,M,M,LPAR 201600Z /////KT CAVOK 21/08 Q1020
LPAR,2017-11-20 17:00,-9.0333,38.8833,69.80,46.40,M,M,M,0.00,30.12,M,6.21,M,M,M,M,M,M,M,M,M,M,M,M,M,M,M,M,M,LPAR 201700Z /////KT CAVOK 21/08 Q1020
LPAR,2017-11-21 10:00,-9.0333,38.8833,51.80,42.80,M,M,M,0.00,30.15,M,6.21,M,M,M,M,M,M,M,M,M,M,M,M,M,M,M,M,M,LPAR 211000Z /////KT CAVOK 11/06 Q1021
LPAR,2017-11-21 11:00,-9.0333,38.8833,55.40,44.60,M,M,M,0.00,30.15,M,6.21,M,M,M,M,M,M,M,M,M,M,M,M,M,M,M,M,M,LPAR 211100Z /////KT CAVOK 13/07 Q1021
LPAR,2017-11-21 12:00,-9.0333,38.8833,59.00,46.40,M,M,M,0.00,30.12,M,6.21,M,FEW,M,M,M,3000.00,M,M,M,M,M,M,M,M,M,M,M,LPAR 211200Z /////KT 9999 FEW030 15/08 Q1020
LPAR,2017-11-21 13:00,-9.0333,38.8833,64.40,44.60,M,M,M,0.00,30.12,M,6.21,M,FEW,M,M,M,3000.00,M,M,M,M,M,M,M,M,M,M,M,LPAR 211300Z /////KT 9999 FEW030 18/07 Q1020
LPAR,2017-11-21 14:00,-9.0333,38.8833,68.00,48.20,M,M,M,0.00,30.06,M,6.21,M,FEW,M,M,M,3000.00,M,M,M,M,M,M,M,M,M,M,M,LPAR 211400Z /////KT 9999 FEW030 20/09 Q1018
LPAR,2017-11-21 15:00,-9.0333,38.8833,68.00,53.60,M,M,M,0.00,30.06,M,6.21,M,FEW,M,M,M,3000.00,M,M,M,M,M,M,M,M,M,M,M,LPAR 211500Z /////KT 9999 FEW030 20/12 Q1018
LPAR,2017-11-21 16:00,-9.0333,38.8833,66.20,57.20,M,M,M,0.00,30.06,M,6.21,M,FEW,M,M,M,2500.00,M,M,M,M,M,M,M,M,M,M,M,LPAR 211600Z /////KT 9999 FEW025 19/14 Q1018
LPAR,2017-11-21 17:00,-9.0333,38.8833,66.20,60.80,M,M,M,0.00,30.06,M,6.21,M,FEW,M,M,M,2200.00,M,M,M,M,M,M,M,M,M,M,M,LPAR 211700Z /////KT 9999 FEW022 19/16 Q1018
LPAR,2017-11-22 09:00,-9.0333,38.8833,50.00,50.00,M,M,M,0.00,29.97,M,6.21,M,FEW,M,M,M,900.00,M,M,M,M,M,M,M,M,M,M,M,LPAR 220900Z /////KT 9999 FEW009 10/10 Q1015
LPAR,2017-11-22 10:00,-9.0333,38.8833,50.00,50.00,M,M,M,0.00,29.97,M,4.97,M,FEW,M,M,M,900.00,M,M,M,M,M,M,M,M,M,M,M,LPAR 221000Z /////KT 8000 FEW009 10/10 Q1015
LPAR,2017-11-22 11:00,-9.0333,38.8833,51.80,48.20,M,M,M,0.00,29.97,M,4.97,M,NSC,M,M,M,M,M,M,M,M,M,M,M,M,M,M,M,LPAR 221100Z /////KT 8000 NSC 11/09 Q1015
LPAR,2017-11-22 12:00,-9.0333,38.8833,55.40,50.00,M,M,M,0.00,29.97,M,5.59,M,NSC,M,M,M,M,M,M,M,M,M,M,M,M,M,M,M,LPAR 221200Z /////KT 9000 NSC 13/10 Q1015
LPAR,2017-11-22 13:00,-9.0333,38.8833,59.00,51.80,M,M,M,0.00,29.91,M,5.59,M,NSC,M,M,M,M,M,M,M,M,M,M,M,M,M,M,M,LPAR 221300Z /////KT 9000 NSC 15/11 Q1013
LPAR,2017-11-22 14:00,-9.0333,38.8833,59.00,53.60,M,M,M,0.00,29.88,M,6.21,M,M,M,M,M,M,M,M,M,M,M,M,M,M,M,M,M,LPAR 221400Z /////KT CAVOK 15/12 Q1012
LPAR,2017-11-22 15:00,-9.0333,38.8833,64.40,55.40,M,M,M,0.00,29.88,M,6.21,M,M,M,M,M,M,M,M,M,M,M,M,M,M,M,M,M,LPAR 221500Z /////KT CAVOK 18/13 Q1012
LPAR,2017-11-22 16:00,-9.0333,38.8833,66.20,57.20,M,M,M,0.00,29.85,M,6.21,M,M,M,M,M,M,M,M,M,M,M,M,M,M,M,M,M,LPAR 221600Z /////KT CAVOK 19/14 Q1011
LPAR,2017-11-22 17:00,-9.0333,38.8833,64.40,57.20,M,M,M,0.00,29.88,M,6.21,M,M,M,M,M,M,M,M,M,M,M,M,M,M,M,M,M,LPAR 221700Z /////KT CAVOK 18/14 Q1012
LPAR,2017-11-23 09:00,-9.0333,38.8833,62.60,57.20,M,M,M,0.00,29.94,M,6.21,M,M,M,M,M,M,M,M,M,M,M,M,M,M,M,M,M,LPAR 230900Z /////KT CAVOK 17/14 Q1014
LPAR,2017-11-23 10:00,-9.0333,38.8833,64.40,57.20,M,M,M,0.00,29.97,M,6.21,M,M,M,M,M,M,M,M,M,M,M,M,M,M,M,M,M,LPAR 231000Z /////KT CAVOK 18/14 Q1015
LPAR,2017-11-23 11:00,-9.0333,38.8833,66.20,59.00,M,M,M,0.00,29.97,M,6.21,M,M,M,M,M,M,M,M,M,M,M,M,M,M,M,M,M,LPAR 231100Z /////KT CAVOK 19/15 Q1015
LPAR,2017-11-23 12:00,-9.0333,38.8833,68.00,59.00,M,M,M,0.00,29.97,M,6.21,M,FEW,M,M,M,2000.00,M,M,M,M,M,M,M,M,M,M,M,LPAR 231200Z /////KT 9999 FEW020 20/15 Q1015
LPAR,2017-11-23 13:00,-9.0333,38.8833,69.80,57.20,M,M,M,0.00,29.94,M,6.21,M,FEW,M,M,M,2000.00,M,M,M,M,M,M,M,M,M,M,M,LPAR 231300Z /////KT 9999 FEW020 21/14 Q1014
LPAR,2017-11-23 14:00,-9.0333,38.8833,69.80,59.00,M,M,M,0.00,29.94,M,6.21,M,FEW,M,M,M,2000.00,M,M,M,M,M,M,M,M,M,M,M,LPAR 231400Z /////KT 9999 FEW020 21/15 Q1014
LPAR,2017-11-23 15:00,-9.0333,38.8833,68.00,64.40,M,M,M,0.00,29.91,M,1.86,M,FEW,M,M,M,400.00,M,M,M,-RA,M,M,M,M,M,M,M,LPAR 231500Z /////KT 3000 -RA FEW004 20/18 Q1013
LPAR,2017-11-23 16:00,-9.0333,38.8833,62.60,60.80,M,M,M,0.00,29.91,M,4.97,M,FEW,SCT,M,M,500.00,1200.00,M,M,-RA,M,M,M,M,M,M,M,LPAR 231600Z /////KT 8000 -RA FEW005 SCT012 17/16 Q1013
LPAR,2017-11-23 17:00,-9.0333,38.8833,62.60,60.80,M,M,M,0.00,29.91,M,2.49,M,FEW,SCT,FEW,M,500.00,1200.00,2000.00,M,-RA,M,M,M,M,M,M,M,LPAR 231700Z /////KT 4000 -RA FEW005 SCT012 FEW020CB 17/16 Q1013
LPAR,2017-11-24 09:00,-9.0333,38.8833,60.80,60.80,M,M,M,0.00,30.06,M,1.86,M,BKN,BKN,M,M,400.00,1200.00,M,M,BR,M,M,M,M,M,M,M,LPAR 240900Z /////KT 3000 BR BKN004 BKN012 16/16 Q1018
LPAR,2017-11-24 10:00,-9.0333,38.8833,64.40,62.60,M,M,M,0.00,30.06,M,6.21,M,FEW,SCT,BKN,M,700.00,1000.00,1400.00,M,M,M,M,M,M,M,M,M,LPAR 241000Z /////KT 9999 FEW007 SCT010 BKN014 18/17 Q1018
LPAR,2017-11-24 11:00,-9.0333,38.8833,66.20,62.60,M,M,M,0.00,30.06,M,6.21,M,SCT,M,M,M,1400.00,M,M,M,M,M,M,M,M,M,M,M,LPAR 241100Z /////KT 9999 SCT014 19/17 Q1018
LPAR,2017-11-24 12:00,-9.0333,38.8833,66.20,62.60,M,M,M,0.00,30.06,M,6.21,M,SCT,M,M,M,1500.00,M,M,M,M,M,M,M,M,M,M,M,LPAR 241200Z /////KT 9999 SCT015 19/17 Q1018
LPAR,2017-11-24 13:00,-9.0333,38.8833,68.00,62.60,M,M,M,0.00,30.03,M,6.21,M,SCT,M,M,M,1500.00,M,M,M,M,M,M,M,M,M,M,M,LPAR 241300Z /////KT 9999 SCT015 20/17 Q1017
LPAR,2017-11-24 14:00,-9.0333,38.8833,68.00,62.60,M,M,M,0.00,30.03,M,6.21,M,SCT,M,M,M,1500.00,M,M,M,M,M,M,M,M,M,M,M,LPAR 241400Z /////KT 9999 SCT015 20/17 Q1017
LPAR,2017-11-24 15:00,-9.0333,38.8833,68.00,60.80,M,M,M,0.00,30.03,M,6.21,M,SCT,M,M,M,1500.00,M,M,M,M,M,M,M,M,M,M,M,LPAR 241500Z /////KT 9999 SCT015 20/16 Q1017
LPAR,2017-11-24 16:00,-9.0333,38.8833,66.20,60.80,M,M,M,0.00,30.03,M,6.21,M,SCT,M,M,M,1800.00,M,M,M,M,M,M,M,M,M,M,M,LPAR 241600Z /////KT 9999 SCT018 19/16 Q1017
LPAR,2017-11-24 17:00,-9.0333,38.8833,64.40,60.80,M,M,M,0.00,30.03,M,6.21,M,SCT,M,M,M,1800.00,M,M,M,M,M,M,M,M,M,M,M,LPAR 241700Z /////KT 9999 SCT018 18/16 Q1017
LPAR,2017-11-27 09:00,-9.0333,38.8833,55.40,41.00,M,M,M,0.00,30.30,M,6.21,M,M,M,M,M,M,M,M,M,M,M,M,M,M,M,M,M,LPAR 270900Z /////KT CAVOK 13/05 Q1026
LPAR,2017-11-27 10:00,-9.0333,38.8833,55.40,39.20,M,M,M,0.00,30.33,M,6.21,M,M,M,M,M,M,M,M,M,M,M,M,M,M,M,M,M,LPAR 271000Z /////KT CAVOK 13/04 Q1027
LPAR,2017-11-27 11:00,-9.0333,38.8833,57.20,42.80,M,M,M,0.00,30.33,M,6.21,M,M,M,M,M,M,M,M,M,M,M,M,M,M,M,M,M,LPAR 271100Z /////KT CAVOK 14/06 Q1027
LPAR,2017-11-27 12:00,-9.0333,38.8833,57.20,42.80,M,M,M,0.00,30.30,M,6.21,M,M,M,M,M,M,M,M,M,M,M,M,M,M,M,M,M,LPAR 271200Z /////KT CAVOK 14/06 Q1026
LPAR,2017-11-27 13:00,-9.0333,38.8833,59.00,44.60,M,M,M,0.00,30.27,M,6.21,M,M,M,M,M,M,M,M,M,M,M,M,M,M,M,M,M,LPAR 271300Z /////KT CAVOK 15/07 Q1025
LPAR,2017-11-27 14:00,-9.0333,38.8833,59.00,46.40,M,M,M,0.00,30.27,M,6.21,M,M,M,M,M,M,M,M,M,M,M,M,M,M,M,M,M,LPAR 271400Z /////KT CAVOK 15/08 Q1025
LPAR,2017-11-27 15:00,-9.0333,38.8833,60.80,46.40,M,M,M,0.00,30.24,M,6.21,M,M,M,M,M,M,M,M,M,M,M,M,M,M,M,M,M,LPAR 271500Z /////KT CAVOK 16/08 Q1024
LPAR,2017-11-27 16:00,-9.0333,38.8833,60.80,48.20,M,M,M,0.00,30.24,M,6.21,M,M,M,M,M,M,M,M,M,M,M,M,M,M,M,M,M,LPAR 271600Z /////KT CAVOK 16/09 Q1024
LPAR,2017-11-27 17:00,-9.0333,38.8833,60.80,48.20,M,M,M,0.00,30.24,M,6.21,M,M,M,M,M,M,M,M,M,M,M,M,M,M,M,M,M,LPAR 271700Z /////KT CAVOK 16/09 Q1024
LPAR,2017-11-28 09:00,-9.0333,38.8833,53.60,51.80,M,M,M,0.00,30.09,M,1.86,M,FEW,SCT,M,M,1200.00,2500.00,M,M,-RA BR,M,M,M,M,M,M,M,LPAR 280900Z /////KT 3000 -RA BR FEW012 SCT025 12/11 Q1019
LPAR,2017-11-28 10:00,-9.0333,38.8833,53.60,51.80,M,M,M,0.00,30.06,M,3.11,M,FEW,SCT,M,M,1200.00,2500.00,M,M,-RA BR,M,M,M,M,M,M,M,LPAR 281000Z /////KT 5000 -RA BR FEW012 SCT025 12/11 Q1018
LPAR,2017-11-28 11:00,-9.0333,38.8833,55.40,51.80,M,M,M,0.00,30.06,M,4.35,M,FEW,SCT,M,M,800.00,3000.00,M,M,M,M,M,M,M,M,M,M,LPAR 281100Z /////KT 7000 FEW008 SCT030 13/11 Q1018
LPAR,2017-11-28 12:00,-9.0333,38.8833,55.40,51.80,M,M,M,0.00,30.03,M,4.35,M,FEW,SCT,M,M,1200.00,3000.00,M,M,M,M,M,M,M,M,M,M,LPAR 281200Z /////KT 7000 FEW012 SCT030 13/11 Q1017
LPAR,2017-11-28 13:00,-9.0333,38.8833,55.40,53.60,M,M,M,0.00,29.97,M,3.73,M,FEW,SCT,M,M,1200.00,3000.00,M,M,-RA,M,M,M,M,M,M,M,LPAR 281300Z /////KT 6000 -RA FEW012 SCT030 13/12 Q1015
LPAR,2017-11-28 14:00,-9.0333,38.8833,55.40,53.60,M,M,M,0.00,29.97,M,1.24,M,BKN,BKN,M,M,500.00,1200.00,M,M,-RADZ,M,M,M,M,M,M,M,LPAR 281400Z /////KT 2000 -RADZ BKN005 BKN012 13/12 Q1015
LPAR,2017-11-28 15:00,-9.0333,38.8833,55.40,53.60,M,M,M,0.00,29.91,M,1.55,M,SCT,BKN,M,M,700.00,1400.00,M,M,-RADZ,M,M,M,M,M,M,M,LPAR 281500Z /////KT 2500 -RADZ SCT007 BKN014 13/12 Q1013
LPAR,2017-11-28 16:00,-9.0333,38.8833,55.40,55.40,M,M,M,0.00,29.91,M,3.73,M,SCT,BKN,M,M,700.00,1400.00,M,M,M,M,M,M,M,M,M,M,LPAR 281600Z /////KT 6000 SCT007 BKN014 13/13 Q1013
LPAR,2017-11-28 17:00,-9.0333,38.8833,55.40,53.60,M,M,M,0.00,29.91,M,3.73,M,SCT,BKN,M,M,700.00,1400.00,M,M,M,M,M,M,M,M,M,M,LPAR 281700Z /////KT 6000 SCT007 BKN014 13/12 Q1013
LPAR,2017-11-29 09:00,-9.0333,38.8833,53.60,48.20,M,M,M,0.00,29.83,M,6.21,M,FEW,M,M,M,1500.00,M,M,M,M,M,M,M,M,M,M,M,LPAR 290900Z /////KT 9999 FEW015 12/09 Q1010
LPAR,2017-11-29 10:00,-9.0333,38.8833,55.40,48.20,M,M,M,0.00,29.85,M,6.21,M,FEW,M,M,M,1500.00,M,M,M,M,M,M,M,M,M,M,M,LPAR 291000Z /////KT 9999 FEW015 13/09 Q1011
LPAR,2017-11-29 11:00,-9.0333,38.8833,57.20,46.40,M,M,M,0.00,29.85,M,6.21,M,FEW,M,M,M,1500.00,M,M,M,M,M,M,M,M,M,M,M,LPAR 291100Z /////KT 9999 FEW015 14/08 Q1011
LPAR,2017-11-29 12:00,-9.0333,38.8833,59.00,46.40,M,M,M,0.00,29.83,M,6.21,M,FEW,M,M,M,2000.00,M,M,M,M,M,M,M,M,M,M,M,LPAR 291200Z /////KT 9999 FEW020 15/08 Q1010
LPAR,2017-11-29 13:00,-9.0333,38.8833,59.00,46.40,M,M,M,0.00,29.83,M,6.21,M,FEW,M,M,M,2000.00,M,M,M,M,M,M,M,M,M,M,M,LPAR 291300Z /////KT 9999 FEW020 15/08 Q1010
LPAR,2017-11-29 14:00,-9.0333,38.8833,59.00,44.60,M,M,M,0.00,29.83,M,6.21,M,FEW,M,M,M,2000.00,M,M,M,M,M,M,M,M,M,M,M,LPAR 291400Z /////KT 9999 FEW020 15/07 Q1010
LPAR,2017-11-29 15:00,-9.0333,38.8833,59.00,44.60,M,M,M,0.00,29.83,M,6.21,M,FEW,M,M,M,2000.00,M,M,M,M,M,M,M,M,M,M,M,LPAR 291500Z /////KT 9999 FEW020 15/07 Q1010
LPAR,2017-11-29 16:00,-9.0333,38.8833,57.20,42.80,M,M,M,0.00,29.83,M,6.21,M,FEW,M,M,M,2000.00,M,M,M,M,M,M,M,M,M,M,M,LPAR 291600Z /////KT 9999 FEW020 14/06 Q1010
LPAR,2017-11-29 17:00,-9.0333,38.8833,57.20,42.80,M,M,M,0.00,29.83,M,6.21,M,FEW,M,M,M,2000.00,M,M,M,M,M,M,M,M,M,M,M,LPAR 291700Z /////KT 9999 FEW020 14/06 Q1010
LPAR,2017-11-30 09:00,-9.0333,38.8833,51.80,33.80,M,M,M,0.00,30.06,M,6.21,M,M,M,M,M,M,M,M,M,M,M,M,M,M,M,M,M,LPAR 300900Z /////KT CAVOK 11/01 Q1018
LPAR,2017-11-30 10:00,-9.0333,38.8833,51.80,33.80,M,M,M,0.00,30.09,M,6.21,M,M,M,M,M,M,M,M,M,M,M,M,M,M,M,M,M,LPAR 301000Z /////KT CAVOK 11/01 Q1019
LPAR,2017-11-30 11:00,-9.0333,38.8833,53.60,35.60,M,M,M,0.00,30.09,M,6.21,M,M,M,M,M,M,M,M,M,M,M,M,M,M,M,M,M,LPAR 301100Z /////KT CAVOK 12/02 Q1019
LPAR,2017-11-30 12:00,-9.0333,38.8833,55.40,35.60,M,M,M,0.00,30.12,M,6.21,M,M,M,M,M,M,M,M,M,M,M,M,M,M,M,M,M,LPAR 301200Z /////KT CAVOK 13/02 Q1020
LPAR,2017-11-30 13:00,-9.0333,38.8833,55.40,35.60,M,M,M,0.00,30.12,M,6.21,M,M,M,M,M,M,M,M,M,M,M,M,M,M,M,M,M,LPAR 301300Z /////KT CAVOK 13/02 Q1020
LPAR,2017-11-30 14:00,-9.0333,38.8833,57.20,35.60,M,M,M,0.00,30.09,M,6.21,M,M,M,M,M,M,M,M,M,M,M,M,M,M,M,M,M,LPAR 301400Z /////KT CAVOK 14/02 Q1019
LPAR,2017-11-30 15:00,-9.0333,38.8833,59.00,35.60,M,M,M,0.00,30.12,M,6.21,M,M,M,M,M,M,M,M,M,M,M,M,M,M,M,M,M,LPAR 301500Z /////KT CAVOK 15/02 Q1020
LPAR,2017-11-30 16:00,-9.0333,38.8833,57.20,39.20,M,M,M,0.00,30.12,M,6.21,M,M,M,M,M,M,M,M,M,M,M,M,M,M,M,M,M,LPAR 301600Z /////KT CAVOK 14/04 Q1020
LPAR,2017-11-30 17:00,-9.0333,38.8833,57.20,41.00,M,M,M,0.00,30.12,M,6.21,M,M,M,M,M,M,M,M,M,M,M,M,M,M,M,M,M,LPAR 301700Z /////KT CAVOK 14/05 Q1020
LPAR,2017-12-04 09:00,-9.0333,38.8833,44.60,33.80,M,M,M,0.00,30.50,M,6.21,M,M,M,M,M,M,M,M,M,M,M,M,M,M,M,M,M,LPAR 040900Z /////KT CAVOK 07/01 Q1033
LPAR,2017-12-04 10:00,-9.0333,38.8833,46.40,33.80,M,M,M,0.00,30.50,M,6.21,M,M,M,M,M,M,M,M,M,M,M,M,M,M,M,M,M,LPAR 041000Z /////KT CAVOK 08/01 Q1033
LPAR,2017-12-04 11:00,-9.0333,38.8833,48.20,33.80,M,M,M,0.00,30.53,M,6.21,M,M,M,M,M,M,M,M,M,M,M,M,M,M,M,M,M,LPAR 041100Z /////KT CAVOK 09/01 Q1034
LPAR,2017-12-04 12:00,-9.0333,38.8833,50.00,35.60,M,M,M,0.00,30.50,M,6.21,M,M,M,M,M,M,M,M,M,M,M,M,M,M,M,M,M,LPAR 041200Z /////KT CAVOK 10/02 Q1033
LPAR,2017-12-04 13:00,-9.0333,38.8833,53.60,35.60,M,M,M,0.00,30.47,M,6.21,M,M,M,M,M,M,M,M,M,M,M,M,M,M,M,M,M,LPAR 041300Z /////KT CAVOK 12/02 Q1032
LPAR,2017-12-04 14:00,-9.0333,38.8833,55.40,37.40,M,M,M,0.00,30.47,M,6.21,M,M,M,M,M,M,M,M,M,M,M,M,M,M,M,M,M,LPAR 041400Z /////KT CAVOK 13/03 Q1032
LPAR,2017-12-04 15:00,-9.0333,38.8833,57.20,37.40,M,M,M,0.00,30.47,M,6.21,M,M,M,M,M,M,M,M,M,M,M,M,M,M,M,M,M,LPAR 041500Z /////KT CAVOK 14/03 Q1032
LPAR,2017-12-04 16:00,-9.0333,38.8833,57.20,37.40,M,M,M,0.00,30.45,M,6.21,M,M,M,M,M,M,M,M,M,M,M,M,M,M,M,M,M,LPAR 041600Z /////KT CAVOK 14/03 Q1031
LPAR,2017-12-04 17:00,-9.0333,38.8833,55.40,35.60,M,M,M,0.00,30.47,M,6.21,M,M,M,M,M,M,M,M,M,M,M,M,M,M,M,M,M,LPAR 041700Z /////KT CAVOK 13/02 Q1032
LPAR,2017-12-04 18:00,-9.0333,38.8833,53.60,35.60,M,M,M,0.00,30.47,M,6.21,M,M,M,M,M,M,M,M,M,M,M,M,M,M,M,M,M,LPAR 041800Z /////KT CAVOK 12/02 Q1032
LPAR,2017-12-05 09:00,-9.0333,38.8833,53.60,46.40,M,M,M,0.00,30.56,M,6.21,M,M,M,M,M,M,M,M,M,M,M,M,M,M,M,M,M,LPAR 050900Z /////KT CAVOK 12/08 Q1035
LPAR,2017-12-05 10:00,-9.0333,38.8833,46.40,35.60,M,M,M,0.00,30.56,M,6.21,M,M,M,M,M,M,M,M,M,M,M,M,M,M,M,M,M,LPAR 051000Z /////KT CAVOK 08/02 Q1035
LPAR,2017-12-05 11:00,-9.0333,38.8833,48.20,37.40,M,M,M,0.00,30.56,M,6.21,M,M,M,M,M,M,M,M,M,M,M,M,M,M,M,M,M,LPAR 051100Z /////KT CAVOK 09/03 Q1035
LPAR,2017-12-05 12:00,-9.0333,38.8833,50.00,39.20,M,M,M,0.00,30.53,M,6.21,M,M,M,M,M,M,M,M,M,M,M,M,M,M,M,M,M,LPAR 051200Z /////KT CAVOK 10/04 Q1034
LPAR,2017-12-05 13:00,-9.0333,38.8833,53.60,35.60,M,M,M,0.00,30.53,M,6.21,M,M,M,M,M,M,M,M,M,M,M,M,M,M,M,M,M,LPAR 051300Z /////KT CAVOK 12/02 Q1034
LPAR,2017-12-05 14:00,-9.0333,38.8833,57.20,39.20,M,M,M,0.00,30.50,M,6.21,M,M,M,M,M,M,M,M,M,M,M,M,M,M,M,M,M,LPAR 051400Z /////KT CAVOK 14/04 Q1033
LPAR,2017-12-05 15:00,-9.0333,38.8833,57.20,37.40,M,M,M,0.00,30.50,M,6.21,M,M,M,M,M,M,M,M,M,M,M,M,M,M,M,M,M,LPAR 051500Z /////KT CAVOK 14/03 Q1033
LPAR,2017-12-05 16:00,-9.0333,38.8833,55.40,39.20,M,M,M,0.00,30.47,M,6.21,M,M,M,M,M,M,M,M,M,M,M,M,M,M,M,M,M,LPAR 051600Z /////KT CAVOK 13/04 Q1032
LPAR,2017-12-05 17:00,-9.0333,38.8833,55.40,41.00,M,M,M,0.00,30.50,M,6.21,M,M,M,M,M,M,M,M,M,M,M,M,M,M,M,M,M,LPAR 051700Z /////KT CAVOK 13/05 Q1033
LPAR,2017-12-06 09:00,-9.0333,38.8833,42.80,39.20,M,M,M,0.00,30.50,M,6.21,M,M,M,M,M,M,M,M,M,M,M,M,M,M,M,M,M,LPAR 060900Z /////KT CAVOK 06/04 Q1033
LPAR,2017-12-06 10:00,-9.0333,38.8833,44.60,39.20,M,M,M,0.00,30.50,M,6.21,M,M,M,M,M,M,M,M,M,M,M,M,M,M,M,M,M,LPAR 061000Z /////KT CAVOK 07/04 Q1033
LPAR,2017-12-06 11:00,-9.0333,38.8833,46.40,39.20,M,M,M,0.00,30.50,M,6.21,M,M,M,M,M,M,M,M,M,M,M,M,M,M,M,M,M,LPAR 061100Z /////KT CAVOK 08/04 Q1033
LPAR,2017-12-06 12:00,-9.0333,38.8833,48.20,39.20,M,M,M,0.00,30.50,M,6.21,M,M,M,M,M,M,M,M,M,M,M,M,M,M,M,M,M,LPAR 061200Z /////KT CAVOK 09/04 Q1033
LPAR,2017-12-06 13:00,-9.0333,38.8833,50.00,39.20,M,M,M,0.00,30.47,M,6.21,M,M,M,M,M,M,M,M,M,M,M,M,M,M,M,M,M,LPAR 061300Z /////KT CAVOK 10/04 Q1032
LPAR,2017-12-06 14:00,-9.0333,38.8833,53.60,39.20,M,M,M,0.00,30.47,M,6.21,M,M,M,M,M,M,M,M,M,M,M,M,M,M,M,M,M,LPAR 061400Z /////KT CAVOK 12/04 Q1032
LPAR,2017-12-06 15:00,-9.0333,38.8833,55.40,41.00,M,M,M,0.00,30.45,M,6.21,M,M,M,M,M,M,M,M,M,M,M,M,M,M,M,M,M,LPAR 061500Z /////KT CAVOK 13/05 Q1031
LPAR,2017-12-06 16:00,-9.0333,38.8833,55.40,41.00,M,M,M,0.00,30.45,M,6.21,M,M,M,M,M,M,M,M,M,M,M,M,M,M,M,M,M,LPAR 061600Z /////KT CAVOK 13/05 Q1031
LPAR,2017-12-06 17:00,-9.0333,38.8833,55.40,42.80,M,M,M,0.00,30.45,M,6.21,M,M,M,M,M,M,M,M,M,M,M,M,M,M,M,M,M,LPAR 061700Z /////KT CAVOK 13/06 Q1031
LPAR,2017-12-07 09:00,-9.0333,38.8833,44.60,39.20,M,M,M,0.00,30.47,M,2.49,M,NSC,M,M,M,M,M,M,M,BR,M,M,M,M,M,M,M,LPAR 070900Z /////KT 4000 BR NSC 07/04 Q1032
LPAR,2017-12-07 10:00,-9.0333,38.8833,44.60,41.00,M,M,M,0.00,30.50,M,4.35,M,NSC,M,M,M,M,M,M,M,M,M,M,M,M,M,M,M,LPAR 071000Z /////KT 7000 NSC 07/05 Q1033
LPAR,2017-12-07 11:00,-9.0333,38.8833,50.00,39.20,M,M,M,0.00,30.50,M,4.97,M,NSC,M,M,M,M,M,M,M,M,M,M,M,M,M,M,M,LPAR 071100Z /////KT 8000 NSC 10/04 Q1033
LPAR,2017-12-07 12:00,-9.0333,38.8833,51.80,39.20,M,M,M,0.00,30.47,M,6.21,M,M,M,M,M,M,M,M,M,M,M,M,M,M,M,M,M,LPAR 071200Z /////KT CAVOK 11/04 Q1032
LPAR,2017-12-07 13:00,-9.0333,38.8833,51.80,39.20,M,M,M,0.00,30.45,M,6.21,M,M,M,M,M,M,M,M,M,M,M,M,M,M,M,M,M,LPAR 071300Z /////KT CAVOK 11/04 Q1031
LPAR,2017-12-07 14:00,-9.0333,38.8833,57.20,41.00,M,M,M,0.00,30.45,M,6.21,M,M,M,M,M,M,M,M,M,M,M,M,M,M,M,M,M,LPAR 071400Z /////KT CAVOK 14/05 Q1031
LPAR,2017-12-07 15:00,-9.0333,38.8833,57.20,37.40,M,M,M,0.00,30.42,M,6.21,M,M,M,M,M,M,M,M,M,M,M,M,M,M,M,M,M,LPAR 071500Z /////KT CAVOK 14/03 Q1030
LPAR,2017-12-07 16:00,-9.0333,38.8833,59.00,39.20,M,M,M,0.00,30.42,M,6.21,M,M,M,M,M,M,M,M,M,M,M,M,M,M,M,M,M,LPAR 071600Z /////KT CAVOK 15/04 Q1030
LPAR,2017-12-07 17:00,-9.0333,38.8833,57.20,41.00,M,M,M,0.00,30.42,M,6.21,M,M,M,M,M,M,M,M,M,M,M,M,M,M,M,M,M,LPAR 071700Z /////KT CAVOK 14/05 Q1030
LPAR,2017-12-11 09:00,-9.0333,38.8833,51.80,42.80,M,M,M,0.00,29.62,M,6.21,M,FEW,SCT,FEW,M,1500.00,2000.00,2500.00,M,-SHRA,M,M,M,M,M,M,M,LPAR 110900Z /////KT 9999 -SHRA FEW015 SCT020 FEW025TCU 11/06 Q1003
LPAR,2017-12-11 10:00,-9.0333,38.8833,53.60,44.60,M,M,M,0.00,29.62,M,6.21,M,FEW,FEW,M,M,1500.00,2500.00,M,M,VCSH,M,M,M,M,M,M,M,LPAR 111000Z /////KT 9999 VCSH FEW015 FEW025CB 12/07 Q1003
LPAR,2017-12-11 11:00,-9.0333,38.8833,55.40,48.20,M,M,M,0.00,29.65,M,6.21,M,FEW,SCT,FEW,M,1500.00,2300.00,2500.00,M,-SHRA,M,M,M,M,M,M,M,LPAR 111100Z /////KT 9999 -SHRA FEW015 SCT023 FEW025CB 13/09 Q1004
LPAR,2017-12-11 12:00,-9.0333,38.8833,55.40,46.40,M,M,M,0.00,29.65,M,2.49,M,FEW,SCT,SCT,M,1500.00,2300.00,2500.00,M,-SHRA,M,M,M,M,M,M,M,LPAR 111200Z /////KT 4000 -SHRA FEW015 SCT023 SCT025CB 13/08 Q1004
LPAR,2017-12-11 13:00,-9.0333,38.8833,57.20,48.20,M,M,M,0.00,29.62,M,4.97,M,FEW,SCT,SCT,M,1500.00,2300.00,2500.00,M,-SHRA,M,M,M,M,M,M,M,LPAR 111300Z /////KT 8000 -SHRA FEW015 SCT023 SCT025CB 14/09 Q1003
LPAR,2017-12-11 14:00,-9.0333,38.8833,55.40,46.40,M,M,M,0.00,29.62,M,4.97,M,SCT,FEW,SCT,M,2500.00,2800.00,3500.00,M,-SHRA,M,M,M,M,M,M,M,LPAR 111400Z /////KT 8000 -SHRA SCT025 FEW028CB SCT035 13/08 Q1003
LPAR,2017-12-11 15:00,-9.0333,38.8833,53.60,44.60,M,M,M,0.00,29.62,M,6.21,M,FEW,FEW,M,M,2500.00,2800.00,M,M,VCSH,M,M,M,M,M,M,M,LPAR 111500Z /////KT 9999 VCSH FEW025 FEW028CB 12/07 Q1003
LPAR,2017-12-11 17:00,-9.0333,38.8833,53.60,41.00,M,M,M,0.00,29.71,M,6.21,M,FEW,M,M,M,2500.00,M,M,M,M,M,M,M,M,M,M,M,LPAR 111700Z /////KT 9999 FEW025 12/05 Q1006
LPAR,2017-12-12 09:00,-9.0333,38.8833,44.60,41.00,M,M,M,0.00,30.12,M,6.21,M,FEW,M,M,M,1800.00,M,M,M,M,M,M,M,M,M,M,M,LPAR 120900Z /////KT 9999 FEW018 07/05 Q1020
LPAR,2017-12-12 10:00,-9.0333,38.8833,51.80,46.40,M,M,M,0.00,30.15,M,6.21,M,FEW,M,M,M,1800.00,M,M,M,M,M,M,M,M,M,M,M,LPAR 121000Z /////KT 9999 FEW018 11/08 Q1021
LPAR,2017-12-12 11:00,-9.0333,38.8833,55.40,42.80,M,M,M,0.00,30.15,M,6.21,M,FEW,M,M,M,2000.00,M,M,M,M,M,M,M,M,M,M,M,LPAR 121100Z /////KT 9999 FEW020 13/06 Q1021
LPAR,2017-12-12 12:00,-9.0333,38.8833,57.20,44.60,M,M,M,0.00,30.15,M,6.21,M,FEW,M,M,M,2000.00,M,M,M,M,M,M,M,M,M,M,M,LPAR 121200Z /////KT 9999 FEW020 14/07 Q1021
LPAR,2017-12-12 13:00,-9.0333,38.8833,59.00,41.00,M,M,M,0.00,30.15,M,6.21,M,FEW,M,M,M,2000.00,M,M,M,M,M,M,M,M,M,M,M,LPAR 121300Z ////KT 9999 FEW020 15/05 Q1021
LPAR,2017-12-12 14:00,-9.0333,38.8833,59.00,41.00,M,M,M,0.00,30.15,M,6.21,M,FEW,M,M,M,2500.00,M,M,M,M,M,M,M,M,M,M,M,LPAR 121400Z /////KT 9999 FEW025 15/05 Q1021
LPAR,2017-12-12 15:00,-9.0333,38.8833,59.00,42.80,M,M,M,0.00,30.15,M,6.21,M,FEW,M,M,M,2500.00,M,M,M,M,M,M,M,M,M,M,M,LPAR 121500Z /////KT 9999 FEW025 15/06 Q1021
LPAR,2017-12-12 16:00,-9.0333,38.8833,57.20,41.00,M,M,M,0.00,30.18,M,6.21,M,FEW,M,M,M,2500.00,M,M,M,M,M,M,M,M,M,M,M,LPAR 121600Z /////KT 9999 FEW025 14/05 Q1022
LPAR,2017-12-12 17:00,-9.0333,38.8833,57.20,41.00,M,M,M,0.00,30.18,M,6.21,M,FEW,M,M,M,2500.00,M,M,M,M,M,M,M,M,M,M,M,LPAR 121700Z /////KT 9999 FEW025 14/05 Q1022
LPAR,2017-12-13 09:00,-9.0333,38.8833,48.20,44.60,M,M,M,0.00,30.36,M,6.21,M,SCT,M,M,M,3500.00,M,M,M,M,M,M,M,M,M,M,M,LPAR 130900Z /////KT 9999 SCT035 09/07 Q1028
LPAR,2017-12-13 10:00,-9.0333,38.8833,50.00,46.40,M,M,M,0.00,30.39,M,6.21,M,BKN,M,M,M,3500.00,M,M,M,M,M,M,M,M,M,M,M,LPAR 131000Z /////KT 9999 BKN035 10/08 Q1029
LPAR,2017-12-13 11:00,-9.0333,38.8833,53.60,44.60,M,M,M,0.00,30.39,M,6.21,M,SCT,M,M,M,3500.00,M,M,M,M,M,M,M,M,M,M,M,LPAR 131100Z /////KT 9999 SCT035 12/07 Q1029
LPAR,2017-12-13 12:00,-9.0333,38.8833,53.60,46.40,M,M,M,0.00,30.36,M,6.21,M,BKN,M,M,M,4000.00,M,M,M,M,M,M,M,M,M,M,M,LPAR 131200Z /////KT 9999 BKN040 12/08 Q1028
LPAR,2017-12-13 13:00,-9.0333,38.8833,57.20,48.20,M,M,M,0.00,30.36,M,M,M,SCT,BKN,M,M,2500.00,4000.00,M,M,M,M,M,M,M,M,M,M,LPAR 131300Z /////KT SCT025 BKN040 14/09 Q1028
LPAR,2017-12-13 15:00,-9.0333,38.8833,57.20,50.00,M,M,M,0.00,30.36,M,6.21,M,FEW,BKN,BKN,M,900.00,2000.00,3500.00,M,VCSH,M,M,M,M,M,M,M,LPAR 131500Z /////KT 9999 VCSH FEW009 BKN020 BKN035 14/10 Q1028
LPAR,2017-12-13 16:00,-9.0333,38.8833,55.40,51.80,M,M,M,0.00,M,M,6.21,M,FEW,BKN,BKN,M,900.00,1500.00,3000.00,M,-RA,M,M,M,M,M,M,M,LPAR 131600Z /////KT 9999 -RA FEW009 BKN015 BKN030 13/11
LPAR,2017-12-13 17:00,-9.0333,38.8833,53.60,51.80,M,M,M,0.00,30.36,M,6.21,M,FEW,BKN,BKN,M,900.00,1500.00,3000.00,M,M,M,M,M,M,M,M,M,LPAR 131700Z /////KT 9999 FEW009 BKN015 BKN030 12/11 Q1028
LPAR,2017-12-14 09:00,-9.0333,38.8833,57.20,57.20,M,M,M,0.00,30.27,M,3.11,M,BKN,BKN,M,M,500.00,1500.00,M,M,M,M,M,M,M,M,M,M,LPAR 140900Z /////KT 5000 BKN005 BKN015 14/14 Q1025
LPAR,2017-12-14 10:00,-9.0333,38.8833,57.20,57.20,M,M,M,0.00,30.27,M,6.21,M,SCT,BKN,M,M,700.00,1500.00,M,M,M,M,M,M,M,M,M,M,LPAR 141000Z /////KT 9999 SCT007 BKN015 14/14 Q1025
LPAR,2017-12-14 11:00,-9.0333,38.8833,59.00,59.00,M,M,M,0.00,30.27,M,6.21,M,SCT,BKN,M,M,700.00,1500.00,M,M,M,M,M,M,M,M,M,M,LPAR 141100Z /////KT 9999 SCT007 BKN015 15/15 Q1025
LPAR,2017-12-14 12:00,-9.0333,38.8833,60.80,57.20,M,M,M,0.00,30.27,M,6.21,M,SCT,BKN,M,M,700.00,1500.00,M,M,-DZ,M,M,M,M,M,M,M,LPAR 141200Z /////KT 9999 -DZ SCT007 BKN015 16/14 Q1025
LPAR,2017-12-14 13:00,-9.0333,38.8833,62.60,57.20,M,M,M,0.00,30.24,M,6.21,M,BKN,M,M,M,1500.00,M,M,M,M,M,M,M,M,M,M,M,LPAR 141300Z /////KT 9999 BKN015 17/14 Q1024
LPAR,2017-12-14 14:00,-9.0333,38.8833,62.60,57.20,M,M,M,0.00,30.21,M,6.21,M,SCT,SCT,M,M,1800.00,2500.00,M,M,M,M,M,M,M,M,M,M,LPAR 141400Z /////KT 9999 SCT018 SCT025 17/14 Q1023
LPAR,2017-12-14 15:00,-9.0333,38.8833,62.60,55.40,M,M,M,0.00,30.18,M,6.21,M,SCT,BKN,M,M,2000.00,3000.00,M,M,M,M,M,M,M,M,M,M,LPAR 141500Z /////KT 9999 SCT020 BKN030 17/13 Q1022
LPAR,2017-12-14 16:00,-9.0333,38.8833,62.60,55.40,M,M,M,0.00,30.18,M,6.21,M,SCT,BKN,M,M,2000.00,3000.00,M,M,M,M,M,M,M,M,M,M,LPAR 141600Z /////KT 9999 SCT020 BKN030 17/13 Q1022
LPAR,2017-12-14 17:00,-9.0333,38.8833,60.80,55.40,M,M,M,0.00,30.18,M,6.21,M,SCT,BKN,BKN,M,1200.00,1800.00,3000.00,M,M,M,M,M,M,M,M,M,LPAR 141700Z /////KT 9999 SCT012 BKN018 BKN030 16/13 Q1022
LPAR,2017-12-15 09:00,-9.0333,38.8833,60.80,59.00,M,M,M,0.00,30.00,M,6.21,M,FEW,BKN,M,M,1000.00,1500.00,M,M,M,M,M,M,M,M,M,M,LPAR 150900Z /////KT 9999 FEW010 BKN015 16/15 Q1016
LPAR,2017-12-15 10:00,-9.0333,38.8833,60.80,57.20,M,M,M,0.00,30.03,M,6.21,M,FEW,BKN,M,M,1000.00,1500.00,M,M,M,M,M,M,M,M,M,M,LPAR 151000Z /////KT 9999 FEW010 BKN015 16/14 Q1017
LPAR,2017-12-15 11:00,-9.0333,38.8833,62.60,57.20,M,M,M,0.00,30.03,M,6.21,M,FEW,BKN,M,M,1000.00,1500.00,M,M,M,M,M,M,M,M,M,M,LPAR 151100Z /////KT 9999 FEW010 BKN015 17/14 Q1017
LPAR,2017-12-15 12:00,-9.0333,38.8833,64.40,59.00,M,M,M,0.00,29.97,M,6.21,M,FEW,BKN,M,M,1200.00,1500.00,M,M,M,M,M,M,M,M,M,M,LPAR 151200Z /////KT 9999 FEW012 BKN015 18/15 Q1015
LPAR,2017-12-15 13:00,-9.0333,38.8833,64.40,59.00,M,M,M,0.00,29.97,M,6.21,M,FEW,BKN,M,M,1200.00,1500.00,M,M,M,M,M,M,M,M,M,M,LPAR 151300Z /////KT 9999 FEW012 BKN015 18/15 Q1015
LPAR,2017-12-15 14:00,-9.0333,38.8833,59.00,53.60,M,M,M,0.00,29.97,M,6.21,M,FEW,BKN,M,M,1200.00,1500.00,M,M,M,M,M,M,M,M,M,M,LPAR 151400Z /////KT 9999 FEW012 BKN015 15/12 Q1015
LPAR,2017-12-15 15:00,-9.0333,38.8833,57.20,50.00,M,M,M,0.00,29.97,M,6.21,M,FEW,BKN,M,M,1200.00,1500.00,M,M,M,M,M,M,M,M,M,M,LPAR 151500Z /////KT 9999 FEW012 BKN015 14/10 Q1015
LPAR,2017-12-15 16:00,-9.0333,38.8833,57.20,48.20,M,M,M,0.00,30.00,M,6.21,M,SCT,BKN,M,M,1800.00,2000.00,M,M,M,M,M,M,M,M,M,M,LPAR 151600Z /////KT 9999 SCT018 BKN020 14/09 Q1016
LPAR,2017-12-15 17:00,-9.0333,38.8833,57.20,46.40,M,M,M,0.00,30.00,M,6.21,M,FEW,M,M,M,2000.00,M,M,M,M,M,M,M,M,M,M,M,LPAR 151700Z /////KT 9999 FEW020 14/08 Q1016
LPAR,2017-12-16 08:00,-9.0333,38.8833,50.00,39.20,M,M,M,0.00,30.18,M,6.21,M,M,M,M,M,M,M,M,M,M,M,M,M,M,M,M,M,LPAR 160800Z /////KT CAVOK 10/04 Q1022
LPAR,2017-12-16 09:00,-9.0333,38.8833,51.80,37.40,M,M,M,0.00,30.21,M,6.21,M,M,M,M,M,M,M,M,M,M,M,M,M,M,M,M,M,LPAR 160900Z /////KT CAVOK 11/03 Q1023
LPAR,2017-12-16 10:00,-9.0333,38.8833,53.60,37.40,M,M,M,0.00,30.24,M,6.21,M,M,M,M,M,M,M,M,M,M,M,M,M,M,M,M,M,LPAR 161000Z /////KT CAVOK 12/03 Q1024
LPAR,2017-12-16 11:00,-9.0333,38.8833,55.40,35.60,M,M,M,0.00,30.24,M,6.21,M,M,M,M,M,M,M,M,M,M,M,M,M,M,M,M,M,LPAR 161100Z /////KT CAVOK 13/02 Q1024
LPAR,2017-12-18 09:00,-9.0333,38.8833,46.40,33.80,M,M,M,0.00,30.50,M,6.21,M,M,M,M,M,M,M,M,M,M,M,M,M,M,M,M,M,LPAR 180900Z /////KT CAVOK 08/01 Q1033
LPAR,2017-12-18 10:00,-9.0333,38.8833,48.20,33.80,M,M,M,0.00,30.53,M,6.21,M,M,M,M,M,M,M,M,M,M,M,M,M,M,M,M,M,LPAR 181000Z /////KT CAVOK 09/01 Q1034
LPAR,2017-12-18 11:00,-9.0333,38.8833,50.00,35.60,M,M,M,0.00,30.53,M,6.21,M,M,M,M,M,M,M,M,M,M,M,M,M,M,M,M,M,LPAR 181100Z /////KT CAVOK 10/02 Q1034
LPAR,2017-12-18 12:00,-9.0333,38.8833,51.80,37.40,M,M,M,0.00,30.53,M,6.21,M,M,M,M,M,M,M,M,M,M,M,M,M,M,M,M,M,LPAR 181200Z /////KT CAVOK 11/03 Q1034
LPAR,2017-12-18 13:00,-9.0333,38.8833,55.40,39.20,M,M,M,0.00,30.47,M,6.21,M,M,M,M,M,M,M,M,M,M,M,M,M,M,M,M,M,LPAR 181300Z /////KT CAVOK 13/04 Q1032
LPAR,2017-12-18 14:00,-9.0333,38.8833,57.20,37.40,M,M,M,0.00,30.45,M,6.21,M,M,M,M,M,M,M,M,M,M,M,M,M,M,M,M,M,LPAR 181400Z /////KT CAVOK 14/03 Q1031
LPAR,2017-12-18 15:00,-9.0333,38.8833,59.00,37.40,M,M,M,0.00,30.45,M,6.21,M,M,M,M,M,M,M,M,M,M,M,M,M,M,M,M,M,LPAR 181500Z /////KT CAVOK 15/03 Q1031
LPAR,2017-12-18 16:00,-9.0333,38.8833,57.20,41.00,M,M,M,0.00,30.45,M,6.21,M,M,M,M,M,M,M,M,M,M,M,M,M,M,M,M,M,LPAR 181600Z /////KT CAVOK 14/05 Q1031
LPAR,2017-12-18 17:00,-9.0333,38.8833,57.20,39.20,M,M,M,0.00,30.45,M,6.21,M,M,M,M,M,M,M,M,M,M,M,M,M,M,M,M,M,LPAR 181700Z /////KT CAVOK 14/04 Q1031
LPAR,2017-12-19 09:00,-9.0333,38.8833,42.80,41.00,M,M,M,0.00,30.39,M,6.21,M,M,M,M,M,M,M,M,M,M,M,M,M,M,M,M,M,LPAR 190900Z /////KT CAVOK 06/05 Q1029
LPAR,2017-12-19 10:00,-9.0333,38.8833,46.40,41.00,M,M,M,0.00,30.39,M,6.21,M,M,M,M,M,M,M,M,M,M,M,M,M,M,M,M,M,LPAR 191000Z /////KT CAVOK 08/05 Q1029
LPAR,2017-12-19 11:00,-9.0333,38.8833,51.80,44.60,M,M,M,0.00,30.42,M,6.21,M,M,M,M,M,M,M,M,M,M,M,M,M,M,M,M,M,LPAR 191100Z /////KT CAVOK 11/07 Q1030
LPAR,2017-12-19 12:00,-9.0333,38.8833,55.40,46.40,M,M,M,0.00,30.39,M,6.21,M,M,M,M,M,M,M,M,M,M,M,M,M,M,M,M,M,LPAR 191200Z /////KT CAVOK 13/08 Q1029
LPAR,2017-12-19 13:00,-9.0333,38.8833,59.00,50.00,M,M,M,0.00,30.36,M,6.21,M,M,M,M,M,M,M,M,M,M,M,M,M,M,M,M,M,LPAR 191300Z /////KT CAVOK 15/10 Q1028
LPAR,2017-12-19 14:00,-9.0333,38.8833,62.60,50.00,M,M,M,0.00,30.36,M,6.21,M,M,M,M,M,M,M,M,M,M,M,M,M,M,M,M,M,LPAR 191400Z /////KT CAVOK 17/10 Q1028
LPAR,2017-12-19 15:00,-9.0333,38.8833,64.40,50.00,M,M,M,0.00,30.33,M,6.21,M,M,M,M,M,M,M,M,M,M,M,M,M,M,M,M,M,LPAR 191500Z /////KT CAVOK 18/10 Q1027
LPAR,2017-12-19 16:00,-9.0333,38.8833,64.40,50.00,M,M,M,0.00,30.36,M,6.21,M,M,M,M,M,M,M,M,M,M,M,M,M,M,M,M,M,LPAR 191600Z /////KT CAVOK 18/10 Q1028
LPAR,2017-12-19 17:00,-9.0333,38.8833,62.60,50.00,M,M,M,0.00,30.36,M,6.21,M,M,M,M,M,M,M,M,M,M,M,M,M,M,M,M,M,LPAR 191700Z /////KT CAVOK 17/10 Q1028
LPAR,2017-12-20 09:00,-9.0333,38.8833,42.80,39.20,M,M,M,0.00,30.53,M,6.21,M,M,M,M,M,M,M,M,M,M,M,M,M,M,M,M,M,LPAR 200900Z /////KT CAVOK 06/04 Q1034
LPAR,2017-12-20 10:00,-9.0333,38.8833,46.40,41.00,M,M,M,0.00,30.53,M,6.21,M,M,M,M,M,M,M,M,M,M,M,M,M,M,M,M,M,LPAR 201000Z /////KT CAVOK 08/05 Q1034
LPAR,2017-12-20 11:00,-9.0333,38.8833,50.00,37.40,M,M,M,0.00,30.56,M,6.21,M,M,M,M,M,M,M,M,M,M,M,M,M,M,M,M,M,LPAR 201100Z /////KT CAVOK 10/03 Q1035
LPAR,2017-12-20 12:00,-9.0333,38.8833,51.80,39.20,M,M,M,0.00,30.53,M,6.21,M,M,M,M,M,M,M,M,M,M,M,M,M,M,M,M,M,LPAR 201200Z /////KT CAVOK 11/04 Q1034
LPAR,2017-12-20 13:00,-9.0333,38.8833,53.60,41.00,M,M,M,0.00,30.50,M,6.21,M,M,M,M,M,M,M,M,M,M,M,M,M,M,M,M,M,LPAR 201300Z /////KT CAVOK 12/05 Q1033
LPAR,2017-12-20 14:00,-9.0333,38.8833,57.20,41.00,M,M,M,0.00,30.50,M,6.21,M,M,M,M,M,M,M,M,M,M,M,M,M,M,M,M,M,LPAR 201400Z /////KT CAVOK 14/05 Q1033
LPAR,2017-12-20 15:00,-9.0333,38.8833,57.20,44.60,M,M,M,0.00,30.47,M,6.21,M,M,M,M,M,M,M,M,M,M,M,M,M,M,M,M,M,LPAR 201500Z /////KT CAVOK 14/07 Q1032
LPAR,2017-12-20 16:00,-9.0333,38.8833,57.20,42.80,M,M,M,0.00,30.47,M,6.21,M,M,M,M,M,M,M,M,M,M,M,M,M,M,M,M,M,LPAR 201600Z /////KT CAVOK 14/06 Q1032
LPAR,2017-12-20 17:00,-9.0333,38.8833,55.40,44.60,M,M,M,0.00,30.47,M,6.21,M,M,M,M,M,M,M,M,M,M,M,M,M,M,M,M,M,LPAR 201700Z /////KT CAVOK 13/07 Q1032
LPAR,2017-12-21 09:00,-9.0333,38.8833,41.00,39.20,M,M,M,0.00,30.56,M,6.21,M,M,M,M,M,M,M,M,M,M,M,M,M,M,M,M,M,LPAR 210900Z /////KT CAVOK 05/04 Q1035
LPAR,2017-12-21 10:00,-9.0333,38.8833,48.20,41.00,M,M,M,0.00,30.56,M,6.21,M,M,M,M,M,M,M,M,M,M,M,M,M,M,M,M,M,LPAR 211000Z /////KT CAVOK 09/05 Q1035
LPAR,2017-12-21 11:00,-9.0333,38.8833,51.80,39.20,M,M,M,0.00,30.62,M,6.21,M,M,M,M,M,M,M,M,M,M,M,M,M,M,M,M,M,LPAR 211100Z /////KT CAVOK 11/04 Q1037
LPAR,2017-12-21 12:00,-9.0333,38.8833,51.80,39.20,M,M,M,0.00,30.59,M,6.21,M,M,M,M,M,M,M,M,M,M,M,M,M,M,M,M,M,LPAR 211200Z /////KT CAVOK 11/04 Q1036
LPAR,2017-12-21 13:00,-9.0333,38.8833,55.40,41.00,M,M,M,0.00,30.59,M,6.21,M,M,M,M,M,M,M,M,M,M,M,M,M,M,M,M,M,LPAR 211300Z /////KT CAVOK 13/05 Q1036
LPAR,2017-12-21 14:00,-9.0333,38.8833,59.00,44.60,M,M,M,0.00,30.56,M,6.21,M,M,M,M,M,M,M,M,M,M,M,M,M,M,M,M,M,LPAR 211400Z /////KT CAVOK 15/07 Q1035
LPAR,2017-12-21 15:00,-9.0333,38.8833,59.00,44.60,M,M,M,0.00,30.56,M,6.21,M,M,M,M,M,M,M,M,M,M,M,M,M,M,M,M,M,LPAR 211500Z /////KT CAVOK 15/07 Q1035
LPAR,2017-12-21 16:00,-9.0333,38.8833,60.80,44.60,M,M,M,0.00,30.56,M,6.21,M,M,M,M,M,M,M,M,M,M,M,M,M,M,M,M,M,LPAR 211600Z /////KT CAVOK 16/07 Q1035
LPAR,2017-12-21 17:00,-9.0333,38.8833,59.00,42.80,M,M,M,0.00,30.56,M,6.21,M,M,M,M,M,M,M,M,M,M,M,M,M,M,M,M,M,LPAR 211700Z /////KT CAVOK 15/06 Q1035
LPAR,2017-12-22 08:00,-9.0333,38.8833,39.20,39.20,M,M,M,0.00,30.65,M,4.97,M,FEW,M,M,M,1500.00,M,M,M,M,M,M,M,M,M,M,M,LPAR 220800Z /////KT 8000 FEW015 04/04 Q1038
LPAR,2017-12-22 09:00,-9.0333,38.8833,42.80,41.00,M,M,M,0.00,30.65,M,6.21,M,M,M,M,M,M,M,M,M,M,M,M,M,M,M,M,M,LPAR 220900Z /////KT CAVOK 06/05 Q1038
LPAR,2017-12-22 10:00,-9.0333,38.8833,44.60,42.80,M,M,M,0.00,30.68,M,6.21,M,M,M,M,M,M,M,M,M,M,M,M,M,M,M,M,M,LPAR 221000Z /////KT CAVOK 07/06 Q1039
LPAR,2017-12-22 11:00,-9.0333,38.8833,50.00,44.60,M,M,M,0.00,30.68,M,6.21,M,M,M,M,M,M,M,M,M,M,M,M,M,M,M,M,M,LPAR 221100Z /////KT CAVOK 10/07 Q1039
LPAR,2017-12-22 12:00,-9.0333,38.8833,51.80,44.60,M,M,M,0.00,30.65,M,6.21,M,M,M,M,M,M,M,M,M,M,M,M,M,M,M,M,M,LPAR 221200Z /////KT CAVOK 11/07 Q1038
LPAR,2017-12-22 13:00,-9.0333,38.8833,55.40,46.40,M,M,M,0.00,30.62,M,6.21,M,M,M,M,M,M,M,M,M,M,M,M,M,M,M,M,M,LPAR 221300Z /////KT CAVOK 13/08 Q1037
LPAR,2017-12-22 14:00,-9.0333,38.8833,57.20,46.40,M,M,M,0.00,30.59,M,6.21,M,M,M,M,M,M,M,M,M,M,M,M,M,M,M,M,M,LPAR 221400Z /////KT CAVOK 14/08 Q1036
LPAR,2017-12-22 15:00,-9.0333,38.8833,59.00,46.40,M,M,M,0.00,30.56,M,6.21,M,M,M,M,M,M,M,M,M,M,M,M,M,M,M,M,M,LPAR 221500Z /////KT CAVOK 15/08 Q1035
LPAR,2017-12-22 16:00,-9.0333,38.8833,59.00,46.40,M,M,M,0.00,30.56,M,6.21,M,M,M,M,M,M,M,M,M,M,M,M,M,M,M,M,M,LPAR 221600Z /////KT CAVOK 15/08 Q1035
LPAR,2017-12-22 17:00,-9.0333,38.8833,62.60,44.60,M,M,M,0.00,30.56,M,6.21,M,M,M,M,M,M,M,M,M,M,M,M,M,M,M,M,M,LPAR 221700Z /////KT CAVOK 17/07 Q1035
LPAR,2017-12-27 09:00,-9.0333,38.8833,55.40,51.80,M,M,M,0.00,30.09,M,6.21,M,FEW,BKN,M,M,1400.00,3500.00,M,M,M,M,M,M,M,M,M,M,LPAR 270900Z /////KT 9999 FEW014 BKN035 13/11 Q1019
LPAR,2017-12-27 10:00,-9.0333,38.8833,57.20,51.80,M,M,M,0.00,30.09,M,6.21,M,FEW,BKN,M,M,1400.00,3500.00,M,M,M,M,M,M,M,M,M,M,LPAR 271000Z /////KT 9999 FEW014 BKN035 14/11 Q1019
LPAR,2017-12-27 11:00,-9.0333,38.8833,59.00,51.80,M,M,M,0.00,30.12,M,6.21,M,FEW,BKN,M,M,1800.00,3500.00,M,M,M,M,M,M,M,M,M,M,LPAR 271100Z /////KT 9999 FEW018 BKN035 15/11 Q1020
LPAR,2017-12-27 12:00,-9.0333,38.8833,57.20,51.80,M,M,M,0.00,30.12,M,6.21,M,SCT,BKN,M,M,1800.00,3500.00,M,M,VCSH,M,M,M,M,M,M,M,LPAR 271200Z /////KT 9999 VCSH SCT018 BKN035 14/11 Q1020
LPAR,2017-12-27 13:00,-9.0333,38.8833,59.00,53.60,M,M,M,0.00,30.09,M,6.21,M,SCT,SCT,M,M,1800.00,4000.00,M,M,M,M,M,M,M,M,M,M,LPAR 271300Z /////KT 9999 SCT018 SCT040 15/12 Q1019
LPAR,2017-12-27 14:00,-9.0333,38.8833,59.00,51.80,M,M,M,0.00,30.09,M,6.21,M,SCT,BKN,M,M,2000.00,4000.00,M,M,-SHRA,M,M,M,M,M,M,M,LPAR 271400Z /////KT 9999 -SHRA SCT020 BKN040 15/11 Q1019
LPAR,2017-12-27 15:00,-9.0333,38.8833,59.00,53.60,M,M,M,0.00,30.09,M,6.21,M,SCT,SCT,M,M,2000.00,4000.00,M,M,M,M,M,M,M,M,M,M,LPAR 271500Z /////KT 9999 SCT020 SCT040 15/12 Q1019
LPAR,2017-12-27 16:00,-9.0333,38.8833,59.00,50.00,M,M,M,0.00,30.09,M,6.21,M,SCT,SCT,M,M,2000.00,4000.00,M,M,M,M,M,M,M,M,M,M,LPAR 271600Z /////KT 9999 SCT020 SCT040 15/10 Q1019
LPAR,2017-12-27 17:00,-9.0333,38.8833,59.00,50.00,M,M,M,0.00,30.09,M,6.21,M,SCT,SCT,M,M,2000.00,4000.00,M,M,M,M,M,M,M,M,M,M,LPAR 271700Z /////KT 9999 SCT020 SCT040 15/10 Q1019
LPAR,2017-12-28 09:00,-9.0333,38.8833,59.00,57.20,M,M,M,0.00,30.09,M,2.17,M,BKN,BKN,M,M,500.00,1500.00,M,M,-DZ BR,M,M,M,M,M,M,M,LPAR 280900Z /////KT 3500 -DZ BR BKN005 BKN015 15/14 Q1019
LPAR,2017-12-28 10:00,-9.0333,38.8833,60.80,57.20,M,M,M,0.00,30.12,M,2.17,M,BKN,BKN,M,M,500.00,1500.00,M,M,-DZ BR,M,M,M,M,M,M,M,LPAR 281000Z /////KT 3500 -DZ BR BKN005 BKN015 16/14 Q1020
LPAR,2017-12-28 11:00,-9.0333,38.8833,60.80,57.20,M,M,M,0.00,30.12,M,2.49,M,BKN,BKN,M,M,700.00,1500.00,M,M,-DZ BR,M,M,M,M,M,M,M,LPAR 281100Z /////KT 4000 -DZ BR BKN007 BKN015 16/14 Q1020
LPAR,2017-12-28 12:00,-9.0333,38.8833,62.60,57.20,M,M,M,0.00,30.12,M,6.21,M,FEW,BKN,M,M,900.00,1500.00,M,M,M,M,M,M,M,M,M,M,LPAR 281200Z /////KT 9999 FEW009 BKN015 17/14 Q1020
LPAR,2017-12-28 13:00,-9.0333,38.8833,62.60,57.20,M,M,M,0.00,30.12,M,6.21,M,FEW,BKN,M,M,900.00,1800.00,M,M,M,M,M,M,M,M,M,M,LPAR 281300Z /////KT 9999 FEW009 BKN018 17/14 Q1020
LPAR,2017-12-28 14:00,-9.0333,38.8833,62.60,57.20,M,M,M,0.00,30.12,M,4.35,M,SCT,BKN,M,M,700.00,1500.00,M,M,-DZ,M,M,M,M,M,M,M,LPAR 281400Z /////KT 7000 -DZ SCT007 BKN015 17/14 Q1020
LPAR,2017-12-28 15:00,-9.0333,38.8833,60.80,57.20,M,M,M,0.00,30.09,M,6.21,M,SCT,SCT,M,M,700.00,1800.00,M,M,VCSH,M,M,M,M,M,M,M,LPAR 281500Z /////KT 9999 VCSH SCT007 SCT018 16/14 Q1019
LPAR,2017-12-28 16:00,-9.0333,38.8833,62.60,55.40,M,M,M,0.00,30.12,M,6.21,M,FEW,SCT,M,M,900.00,1800.00,M,M,VCSH,M,M,M,M,M,M,M,LPAR 281600Z /////KT 9999 VCSH FEW009 SCT018 17/13 Q1020
