#DEBUG: Format Typ    -> comma
#DEBUG: Time Period   -> 2017-08-30 00:00:00+00:00 2018-01-02 00:00:00+00:00
#DEBUG: Time Zone     -> Etc/UTC
#DEBUG: Data Contact   -> daryl herzmann akrherz@iastate.edu 515-294-5978
#DEBUG: Entries Found -> -1
station,valid,lon,lat,tmpf,dwpf,relh,drct,sknt,p01i,alti,mslp,vsby,gust,skyc1,skyc2,skyc3,skyc4,skyl1,skyl2,skyl3,skyl4,wxcodes,ice_accretion_1hr,ice_accretion_3hr,ice_accretion_6hr,peak_wind_gust,peak_wind_drct,peak_wind_time,feel,metar
LPMT,2017-08-30 00:00,-9.0359,38.7039,66.20,62.60,88.18,340.00,4.00,0.00,29.94,M,6.21,M,FEW,M,M,M,1200.00,M,M,M,M,M,M,M,M,M,M,66.20,LPMT 300000Z 34004KT 9999 FEW012 19/17 Q1014
LPMT,2017-08-30 01:00,-9.0359,38.7039,66.20,62.60,88.18,350.00,4.00,0.00,29.97,M,6.21,M,FEW,M,M,M,1200.00,M,M,M,M,M,M,M,M,M,M,66.20,LPMT 300100Z 35004KT 320V020 9999 FEW012 19/17 Q1015
LPMT,2017-08-30 02:00,-9.0359,38.7039,66.20,62.60,88.18,350.00,4.00,0.00,29.97,M,6.21,M,FEW,M,M,M,1200.00,M,M,M,M,M,M,M,M,M,M,66.20,LPMT 300200Z 35004KT 9999 FEW012 19/17 Q1015
LPMT,2017-08-30 03:00,-9.0359,38.7039,62.60,60.80,93.83,60.00,3.00,0.00,29.94,M,6.21,M,FEW,M,M,M,1200.00,M,M,M,M,M,M,M,M,M,M,62.60,LPMT 300300Z 06003KT 9999 FEW012 17/16 Q1014
LPMT,2017-08-30 04:00,-9.0359,38.7039,60.80,59.00,93.79,M,1.00,0.00,29.94,M,6.21,M,FEW,M,M,M,1200.00,M,M,M,M,M,M,M,M,M,M,60.80,LPMT 300400Z VRB01KT 9999 FEW012 16/15 Q1014
LPMT,2017-08-30 05:00,-9.0359,38.7039,64.40,60.80,88.09,350.00,4.00,0.00,29.97,M,6.21,M,FEW,BKN,M,M,1200.00,1800.00,M,M,M,M,M,M,M,M,M,64.40,LPMT 300500Z 35004KT 9999 FEW012 BKN018 18/16 Q1015
LPMT,2017-08-30 06:00,-9.0359,38.7039,62.60,60.80,93.83,330.00,3.00,0.00,29.97,M,6.21,M,FEW,M,M,M,1200.00,M,M,M,M,M,M,M,M,M,M,62.60,LPMT 300600Z 33003KT 9999 FEW012 17/16 Q1015
LPMT,2017-08-30 07:00,-9.0359,38.7039,62.60,60.80,93.83,M,2.00,0.00,30.00,M,6.21,M,BKN,M,M,M,1200.00,M,M,M,M,M,M,M,M,M,M,62.60,LPMT 300700Z VRB02KT 9999 BKN012 17/16 Q1016
LPMT,2017-08-30 08:00,-9.0359,38.7039,68.00,62.60,82.86,310.00,3.00,0.00,30.03,M,6.21,M,FEW,M,M,M,1000.00,M,M,M,M,M,M,M,M,M,M,68.00,LPMT 300800Z 31003KT 230V020 9999 FEW010 20/17 Q1017
LPMT,2017-08-30 09:00,-9.0359,38.7039,71.60,62.60,73.27,10.00,4.00,0.00,30.03,M,6.21,M,FEW,M,M,M,1500.00,M,M,M,M,M,M,M,M,M,M,71.60,LPMT 300900Z 01004KT 290V050 9999 FEW015 22/17 Q1017
LPMT,2017-08-30 10:00,-9.0359,38.7039,73.40,62.60,68.94,10.00,4.00,0.00,30.03,M,6.21,M,FEW,M,M,M,2000.00,M,M,M,M,M,M,M,M,M,M,73.40,LPMT 301000Z 01004KT 300V110 9999 FEW020 23/17 Q1017
LPMT,2017-08-30 11:00,-9.0359,38.7039,75.20,60.80,60.90,30.00,6.00,0.00,30.03,M,6.21,M,FEW,M,M,M,2500.00,M,M,M,M,M,M,M,M,M,M,75.20,LPMT 301100Z 03006KT 360V070 9999 FEW025 24/16 Q1017
LPMT,2017-08-30 12:00,-9.0359,38.7039,77.00,62.60,61.13,190.00,4.00,0.00,30.00,M,6.21,M,FEW,M,M,M,3000.00,M,M,M,M,M,M,M,M,M,M,77.00,LPMT 301200Z 19004KT 140V260 9999 FEW030 25/17 Q1016
LPMT,2017-08-30 13:00,-9.0359,38.7039,78.80,62.60,57.60,280.00,5.00,0.00,30.00,M,6.21,M,FEW,M,M,M,4000.00,M,M,M,M,M,M,M,M,M,M,80.31,LPMT 301300Z 28005KT 250V310 9999 FEW040 26/17 Q1016
LPMT,2017-08-30 14:00,-9.0359,38.7039,80.60,62.60,54.30,310.00,5.00,0.00,30.00,M,6.21,M,FEW,M,M,M,4000.00,M,M,M,M,M,M,M,M,M,M,81.84,LPMT 301400Z 31005KT 260V020 9999 FEW040 27/17 Q1016
LPMT,2017-08-30 15:00,-9.0359,38.7039,82.40,62.60,51.21,320.00,6.00,0.00,29.97,M,6.21,M,FEW,M,M,M,4000.00,M,M,M,M,M,M,M,M,M,M,83.41,LPMT 301500Z 32006KT 290V020 9999 FEW040 28/17 Q1015
LPMT,2017-08-30 16:00,-9.0359,38.7039,80.60,62.60,54.30,330.00,9.00,0.00,29.97,M,6.21,M,FEW,M,M,M,4000.00,M,M,M,M,M,M,M,M,M,M,81.84,LPMT 301600Z 33009KT 300V010 9999 FEW040 27/17 Q1015
LPMT,2017-08-30 17:00,-9.0359,38.7039,78.80,62.60,57.60,330.00,10.00,0.00,29.97,M,6.21,M,FEW,M,M,M,4000.00,M,M,M,M,M,M,M,M,M,M,80.31,LPMT 301700Z 33010KT 300V360 9999 FEW040 26/17 Q1015
LPMT,2017-08-30 18:00,-9.0359,38.7039,75.20,62.60,64.91,340.00,13.00,0.00,30.00,M,6.21,M,FEW,M,M,M,3000.00,M,M,M,M,M,M,M,M,M,M,75.20,LPMT 301800Z 34013KT 9999 FEW030 24/17 Q1016
LPMT,2017-08-30 19:00,-9.0359,38.7039,71.60,60.80,68.75,340.00,10.00,0.00,30.00,M,6.21,M,FEW,M,M,M,2500.00,M,M,M,M,M,M,M,M,M,M,71.60,LPMT 301900Z 34010KT 9999 FEW025 22/16 Q1016
LPMT,2017-08-30 20:00,-9.0359,38.7039,69.80,60.80,73.09,340.00,13.00,0.00,30.00,M,6.21,M,FEW,M,M,M,2500.00,M,M,M,M,M,M,M,M,M,M,69.80,LPMT 302000Z 34013KT 9999 FEW025 21/16 Q1016
LPMT,2017-08-30 21:00,-9.0359,38.7039,68.00,60.80,77.75,350.00,7.00,0.00,30.03,M,6.21,M,FEW,M,M,M,2200.00,M,M,M,M,M,M,M,M,M,M,68.00,LPMT 302100Z 35007KT 9999 FEW022 20/16 Q1017
LPMT,2017-08-30 22:00,-9.0359,38.7039,68.00,60.80,77.75,350.00,5.00,0.00,30.03,M,6.21,M,FEW,M,M,M,1800.00,M,M,M,M,M,M,M,M,M,M,68.00,LPMT 302200Z 35005KT 9999 FEW018 20/16 Q1017
LPMT,2017-08-30 23:00,-9.0359,38.7039,66.20,60.80,82.74,340.00,6.00,0.00,30.03,M,6.21,M,FEW,M,M,M,1800.00,M,M,M,M,M,M,M,M,M,M,66.20,LPMT 302300Z 34006KT 9999 FEW018 19/16 Q1017
LPMT,2017-08-31 00:00,-9.0359,38.7039,66.20,59.00,77.60,360.00,10.00,0.00,30.03,M,6.21,M,FEW,M,M,M,1800.00,M,M,M,M,M,M,M,M,M,M,66.20,LPMT 310000Z 36010KT 9999 FEW018 19/15 Q1017
LPMT,2017-08-31 01:00,-9.0359,38.7039,66.20,59.00,77.60,350.00,6.00,0.00,30.03,M,6.21,M,FEW,M,M,M,1800.00,M,M,M,M,M,M,M,M,M,M,66.20,LPMT 310100Z 35006KT 9999 FEW018 19/15 Q1017
LPMT,2017-08-31 02:00,-9.0359,38.7039,64.40,59.00,82.62,350.00,7.00,0.00,30.03,M,6.21,M,FEW,M,M,M,1800.00,M,M,M,M,M,M,M,M,M,M,64.40,LPMT 310200Z 35007KT 9999 FEW018 18/15 Q1017
LPMT,2017-08-31 03:00,-9.0359,38.7039,64.40,59.00,82.62,340.00,8.00,0.00,30.00,M,6.21,M,FEW,M,M,M,1800.00,M,M,M,M,M,M,M,M,M,M,64.40,LPMT 310300Z 34008KT 9999 FEW018 18/15 Q1016
LPMT,2017-08-31 06:00,-9.0359,38.7039,64.40,60.80,88.09,350.00,9.00,0.00,30.00,M,6.21,M,FEW,M,M,M,1800.00,M,M,M,M,M,M,M,M,M,M,64.40,LPMT 310600Z 35009KT 9999 FEW018 18/16 Q1016
LPMT,2017-08-31 07:00,-9.0359,38.7039,66.20,60.80,82.74,350.00,9.00,0.00,30.03,M,6.21,M,FEW,M,M,M,1800.00,M,M,M,M,M,M,M,M,M,M,66.20,LPMT 310700Z 35009KT 9999 FEW018 19/16 Q1017
LPMT,2017-08-31 08:00,-9.0359,38.7039,69.80,60.80,73.09,340.00,7.00,0.00,30.03,M,6.21,M,FEW,M,M,M,1800.00,M,M,M,M,M,M,M,M,M,M,69.80,LPMT 310800Z 34007KT 310V010 9999 FEW018 21/16 Q1017
LPMT,2017-08-31 09:00,-9.0359,38.7039,71.60,62.60,73.27,360.00,6.00,0.00,30.06,M,6.21,M,FEW,M,M,M,1800.00,M,M,M,M,M,M,M,M,M,M,71.60,LPMT 310900Z 36006KT 310V050 9999 FEW018 22/17 Q1018
LPMT,2017-08-31 10:00,-9.0359,38.7039,75.20,62.60,64.91,10.00,8.00,0.00,30.06,M,6.21,M,FEW,M,M,M,2000.00,M,M,M,M,M,M,M,M,M,M,75.20,LPMT 311000Z 01008KT 340V040 9999 FEW020 24/17 Q1018
LPMT,2017-08-31 11:00,-9.0359,38.7039,77.00,60.80,57.36,20.00,9.00,0.00,30.06,M,6.21,M,M,M,M,M,M,M,M,M,M,M,M,M,M,M,M,77.00,LPMT 311100Z 02009KT 350V050 CAVOK 25/16 Q1018
LPMT,2017-08-31 12:00,-9.0359,38.7039,80.60,60.80,50.95,20.00,8.00,0.00,30.03,M,6.21,M,M,M,M,M,M,M,M,M,M,M,M,M,M,M,M,81.46,LPMT 311200Z 02008KT 350V070 CAVOK 27/16 Q1017
LPMT,2017-08-31 13:00,-9.0359,38.7039,84.20,60.80,45.34,10.00,7.00,0.00,30.00,M,6.21,M,FEW,M,M,M,4000.00,M,M,M,M,M,M,M,M,M,M,84.43,LPMT 311300Z 01007KT 330V060 9999 FEW040 29/16 Q1016
LPMT,2017-08-31 14:00,-9.0359,38.7039,86.00,60.80,42.80,20.00,8.00,0.00,30.00,M,6.21,M,FEW,M,M,M,4000.00,M,M,M,M,M,M,M,M,M,M,86.05,LPMT 311400Z 02008KT 330V050 9999 FEW040 30/16 Q1016
LPMT,2017-08-31 15:00,-9.0359,38.7039,86.00,60.80,42.80,340.00,9.00,0.00,29.97,M,6.21,M,FEW,M,M,M,4000.00,M,M,M,M,M,M,M,M,M,M,86.05,LPMT 311500Z 34009KT 310V010 9999 FEW040 30/16 Q1015
LPMT,2017-08-31 16:00,-9.0359,38.7039,84.20,59.00,42.52,340.00,11.00,0.00,29.97,M,6.21,M,FEW,M,M,M,4000.00,M,M,M,M,M,M,M,M,M,M,83.92,LPMT 311600Z 34011KT 9999 FEW040 29/15 Q1015
LPMT,2017-08-31 17:00,-9.0359,38.7039,80.60,55.40,41.97,330.00,12.00,0.00,29.97,M,6.21,M,FEW,M,M,M,4000.00,M,M,M,M,M,M,M,M,M,M,80.53,LPMT 311700Z 33012KT 9999 FEW040 27/13 Q1015
LPMT,2017-08-31 18:00,-9.0359,38.7039,77.00,55.40,47.25,330.00,12.00,0.00,29.97,M,6.21,M,FEW,M,M,M,3000.00,M,M,M,M,M,M,M,M,M,M,77.00,LPMT 311800Z 33012KT 9999 FEW030 25/13 Q1015
LPMT,2017-08-31 21:00,-9.0359,38.7039,68.00,57.20,68.35,360.00,10.00,0.00,30.03,M,6.21,M,FEW,M,M,M,2500.00,M,M,M,M,M,M,M,M,M,M,68.00,LPMT 312100Z 36010KT 9999 FEW025 20/14 Q1017
LPMT,2017-08-31 22:00,-9.0359,38.7039,68.00,57.20,68.35,350.00,8.00,0.00,30.03,M,6.21,M,FEW,M,M,M,2500.00,M,M,M,M,M,M,M,M,M,M,68.00,LPMT 312200Z 35008KT 320V020 9999 FEW025 20/14 Q1017
LPMT,2017-08-31 23:00,-9.0359,38.7039,66.20,57.20,72.74,330.00,7.00,0.00,30.03,M,6.21,M,FEW,M,M,M,2500.00,M,M,M,M,M,M,M,M,M,M,66.20,LPMT 312300Z 33007KT 9999 FEW025 19/14 Q1017
LPMT,2017-09-01 00:00,-9.0359,38.7039,66.20,57.20,72.74,340.00,6.00,0.00,30.03,M,6.21,M,FEW,M,M,M,2000.00,M,M,M,M,M,M,M,M,M,M,66.20,LPMT 010000Z 34006KT 9999 FEW020 19/14 Q1017
LPMT,2017-09-01 01:00,-9.0359,38.7039,66.20,57.20,72.74,340.00,9.00,0.00,30.03,M,6.21,M,FEW,M,M,M,2000.00,M,M,M,M,M,M,M,M,M,M,66.20,LPMT 010100Z 34009KT 9999 FEW020 19/14 Q1017
LPMT,2017-09-01 02:00,-9.0359,38.7039,64.40,57.20,77.45,340.00,7.00,0.00,30.03,M,6.21,M,FEW,M,M,M,2000.00,M,M,M,M,M,M,M,M,M,M,64.40,LPMT 010200Z 34007KT 9999 FEW020 18/14 Q1017
LPMT,2017-09-01 03:00,-9.0359,38.7039,64.40,57.20,77.45,330.00,9.00,0.00,30.03,M,6.21,M,FEW,M,M,M,2000.00,M,M,M,M,M,M,M,M,M,M,64.40,LPMT 010300Z 33009KT 9999 FEW020 18/14 Q1017
LPMT,2017-09-01 04:00,-9.0359,38.7039,64.40,57.20,77.45,330.00,7.00,0.00,30.00,M,6.21,M,FEW,M,M,M,2000.00,M,M,M,M,M,M,M,M,M,M,64.40,LPMT 010400Z 33007KT 9999 FEW020 18/14 Q1016
LPMT,2017-09-01 05:00,-9.0359,38.7039,64.40,57.20,77.45,340.00,7.00,0.00,29.97,M,6.21,M,FEW,M,M,M,2000.00,M,M,M,M,M,M,M,M,M,M,64.40,LPMT 010500Z 34007KT 9999 FEW020 18/14 Q1015
LPMT,2017-09-01 06:00,-9.0359,38.7039,64.40,57.20,77.45,340.00,7.00,0.00,30.00,M,6.21,M,FEW,M,M,M,2000.00,M,M,M,M,M,M,M,M,M,M,64.40,LPMT 010600Z 34007KT 310V010 9999 FEW020 18/14 Q1016
LPMT,2017-09-01 07:00,-9.0359,38.7039,66.20,57.20,72.74,340.00,7.00,0.00,30.03,M,6.21,M,FEW,M,M,M,2000.00,M,M,M,M,M,M,M,M,M,M,66.20,LPMT 010700Z 34007KT 9999 FEW020 19/14 Q1017
LPMT,2017-09-01 08:00,-9.0359,38.7039,68.00,57.20,68.35,350.00,8.00,0.00,30.03,M,6.21,M,M,M,M,M,M,M,M,M,M,M,M,M,M,M,M,68.00,LPMT 010800Z 35008KT CAVOK 20/14 Q1017
LPMT,2017-09-01 09:00,-9.0359,38.7039,71.60,57.20,60.44,360.00,7.00,0.00,30.06,M,6.21,M,M,M,M,M,M,M,M,M,M,M,M,M,M,M,M,71.60,LPMT 010900Z 36007KT CAVOK 22/14 Q1018
LPMT,2017-09-01 10:00,-9.0359,38.7039,75.20,59.00,57.12,360.00,6.00,0.00,30.06,M,6.21,M,M,M,M,M,M,M,M,M,M,M,M,M,M,M,M,75.20,LPMT 011000Z 36006KT 320V040 CAVOK 24/15 Q1018
LPMT,2017-09-01 11:00,-9.0359,38.7039,78.80,57.20,47.52,20.00,7.00,0.00,30.06,M,6.21,M,M,M,M,M,M,M,M,M,M,M,M,M,M,M,M,78.80,LPMT 011100Z 02007KT 340V060 CAVOK 26/14 Q1018
LPMT,2017-09-01 12:00,-9.0359,38.7039,84.20,57.20,39.86,360.00,7.00,0.00,30.03,M,6.21,M,M,M,M,M,M,M,M,M,M,M,M,M,M,M,M,84.20,LPMT 011200Z 36007KT 320V040 CAVOK 29/14 Q1017
LPMT,2017-09-01 13:00,-9.0359,38.7039,86.00,57.20,37.62,360.00,8.00,0.00,30.03,M,6.21,M,M,M,M,M,M,M,M,M,M,M,M,M,M,M,M,84.97,LPMT 011300Z 36008KT 320V040 CAVOK 30/14 Q1017
LPMT,2017-09-01 14:00,-9.0359,38.7039,89.60,59.00,35.81,350.00,10.00,0.00,30.00,M,6.21,M,M,M,M,M,M,M,M,M,M,M,M,M,M,M,M,89.60,LPMT 011400Z 35010KT 320V020 CAVOK 32/15 Q1016
LPMT,2017-09-01 15:00,-9.0359,38.7039,86.00,57.20,37.62,340.00,12.00,0.00,30.00,M,6.21,M,M,M,M,M,M,M,M,M,M,M,M,M,M,M,M,84.97,LPMT 011500Z 34012KT CAVOK 30/14 Q1016
LPMT,2017-09-01 16:00,-9.0359,38.7039,84.20,55.40,37.35,340.00,12.00,0.00,29.97,M,6.21,M,M,M,M,M,M,M,M,M,M,M,M,M,M,M,M,83.09,LPMT 011600Z 34012KT CAVOK 29/13 Q1015
LPMT,2017-09-01 17:00,-9.0359,38.7039,82.40,53.60,37.07,340.00,13.00,0.00,30.00,M,6.21,M,M,M,M,M,M,M,M,M,M,M,M,M,M,M,M,82.40,LPMT 011700Z 34013KT CAVOK 28/12 Q1016
LPMT,2017-09-01 18:00,-9.0359,38.7039,77.00,55.40,47.25,350.00,10.00,0.00,30.00,M,6.21,M,M,M,M,M,M,M,M,M,M,M,M,M,M,M,M,77.00,LPMT 011800Z 35010KT 320V020 CAVOK 25/13 Q1016
LPMT,2017-09-01 19:00,-9.0359,38.7039,71.60,53.60,53.03,350.00,13.00,0.00,30.03,M,6.21,M,M,M,M,M,M,M,M,M,M,M,M,M,M,M,M,71.60,LPMT 011900Z 35013KT CAVOK 22/12 Q1017
LPMT,2017-09-01 20:00,-9.0359,38.7039,69.80,55.40,60.21,350.00,13.00,0.00,30.03,M,6.21,M,M,M,M,M,M,M,M,M,M,M,M,M,M,M,M,69.80,LPMT 012000Z 35013KT CAVOK 21/13 Q1017
LPMT,2017-09-01 21:00,-9.0359,38.7039,69.80,55.40,60.21,350.00,14.00,0.00,30.06,M,6.21,M,M,M,M,M,M,M,M,M,M,M,M,M,M,M,M,69.80,LPMT 012100Z 35014KT CAVOK 21/13 Q1018
LPMT,2017-09-01 22:00,-9.0359,38.7039,68.00,55.40,64.04,350.00,11.00,0.00,30.06,M,6.21,M,M,M,M,M,M,M,M,M,M,M,M,M,M,M,M,68.00,LPMT 012200Z 35011KT CAVOK 20/13 Q1018
LPMT,2017-09-01 23:00,-9.0359,38.7039,68.00,55.40,64.04,350.00,7.00,0.00,30.06,M,6.21,M,M,M,M,M,M,M,M,M,M,M,M,M,M,M,M,68.00,LPMT 012300Z 35007KT 320V020 CAVOK 20/13 Q1018
LPMT,2017-09-02 00:00,-9.0359,38.7039,66.20,55.40,68.15,340.00,3.00,0.00,30.06,M,6.21,M,M,M,M,M,M,M,M,M,M,M,M,M,M,M,M,66.20,LPMT 020000Z 34003KT CAVOK 19/13 Q1018
LPMT,2017-09-02 01:00,-9.0359,38.7039,66.20,55.40,68.15,350.00,5.00,0.00,30.06,M,6.21,M,M,M,M,M,M,M,M,M,M,M,M,M,M,M,M,66.20,LPMT 020100Z 35005KT CAVOK 19/13 Q1018
LPMT,2017-09-02 02:00,-9.0359,38.7039,64.40,57.20,77.45,70.00,2.00,0.00,30.03,M,6.21,M,M,M,M,M,M,M,M,M,M,M,M,M,M,M,M,64.40,LPMT 020200Z 07002KT CAVOK 18/14 Q1017
LPMT,2017-09-02 03:00,-9.0359,38.7039,64.40,55.40,72.56,30.00,7.00,0.00,30.03,M,6.21,M,M,M,M,M,M,M,M,M,M,M,M,M,M,M,M,64.40,LPMT 020300Z 03007KT CAVOK 18/13 Q1017
LPMT,2017-09-02 04:00,-9.0359,38.7039,64.40,55.40,72.56,40.00,3.00,0.00,30.03,M,6.21,M,M,M,M,M,M,M,M,M,M,M,M,M,M,M,M,64.40,LPMT 020400Z 04003KT 350V070 CAVOK 18/13 Q1017
LPMT,2017-09-02 05:00,-9.0359,38.7039,60.80,53.60,77.14,30.00,5.00,0.00,30.03,M,6.21,M,M,M,M,M,M,M,M,M,M,M,M,M,M,M,M,60.80,LPMT 020500Z 03005KT CAVOK 16/12 Q1017
LPMT,2017-09-02 06:00,-9.0359,38.7039,64.40,55.40,72.56,20.00,9.00,0.00,30.06,M,6.21,M,M,M,M,M,M,M,M,M,M,M,M,M,M,M,M,64.40,LPMT 020600Z 02009KT CAVOK 18/13 Q1018
LPMT,2017-09-02 07:00,-9.0359,38.7039,M,M,M,20.00,10.00,0.00,30.06,M,6.21,M,M,M,M,M,M,M,M,M,M,M,M,M,M,M,M,M,LPMT 020700Z 02010KT CAVOK Q1018 RMK RH72 BLU
LPMT,2017-09-02 08:00,-9.0359,38.7039,68.00,53.60,59.97,30.00,8.00,0.00,30.09,M,6.21,M,M,M,M,M,M,M,M,M,M,M,M,M,M,M,M,68.00,LPMT 020800Z 03008KT CAVOK 20/12 Q1019
LPMT,2017-09-02 09:00,-9.0359,38.7039,73.40,53.60,49.90,20.00,10.00,0.00,30.09,M,6.21,M,M,M,M,M,M,M,M,M,M,M,M,M,M,M,M,73.40,LPMT 020900Z 02010KT CAVOK 23/12 Q1019
LPMT,2017-09-02 10:00,-9.0359,38.7039,77.00,50.00,38.74,20.00,10.00,0.00,30.09,M,6.21,M,M,M,M,M,M,M,M,M,M,M,M,M,M,M,M,77.00,LPMT 021000Z 02010KT CAVOK 25/10 Q1019
LPMT,2017-09-02 11:00,-9.0359,38.7039,80.60,51.80,36.79,20.00,11.00,0.00,30.09,M,6.21,M,M,M,M,M,M,M,M,M,M,M,M,M,M,M,M,80.60,LPMT 021100Z 02011KT CAVOK 27/11 Q1019
LPMT,2017-09-02 12:00,-9.0359,38.7039,84.20,53.60,34.97,350.00,7.00,0.00,30.09,M,6.21,M,M,M,M,M,M,M,M,M,M,M,M,M,M,M,M,82.76,LPMT 021200Z 35007KT 310V020 CAVOK 29/12 Q1019
LPMT,2017-09-02 13:00,-9.0359,38.7039,89.60,46.40,22.53,30.00,8.00,0.00,30.06,M,6.21,M,M,M,M,M,M,M,M,M,M,M,M,M,M,M,M,86.24,LPMT 021300Z 03008KT 340V040 CAVOK 32/08 Q1018
LPMT,2017-09-02 14:00,-9.0359,38.7039,91.40,44.60,19.89,20.00,7.00,0.00,30.06,M,6.21,M,M,M,M,M,M,M,M,M,M,M,M,M,M,M,M,87.68,LPMT 021400Z 02007KT 320V060 CAVOK 33/07 Q1018
LPMT,2017-09-02 15:00,-9.0359,38.7039,91.40,42.80,18.56,290.00,5.00,0.00,30.03,M,6.21,M,M,M,M,M,M,M,M,M,M,M,M,M,M,M,M,87.52,LPMT 021500Z 29005KT 240V360 CAVOK 33/06 Q1017
LPMT,2017-09-02 16:00,-9.0359,38.7039,91.40,42.80,18.56,270.00,4.00,0.00,30.03,M,6.21,M,M,M,M,M,M,M,M,M,M,M,M,M,M,M,M,87.52,LPMT 021600Z 27004KT 220V300 CAVOK 33/06 Q1017
LPMT,2017-09-02 17:00,-9.0359,38.7039,91.40,44.60,19.89,250.00,5.00,0.00,30.03,M,6.21,M,M,M,M,M,M,M,M,M,M,M,M,M,M,M,M,87.68,LPMT 021700Z 25005KT CAVOK 33/07 Q1017
LPMT,2017-09-02 18:00,-9.0359,38.7039,86.00,51.80,30.90,320.00,7.00,0.00,30.03,M,6.21,M,M,M,M,M,M,M,M,M,M,M,M,M,M,M,M,83.87,LPMT 021800Z 32007KT CAVOK 30/11 Q1017
LPMT,2017-09-02 19:00,-9.0359,38.7039,80.60,53.60,39.30,340.00,9.00,0.00,30.03,M,6.21,M,M,M,M,M,M,M,M,M,M,M,M,M,M,M,M,80.60,LPMT 021900Z 34009KT CAVOK 27/12 Q1017
LPMT,2017-09-02 20:00,-9.0359,38.7039,75.20,50.00,41.14,360.00,9.00,0.00,30.06,M,6.21,M,M,M,M,M,M,M,M,M,M,M,M,M,M,M,M,75.20,LPMT 022000Z 36009KT CAVOK 24/10 Q1018
LPMT,2017-09-02 21:00,-9.0359,38.7039,71.60,51.80,49.64,M,2.00,0.00,30.06,M,6.21,M,M,M,M,M,M,M,M,M,M,M,M,M,M,M,M,71.60,LPMT 022100Z VRB02KT CAVOK 22/11 Q1018
LPMT,2017-09-02 22:00,-9.0359,38.7039,66.20,53.60,63.82,M,2.00,0.00,30.06,M,6.21,M,M,M,M,M,M,M,M,M,M,M,M,M,M,M,M,66.20,LPMT 022200Z VRB02KT CAVOK 19/12 Q1018
LPMT,2017-09-02 23:00,-9.0359,38.7039,66.20,53.60,63.82,320.00,4.00,0.00,30.06,M,6.21,M,M,M,M,M,M,M,M,M,M,M,M,M,M,M,M,66.20,LPMT 022300Z 32004KT CAVOK 19/12 Q1018
LPMT,2017-09-03 00:00,-9.0359,38.7039,62.60,53.60,72.38,300.00,3.00,0.00,30.06,M,6.21,M,M,M,M,M,M,M,M,M,M,M,M,M,M,M,M,62.60,LPMT 030000Z 30003KT CAVOK 17/12 Q1018
LPMT,2017-09-03 01:00,-9.0359,38.7039,59.00,51.80,76.98,310.00,2.00,0.00,30.06,M,6.21,M,M,M,M,M,M,M,M,M,M,M,M,M,M,M,M,59.00,LPMT 030100Z 31002KT CAVOK 15/11 Q1018
LPMT,2017-09-03 03:00,-9.0359,38.7039,60.80,50.00,67.54,310.00,6.00,0.00,30.03,M,6.21,M,M,M,M,M,M,M,M,M,M,M,M,M,M,M,M,60.80,LPMT 030300Z 31006KT CAVOK 16/10 Q1017
LPMT,2017-09-03 04:00,-9.0359,38.7039,64.40,50.00,59.50,320.00,4.00,0.00,30.03,M,6.21,M,M,M,M,M,M,M,M,M,M,M,M,M,M,M,M,64.40,LPMT 030400Z 32004KT CAVOK 18/10 Q1017
LPMT,2017-09-03 05:00,-9.0359,38.7039,66.20,50.00,55.88,320.00,6.00,0.00,30.03,M,6.21,M,M,M,M,M,M,M,M,M,M,M,M,M,M,M,M,66.20,LPMT 030500Z 32006KT CAVOK 19/10 Q1017
LPMT,2017-09-03 07:00,-9.0359,38.7039,64.40,53.60,67.95,340.00,4.00,0.00,30.03,M,6.21,M,M,M,M,M,M,M,M,M,M,M,M,M,M,M,M,64.40,LPMT 030700Z 34004KT CAVOK 18/12 Q1017
LPMT,2017-09-03 08:00,-9.0359,38.7039,68.00,51.80,56.13,330.00,5.00,0.00,30.03,M,6.21,M,M,M,M,M,M,M,M,M,M,M,M,M,M,M,M,68.00,LPMT 030800Z 33005KT CAVOK 20/11 Q1017
LPMT,2017-09-03 09:00,-9.0359,38.7039,69.80,51.80,52.77,340.00,6.00,0.00,30.03,M,6.21,M,M,M,M,M,M,M,M,M,M,M,M,M,M,M,M,69.80,LPMT 030900Z 34006KT 300V010 CAVOK 21/11 Q1017 BLU
LPMT,2017-09-03 10:00,-9.0359,38.7039,75.20,51.80,43.97,350.00,6.00,0.00,30.03,M,6.21,M,M,M,M,M,M,M,M,M,M,M,M,M,M,M,M,75.20,LPMT 031000Z 35006KT 300V020 CAVOK 24/11 Q1017
LPMT,2017-09-03 11:00,-9.0359,38.7039,78.80,53.60,41.69,360.00,6.00,0.00,30.03,M,6.21,M,M,M,M,M,M,M,M,M,M,M,M,M,M,M,M,78.80,LPMT 031100Z 36006KT 310V030 CAVOK 26/12 Q1017
LPMT,2017-09-03 12:00,-9.0359,38.7039,78.80,51.80,39.02,10.00,8.00,0.00,30.03,M,6.21,M,M,M,M,M,M,M,M,M,M,M,M,M,M,M,M,78.80,LPMT 031200Z 01008KT 330V050 CAVOK 26/11 Q1017
LPMT,2017-09-03 13:00,-9.0359,38.7039,82.40,50.00,32.46,330.00,5.00,0.00,30.03,M,6.21,M,M,M,M,M,M,M,M,M,M,M,M,M,M,M,M,80.99,LPMT 031300Z 33005KT 270V020 CAVOK 28/10 Q1017
LPMT,2017-09-03 14:00,-9.0359,38.7039,82.40,55.40,39.58,340.00,9.00,0.00,30.03,M,6.21,M,M,M,M,M,M,M,M,M,M,M,M,M,M,M,M,82.40,LPMT 031400Z 34009KT 300V010 CAVOK 28/13 Q1017
LPMT,2017-09-03 15:00,-9.0359,38.7039,84.20,55.40,37.35,330.00,10.00,0.00,30.00,M,6.21,M,M,M,M,M,M,M,M,M,M,M,M,M,M,M,M,83.09,LPMT 031500Z 33010KT 300V360 CAVOK 29/13 Q1016
LPMT,2017-09-03 16:00,-9.0359,38.7039,82.40,53.60,37.07,320.00,10.00,0.00,30.00,M,6.21,M,M,M,M,M,M,M,M,M,M,M,M,M,M,M,M,82.40,LPMT 031600Z 32010KT CAVOK 28/12 Q1016
LPMT,2017-09-03 17:00,-9.0359,38.7039,80.60,59.00,47.79,330.00,9.00,0.00,30.00,M,6.21,M,M,M,M,M,M,M,M,M,M,M,M,M,M,M,M,81.11,LPMT 031700Z 33009KT CAVOK 27/15 Q1016
LPMT,2017-09-03 18:00,-9.0359,38.7039,77.00,60.80,57.36,330.00,9.00,0.00,30.00,M,6.21,M,M,M,M,M,M,M,M,M,M,M,M,M,M,M,M,77.00,LPMT 031800Z 33009KT CAVOK 25/16 Q1016
LPMT,2017-09-03 19:00,-9.0359,38.7039,73.40,57.20,56.88,330.00,10.00,0.00,30.00,M,6.21,M,M,M,M,M,M,M,M,M,M,M,M,M,M,M,M,73.40,LPMT 031900Z 33010KT CAVOK 23/14 Q1016
LPMT,2017-09-03 20:00,-9.0359,38.7039,69.80,53.60,56.38,350.00,5.00,0.00,30.03,M,6.21,M,M,M,M,M,M,M,M,M,M,M,M,M,M,M,M,69.80,LPMT 032000Z 35005KT 310V030 CAVOK 21/12 Q1017
LPMT,2017-09-03 21:00,-9.0359,38.7039,68.00,57.20,68.35,360.00,4.00,0.00,30.03,M,6.21,M,M,M,M,M,M,M,M,M,M,M,M,M,M,M,M,68.00,LPMT 032100Z 36004KT 310V060 CAVOK 20/14 Q1017
LPMT,2017-09-03 22:00,-9.0359,38.7039,66.20,60.80,82.74,330.00,5.00,0.00,30.06,M,6.21,M,FEW,M,M,M,1600.00,M,M,M,M,M,M,M,M,M,M,66.20,LPMT 032200Z 33005KT 300V020 9999 FEW016 19/16 Q1018
LPMT,2017-09-03 23:00,-9.0359,38.7039,66.20,60.80,82.74,330.00,5.00,0.00,30.06,M,6.21,M,FEW,M,M,M,1600.00,M,M,M,M,M,M,M,M,M,M,66.20,LPMT 032300Z 33005KT 300V360 9999 FEW016 19/16 Q1018
LPMT,2017-09-04 00:00,-9.0359,38.7039,66.20,60.80,82.74,340.00,7.00,0.00,30.06,M,6.21,M,FEW,M,M,M,1600.00,M,M,M,M,M,M,M,M,M,M,66.20,LPMT 040000Z 34007KT 9999 FEW016 19/16 Q1018
LPMT,2017-09-04 01:00,-9.0359,38.7039,68.00,62.60,82.86,340.00,4.00,0.00,30.06,M,6.21,M,BKN,M,M,M,1600.00,M,M,M,M,M,M,M,M,M,M,68.00,LPMT 040100Z 34004KT 310V010 9999 BKN016 20/17 Q1018
LPMT,2017-09-04 02:00,-9.0359,38.7039,68.00,62.60,82.86,350.00,5.00,0.00,30.03,M,6.21,M,BKN,M,M,M,1600.00,M,M,M,M,M,M,M,M,M,M,68.00,LPMT 040200Z 35005KT 330V030 9999 BKN016 20/17 Q1017
LPMT,2017-09-04 03:00,-9.0359,38.7039,68.00,64.40,88.26,320.00,6.00,0.00,30.03,M,6.21,M,BKN,M,M,M,1600.00,M,M,M,M,M,M,M,M,M,M,68.00,LPMT 040300Z 32006KT 9999 BKN016 20/18 Q1017
LPMT,2017-09-04 04:00,-9.0359,38.7039,68.00,64.40,88.26,310.00,4.00,0.00,30.03,M,6.21,M,BKN,M,M,M,1400.00,M,M,M,M,M,M,M,M,M,M,68.00,LPMT 040400Z 31004KT 270V340 9999 BKN014 20/18 Q1017
LPMT,2017-09-04 05:00,-9.0359,38.7039,68.00,64.40,88.26,320.00,4.00,0.00,30.03,M,6.21,M,FEW,BKN,M,M,800.00,1200.00,M,M,M,M,M,M,M,M,M,68.00,LPMT 040500Z 32004KT 290V350 9999 FEW008 BKN012 20/18 Q1017
LPMT,2017-09-04 06:00,-9.0359,38.7039,68.00,64.40,88.26,M,2.00,0.00,30.03,M,6.21,M,FEW,BKN,M,M,800.00,1500.00,M,M,M,M,M,M,M,M,M,68.00,LPMT 040600Z VRB02KT 9999 FEW008 BKN015 20/18 Q1017
LPMT,2017-09-04 07:00,-9.0359,38.7039,68.00,66.20,93.97,260.00,5.00,0.00,30.03,M,6.21,M,FEW,BKN,M,M,800.00,1500.00,M,M,M,M,M,M,M,M,M,68.00,LPMT 040700Z 26005KT 9999 FEW008 BKN015 20/19 Q1017
LPMT,2017-09-04 08:00,-9.0359,38.7039,69.80,66.20,88.34,250.00,6.00,0.00,30.06,M,6.21,M,FEW,BKN,M,M,800.00,1200.00,M,M,M,M,M,M,M,M,M,69.80,LPMT 040800Z 25006KT 9999 FEW008 BKN012 21/19 Q1018
LPMT,2017-09-04 09:00,-9.0359,38.7039,71.60,68.00,88.43,270.00,6.00,0.00,30.09,M,6.21,M,FEW,BKN,M,M,600.00,1500.00,M,M,M,M,M,M,M,M,M,72.62,LPMT 040900Z 27006KT 250V310 9999 FEW006 BKN015 22/20 Q1019
LPMT,2017-09-04 10:00,-9.0359,38.7039,75.20,66.20,73.61,310.00,6.00,0.00,30.09,M,6.21,M,FEW,SCT,M,M,1200.00,2000.00,M,M,M,M,M,M,M,M,M,75.20,LPMT 041000Z 31006KT 260V350 9999 FEW012 SCT020 24/19 Q1019
LPMT,2017-09-04 11:00,-9.0359,38.7039,78.80,64.40,61.36,300.00,6.00,0.00,30.09,M,6.21,M,FEW,SCT,M,M,1400.00,2500.00,M,M,M,M,M,M,M,M,M,80.56,LPMT 041100Z 30006KT 250V360 9999 FEW014 SCT025 26/18 Q1019
LPMT,2017-09-04 12:00,-9.0359,38.7039,78.80,64.40,61.36,340.00,6.00,0.00,30.09,M,6.21,M,FEW,M,M,M,2800.00,M,M,M,M,M,M,M,M,M,M,80.56,LPMT 041200Z 34006KT 250V050 9999 FEW028 26/18 Q1019
LPMT,2017-09-04 13:00,-9.0359,38.7039,80.60,60.80,50.95,350.00,8.00,0.00,30.06,M,6.21,M,FEW,M,M,M,3200.00,M,M,M,M,M,M,M,M,M,M,81.46,LPMT 041300Z 35008KT 300V030 9999 FEW032 27/16 Q1018
LPMT,2017-09-04 14:00,-9.0359,38.7039,82.40,60.80,48.05,340.00,11.00,0.00,30.06,M,6.21,M,FEW,M,M,M,3500.00,M,M,M,M,M,M,M,M,M,M,82.90,LPMT 041400Z 34011KT 9999 FEW035 28/16 Q1018
LPMT,2017-09-04 15:00,-9.0359,38.7039,80.60,60.80,50.95,330.00,9.00,0.00,30.06,M,6.21,M,FEW,M,M,M,3200.00,M,M,M,M,M,M,M,M,M,M,81.46,LPMT 041500Z 33009KT 9999 FEW032 27/16 Q1018
LPMT,2017-09-04 16:00,-9.0359,38.7039,78.80,60.80,54.05,340.00,12.00,0.00,30.06,M,6.21,M,FEW,M,M,M,3000.00,M,M,M,M,M,M,M,M,M,M,78.80,LPMT 041600Z 34012KT 9999 FEW030 26/16 Q1018
LPMT,2017-09-04 17:00,-9.0359,38.7039,77.00,60.80,57.36,330.00,10.00,0.00,30.06,M,6.21,M,FEW,M,M,M,3000.00,M,M,M,M,M,M,M,M,M,M,77.00,LPMT 041700Z 33010KT 9999 FEW030 25/16 Q1018
LPMT,2017-09-04 18:00,-9.0359,38.7039,75.20,60.80,60.90,320.00,9.00,0.00,30.06,M,6.21,M,M,M,M,M,M,M,M,M,M,M,M,M,M,M,M,75.20,LPMT 041800Z 32009KT CAVOK 24/16 Q1018
LPMT,2017-09-04 19:00,-9.0359,38.7039,71.60,60.80,68.75,330.00,8.00,0.00,30.06,M,6.21,M,M,M,M,M,M,M,M,M,M,M,M,M,M,M,M,71.60,LPMT 041900Z 33008KT CAVOK 22/16 Q1018
LPMT,2017-09-04 20:00,-9.0359,38.7039,69.80,60.80,73.09,320.00,7.00,0.00,30.09,M,6.21,M,M,M,M,M,M,M,M,M,M,M,M,M,M,M,M,69.80,LPMT 042000Z 32007KT 290V350 CAVOK 21/16 Q1019
LPMT,2017-09-04 21:00,-9.0359,38.7039,68.00,60.80,77.75,320.00,8.00,0.00,30.12,M,6.21,M,FEW,M,M,M,1500.00,M,M,M,M,M,M,M,M,M,M,68.00,LPMT 042100Z 32008KT 290V350 9999 FEW015 20/16 Q1020
LPMT,2017-09-04 22:00,-9.0359,38.7039,68.00,62.60,82.86,330.00,7.00,0.00,30.12,M,6.21,M,SCT,M,M,M,1700.00,M,M,M,M,M,M,M,M,M,M,68.00,LPMT 042200Z 33007KT 9999 SCT017 20/17 Q1020
LPMT,2017-09-04 23:00,-9.0359,38.7039,68.00,62.60,82.86,330.00,7.00,0.00,30.12,M,6.21,M,BKN,M,M,M,1600.00,M,M,M,M,M,M,M,M,M,M,68.00,LPMT 042300Z 33007KT 300V010 9999 BKN016 20/17 Q1020
LPMT,2017-09-05 00:00,-9.0359,38.7039,68.00,62.60,82.86,330.00,7.00,0.00,30.12,M,6.21,M,FEW,OVC,M,M,1200.00,1600.00,M,M,M,M,M,M,M,M,M,68.00,LPMT 050000Z 33007KT 300V360 9999 FEW012 OVC016 20/17 Q1020
LPMT,2017-09-05 01:00,-9.0359,38.7039,68.00,62.60,82.86,330.00,8.00,0.00,30.12,M,6.21,M,OVC,M,M,M,1500.00,M,M,M,M,M,M,M,M,M,M,68.00,LPMT 050100Z 33008KT 9999 OVC015 20/17 Q1020
LPMT,2017-09-05 02:00,-9.0359,38.7039,68.00,62.60,82.86,340.00,9.00,0.00,30.12,M,6.21,M,OVC,M,M,M,1500.00,M,M,M,M,M,M,M,M,M,M,68.00,LPMT 050200Z 34009KT 310V010 9999 OVC015 20/17 Q1020
LPMT,2017-09-05 03:00,-9.0359,38.7039,68.00,60.80,77.75,330.00,8.00,0.00,30.12,M,6.21,M,OVC,M,M,M,1800.00,M,M,M,M,M,M,M,M,M,M,68.00,LPMT 050300Z 33008KT 300V360 9999 OVC018 20/16 Q1020
LPMT,2017-09-05 04:00,-9.0359,38.7039,68.00,60.80,77.75,340.00,8.00,0.00,30.12,M,6.21,M,OVC,M,M,M,1800.00,M,M,M,M,M,M,M,M,M,M,68.00,LPMT 050400Z 34008KT 9999 OVC018 20/16 Q1020
LPMT,2017-09-05 05:00,-9.0359,38.7039,68.00,60.80,77.75,350.00,8.00,0.00,30.12,M,6.21,M,OVC,M,M,M,1800.00,M,M,M,M,M,M,M,M,M,M,68.00,LPMT 050500Z 35008KT 320V020 9999 OVC018 20/16 Q1020
LPMT,2017-09-05 06:00,-9.0359,38.7039,66.20,60.80,82.74,330.00,6.00,0.00,30.12,M,6.21,M,BKN,M,M,M,2000.00,M,M,M,M,M,M,M,M,M,M,66.20,LPMT 050600Z 33006KT 310V010 9999 BKN020 19/16 Q1020
LPMT,2017-09-05 07:00,-9.0359,38.7039,66.20,60.80,82.74,350.00,4.00,0.00,30.12,M,6.21,M,FEW,M,M,M,2000.00,M,M,M,M,M,M,M,M,M,M,66.20,LPMT 050700Z 35004KT 9999 FEW020 19/16 Q1020
LPMT,2017-09-05 08:00,-9.0359,38.7039,69.80,62.60,77.90,350.00,6.00,0.00,30.15,M,6.21,M,SCT,M,M,M,1800.00,M,M,M,M,M,M,M,M,M,M,69.80,LPMT 050800Z 35006KT 9999 SCT018 21/17 Q1021
LPMT,2017-09-05 09:00,-9.0359,38.7039,73.40,62.60,68.94,350.00,7.00,0.00,30.15,M,6.21,M,SCT,M,M,M,2100.00,M,M,M,M,M,M,M,M,M,M,73.40,LPMT 050900Z 35007KT 9999 SCT021 23/17 Q1021
LPMT,2017-09-05 10:00,-9.0359,38.7039,75.20,60.80,60.90,10.00,10.00,0.00,30.15,M,6.21,M,FEW,M,M,M,2500.00,M,M,M,M,M,M,M,M,M,M,75.20,LPMT 051000Z 01010KT 9999 FEW025 24/16 Q1021
LPMT,2017-09-05 11:00,-9.0359,38.7039,77.00,60.80,57.36,10.00,8.00,0.00,30.18,M,6.21,M,M,M,M,M,M,M,M,M,M,M,M,M,M,M,M,77.00,LPMT 051100Z 01008KT 330V030 CAVOK 25/16 Q1022
LPMT,2017-09-05 12:00,-9.0359,38.7039,78.80,60.80,54.05,10.00,6.00,0.00,30.15,M,6.21,M,M,M,M,M,M,M,M,M,M,M,M,M,M,M,M,78.80,LPMT 051200Z 01006KT 330V060 CAVOK 26/16 Q1021
LPMT,2017-09-05 13:00,-9.0359,38.7039,80.60,62.60,54.30,360.00,6.00,0.00,30.15,M,6.21,M,M,M,M,M,M,M,M,M,M,M,M,M,M,M,M,81.84,LPMT 051300Z 36006KT 310V060 CAVOK 27/17 Q1021
LPMT,2017-09-05 14:00,-9.0359,38.7039,82.40,62.60,51.21,10.00,7.00,0.00,30.15,M,6.21,M,M,M,M,M,M,M,M,M,M,M,M,M,M,M,M,83.41,LPMT 051400Z 01007KT 320V040 CAVOK 28/17 Q1021
LPMT,2017-09-05 15:00,-9.0359,38.7039,84.20,62.60,48.32,330.00,8.00,0.00,30.12,M,6.21,M,M,M,M,M,M,M,M,M,M,M,M,M,M,M,M,85.03,LPMT 051500Z 33008KT 300V360 CAVOK 29/17 Q1020
LPMT,2017-09-05 16:00,-9.0359,38.7039,82.40,62.60,51.21,320.00,10.00,0.00,30.12,M,6.21,M,M,M,M,M,M,M,M,M,M,M,M,M,M,M,M,83.41,LPMT 051600Z 32010KT CAVOK 28/17 Q1020
LPMT,2017-09-05 17:00,-9.0359,38.7039,78.80,62.60,57.60,330.00,10.00,0.00,30.12,M,6.21,M,M,M,M,M,M,M,M,M,M,M,M,M,M,M,M,80.31,LPMT 051700Z 33010KT CAVOK 26/17 Q1020
LPMT,2017-09-05 18:00,-9.0359,38.7039,78.80,62.60,57.60,340.00,10.00,0.00,30.12,M,6.21,M,M,M,M,M,M,M,M,M,M,M,M,M,M,M,M,80.31,LPMT 051800Z 34010KT CAVOK 26/17 Q1020
LPMT,2017-09-05 19:00,-9.0359,38.7039,73.40,60.80,64.69,350.00,11.00,0.00,30.12,M,6.21,M,M,M,M,M,M,M,M,M,M,M,M,M,M,M,M,73.40,LPMT 051900Z 35011KT 310V010 CAVOK 23/16 Q1020
LPMT,2017-09-05 20:00,-9.0359,38.7039,69.80,60.80,73.09,340.00,11.00,0.00,30.15,M,6.21,M,M,M,M,M,M,M,M,M,M,M,M,M,M,M,M,69.80,LPMT 052000Z 34011KT CAVOK 21/16 Q1021
LPMT,2017-09-05 21:00,-9.0359,38.7039,69.80,60.80,73.09,340.00,8.00,0.00,30.18,M,6.21,M,M,M,M,M,M,M,M,M,M,M,M,M,M,M,M,69.80,LPMT 052100Z 34008KT 320V020 CAVOK 21/16 Q1022
LPMT,2017-09-05 22:00,-9.0359,38.7039,68.00,60.80,77.75,340.00,10.00,0.00,30.18,M,6.21,M,M,M,M,M,M,M,M,M,M,M,M,M,M,M,M,68.00,LPMT 052200Z 34010KT CAVOK 20/16 Q1022
LPMT,2017-09-05 23:00,-9.0359,38.7039,68.00,60.80,77.75,340.00,10.00,0.00,30.18,M,6.21,M,M,M,M,M,M,M,M,M,M,M,M,M,M,M,M,68.00,LPMT 052300Z 34010KT CAVOK 20/16 Q1022
LPMT,2017-09-06 00:00,-9.0359,38.7039,68.00,60.80,77.75,340.00,6.00,0.00,30.18,M,6.21,M,M,M,M,M,M,M,M,M,M,M,M,M,M,M,M,68.00,LPMT 060000Z 34006KT 300V360 CAVOK 20/16 Q1022
LPMT,2017-09-06 01:00,-9.0359,38.7039,68.00,62.60,82.86,340.00,9.00,0.00,30.15,M,6.21,M,M,M,M,M,M,M,M,M,M,M,M,M,M,M,M,68.00,LPMT 060100Z 34009KT CAVOK 20/17 Q1021
LPMT,2017-09-06 03:00,-9.0359,38.7039,68.00,62.60,82.86,340.00,10.00,0.00,30.15,M,6.21,M,M,M,M,M,M,M,M,M,M,M,M,M,M,M,M,68.00,LPMT 060300Z 34010KT CAVOK 20/17 Q1021
LPMT,2017-09-06 04:00,-9.0359,38.7039,68.00,64.40,88.26,330.00,6.00,0.00,30.12,M,6.21,M,M,M,M,M,M,M,M,M,M,M,M,M,M,M,M,68.00,LPMT 060400Z 33006KT 300V010 CAVOK 20/18 Q1020
LPMT,2017-09-06 06:00,-9.0359,38.7039,68.00,62.60,82.86,330.00,7.00,0.00,30.12,M,6.21,M,M,M,M,M,M,M,M,M,M,M,M,M,M,M,M,68.00,LPMT 060600Z 33007KT CAVOK 20/17 Q1020
LPMT,2017-09-06 07:00,-9.0359,38.7039,68.00,62.60,82.86,340.00,7.00,0.00,30.12,M,6.21,M,M,M,M,M,M,M,M,M,M,M,M,M,M,M,M,68.00,LPMT 060700Z 34007KT CAVOK 20/17 Q1020
LPMT,2017-09-06 08:00,-9.0359,38.7039,69.80,62.60,77.90,330.00,5.00,0.00,30.12,M,6.21,M,M,M,M,M,M,M,M,M,M,M,M,M,M,M,M,69.80,LPMT 060800Z 33005KT 290V010 CAVOK 21/17 Q1020
LPMT,2017-09-06 09:00,-9.0359,38.7039,73.40,62.60,68.94,340.00,8.00,0.00,30.12,M,6.21,M,M,M,M,M,M,M,M,M,M,M,M,M,M,M,M,73.40,LPMT 060900Z 34008KT 300V010 CAVOK 23/17 Q1020
LPMT,2017-09-06 10:00,-9.0359,38.7039,77.00,62.60,61.13,350.00,6.00,0.00,30.12,M,6.21,M,M,M,M,M,M,M,M,M,M,M,M,M,M,M,M,77.00,LPMT 061000Z 35006KT 310V030 CAVOK 25/17 Q1020
LPMT,2017-09-06 11:00,-9.0359,38.7039,78.80,62.60,57.60,350.00,6.00,0.00,30.12,M,6.21,M,M,M,M,M,M,M,M,M,M,M,M,M,M,M,M,80.31,LPMT 061100Z 35006KT 300V050 CAVOK 26/17 Q1020
LPMT,2017-09-06 12:00,-9.0359,38.7039,82.40,62.60,51.21,10.00,6.00,0.00,30.12,M,6.21,M,M,M,M,M,M,M,M,M,M,M,M,M,M,M,M,83.41,LPMT 061200Z 01006KT 330V050 CAVOK 28/17 Q1020
LPMT,2017-09-06 13:00,-9.0359,38.7039,86.00,60.80,42.80,360.00,6.00,0.00,30.09,M,6.21,M,M,M,M,M,M,M,M,M,M,M,M,M,M,M,M,86.05,LPMT 061300Z 36006KT 310V060 CAVOK 30/16 Q1019
LPMT,2017-09-06 14:00,-9.0359,38.7039,87.80,60.80,40.41,350.00,7.00,0.00,30.06,M,6.21,M,M,M,M,M,M,M,M,M,M,M,M,M,M,M,M,87.75,LPMT 061400Z 35007KT 310V030 CAVOK 31/16 Q1018
LPMT,2017-09-06 15:00,-9.0359,38.7039,86.00,62.60,45.61,320.00,8.00,0.00,30.03,M,6.21,M,M,M,M,M,M,M,M,M,M,M,M,M,M,M,M,86.72,LPMT 061500Z 32008KT CAVOK 30/17 Q1017
LPMT,2017-09-06 16:00,-9.0359,38.7039,86.00,62.60,45.61,330.00,10.00,0.00,30.03,M,6.21,M,M,M,M,M,M,M,M,M,M,M,M,M,M,M,M,86.72,LPMT 061600Z 33010KT 300V360 CAVOK 30/17 Q1017
LPMT,2017-09-06 17:00,-9.0359,38.7039,82.40,62.60,51.21,320.00,8.00,0.00,30.03,M,6.21,M,M,M,M,M,M,M,M,M,M,M,M,M,M,M,M,83.41,LPMT 061700Z 32008KT CAVOK 28/17 Q1017
LPMT,2017-09-06 18:00,-9.0359,38.7039,78.80,59.00,50.69,330.00,10.00,0.00,30.03,M,6.21,M,M,M,M,M,M,M,M,M,M,M,M,M,M,M,M,78.80,LPMT 061800Z 33010KT CAVOK 26/15 Q1017
LPMT,2017-09-06 19:00,-9.0359,38.7039,75.20,59.00,57.12,350.00,8.00,0.00,30.03,M,6.21,M,M,M,M,M,M,M,M,M,M,M,M,M,M,M,M,75.20,LPMT 061900Z 35008KT CAVOK 24/15 Q1017
LPMT,2017-09-06 23:00,-9.0359,38.7039,71.60,60.80,68.75,330.00,8.00,0.00,30.03,M,6.21,M,M,M,M,M,M,M,M,M,M,M,M,M,M,M,M,71.60,LPMT 062300Z 33008KT CAVOK 22/16 Q1017
LPMT,2017-09-07 00:00,-9.0359,38.7039,69.80,59.00,68.55,320.00,8.00,0.00,30.03,M,6.21,M,M,M,M,M,M,M,M,M,M,M,M,M,M,M,M,69.80,LPMT 070000Z 32008KT CAVOK 21/15 Q1017
LPMT,2017-09-07 01:00,-9.0359,38.7039,68.00,59.00,72.92,330.00,6.00,0.00,30.00,M,6.21,M,M,M,M,M,M,M,M,M,M,M,M,M,M,M,M,68.00,LPMT 070100Z 33006KT CAVOK 20/15 Q1016
LPMT,2017-09-07 02:00,-9.0359,38.7039,66.20,59.00,77.60,350.00,3.00,0.00,30.00,M,6.21,M,M,M,M,M,M,M,M,M,M,M,M,M,M,M,M,66.20,LPMT 070200Z 35003KT CAVOK 19/15 Q1016
LPMT,2017-09-07 03:00,-9.0359,38.7039,66.20,59.00,77.60,350.00,4.00,0.00,30.00,M,6.21,M,M,M,M,M,M,M,M,M,M,M,M,M,M,M,M,66.20,LPMT 070300Z 35004KT CAVOK 19/15 Q1016
LPMT,2017-09-07 04:00,-9.0359,38.7039,60.80,57.20,87.92,90.00,2.00,0.00,30.00,M,6.21,M,M,M,M,M,M,M,M,M,M,M,M,M,M,M,M,60.80,LPMT 070400Z 09002KT CAVOK 16/14 Q1016
LPMT,2017-09-07 05:00,-9.0359,38.7039,60.80,55.40,82.37,70.00,3.00,0.00,30.00,M,6.21,M,M,M,M,M,M,M,M,M,M,M,M,M,M,M,M,60.80,LPMT 070500Z 07003KT CAVOK 16/13 Q1016
LPMT,2017-09-07 06:00,-9.0359,38.7039,59.00,57.20,93.74,40.00,4.00,0.00,30.00,M,6.21,M,M,M,M,M,M,M,M,M,M,M,M,M,M,M,M,59.00,LPMT 070600Z 04004KT CAVOK 15/14 Q1016
LPMT,2017-09-07 07:00,-9.0359,38.7039,60.80,57.20,87.92,80.00,2.00,0.00,30.00,M,6.21,M,M,M,M,M,M,M,M,M,M,M,M,M,M,M,M,60.80,LPMT 070700Z 08002KT CAVOK 16/14 Q1016
LPMT,2017-09-07 08:00,-9.0359,38.7039,68.00,60.80,77.75,40.00,4.00,0.00,30.00,M,6.21,M,M,M,M,M,M,M,M,M,M,M,M,M,M,M,M,68.00,LPMT 070800Z 04004KT CAVOK 20/16 Q1016
LPMT,2017-09-07 09:00,-9.0359,38.7039,73.40,60.80,64.69,10.00,3.00,0.00,30.03,M,6.21,M,M,M,M,M,M,M,M,M,M,M,M,M,M,M,M,73.40,LPMT 070900Z 01003KT 330V060 CAVOK 23/16 Q1017
LPMT,2017-09-07 10:00,-9.0359,38.7039,78.80,60.80,54.05,10.00,5.00,0.00,30.03,M,6.21,M,M,M,M,M,M,M,M,M,M,M,M,M,M,M,M,78.80,LPMT 071000Z 01005KT 350V070 CAVOK 26/16 Q1017
LPMT,2017-09-07 11:00,-9.0359,38.7039,86.00,59.00,40.14,10.00,7.00,0.00,30.03,M,6.21,M,M,M,M,M,M,M,M,M,M,M,M,M,M,M,M,85.47,LPMT 071100Z 01007KT CAVOK 30/15 Q1017
LPMT,2017-09-07 12:00,-9.0359,38.7039,87.80,55.40,33.29,10.00,7.00,0.00,30.00,M,6.21,M,M,M,M,M,M,M,M,M,M,M,M,M,M,M,M,86.11,LPMT 071200Z 01007KT CAVOK 31/13 Q1016
LPMT,2017-09-07 13:00,-9.0359,38.7039,95.00,50.00,21.79,40.00,9.00,0.00,30.00,M,6.21,M,M,M,M,M,M,M,M,M,M,M,M,M,M,M,M,91.89,LPMT 071300Z 04009KT 360V080 CAVOK 35/10 Q1016
LPMT,2017-09-07 14:00,-9.0359,38.7039,95.00,51.80,23.30,10.00,6.00,0.00,29.97,M,6.21,M,M,M,M,M,M,M,M,M,M,M,M,M,M,M,M,92.26,LPMT 071400Z 01006KT 330V040 CAVOK 35/11 Q1015
LPMT,2017-09-07 15:00,-9.0359,38.7039,93.20,50.00,23.04,330.00,8.00,0.00,29.97,M,6.21,M,M,M,M,M,M,M,M,M,M,M,M,M,M,M,M,90.10,LPMT 071500Z 33008KT 300V360 CAVOK 34/10 Q1015
LPMT,2017-09-07 16:00,-9.0359,38.7039,93.20,44.60,18.80,340.00,10.00,0.00,29.94,M,6.21,M,M,M,M,M,M,M,M,M,M,M,M,M,M,M,M,89.34,LPMT 071600Z 34010KT CAVOK 34/07 Q1014
LPMT,2017-09-07 17:00,-9.0359,38.7039,87.80,48.20,25.52,340.00,10.00,0.00,29.94,M,6.21,M,M,M,M,M,M,M,M,M,M,M,M,M,M,M,M,84.87,LPMT 071700Z 34010KT CAVOK 31/09 Q1014
LPMT,2017-09-07 18:00,-9.0359,38.7039,82.40,50.00,32.46,340.00,8.00,0.00,29.94,M,6.21,M,M,M,M,M,M,M,M,M,M,M,M,M,M,M,M,80.99,LPMT 071800Z 34008KT CAVOK 28/10 Q1014
LPMT,2017-09-07 19:00,-9.0359,38.7039,78.80,50.00,36.51,350.00,10.00,0.00,29.94,M,6.21,M,M,M,M,M,M,M,M,M,M,M,M,M,M,M,M,78.80,LPMT 071900Z 35010KT CAVOK 26/10 Q1014
LPMT,2017-09-07 20:00,-9.0359,38.7039,75.20,50.00,41.14,350.00,11.00,0.00,29.97,M,6.21,M,M,M,M,M,M,M,M,M,M,M,M,M,M,M,M,75.20,LPMT 072000Z 35011KT CAVOK 24/10 Q1015
LPMT,2017-09-07 21:00,-9.0359,38.7039,71.60,53.60,53.03,340.00,5.00,0.00,30.00,M,6.21,M,M,M,M,M,M,M,M,M,M,M,M,M,M,M,M,71.60,LPMT 072100Z 34005KT CAVOK 22/12 Q1016
LPMT,2017-09-07 22:00,-9.0359,38.7039,68.00,53.60,59.97,M,1.00,0.00,30.00,M,6.21,M,M,M,M,M,M,M,M,M,M,M,M,M,M,M,M,68.00,LPMT 072200Z VRB01KT CAVOK 20/12 Q1016
LPMT,2017-09-07 23:00,-9.0359,38.7039,69.80,50.00,49.37,340.00,4.00,0.00,30.00,M,6.21,M,M,M,M,M,M,M,M,M,M,M,M,M,M,M,M,69.80,LPMT 072300Z 34004KT CAVOK 21/10 Q1016
LPMT,2017-09-08 00:00,-9.0359,38.7039,64.40,55.40,72.56,100.00,3.00,0.00,30.00,M,6.21,M,M,M,M,M,M,M,M,M,M,M,M,M,M,M,M,64.40,LPMT 080000Z 10003KT CAVOK 18/13 Q1016
LPMT,2017-09-08 01:00,-9.0359,38.7039,60.80,51.80,72.20,10.00,3.00,0.00,29.97,M,6.21,M,M,M,M,M,M,M,M,M,M,M,M,M,M,M,M,60.80,LPMT 080100Z 01003KT 340V060 CAVOK 16/11 Q1015
LPMT,2017-09-08 02:00,-9.0359,38.7039,68.00,51.80,56.13,340.00,6.00,0.00,29.97,M,6.21,M,M,M,M,M,M,M,M,M,M,M,M,M,M,M,M,68.00,LPMT 080200Z 34006KT CAVOK 20/11 Q1015
LPMT,2017-09-08 03:00,-9.0359,38.7039,66.20,51.80,59.74,340.00,5.00,0.00,29.97,M,6.21,M,M,M,M,M,M,M,M,M,M,M,M,M,M,M,M,66.20,LPMT 080300Z 34005KT CAVOK 19/11 Q1015
LPMT,2017-09-08 04:00,-9.0359,38.7039,66.20,51.80,59.74,340.00,6.00,0.00,29.97,M,6.21,M,M,M,M,M,M,M,M,M,M,M,M,M,M,M,M,66.20,LPMT 080400Z 34006KT CAVOK 19/11 Q1015
LPMT,2017-09-08 05:00,-9.0359,38.7039,66.20,51.80,59.74,340.00,6.00,0.00,29.97,M,6.21,M,M,M,M,M,M,M,M,M,M,M,M,M,M,M,M,66.20,LPMT 080500Z 34006KT CAVOK 19/11 Q1015
LPMT,2017-09-08 06:00,-9.0359,38.7039,64.40,53.60,67.95,330.00,5.00,0.00,29.97,M,6.21,M,M,M,M,M,M,M,M,M,M,M,M,M,M,M,M,64.40,LPMT 080600Z 33005KT CAVOK 18/12 Q1015
LPMT,2017-09-08 07:00,-9.0359,38.7039,64.40,53.60,67.95,340.00,7.00,0.00,29.97,M,6.21,M,M,M,M,M,M,M,M,M,M,M,M,M,M,M,M,64.40,LPMT 080700Z 34007KT CAVOK 18/12 Q1015
LPMT,2017-09-08 08:00,-9.0359,38.7039,68.00,53.60,59.97,350.00,6.00,0.00,30.00,M,6.21,M,M,M,M,M,M,M,M,M,M,M,M,M,M,M,M,68.00,LPMT 080800Z 35006KT 310V020 CAVOK 20/12 Q1016
LPMT,2017-09-08 09:00,-9.0359,38.7039,69.80,51.80,52.77,340.00,8.00,0.00,30.00,M,6.21,M,M,M,M,M,M,M,M,M,M,M,M,M,M,M,M,69.80,LPMT 080900Z 34008KT 310V020 CAVOK 21/11 Q1016
LPMT,2017-09-08 10:00,-9.0359,38.7039,73.40,55.40,53.29,350.00,8.00,0.00,30.00,M,6.21,M,M,M,M,M,M,M,M,M,M,M,M,M,M,M,M,73.40,LPMT 081000Z 35008KT 310V020 CAVOK 23/13 Q1016
LPMT,2017-09-08 12:00,-9.0359,38.7039,78.80,53.60,41.69,330.00,8.00,0.00,30.00,M,6.21,M,M,M,M,M,M,M,M,M,M,M,M,M,M,M,M,78.80,LPMT 081200Z 33008KT 300V010 CAVOK 26/12 Q1016
LPMT,2017-09-08 13:00,-9.0359,38.7039,84.20,51.80,32.73,340.00,10.00,0.00,30.00,M,6.21,M,M,M,M,M,M,M,M,M,M,M,M,M,M,M,M,82.48,LPMT 081300Z 34010KT CAVOK 29/11 Q1016
LPMT,2017-09-08 14:00,-9.0359,38.7039,82.40,55.40,39.58,330.00,10.00,0.00,29.97,M,6.21,M,M,M,M,M,M,M,M,M,M,M,M,M,M,M,M,82.40,LPMT 081400Z 33010KT 300V360 CAVOK 28/13 Q1015
LPMT,2017-09-08 15:00,-9.0359,38.7039,80.60,53.60,39.30,330.00,11.00,0.00,29.97,M,6.21,M,FEW,M,M,M,2000.00,M,M,M,M,M,M,M,M,M,M,80.60,LPMT 081500Z 33011KT 300V010 9999 FEW020 27/12 Q1015
LPMT,2017-09-08 16:00,-9.0359,38.7039,77.00,55.40,47.25,320.00,13.00,0.00,29.97,M,6.21,M,FEW,M,M,M,2000.00,M,M,M,M,M,M,M,M,M,M,77.00,LPMT 081600Z 32013KT 9999 FEW020 25/13 Q1015
LPMT,2017-09-08 17:00,-9.0359,38.7039,73.40,57.20,56.88,330.00,13.00,0.00,29.97,M,6.21,M,FEW,M,M,M,2000.00,M,M,M,M,M,M,M,M,M,M,73.40,LPMT 081700Z 33013KT 9999 FEW020 23/14 Q1015
LPMT,2017-09-08 18:00,-9.0359,38.7039,69.80,55.40,60.21,350.00,9.00,0.00,29.97,M,6.21,M,FEW,M,M,M,2000.00,M,M,M,M,M,M,M,M,M,M,69.80,LPMT 081800Z 35009KT 310V010 9999 FEW020 21/13 Q1015
LPMT,2017-09-08 19:00,-9.0359,38.7039,68.00,55.40,64.04,340.00,11.00,0.00,29.97,M,6.21,M,FEW,M,M,M,2000.00,M,M,M,M,M,M,M,M,M,M,68.00,LPMT 081900Z 34011KT 9999 FEW020 20/13 Q1015
LPMT,2017-09-08 20:00,-9.0359,38.7039,66.20,57.20,72.74,340.00,6.00,0.00,30.00,M,6.21,M,FEW,M,M,M,2000.00,M,M,M,M,M,M,M,M,M,M,66.20,LPMT 082000Z 34006KT 300V020 9999 FEW020 19/14 Q1016
LPMT,2017-09-08 21:00,-9.0359,38.7039,64.40,57.20,77.45,350.00,10.00,0.00,30.00,M,6.21,M,FEW,M,M,M,2000.00,M,M,M,M,M,M,M,M,M,M,64.40,LPMT 082100Z 35010KT 9999 FEW020 18/14 Q1016
LPMT,2017-09-08 22:00,-9.0359,38.7039,66.20,57.20,72.74,350.00,12.00,0.00,30.03,M,6.21,M,FEW,M,M,M,2000.00,M,M,M,M,M,M,M,M,M,M,66.20,LPMT 082200Z 35012KT 9999 FEW020 19/14 Q1017
LPMT,2017-09-08 23:00,-9.0359,38.7039,66.20,59.00,77.60,340.00,12.00,0.00,30.00,M,6.21,M,SCT,M,M,M,2000.00,M,M,M,M,M,M,M,M,M,M,66.20,LPMT 082300Z 34012KT 9999 SCT020 19/15 Q1016
LPMT,2017-09-09 00:00,-9.0359,38.7039,66.20,59.00,77.60,340.00,11.00,0.00,30.00,M,6.21,M,FEW,SCT,M,M,1800.00,2200.00,M,M,M,M,M,M,M,M,M,66.20,LPMT 090000Z 34011KT 9999 FEW018 SCT022 19/15 Q1016
LPMT,2017-09-09 01:00,-9.0359,38.7039,66.20,59.00,77.60,330.00,6.00,0.00,30.00,M,6.21,M,FEW,SCT,M,M,1800.00,2200.00,M,M,M,M,M,M,M,M,M,66.20,LPMT 090100Z 33006KT 290V350 9999 FEW018 SCT022 19/15 Q1016
LPMT,2017-09-09 02:00,-9.0359,38.7039,66.20,57.20,72.74,330.00,6.00,0.00,29.97,M,6.21,M,FEW,SCT,M,M,1800.00,2200.00,M,M,M,M,M,M,M,M,M,66.20,LPMT 090200Z 33006KT 300V010 9999 FEW018 SCT022 19/14 Q1015
LPMT,2017-09-09 03:00,-9.0359,38.7039,68.00,57.20,68.35,330.00,9.00,0.00,29.97,M,6.21,M,FEW,SCT,M,M,1800.00,2200.00,M,M,M,M,M,M,M,M,M,68.00,LPMT 090300Z 33009KT 9999 FEW018 SCT022 20/14 Q1015
LPMT,2017-09-09 04:00,-9.0359,38.7039,66.20,59.00,77.60,340.00,9.00,0.00,29.97,M,6.21,M,FEW,SCT,M,M,1800.00,2200.00,M,M,M,M,M,M,M,M,M,66.20,LPMT 090400Z 34009KT 9999 FEW018 SCT022 19/15 Q1015
LPMT,2017-09-09 05:00,-9.0359,38.7039,66.20,60.80,82.74,330.00,10.00,0.00,29.97,M,6.21,M,FEW,SCT,M,M,2000.00,2500.00,M,M,M,M,M,M,M,M,M,66.20,LPMT 090500Z 33010KT 9999 FEW020 SCT025 19/16 Q1015
LPMT,2017-09-09 06:00,-9.0359,38.7039,66.20,60.80,82.74,330.00,7.00,0.00,29.97,M,6.21,M,FEW,SCT,M,M,1200.00,2000.00,M,M,M,M,M,M,M,M,M,66.20,LPMT 090600Z 33007KT 9999 FEW012 SCT020 19/16 Q1015
LPMT,2017-09-09 07:00,-9.0359,38.7039,66.20,59.00,77.60,320.00,7.00,0.00,29.97,M,6.21,M,FEW,SCT,M,M,1200.00,2000.00,M,M,M,M,M,M,M,M,M,66.20,LPMT 090700Z 32007KT 9999 FEW012 SCT020 19/15 Q1015
LPMT,2017-09-09 08:00,-9.0359,38.7039,68.00,59.00,72.92,340.00,9.00,0.00,30.00,M,6.21,M,FEW,SCT,M,M,2000.00,3000.00,M,M,M,M,M,M,M,M,M,68.00,LPMT 090800Z 34009KT 310V010 9999 FEW020 SCT030 20/15 Q1016
LPMT,2017-09-09 09:00,-9.0359,38.7039,69.80,59.00,68.55,350.00,11.00,0.00,30.00,M,6.21,M,FEW,SCT,M,M,2200.00,3500.00,M,M,M,M,M,M,M,M,M,69.80,LPMT 090900Z 35011KT 9999 FEW022 SCT035 21/15 Q1016
LPMT,2017-09-09 10:00,-9.0359,38.7039,73.40,59.00,60.67,350.00,11.00,0.00,30.00,M,6.21,M,SCT,M,M,M,3800.00,M,M,M,M,M,M,M,M,M,M,73.40,LPMT 091000Z 35011KT 320V020 9999 SCT038 23/15 Q1016
LPMT,2017-09-09 11:00,-9.0359,38.7039,75.20,57.20,53.55,340.00,12.00,0.00,30.00,M,6.21,M,SCT,M,M,M,3700.00,M,M,M,M,M,M,M,M,M,M,75.20,LPMT 091100Z 34012KT 300V010 9999 SCT037 24/14 Q1016
LPMT,2017-09-09 12:00,-9.0359,38.7039,77.00,55.40,47.25,340.00,11.00,0.00,30.00,M,6.21,M,FEW,M,M,M,4000.00,M,M,M,M,M,M,M,M,M,M,77.00,LPMT 091200Z 34011KT 9999 FEW040 25/13 Q1016
LPMT,2017-09-09 13:00,-9.0359,38.7039,75.20,53.60,46.98,330.00,14.00,0.00,29.97,M,6.21,M,FEW,M,M,M,4500.00,M,M,M,M,M,M,M,M,M,M,75.20,LPMT 091300Z 33014KT 9999 FEW045 24/12 Q1015
LPMT,2017-09-09 14:00,-9.0359,38.7039,77.00,53.60,44.25,340.00,14.00,0.00,30.00,M,6.21,24.00,SCT,M,M,M,4700.00,M,M,M,M,M,M,M,M,M,M,77.00,LPMT 091400Z 34014G24KT 310V010 9999 SCT047 25/12 Q1016
LPMT,2017-09-09 15:00,-9.0359,38.7039,71.60,55.40,56.63,330.00,13.00,0.00,30.00,M,6.21,M,BKN,M,M,M,4500.00,M,M,M,M,M,M,M,M,M,M,71.60,LPMT 091500Z 33013KT 9999 BKN045 22/13 Q1016
LPMT,2017-09-09 16:00,-9.0359,38.7039,71.60,53.60,53.03,340.00,13.00,0.00,29.97,M,6.21,M,BKN,M,M,M,4500.00,M,M,M,M,M,M,M,M,M,M,71.60,LPMT 091600Z 34013KT 9999 BKN045 22/12 Q1015
LPMT,2017-09-09 17:00,-9.0359,38.7039,71.60,53.60,53.03,340.00,13.00,0.00,30.00,M,6.21,M,SCT,M,M,M,4500.00,M,M,M,M,M,M,M,M,M,M,71.60,LPMT 091700Z 34013KT 9999 SCT045 22/12 Q1016
LPMT,2017-09-09 18:00,-9.0359,38.7039,69.80,55.40,60.21,340.00,10.00,0.00,30.00,M,6.21,M,FEW,M,M,M,4200.00,M,M,M,M,M,M,M,M,M,M,69.80,LPMT 091800Z 34010KT 9999 FEW042 21/13 Q1016
LPMT,2017-09-09 19:00,-9.0359,38.7039,66.20,55.40,68.15,350.00,11.00,0.00,30.00,M,6.21,M,FEW,M,M,M,3700.00,M,M,M,M,M,M,M,M,M,M,66.20,LPMT 091900Z 35011KT 9999 FEW037 19/13 Q1016
LPMT,2017-09-09 20:00,-9.0359,38.7039,66.20,57.20,72.74,340.00,9.00,0.00,30.00,M,6.21,M,FEW,M,M,M,3000.00,M,M,M,M,M,M,M,M,M,M,66.20,LPMT 092000Z 34009KT 9999 FEW030 19/14 Q1016
LPMT,2017-09-09 21:00,-9.0359,38.7039,64.40,57.20,77.45,340.00,11.00,0.00,30.00,M,6.21,M,FEW,M,M,M,2000.00,M,M,M,M,M,M,M,M,M,M,64.40,LPMT 092100Z 34011KT 9999 FEW020 18/14 Q1016
LPMT,2017-09-09 22:00,-9.0359,38.7039,64.40,57.20,77.45,340.00,10.00,0.00,30.03,M,6.21,M,FEW,M,M,M,2000.00,M,M,M,M,M,M,M,M,M,M,64.40,LPMT 092200Z 34010KT 310V010 9999 FEW020 18/14 Q1017
LPMT,2017-09-09 23:00,-9.0359,38.7039,64.40,57.20,77.45,330.00,13.00,0.00,30.03,M,6.21,M,FEW,M,M,M,1600.00,M,M,M,M,M,M,M,M,M,M,64.40,LPMT 092300Z 33013KT 9999 FEW016 18/14 Q1017
LPMT,2017-09-10 00:00,-9.0359,38.7039,64.40,57.20,77.45,340.00,8.00,0.00,30.03,M,6.21,M,FEW,M,M,M,1800.00,M,M,M,M,M,M,M,M,M,M,64.40,LPMT 100000Z 34008KT 310V030 9999 FEW018 18/14 Q1017
LPMT,2017-09-10 01:00,-9.0359,38.7039,62.60,55.40,77.29,340.00,9.00,0.00,30.03,M,6.21,M,FEW,M,M,M,1800.00,M,M,M,M,M,M,M,M,M,M,62.60,LPMT 100100Z 34009KT 9999 FEW018 17/13 Q1017
LPMT,2017-09-10 02:00,-9.0359,38.7039,62.60,55.40,77.29,350.00,10.00,0.00,30.03,M,6.21,M,FEW,M,M,M,2000.00,M,M,M,M,M,M,M,M,M,M,62.60,LPMT 100200Z 35010KT 320V030 9999 FEW020 17/13 Q1017
LPMT,2017-09-10 03:00,-9.0359,38.7039,62.60,55.40,77.29,350.00,8.00,0.00,30.03,M,6.21,M,FEW,M,M,M,2100.00,M,M,M,M,M,M,M,M,M,M,62.60,LPMT 100300Z 35008KT 320V020 9999 FEW021 17/13 Q1017
LPMT,2017-09-10 04:00,-9.0359,38.7039,62.60,53.60,72.38,340.00,6.00,0.00,30.03,M,6.21,M,FEW,M,M,M,2100.00,M,M,M,M,M,M,M,M,M,M,62.60,LPMT 100400Z 34006KT 9999 FEW021 17/12 Q1017
LPMT,2017-09-10 05:00,-9.0359,38.7039,60.80,53.60,77.14,330.00,3.00,0.00,30.03,M,6.21,M,M,M,M,M,M,M,M,M,M,M,M,M,M,M,M,60.80,LPMT 100500Z 33003KT CAVOK 16/12 Q1017
LPMT,2017-09-10 06:00,-9.0359,38.7039,60.80,53.60,77.14,330.00,5.00,0.00,30.03,M,6.21,M,M,M,M,M,M,M,M,M,M,M,M,M,M,M,M,60.80,LPMT 100600Z 33005KT 280V020 CAVOK 16/12 Q1017
LPMT,2017-09-10 07:00,-9.0359,38.7039,62.60,53.60,72.38,350.00,7.00,0.00,30.06,M,6.21,M,M,M,M,M,M,M,M,M,M,M,M,M,M,M,M,62.60,LPMT 100700Z 35007KT CAVOK 17/12 Q1018
LPMT,2017-09-10 08:00,-9.0359,38.7039,64.40,53.60,67.95,340.00,8.00,0.00,30.06,M,6.21,M,M,M,M,M,M,M,M,M,M,M,M,M,M,M,M,64.40,LPMT 100800Z 34008KT 310V010 CAVOK 18/12 Q1018
LPMT,2017-09-10 09:00,-9.0359,38.7039,68.00,50.00,52.51,360.00,10.00,0.00,30.06,M,6.21,M,M,M,M,M,M,M,M,M,M,M,M,M,M,M,M,68.00,LPMT 100900Z 36010KT 320V030 CAVOK 20/10 Q1018
LPMT,2017-09-10 10:00,-9.0359,38.7039,71.60,48.20,43.42,360.00,10.00,0.00,30.06,M,6.21,M,M,M,M,M,M,M,M,M,M,M,M,M,M,M,M,70.50,LPMT 101000Z 36010KT 330V030 CAVOK 22/09 Q1018
LPMT,2017-09-10 11:00,-9.0359,38.7039,73.40,48.20,40.85,20.00,14.00,0.00,30.06,M,6.21,M,M,M,M,M,M,M,M,M,M,M,M,M,M,M,M,72.36,LPMT 101100Z 02014KT CAVOK 23/09 Q1018
LPMT,2017-09-10 12:00,-9.0359,38.7039,75.20,50.00,41.14,20.00,12.00,0.00,30.06,M,6.21,M,M,M,M,M,M,M,M,M,M,M,M,M,M,M,M,75.20,LPMT 101200Z 02012KT CAVOK 24/10 Q1018
LPMT,2017-09-10 13:00,-9.0359,38.7039,77.00,50.00,38.74,10.00,11.00,0.00,30.03,M,6.21,M,M,M,M,M,M,M,M,M,M,M,M,M,M,M,M,77.00,LPMT 101300Z 01011KT 340V040 CAVOK 25/10 Q1017
LPMT,2017-09-10 14:00,-9.0359,38.7039,78.80,50.00,36.51,350.00,12.00,0.00,30.03,M,6.21,M,M,M,M,M,M,M,M,M,M,M,M,M,M,M,M,78.80,LPMT 101400Z 35012KT 320V020 CAVOK 26/10 Q1017
LPMT,2017-09-10 15:00,-9.0359,38.7039,78.80,51.80,39.02,340.00,11.00,0.00,30.03,M,6.21,M,M,M,M,M,M,M,M,M,M,M,M,M,M,M,M,78.80,LPMT 101500Z 34011KT 310V010 CAVOK 26/11 Q1017
LPMT,2017-09-10 16:00,-9.0359,38.7039,77.00,51.80,41.42,340.00,11.00,0.00,30.00,M,6.21,M,M,M,M,M,M,M,M,M,M,M,M,M,M,M,M,77.00,LPMT 101600Z 34011KT 310V010 CAVOK 25/11 Q1016
LPMT,2017-09-10 17:00,-9.0359,38.7039,75.20,50.00,41.14,350.00,13.00,0.00,30.03,M,6.21,M,M,M,M,M,M,M,M,M,M,M,M,M,M,M,M,75.20,LPMT 101700Z 35013KT CAVOK 24/10 Q1017
LPMT,2017-09-10 18:00,-9.0359,38.7039,71.60,51.80,49.64,350.00,12.00,0.00,30.03,M,6.21,M,M,M,M,M,M,M,M,M,M,M,M,M,M,M,M,71.60,LPMT 101800Z 35012KT CAVOK 22/11 Q1017
LPMT,2017-09-10 19:00,-9.0359,38.7039,68.00,51.80,56.13,350.00,10.00,0.00,30.03,M,6.21,M,M,M,M,M,M,M,M,M,M,M,M,M,M,M,M,68.00,LPMT 101900Z 35010KT CAVOK 20/11 Q1017
LPMT,2017-09-10 20:00,-9.0359,38.7039,66.20,51.80,59.74,340.00,11.00,0.00,30.03,M,6.21,M,M,M,M,M,M,M,M,M,M,M,M,M,M,M,M,66.20,LPMT 102000Z 34011KT CAVOK 19/11 Q1017
LPMT,2017-09-10 21:00,-9.0359,38.7039,66.20,50.00,55.88,350.00,11.00,0.00,30.03,M,6.21,M,M,M,M,M,M,M,M,M,M,M,M,M,M,M,M,66.20,LPMT 102100Z 35011KT CAVOK 19/10 Q1017
LPMT,2017-09-10 22:00,-9.0359,38.7039,66.20,53.60,63.82,340.00,5.00,0.00,30.03,M,6.21,M,M,M,M,M,M,M,M,M,M,M,M,M,M,M,M,66.20,LPMT 102200Z 34005KT 320V020 CAVOK 19/12 Q1017
LPMT,2017-09-10 23:00,-9.0359,38.7039,64.40,53.60,67.95,10.00,7.00,0.00,30.03,M,6.21,M,M,M,M,M,M,M,M,M,M,M,M,M,M,M,M,64.40,LPMT 102300Z 01007KT CAVOK 18/12 Q1017
LPMT,2017-09-11 00:00,-9.0359,38.7039,62.60,55.40,77.29,360.00,7.00,0.00,30.03,M,6.21,M,M,M,M,M,M,M,M,M,M,M,M,M,M,M,M,62.60,LPMT 110000Z 36007KT 310V020 CAVOK 17/13 Q1017
LPMT,2017-09-11 01:00,-9.0359,38.7039,62.60,55.40,77.29,M,2.00,0.00,30.03,M,6.21,M,M,M,M,M,M,M,M,M,M,M,M,M,M,M,M,62.60,LPMT 110100Z VRB02KT CAVOK 17/13 Q1017
LPMT,2017-09-11 02:00,-9.0359,38.7039,64.40,55.40,72.56,360.00,5.00,0.00,30.00,M,6.21,M,M,M,M,M,M,M,M,M,M,M,M,M,M,M,M,64.40,LPMT 110200Z 36005KT CAVOK 18/13 Q1016
LPMT,2017-09-11 03:00,-9.0359,38.7039,62.60,57.20,82.50,350.00,5.00,0.00,30.00,M,6.21,M,M,M,M,M,M,M,M,M,M,M,M,M,M,M,M,62.60,LPMT 110300Z 35005KT CAVOK 17/14 Q1016
LPMT,2017-09-11 04:00,-9.0359,38.7039,64.40,57.20,77.45,340.00,5.00,0.00,30.00,M,6.21,M,M,M,M,M,M,M,M,M,M,M,M,M,M,M,M,64.40,LPMT 110400Z 34005KT CAVOK 18/14 Q1016
LPMT,2017-09-11 05:00,-9.0359,38.7039,64.40,59.00,82.62,350.00,6.00,0.00,30.00,M,6.21,M,M,M,M,M,M,M,M,M,M,M,M,M,M,M,M,64.40,LPMT 110500Z 35006KT CAVOK 18/15 Q1016
LPMT,2017-09-11 06:00,-9.0359,38.7039,60.80,57.20,87.92,30.00,5.00,0.00,30.00,M,6.21,M,M,M,M,M,M,M,M,M,M,M,M,M,M,M,M,60.80,LPMT 110600Z 03005KT CAVOK 16/14 Q1016
LPMT,2017-09-11 07:00,-9.0359,38.7039,64.40,60.80,88.09,360.00,5.00,0.00,30.03,M,6.21,M,FEW,M,M,M,1000.00,M,M,M,M,M,M,M,M,M,M,64.40,LPMT 110700Z 36005KT 9999 FEW010 18/16 Q1017
LPMT,2017-09-11 08:00,-9.0359,38.7039,68.00,60.80,77.75,360.00,7.00,0.00,30.03,M,6.21,M,FEW,M,M,M,1200.00,M,M,M,M,M,M,M,M,M,M,68.00,LPMT 110800Z 36007KT 9999 FEW012 20/16 Q1017
LPMT,2017-09-11 09:00,-9.0359,38.7039,71.60,62.60,73.27,360.00,6.00,0.00,30.03,M,6.21,M,FEW,M,M,M,1500.00,M,M,M,M,M,M,M,M,M,M,71.60,LPMT 110900Z 36006KT 320V050 9999 FEW015 22/17 Q1017
LPMT,2017-09-11 10:00,-9.0359,38.7039,73.40,62.60,68.94,20.00,8.00,0.00,30.03,M,6.21,M,FEW,M,M,M,1500.00,M,M,M,M,M,M,M,M,M,M,73.40,LPMT 111000Z 02008KT 340V040 9999 FEW015 23/17 Q1017
LPMT,2017-09-11 11:00,-9.0359,38.7039,77.00,62.60,61.13,20.00,8.00,0.00,30.06,M,6.21,M,FEW,M,M,M,1800.00,M,M,M,M,M,M,M,M,M,M,77.00,LPMT 111100Z 02008KT 9999 FEW018 25/17 Q1018
LPMT,2017-09-11 12:00,-9.0359,38.7039,78.80,62.60,57.60,20.00,9.00,0.00,30.03,M,6.21,M,M,M,M,M,M,M,M,M,M,M,M,M,M,M,M,80.31,LPMT 111200Z 02009KT 340V040 CAVOK 26/17 Q1017
LPMT,2017-09-11 13:00,-9.0359,38.7039,82.40,62.60,51.21,350.00,7.00,0.00,30.03,M,6.21,M,M,M,M,M,M,M,M,M,M,M,M,M,M,M,M,83.41,LPMT 111300Z 35007KT 320V050 CAVOK 28/17 Q1017
LPMT,2017-09-11 14:00,-9.0359,38.7039,84.20,60.80,45.34,360.00,9.00,0.00,30.00,M,6.21,M,M,M,M,M,M,M,M,M,M,M,M,M,M,M,M,84.43,LPMT 111400Z 36009KT 310V030 CAVOK 29/16 Q1016
LPMT,2017-09-11 15:00,-9.0359,38.7039,86.00,62.60,45.61,360.00,10.00,0.00,29.97,M,6.21,M,M,M,M,M,M,M,M,M,M,M,M,M,M,M,M,86.72,LPMT 111500Z 36010KT CAVOK 30/17 Q1015
LPMT,2017-09-11 16:00,-9.0359,38.7039,82.40,62.60,51.21,340.00,11.00,0.00,29.97,M,6.21,M,M,M,M,M,M,M,M,M,M,M,M,M,M,M,M,83.41,LPMT 111600Z 34011KT CAVOK 28/17 Q1015
LPMT,2017-09-11 17:00,-9.0359,38.7039,80.60,60.80,50.95,340.00,10.00,0.00,30.00,M,6.21,M,M,M,M,M,M,M,M,M,M,M,M,M,M,M,M,81.46,LPMT 111700Z 34010KT CAVOK 27/16 Q1016
LPMT,2017-09-11 18:00,-9.0359,38.7039,77.00,59.00,53.80,350.00,12.00,0.00,30.00,M,6.21,M,M,M,M,M,M,M,M,M,M,M,M,M,M,M,M,77.00,LPMT 111800Z 35012KT CAVOK 25/15 Q1016
LPMT,2017-09-11 19:00,-9.0359,38.7039,71.60,59.00,64.48,340.00,10.00,0.00,30.00,M,6.21,M,M,M,M,M,M,M,M,M,M,M,M,M,M,M,M,71.60,LPMT 111900Z 34010KT CAVOK 22/15 Q1016
LPMT,2017-09-11 20:00,-9.0359,38.7039,69.80,59.00,68.55,350.00,9.00,0.00,30.03,M,6.21,M,M,M,M,M,M,M,M,M,M,M,M,M,M,M,M,69.80,LPMT 112000Z 35009KT CAVOK 21/15 Q1017
LPMT,2017-09-11 21:00,-9.0359,38.7039,68.00,57.20,68.35,350.00,10.00,0.00,30.03,M,6.21,M,M,M,M,M,M,M,M,M,M,M,M,M,M,M,M,68.00,LPMT 112100Z 35010KT CAVOK 20/14 Q1017
LPMT,2017-09-11 22:00,-9.0359,38.7039,66.20,57.20,72.74,350.00,10.00,0.00,30.06,M,6.21,M,M,M,M,M,M,M,M,M,M,M,M,M,M,M,M,66.20,LPMT 112200Z 35010KT CAVOK 19/14 Q1018
LPMT,2017-09-11 23:00,-9.0359,38.7039,66.20,57.20,72.74,360.00,12.00,0.00,30.06,M,6.21,M,M,M,M,M,M,M,M,M,M,M,M,M,M,M,M,66.20,LPMT 112300Z 36012KT CAVOK 19/14 Q1018
LPMT,2017-09-12 00:00,-9.0359,38.7039,66.20,55.40,68.15,360.00,7.00,0.00,30.06,M,6.21,M,M,M,M,M,M,M,M,M,M,M,M,M,M,M,M,66.20,LPMT 120000Z 36007KT CAVOK 19/13 Q1018
LPMT,2017-09-12 01:00,-9.0359,38.7039,66.20,55.40,68.15,350.00,9.00,0.00,30.03,M,6.21,M,M,M,M,M,M,M,M,M,M,M,M,M,M,M,M,66.20,LPMT 120100Z 35009KT 320V020 CAVOK 19/13 Q1017
LPMT,2017-09-12 02:00,-9.0359,38.7039,64.40,55.40,72.56,360.00,8.00,0.00,30.06,M,6.21,M,M,M,M,M,M,M,M,M,M,M,M,M,M,M,M,64.40,LPMT 120200Z 36008KT CAVOK 18/13 Q1018
LPMT,2017-09-12 03:00,-9.0359,38.7039,64.40,55.40,72.56,360.00,7.00,0.00,30.03,M,6.21,M,M,M,M,M,M,M,M,M,M,M,M,M,M,M,M,64.40,LPMT 120300Z 36007KT CAVOK 18/13 Q1017
LPMT,2017-09-12 04:00,-9.0359,38.7039,62.60,53.60,72.38,360.00,8.00,0.00,30.06,M,6.21,M,M,M,M,M,M,M,M,M,M,M,M,M,M,M,M,62.60,LPMT 120400Z 36008KT CAVOK 17/12 Q1018
LPMT,2017-09-12 05:00,-9.0359,38.7039,62.60,53.60,72.38,350.00,7.00,0.00,30.06,M,6.21,M,M,M,M,M,M,M,M,M,M,M,M,M,M,M,M,62.60,LPMT 120500Z 35007KT CAVOK 17/12 Q1018
LPMT,2017-09-12 06:00,-9.0359,38.7039,62.60,55.40,77.29,350.00,10.00,0.00,30.06,M,6.21,M,M,M,M,M,M,M,M,M,M,M,M,M,M,M,M,62.60,LPMT 120600Z 35010KT CAVOK 17/13 Q1018
LPMT,2017-09-12 07:00,-9.0359,38.7039,64.40,55.40,72.56,360.00,10.00,0.00,30.09,M,6.21,M,M,M,M,M,M,M,M,M,M,M,M,M,M,M,M,64.40,LPMT 120700Z 36010KT CAVOK 18/13 Q1019
LPMT,2017-09-12 08:00,-9.0359,38.7039,66.20,55.40,68.15,360.00,10.00,0.00,30.09,M,6.21,M,M,M,M,M,M,M,M,M,M,M,M,M,M,M,M,66.20,LPMT 120800Z 36010KT CAVOK 19/13 Q1019
LPMT,2017-09-12 10:00,-9.0359,38.7039,73.40,55.40,53.29,10.00,11.00,0.00,30.12,M,6.21,M,M,M,M,M,M,M,M,M,M,M,M,M,M,M,M,73.40,LPMT 121000Z 01011KT CAVOK 23/13 Q1020
LPMT,2017-09-12 11:00,-9.0359,38.7039,77.00,55.40,47.25,20.00,11.00,0.00,30.12,M,6.21,M,M,M,M,M,M,M,M,M,M,M,M,M,M,M,M,77.00,LPMT 121100Z 02011KT CAVOK 25/13 Q1020
LPMT,2017-09-12 12:00,-9.0359,38.7039,80.60,57.20,44.80,10.00,9.00,0.00,30.12,M,6.21,M,M,M,M,M,M,M,M,M,M,M,M,M,M,M,M,80.81,LPMT 121200Z 01009KT 330V040 CAVOK 27/14 Q1020
LPMT,2017-09-12 13:00,-9.0359,38.7039,82.40,57.20,42.25,360.00,10.00,0.00,30.09,M,6.21,M,M,M,M,M,M,M,M,M,M,M,M,M,M,M,M,82.08,LPMT 121300Z 36010KT 330V030 CAVOK 28/14 Q1019
LPMT,2017-09-12 14:00,-9.0359,38.7039,84.20,57.20,39.86,20.00,9.00,0.00,30.09,M,6.21,M,M,M,M,M,M,M,M,M,M,M,M,M,M,M,M,84.20,LPMT 121400Z 02009KT 340V040 CAVOK 29/14 Q1019
LPMT,2017-09-12 16:00,-9.0359,38.7039,80.60,59.00,47.79,340.00,13.00,0.00,30.06,M,6.21,M,M,M,M,M,M,M,M,M,M,M,M,M,M,M,M,81.11,LPMT 121600Z 34013KT 310V010 CAVOK 27/15 Q1018
LPMT,2017-09-12 17:00,-9.0359,38.7039,77.00,59.00,53.80,340.00,11.00,0.00,30.09,M,6.21,M,M,M,M,M,M,M,M,M,M,M,M,M,M,M,M,77.00,LPMT 121700Z 34011KT 310V010 CAVOK 25/15 Q1019
LPMT,2017-09-12 19:00,-9.0359,38.7039,69.80,60.80,73.09,340.00,8.00,0.00,30.09,M,6.21,M,FEW,M,M,M,2200.00,M,M,M,M,M,M,M,M,M,M,69.80,LPMT 121900Z 34008KT 9999 FEW022 21/16 Q1019
LPMT,2017-09-12 20:00,-9.0359,38.7039,68.00,60.80,77.75,340.00,10.00,0.00,30.12,M,6.21,M,FEW,M,M,M,2200.00,M,M,M,M,M,M,M,M,M,M,68.00,LPMT 122000Z 34010KT 9999 FEW022 20/16 Q1020
LPMT,2017-09-12 21:00,-9.0359,38.7039,68.00,60.80,77.75,360.00,9.00,0.00,30.15,M,6.21,M,M,M,M,M,M,M,M,M,M,M,M,M,M,M,M,68.00,LPMT 122100Z 36009KT CAVOK 20/16 Q1021
LPMT,2017-09-12 22:00,-9.0359,38.7039,66.20,60.80,82.74,330.00,5.00,0.00,30.15,M,6.21,M,FEW,M,M,M,2200.00,M,M,M,M,M,M,M,M,M,M,66.20,LPMT 122200Z 33005KT 310V010 9999 FEW022 19/16 Q1021
LPMT,2017-09-12 23:00,-9.0359,38.7039,66.20,60.80,82.74,340.00,6.00,0.00,30.15,M,6.21,M,M,M,M,M,M,M,M,M,M,M,M,M,M,M,M,66.20,LPMT 122300Z 34006KT 310V010 CAVOK 19/16 Q1021
LPMT,2017-09-13 00:00,-9.0359,38.7039,66.20,60.80,82.74,340.00,7.00,0.00,30.15,M,6.21,M,M,M,M,M,M,M,M,M,M,M,M,M,M,M,M,66.20,LPMT 130000Z 34007KT CAVOK 19/16 Q1021
LPMT,2017-09-13 01:00,-9.0359,38.7039,66.20,60.80,82.74,340.00,6.00,0.00,30.12,M,6.21,M,M,M,M,M,M,M,M,M,M,M,M,M,M,M,M,66.20,LPMT 130100Z 34006KT CAVOK 19/16 Q1020
LPMT,2017-09-13 02:00,-9.0359,38.7039,66.20,60.80,82.74,350.00,7.00,0.00,30.12,M,6.21,M,M,M,M,M,M,M,M,M,M,M,M,M,M,M,M,66.20,LPMT 130200Z 35007KT CAVOK 19/16 Q1020
LPMT,2017-09-13 04:00,-9.0359,38.7039,64.40,59.00,82.62,340.00,5.00,0.00,30.09,M,6.21,M,M,M,M,M,M,M,M,M,M,M,M,M,M,M,M,64.40,LPMT 130400Z 34005KT CAVOK 18/15 Q1019
LPMT,2017-09-13 05:00,-9.0359,38.7039,64.40,59.00,82.62,340.00,6.00,0.00,30.09,M,6.21,M,M,M,M,M,M,M,M,M,M,M,M,M,M,M,M,64.40,LPMT 130500Z 34006KT CAVOK 18/15 Q1019
LPMT,2017-09-13 06:00,-9.0359,38.7039,62.60,59.00,88.00,40.00,3.00,0.00,30.12,M,6.21,M,M,M,M,M,M,M,M,M,M,M,M,M,M,M,M,62.60,LPMT 130600Z 04003KT 350V120 CAVOK 17/15 Q1020
LPMT,2017-09-13 07:00,-9.0359,38.7039,64.40,60.80,88.09,M,1.00,0.00,30.12,M,6.21,M,M,M,M,M,M,M,M,M,M,M,M,M,M,M,M,64.40,LPMT 130700Z VRB01KT CAVOK 18/16 Q1020
LPMT,2017-09-13 08:00,-9.0359,38.7039,66.20,60.80,82.74,M,2.00,0.00,30.15,M,6.21,M,M,M,M,M,M,M,M,M,M,M,M,M,M,M,M,66.20,LPMT 130800Z VRB02KT CAVOK 19/16 Q1021
LPMT,2017-09-13 09:00,-9.0359,38.7039,69.80,60.80,73.09,20.00,4.00,0.00,30.15,M,6.21,M,M,M,M,M,M,M,M,M,M,M,M,M,M,M,M,69.80,LPMT 130900Z 02004KT 320V080 CAVOK 21/16 Q1021
LPMT,2017-09-13 10:00,-9.0359,38.7039,73.40,60.80,64.69,30.00,6.00,0.00,30.15,M,6.21,M,M,M,M,M,M,M,M,M,M,M,M,M,M,M,M,73.40,LPMT 131000Z 03006KT 360V070 CAVOK 23/16 Q1021
LPMT,2017-09-13 11:00,-9.0359,38.7039,78.80,60.80,54.05,40.00,7.00,0.00,30.15,M,6.21,M,M,M,M,M,M,M,M,M,M,M,M,M,M,M,M,78.80,LPMT 131100Z 04007KT 020V080 CAVOK 26/16 Q1021
LPMT,2017-09-13 12:00,-9.0359,38.7039,82.40,60.80,48.05,360.00,6.00,0.00,30.15,M,6.21,M,M,M,M,M,M,M,M,M,M,M,M,M,M,M,M,82.90,LPMT 131200Z 36006KT 320V040 CAVOK 28/16 Q1021
LPMT,2017-09-13 13:00,-9.0359,38.7039,86.00,59.00,M,M,M,0.00,30.15,M,6.21,M,M,M,M,M,M,M,M,M,M,M,M,M,M,M,M,M,LPMT 131300Z 01005KT320V060 CAVOK 30/15 Q1021
LPMT,2017-09-13 14:00,-9.0359,38.7039,84.20,60.80,45.34,260.00,7.00,0.00,30.12,M,6.21,M,M,M,M,M,M,M,M,M,M,M,M,M,M,M,M,84.43,LPMT 131400Z 26007KT CAVOK 29/16 Q1020
LPMT,2017-09-13 15:00,-9.0359,38.7039,86.00,60.80,42.80,290.00,5.00,0.00,30.09,M,6.21,M,M,M,M,M,M,M,M,M,M,M,M,M,M,M,M,86.05,LPMT 131500Z 29005KT 240V320 CAVOK 30/16 Q1019
LPMT,2017-09-13 16:00,-9.0359,38.7039,86.00,60.80,42.80,330.00,9.00,0.00,30.09,M,6.21,M,M,M,M,M,M,M,M,M,M,M,M,M,M,M,M,86.05,LPMT 131600Z 33009KT CAVOK 30/16 Q1019
LPMT,2017-09-13 19:00,-9.0359,38.7039,71.60,59.00,64.48,350.00,12.00,0.00,30.12,M,6.21,M,M,M,M,M,M,M,M,M,M,M,M,M,M,M,M,71.60,LPMT 131900Z 35012KT CAVOK 22/15 Q1020
LPMT,2017-09-13 20:00,-9.0359,38.7039,69.80,59.00,68.55,360.00,11.00,0.00,30.12,M,6.21,M,M,M,M,M,M,M,M,M,M,M,M,M,M,M,M,69.80,LPMT 132000Z 36011KT CAVOK 21/15 Q1020
LPMT,2017-09-13 21:00,-9.0359,38.7039,68.00,59.00,72.92,350.00,11.00,0.00,30.15,M,6.21,M,M,M,M,M,M,M,M,M,M,M,M,M,M,M,M,68.00,LPMT 132100Z 35011KT CAVOK 20/15 Q1021
LPMT,2017-09-13 22:00,-9.0359,38.7039,66.20,59.00,77.60,360.00,6.00,0.00,30.15,M,6.21,M,M,M,M,M,M,M,M,M,M,M,M,M,M,M,M,66.20,LPMT 132200Z 36006KT CAVOK 19/15 Q1021
LPMT,2017-09-13 23:00,-9.0359,38.7039,66.20,59.00,77.60,350.00,9.00,0.00,30.15,M,6.21,M,M,M,M,M,M,M,M,M,M,M,M,M,M,M,M,66.20,LPMT 132300Z 35009KT CAVOK 19/15 Q1021
LPMT,2017-09-14 00:00,-9.0359,38.7039,64.40,59.00,82.62,M,2.00,0.00,30.18,M,6.21,M,M,M,M,M,M,M,M,M,M,M,M,M,M,M,M,64.40,LPMT 140000Z VRB02KT CAVOK 18/15 Q1022
LPMT,2017-09-14 01:00,-9.0359,38.7039,66.20,60.80,82.74,340.00,7.00,0.00,30.18,M,6.21,M,M,M,M,M,M,M,M,M,M,M,M,M,M,M,M,66.20,LPMT 140100Z 34007KT CAVOK 19/16 Q1022
LPMT,2017-09-14 02:00,-9.0359,38.7039,66.20,59.00,77.60,350.00,9.00,0.00,30.15,M,6.21,M,FEW,M,M,M,1800.00,M,M,M,M,M,M,M,M,M,M,66.20,LPMT 140200Z 35009KT 9999 FEW018 19/15 Q1021
LPMT,2017-09-14 03:00,-9.0359,38.7039,66.20,60.80,82.74,360.00,12.00,0.00,30.15,M,6.21,M,FEW,M,M,M,1700.00,M,M,M,M,M,M,M,M,M,M,66.20,LPMT 140300Z 36012KT 330V030 9999 FEW017 19/16 Q1021
LPMT,2017-09-14 04:00,-9.0359,38.7039,66.20,60.80,82.74,350.00,10.00,0.00,30.15,M,6.21,M,SCT,M,M,M,1700.00,M,M,M,M,M,M,M,M,M,M,66.20,LPMT 140400Z 35010KT 9999 SCT017 19/16 Q1021
LPMT,2017-09-14 05:00,-9.0359,38.7039,66.20,59.00,77.60,360.00,8.00,0.00,30.15,M,6.21,M,BKN,M,M,M,2000.00,M,M,M,M,M,M,M,M,M,M,66.20,LPMT 140500Z 36008KT 9999 BKN020 19/15 Q1021
LPMT,2017-09-14 06:00,-9.0359,38.7039,66.20,59.00,77.60,360.00,10.00,0.00,30.15,M,6.21,M,FEW,M,M,M,2000.00,M,M,M,M,M,M,M,M,M,M,66.20,LPMT 140600Z 36010KT 9999 FEW020 19/15 Q1021
LPMT,2017-09-14 07:00,-9.0359,38.7039,66.20,59.00,77.60,350.00,10.00,0.00,30.18,M,6.21,M,FEW,M,M,M,1800.00,M,M,M,M,M,M,M,M,M,M,66.20,LPMT 140700Z 35010KT 9999 FEW018 19/15 Q1022
LPMT,2017-09-14 08:00,-9.0359,38.7039,68.00,59.00,72.92,350.00,9.00,0.00,30.18,M,6.21,M,FEW,M,M,M,1800.00,M,M,M,M,M,M,M,M,M,M,68.00,LPMT 140800Z 35009KT 310V010 9999 FEW018 20/15 Q1022
LPMT,2017-09-14 09:00,-9.0359,38.7039,69.80,59.00,68.55,350.00,9.00,0.00,30.18,M,6.21,M,FEW,M,M,M,1800.00,M,M,M,M,M,M,M,M,M,M,69.80,LPMT 140900Z 35009KT 9999 FEW018 21/15 Q1022
LPMT,2017-09-14 11:00,-9.0359,38.7039,77.00,60.80,57.36,20.00,12.00,0.00,30.18,M,6.21,M,M,M,M,M,M,M,M,M,M,M,M,M,M,M,M,77.00,LPMT 141100Z 02012KT CAVOK 25/16 Q1022
LPMT,2017-09-14 12:00,-9.0359,38.7039,78.80,60.80,54.05,10.00,11.00,0.00,30.15,M,6.21,M,FEW,M,M,M,2200.00,M,M,M,M,M,M,M,M,M,M,78.80,LPMT 141200Z 01011KT 9999 FEW022 26/16 Q1021
LPMT,2017-09-14 16:00,-9.0359,38.7039,78.80,60.80,54.05,340.00,11.00,0.00,30.06,M,6.21,M,M,M,M,M,M,M,M,M,M,M,M,M,M,M,M,78.80,LPMT 141600Z 34011KT CAVOK 26/16 Q1018
LPMT,2017-09-14 17:00,-9.0359,38.7039,75.20,53.60,46.98,350.00,11.00,0.00,30.06,M,6.21,M,M,M,M,M,M,M,M,M,M,M,M,M,M,M,M,75.20,LPMT 141700Z 35011KT CAVOK 24/12 Q1018
LPMT,2017-09-14 19:00,-9.0359,38.7039,66.20,51.80,59.74,350.00,11.00,0.00,30.09,M,6.21,M,M,M,M,M,M,M,M,M,M,M,M,M,M,M,M,66.20,LPMT 141900Z 35011KT CAVOK 19/11 Q1019
LPMT,2017-09-14 20:00,-9.0359,38.7039,64.40,51.80,63.60,350.00,10.00,0.00,30.12,M,6.21,M,M,M,M,M,M,M,M,M,M,M,M,M,M,M,M,64.40,LPMT 142000Z 35010KT CAVOK 18/11 Q1020
LPMT,2017-09-14 21:00,-9.0359,38.7039,62.60,51.80,67.75,350.00,12.00,0.00,30.12,M,6.21,M,M,M,M,M,M,M,M,M,M,M,M,M,M,M,M,62.60,LPMT 142100Z 35012KT CAVOK 17/11 Q1020
LPMT,2017-09-14 22:00,-9.0359,38.7039,62.60,51.80,67.75,350.00,11.00,0.00,30.12,M,6.21,M,M,M,M,M,M,M,M,M,M,M,M,M,M,M,M,62.60,LPMT 142200Z 35011KT 310V030 CAVOK 17/11 Q1020
LPMT,2017-09-14 23:00,-9.0359,38.7039,62.60,51.80,67.75,350.00,10.00,0.00,30.12,M,6.21,21.00,M,M,M,M,M,M,M,M,M,M,M,M,M,M,M,62.60,LPMT 142300Z 35010G21KT 320V020 CAVOK 17/11 Q1020
LPMT,2017-09-15 00:00,-9.0359,38.7039,62.60,51.80,67.75,350.00,13.00,0.00,30.09,M,6.21,M,M,M,M,M,M,M,M,M,M,M,M,M,M,M,M,62.60,LPMT 150000Z 35013KT CAVOK 17/11 Q1019
LPMT,2017-09-15 02:00,-9.0359,38.7039,60.80,51.80,72.20,340.00,10.00,0.00,30.06,M,6.21,M,M,M,M,M,M,M,M,M,M,M,M,M,M,M,M,60.80,LPMT 150200Z 34010KT CAVOK 16/11 Q1018
LPMT,2017-09-15 03:00,-9.0359,38.7039,60.80,51.80,72.20,350.00,13.00,0.00,30.06,M,6.21,M,M,M,M,M,M,M,M,M,M,M,M,M,M,M,M,60.80,LPMT 150300Z 35013KT CAVOK 16/11 Q1018
LPMT,2017-09-15 04:00,-9.0359,38.7039,60.80,48.20,63.15,350.00,14.00,0.00,30.06,M,6.21,M,M,M,M,M,M,M,M,M,M,M,M,M,M,M,M,60.80,LPMT 150400Z 35014KT CAVOK 16/09 Q1018
LPMT,2017-09-15 05:00,-9.0359,38.7039,59.00,48.20,67.33,350.00,10.00,0.00,30.06,M,6.21,M,M,M,M,M,M,M,M,M,M,M,M,M,M,M,M,59.00,LPMT 150500Z 35010KT 310V020 CAVOK 15/09 Q1018
LPMT,2017-09-15 06:00,-9.0359,38.7039,59.00,50.00,72.01,350.00,13.00,0.00,30.03,M,6.21,M,M,M,M,M,M,M,M,M,M,M,M,M,M,M,M,59.00,LPMT 150600Z 35013KT CAVOK 15/10 Q1017
LPMT,2017-09-15 07:00,-9.0359,38.7039,60.80,48.20,63.15,360.00,12.00,0.00,30.06,M,6.21,23.00,M,M,M,M,M,M,M,M,M,M,M,M,M,M,M,60.80,LPMT 150700Z 36012G23KT 330V030 CAVOK 16/09 Q1018
LPMT,2017-09-15 08:00,-9.0359,38.7039,62.60,48.20,59.26,350.00,12.00,0.00,30.06,M,6.21,M,M,M,M,M,M,M,M,M,M,M,M,M,M,M,M,62.60,LPMT 150800Z 35012KT 320V030 CAVOK 17/09 Q1018
LPMT,2017-09-15 09:00,-9.0359,38.7039,66.20,48.20,52.25,350.00,13.00,0.00,30.06,M,6.21,M,M,M,M,M,M,M,M,M,M,M,M,M,M,M,M,66.20,LPMT 150900Z 35013KT 320V030 CAVOK 19/09 Q1018
LPMT,2017-09-15 10:00,-9.0359,38.7039,68.00,48.20,49.10,340.00,13.00,0.00,30.06,M,6.21,M,M,M,M,M,M,M,M,M,M,M,M,M,M,M,M,68.00,LPMT 151000Z 34013KT CAVOK 20/09 Q1018
LPMT,2017-09-15 11:00,-9.0359,38.7039,71.60,44.60,37.89,340.00,14.00,0.00,30.06,M,6.21,M,M,M,M,M,M,M,M,M,M,M,M,M,M,M,M,70.24,LPMT 151100Z 34014KT CAVOK 22/07 Q1018
LPMT,2017-09-15 12:00,-9.0359,38.7039,73.40,44.60,35.66,340.00,14.00,0.00,30.06,M,6.21,M,M,M,M,M,M,M,M,M,M,M,M,M,M,M,M,72.12,LPMT 151200Z 34014KT CAVOK 23/07 Q1018
LPMT,2017-09-15 13:00,-9.0359,38.7039,75.20,42.80,31.34,350.00,12.00,0.00,30.03,M,6.21,M,M,M,M,M,M,M,M,M,M,M,M,M,M,M,M,73.89,LPMT 151300Z 35012KT 320V020 CAVOK 24/06 Q1017
LPMT,2017-09-15 14:00,-9.0359,38.7039,73.40,44.60,35.66,340.00,14.00,0.00,30.03,M,6.21,M,M,M,M,M,M,M,M,M,M,M,M,M,M,M,M,72.12,LPMT 151400Z 34014KT CAVOK 23/07 Q1017
LPMT,2017-09-15 15:00,-9.0359,38.7039,71.60,42.80,35.37,340.00,15.00,0.00,30.03,M,6.21,M,M,M,M,M,M,M,M,M,M,M,M,M,M,M,M,70.12,LPMT 151500Z 34015KT CAVOK 22/06 Q1017
LPMT,2017-09-15 16:00,-9.0359,38.7039,71.60,44.60,37.89,340.00,14.00,0.00,30.00,M,6.21,M,M,M,M,M,M,M,M,M,M,M,M,M,M,M,M,70.24,LPMT 151600Z 34014KT CAVOK 22/07 Q1016
LPMT,2017-09-15 17:00,-9.0359,38.7039,68.00,46.40,45.88,340.00,14.00,0.00,30.00,M,6.21,24.00,M,M,M,M,M,M,M,M,M,M,M,M,M,M,M,68.00,LPMT 151700Z 34014G24KT 300V360 CAVOK 20/08 Q1016
LPMT,2017-09-15 18:00,-9.0359,38.7039,66.20,48.20,52.25,340.00,14.00,0.00,30.00,M,6.21,24.00,FEW,M,M,M,2000.00,M,M,M,M,M,M,M,M,M,M,66.20,LPMT 151800Z 34014G24KT 9999 FEW020 19/09 Q1016
LPMT,2017-09-15 19:00,-9.0359,38.7039,62.60,50.00,63.38,360.00,13.00,0.00,30.03,M,6.21,M,FEW,M,M,M,2000.00,M,M,M,M,M,M,M,M,M,M,62.60,LPMT 151900Z 36013KT 9999 FEW020 17/10 Q1017
LPMT,2017-09-15 20:00,-9.0359,38.7039,60.80,50.00,67.54,350.00,13.00,0.00,30.03,M,6.21,M,M,M,M,M,M,M,M,M,M,M,M,M,M,M,M,60.80,LPMT 152000Z 35013KT CAVOK 16/10 Q1017
LPMT,2017-09-15 21:00,-9.0359,38.7039,60.80,50.00,67.54,350.00,13.00,0.00,30.03,M,6.21,M,M,M,M,M,M,M,M,M,M,M,M,M,M,M,M,60.80,LPMT 152100Z 35013KT 320V020 CAVOK 16/10 Q1017
LPMT,2017-09-15 22:00,-9.0359,38.7039,60.80,50.00,67.54,360.00,14.00,0.00,30.03,M,6.21,28.00,M,M,M,M,M,M,M,M,M,M,M,M,M,M,M,60.80,LPMT 152200Z 36014G28KT CAVOK 16/10 Q1017
LPMT,2017-09-15 23:00,-9.0359,38.7039,60.80,50.00,67.54,350.00,14.00,0.00,30.03,M,6.21,M,M,M,M,M,M,M,M,M,M,M,M,M,M,M,M,60.80,LPMT 152300Z 35014KT CAVOK 16/10 Q1017
LPMT,2017-09-16 00:00,-9.0359,38.7039,60.80,50.00,67.54,350.00,11.00,0.00,30.03,M,6.21,M,M,M,M,M,M,M,M,M,M,M,M,M,M,M,M,60.80,LPMT 160000Z 35011KT CAVOK 16/10 Q1017
LPMT,2017-09-16 01:00,-9.0359,38.7039,60.80,50.00,67.54,350.00,8.00,0.00,30.00,M,6.21,M,M,M,M,M,M,M,M,M,M,M,M,M,M,M,M,60.80,LPMT 160100Z 35008KT CAVOK 16/10 Q1016
LPMT,2017-09-16 03:00,-9.0359,38.7039,59.00,50.00,72.01,350.00,11.00,0.00,29.97,M,6.21,M,M,M,M,M,M,M,M,M,M,M,M,M,M,M,M,59.00,LPMT 160300Z 35011KT 310V020 CAVOK 15/10 Q1015
LPMT,2017-09-16 04:00,-9.0359,38.7039,59.00,50.00,72.01,340.00,11.00,0.00,29.97,M,6.21,M,M,M,M,M,M,M,M,M,M,M,M,M,M,M,M,59.00,LPMT 160400Z 34011KT 320V020 CAVOK 15/10 Q1015
LPMT,2017-09-16 05:00,-9.0359,38.7039,59.00,51.80,76.98,350.00,9.00,0.00,30.00,M,6.21,M,M,M,M,M,M,M,M,M,M,M,M,M,M,M,M,59.00,LPMT 160500Z 35009KT 320V020 CAVOK 15/11 Q1016
LPMT,2017-09-16 06:00,-9.0359,38.7039,59.00,50.00,72.01,350.00,12.00,0.00,30.00,M,6.21,M,M,M,M,M,M,M,M,M,M,M,M,M,M,M,M,59.00,LPMT 160600Z 35012KT CAVOK 15/10 Q1016
LPMT,2017-09-16 08:00,-9.0359,38.7039,60.80,50.00,67.54,340.00,7.00,0.00,30.03,M,6.21,M,M,M,M,M,M,M,M,M,M,M,M,M,M,M,M,60.80,LPMT 160800Z 34007KT 310V020 CAVOK 16/10 Q1017
LPMT,2017-09-16 09:00,-9.0359,38.7039,64.40,48.20,55.63,350.00,12.00,0.00,30.03,M,6.21,M,M,M,M,M,M,M,M,M,M,M,M,M,M,M,M,64.40,LPMT 160900Z 35012KT CAVOK 18/09 Q1017
LPMT,2017-09-16 10:00,-9.0359,38.7039,66.20,48.20,52.25,340.00,13.00,0.00,30.03,M,6.21,M,M,M,M,M,M,M,M,M,M,M,M,M,M,M,M,66.20,LPMT 161000Z 34013KT CAVOK 19/09 Q1017
LPMT,2017-09-16 11:00,-9.0359,38.7039,69.80,46.40,43.13,360.00,8.00,0.00,30.03,M,6.21,M,M,M,M,M,M,M,M,M,M,M,M,M,M,M,M,69.80,LPMT 161100Z 36008KT 310V040 CAVOK 21/08 Q1017
LPMT,2017-09-16 12:00,-9.0359,38.7039,73.40,46.40,38.18,350.00,11.00,0.00,30.03,M,6.21,M,M,M,M,M,M,M,M,M,M,M,M,M,M,M,M,72.23,LPMT 161200Z 35011KT CAVOK 23/08 Q1017
LPMT,2017-09-16 13:00,-9.0359,38.7039,75.20,48.20,38.46,350.00,9.00,0.00,30.03,M,6.21,M,M,M,M,M,M,M,M,M,M,M,M,M,M,M,M,75.20,LPMT 161300Z 35009KT 300V040 CAVOK 24/09 Q1017
LPMT,2017-09-16 14:00,-9.0359,38.7039,73.40,44.60,35.66,340.00,13.00,0.00,30.00,M,6.21,M,M,M,M,M,M,M,M,M,M,M,M,M,M,M,M,72.12,LPMT 161400Z 34013KT CAVOK 23/07 Q1016
LPMT,2017-09-16 15:00,-9.0359,38.7039,75.20,44.60,33.57,340.00,13.00,0.00,30.00,M,6.21,M,M,M,M,M,M,M,M,M,M,M,M,M,M,M,M,74.00,LPMT 161500Z 34013KT CAVOK 24/07 Q1016
LPMT,2017-09-16 16:00,-9.0359,38.7039,73.40,44.60,35.66,340.00,11.00,0.00,30.00,M,6.21,M,M,M,M,M,M,M,M,M,M,M,M,M,M,M,M,72.12,LPMT 161600Z 34011KT CAVOK 23/07 Q1016
LPMT,2017-09-16 17:00,-9.0359,38.7039,71.60,42.80,35.37,340.00,14.00,0.00,30.00,M,6.21,M,M,M,M,M,M,M,M,M,M,M,M,M,M,M,M,70.12,LPMT 161700Z 34014KT CAVOK 22/06 Q1016
LPMT,2017-09-16 18:00,-9.0359,38.7039,68.00,46.40,45.88,340.00,12.00,0.00,30.00,M,6.21,M,M,M,M,M,M,M,M,M,M,M,M,M,M,M,M,68.00,LPMT 161800Z 34012KT CAVOK 20/08 Q1016
LPMT,2017-09-16 19:00,-9.0359,38.7039,64.40,44.60,48.55,350.00,13.00,0.00,30.03,M,6.21,M,M,M,M,M,M,M,M,M,M,M,M,M,M,M,M,64.40,LPMT 161900Z 35013KT CAVOK 18/07 Q1017
LPMT,2017-09-16 20:00,-9.0359,38.7039,60.80,46.40,59.01,350.00,11.00,0.00,30.06,M,6.21,M,M,M,M,M,M,M,M,M,M,M,M,M,M,M,M,60.80,LPMT 162000Z 35011KT CAVOK 16/08 Q1018
LPMT,2017-09-16 21:00,-9.0359,38.7039,60.80,48.20,63.15,360.00,11.00,0.00,30.06,M,6.21,M,M,M,M,M,M,M,M,M,M,M,M,M,M,M,M,60.80,LPMT 162100Z 36011KT CAVOK 16/09 Q1018
LPMT,2017-09-16 22:00,-9.0359,38.7039,60.80,48.20,63.15,360.00,11.00,0.00,30.09,M,6.21,M,M,M,M,M,M,M,M,M,M,M,M,M,M,M,M,60.80,LPMT 162200Z 36011KT CAVOK 16/09 Q1019
LPMT,2017-09-16 23:00,-9.0359,38.7039,60.80,48.20,63.15,350.00,9.00,0.00,30.09,M,6.21,M,M,M,M,M,M,M,M,M,M,M,M,M,M,M,M,60.80,LPMT 162300Z 35009KT CAVOK 16/09 Q1019
LPMT,2017-09-17 00:00,-9.0359,38.7039,60.80,50.00,67.54,360.00,11.00,0.00,30.09,M,6.21,M,M,M,M,M,M,M,M,M,M,M,M,M,M,M,M,60.80,LPMT 170000Z 36011KT 330V030 CAVOK 16/10 Q1019
LPMT,2017-09-17 01:00,-9.0359,38.7039,59.00,50.00,72.01,350.00,9.00,0.00,30.09,M,6.21,M,M,M,M,M,M,M,M,M,M,M,M,M,M,M,M,59.00,LPMT 170100Z 35009KT CAVOK 15/10 Q1019
LPMT,2017-09-17 02:00,-9.0359,38.7039,59.00,51.80,76.98,360.00,8.00,0.00,30.09,M,6.21,M,M,M,M,M,M,M,M,M,M,M,M,M,M,M,M,59.00,LPMT 170200Z 36008KT 330V030 CAVOK 15/11 Q1019
LPMT,2017-09-17 03:00,-9.0359,38.7039,59.00,50.00,72.01,360.00,10.00,0.00,30.06,M,6.21,M,M,M,M,M,M,M,M,M,M,M,M,M,M,M,M,59.00,LPMT 170300Z 36010KT CAVOK 15/10 Q1018
LPMT,2017-09-17 04:00,-9.0359,38.7039,59.00,50.00,72.01,360.00,11.00,0.00,30.06,M,6.21,M,M,M,M,M,M,M,M,M,M,M,M,M,M,M,M,59.00,LPMT 170400Z 36011KT CAVOK 15/10 Q1018
LPMT,2017-09-17 05:00,-9.0359,38.7039,59.00,50.00,72.01,350.00,8.00,0.00,30.06,M,6.21,M,M,M,M,M,M,M,M,M,M,M,M,M,M,M,M,59.00,LPMT 170500Z 35008KT CAVOK 15/10 Q1018
LPMT,2017-09-17 06:00,-9.0359,38.7039,59.00,50.00,72.01,350.00,8.00,0.00,30.09,M,6.21,M,M,M,M,M,M,M,M,M,M,M,M,M,M,M,M,59.00,LPMT 170600Z 35008KT CAVOK 15/10 Q1019
LPMT,2017-09-17 07:00,-9.0359,38.7039,59.00,48.20,67.33,350.00,7.00,0.00,30.12,M,6.21,M,M,M,M,M,M,M,M,M,M,M,M,M,M,M,M,59.00,LPMT 170700Z 35007KT 320V020 CAVOK 15/09 Q1020
LPMT,2017-09-17 08:00,-9.0359,38.7039,60.80,48.20,63.15,340.00,6.00,0.00,30.12,M,6.21,M,M,M,M,M,M,M,M,M,M,M,M,M,M,M,M,60.80,LPMT 170800Z 34006KT CAVOK 16/09 Q1020
LPMT,2017-09-17 09:00,-9.0359,38.7039,66.20,48.20,52.25,360.00,7.00,0.00,30.15,M,6.21,M,M,M,M,M,M,M,M,M,M,M,M,M,M,M,M,66.20,LPMT 170900Z 36007KT 320V040 CAVOK 19/09 Q1021
LPMT,2017-09-17 10:00,-9.0359,38.7039,68.00,48.20,49.10,20.00,8.00,0.00,30.15,M,6.21,M,M,M,M,M,M,M,M,M,M,M,M,M,M,M,M,68.00,LPMT 171000Z 02008KT 350V050 CAVOK 20/09 Q1021
LPMT,2017-09-17 11:00,-9.0359,38.7039,71.60,48.20,43.42,360.00,8.00,0.00,30.15,M,6.21,M,M,M,M,M,M,M,M,M,M,M,M,M,M,M,M,70.50,LPMT 171100Z 36008KT 320V050 CAVOK 22/09 Q1021
LPMT,2017-09-17 12:00,-9.0359,38.7039,73.40,48.20,40.85,10.00,8.00,0.00,30.12,M,6.21,M,M,M,M,M,M,M,M,M,M,M,M,M,M,M,M,72.36,LPMT 171200Z 01008KT 320V040 CAVOK 23/09 Q1020
LPMT,2017-09-17 13:00,-9.0359,38.7039,73.40,50.00,43.69,340.00,11.00,0.00,30.12,M,6.21,M,FEW,M,M,M,3500.00,M,M,M,M,M,M,M,M,M,M,73.40,LPMT 171300Z 34011KT 9999 FEW035 23/10 Q1020
LPMT,2017-09-17 14:00,-9.0359,38.7039,75.20,48.20,38.46,350.00,9.00,0.00,30.12,M,6.21,M,FEW,M,M,M,3500.00,M,M,M,M,M,M,M,M,M,M,75.20,LPMT 171400Z 35009KT 9999 FEW035 24/09 Q1020
LPMT,2017-09-17 15:00,-9.0359,38.7039,73.40,50.00,43.69,340.00,11.00,0.00,30.09,M,6.21,M,FEW,M,M,M,4500.00,M,M,M,M,M,M,M,M,M,M,73.40,LPMT 171500Z 34011KT 310V010 9999 FEW045 23/10 Q1019
LPMT,2017-09-17 16:00,-9.0359,38.7039,73.40,50.00,43.69,320.00,8.00,0.00,30.09,M,6.21,M,M,M,M,M,M,M,M,M,M,M,M,M,M,M,M,73.40,LPMT 171600Z 32008KT 290V360 CAVOK 23/10 Q1019
LPMT,2017-09-17 17:00,-9.0359,38.7039,71.60,51.80,49.64,320.00,10.00,0.00,30.09,M,6.21,M,M,M,M,M,M,M,M,M,M,M,M,M,M,M,M,71.60,LPMT 171700Z 32010KT CAVOK 22/11 Q1019
LPMT,2017-09-17 18:00,-9.0359,38.7039,68.00,50.00,52.51,320.00,11.00,0.00,30.12,M,6.21,M,FEW,M,M,M,3800.00,M,M,M,M,M,M,M,M,M,M,68.00,LPMT 171800Z 32011KT 9999 FEW038 20/10 Q1020
LPMT,2017-09-17 19:00,-9.0359,38.7039,64.40,50.00,59.50,330.00,10.00,0.00,30.12,M,6.21,M,FEW,M,M,M,3500.00,M,M,M,M,M,M,M,M,M,M,64.40,LPMT 171900Z 33010KT 9999 FEW035 18/10 Q1020
LPMT,2017-09-17 20:00,-9.0359,38.7039,62.60,50.00,63.38,330.00,10.00,0.00,30.15,M,6.21,M,M,M,M,M,M,M,M,M,M,M,M,M,M,M,M,62.60,LPMT 172000Z 33010KT CAVOK 17/10 Q1021
LPMT,2017-09-17 21:00,-9.0359,38.7039,60.80,53.60,77.14,340.00,8.00,0.00,30.15,M,6.21,M,M,M,M,M,M,M,M,M,M,M,M,M,M,M,M,60.80,LPMT 172100Z 34008KT CAVOK 16/12 Q1021
LPMT,2017-09-17 22:00,-9.0359,38.7039,60.80,53.60,77.14,330.00,6.00,0.00,30.15,M,6.21,M,M,M,M,M,M,M,M,M,M,M,M,M,M,M,M,60.80,LPMT 172200Z 33006KT CAVOK 16/12 Q1021
LPMT,2017-09-17 23:00,-9.0359,38.7039,60.80,53.60,77.14,320.00,5.00,0.00,30.18,M,6.21,M,M,M,M,M,M,M,M,M,M,M,M,M,M,M,M,60.80,LPMT 172300Z 32005KT CAVOK 16/12 Q1022
LPMT,2017-09-18 00:00,-9.0359,38.7039,60.80,53.60,77.14,330.00,5.00,0.00,30.15,M,6.21,M,M,M,M,M,M,M,M,M,M,M,M,M,M,M,M,60.80,LPMT 180000Z 33005KT CAVOK 16/12 Q1021
LPMT,2017-09-18 01:00,-9.0359,38.7039,59.00,53.60,82.25,340.00,4.00,0.00,30.15,M,6.21,M,M,M,M,M,M,M,M,M,M,M,M,M,M,M,M,59.00,LPMT 180100Z 34004KT CAVOK 15/12 Q1021
LPMT,2017-09-18 02:00,-9.0359,38.7039,60.80,53.60,77.14,310.00,6.00,0.00,30.15,M,6.21,M,M,M,M,M,M,M,M,M,M,M,M,M,M,M,M,60.80,LPMT 180200Z 31006KT CAVOK 16/12 Q1021
LPMT,2017-09-18 03:00,-9.0359,38.7039,59.00,55.40,87.83,M,1.00,0.00,30.15,M,6.21,M,M,M,M,M,M,M,M,M,M,M,M,M,M,M,M,59.00,LPMT 180300Z VRB01KT CAVOK 15/13 Q1021
LPMT,2017-09-18 04:00,-9.0359,38.7039,57.20,53.60,87.74,250.00,2.00,0.00,30.15,M,6.21,M,M,M,M,M,M,M,M,M,M,M,M,M,M,M,M,57.20,LPMT 180400Z 25002KT CAVOK 14/12 Q1021
LPMT,2017-09-18 05:00,-9.0359,38.7039,59.00,55.40,87.83,270.00,5.00,0.00,30.15,M,6.21,M,FEW,M,M,M,2500.00,M,M,M,M,M,M,M,M,M,M,59.00,LPMT 180500Z 27005KT 9999 FEW025 15/13 Q1021
LPMT,2017-09-18 06:00,-9.0359,38.7039,60.80,57.20,87.92,260.00,6.00,0.00,30.15,M,6.21,M,FEW,M,M,M,2500.00,M,M,M,M,M,M,M,M,M,M,60.80,LPMT 180600Z 26006KT 9999 FEW025 16/14 Q1021
LPMT,2017-09-18 07:00,-9.0359,38.7039,60.80,57.20,87.92,240.00,4.00,0.00,30.15,M,6.21,M,FEW,M,M,M,2500.00,M,M,M,M,M,M,M,M,M,M,60.80,LPMT 180700Z 24004KT 9999 FEW025 16/14 Q1021
LPMT,2017-09-18 08:00,-9.0359,38.7039,64.40,57.20,77.45,230.00,4.00,0.00,30.18,M,6.21,M,FEW,BKN,M,M,2500.00,3000.00,M,M,M,M,M,M,M,M,M,64.40,LPMT 180800Z 23004KT 200V260 9999 FEW025 BKN030 18/14 Q1022
LPMT,2017-09-18 09:00,-9.0359,38.7039,68.00,59.00,72.92,230.00,5.00,0.00,30.18,M,6.21,M,FEW,BKN,M,M,2500.00,3200.00,M,M,M,M,M,M,M,M,M,68.00,LPMT 180900Z 23005KT 190V260 9999 FEW025 BKN032 20/15 Q1022
LPMT,2017-09-18 10:00,-9.0359,38.7039,68.00,60.80,77.75,270.00,7.00,0.00,30.21,M,6.21,M,BKN,BKN,M,M,1900.00,2800.00,M,M,VCSH,M,M,M,M,M,M,68.00,LPMT 181000Z 27007KT 9999 VCSH BKN019 BKN028 20/16 Q1023
LPMT,2017-09-18 11:00,-9.0359,38.7039,68.00,62.60,82.86,250.00,8.00,0.00,30.21,M,6.21,M,FEW,BKN,M,M,1500.00,3200.00,M,M,M,M,M,M,M,M,M,68.00,LPMT 181100Z 25008KT 9999 FEW015 BKN032 20/17 Q1023
LPMT,2017-09-18 12:00,-9.0359,38.7039,71.60,62.60,73.27,230.00,7.00,0.00,30.21,M,6.21,M,FEW,M,M,M,2500.00,M,M,M,M,M,M,M,M,M,M,71.60,LPMT 181200Z 23007KT 9999 FEW025 22/17 Q1023
LPMT,2017-09-18 13:00,-9.0359,38.7039,75.20,60.80,60.90,250.00,5.00,0.00,30.18,M,6.21,M,FEW,M,M,M,2800.00,M,M,M,M,M,M,M,M,M,M,75.20,LPMT 181300Z 25005KT 130V300 9999 FEW028 24/16 Q1022
LPMT,2017-09-18 14:00,-9.0359,38.7039,78.80,51.80,39.02,320.00,8.00,0.00,30.18,M,6.21,M,FEW,M,M,M,3000.00,M,M,M,M,M,M,M,M,M,M,78.80,LPMT 181400Z 32008KT 290V350 9999 FEW030 26/11 Q1022
LPMT,2017-09-18 15:00,-9.0359,38.7039,78.80,51.80,39.02,330.00,8.00,0.00,30.15,M,6.21,M,FEW,M,M,M,3000.00,M,M,M,M,M,M,M,M,M,M,78.80,LPMT 181500Z 33008KT 300V360 9999 FEW030 26/11 Q1021
LPMT,2017-09-18 16:00,-9.0359,38.7039,78.80,55.40,44.52,10.00,11.00,0.00,30.15,M,6.21,M,M,M,M,M,M,M,M,M,M,M,M,M,M,M,M,78.80,LPMT 181600Z 01011KT CAVOK 26/13 Q1021
LPMT,2017-09-18 17:00,-9.0359,38.7039,75.20,55.40,50.17,10.00,9.00,0.00,30.18,M,6.21,M,M,M,M,M,M,M,M,M,M,M,M,M,M,M,M,75.20,LPMT 181700Z 01009KT CAVOK 24/13 Q1022
LPMT,2017-09-18 19:00,-9.0359,38.7039,68.00,57.20,68.35,340.00,10.00,0.00,30.18,M,6.21,M,M,M,M,M,M,M,M,M,M,M,M,M,M,M,M,68.00,LPMT 181900Z 34010KT CAVOK 20/14 Q1022
LPMT,2017-09-18 20:00,-9.0359,38.7039,66.20,57.20,72.74,340.00,6.00,0.00,30.21,M,6.21,M,M,M,M,M,M,M,M,M,M,M,M,M,M,M,M,66.20,LPMT 182000Z 34006KT 290V020 CAVOK 19/14 Q1023
LPMT,2017-09-18 21:00,-9.0359,38.7039,64.40,57.20,77.45,340.00,6.00,0.00,30.24,M,6.21,M,M,M,M,M,M,M,M,M,M,M,M,M,M,M,M,64.40,LPMT 182100Z 34006KT CAVOK 18/14 Q1024
LPMT,2017-09-18 22:00,-9.0359,38.7039,64.40,59.00,82.62,340.00,6.00,0.00,30.24,M,6.21,M,FEW,M,M,M,2000.00,M,M,M,M,M,M,M,M,M,M,64.40,LPMT 182200Z 34006KT 9999 FEW020 18/15 Q1024
LPMT,2017-09-18 23:00,-9.0359,38.7039,64.40,59.00,82.62,320.00,3.00,0.00,30.24,M,6.21,M,FEW,M,M,M,2000.00,M,M,M,M,M,M,M,M,M,M,64.40,LPMT 182300Z 32003KT 280V350 9999 FEW020 18/15 Q1024
LPMT,2017-09-19 00:00,-9.0359,38.7039,64.40,59.00,82.62,330.00,5.00,0.00,30.24,M,6.21,M,FEW,M,M,M,2000.00,M,M,M,M,M,M,M,M,M,M,64.40,LPMT 190000Z 33005KT 9999 FEW020 18/15 Q1024
LPMT,2017-09-19 01:00,-9.0359,38.7039,64.40,59.00,82.62,340.00,9.00,0.00,30.21,M,6.21,M,SCT,M,M,M,1800.00,M,M,M,M,M,M,M,M,M,M,64.40,LPMT 190100Z 34009KT 9999 SCT018 18/15 Q1023
LPMT,2017-09-19 02:00,-9.0359,38.7039,62.60,59.00,88.00,350.00,5.00,0.00,30.21,M,6.21,M,SCT,M,M,M,1800.00,M,M,M,M,M,M,M,M,M,M,62.60,LPMT 190200Z 35005KT 9999 SCT018 17/15 Q1023
LPMT,2017-09-19 03:00,-9.0359,38.7039,62.60,57.20,82.50,340.00,5.00,0.00,30.21,M,6.21,M,SCT,M,M,M,1700.00,M,M,M,M,M,M,M,M,M,M,62.60,LPMT 190300Z 34005KT 300V010 9999 SCT017 17/14 Q1023
LPMT,2017-09-19 04:00,-9.0359,38.7039,64.40,59.00,82.62,340.00,5.00,0.00,30.18,M,6.21,M,FEW,SCT,M,M,1500.00,2000.00,M,M,M,M,M,M,M,M,M,64.40,LPMT 190400Z 34005KT 9999 FEW015 SCT020 18/15 Q1022
LPMT,2017-09-19 05:00,-9.0359,38.7039,62.60,59.00,88.00,350.00,4.00,0.00,30.21,M,6.21,M,SCT,M,M,M,1700.00,M,M,M,M,M,M,M,M,M,M,62.60,LPMT 190500Z 35004KT 320V020 9999 SCT017 17/15 Q1023
LPMT,2017-09-19 06:00,-9.0359,38.7039,60.80,57.20,87.92,330.00,4.00,0.00,30.21,M,6.21,M,FEW,M,M,M,1500.00,M,M,M,M,M,M,M,M,M,M,60.80,LPMT 190600Z 33004KT 9999 FEW015 16/14 Q1023
LPMT,2017-09-19 07:00,-9.0359,38.7039,60.80,57.20,87.92,330.00,4.00,0.00,30.21,M,6.21,M,FEW,M,M,M,1500.00,M,M,M,M,M,M,M,M,M,M,60.80,LPMT 190700Z 33004KT 310V010 9999 FEW015 16/14 Q1023
LPMT,2017-09-19 08:00,-9.0359,38.7039,64.40,59.00,82.62,330.00,7.00,0.00,30.21,M,6.21,M,FEW,M,M,M,2000.00,M,M,M,M,M,M,M,M,M,M,64.40,LPMT 190800Z 33007KT 9999 FEW020 18/15 Q1023
LPMT,2017-09-19 09:00,-9.0359,38.7039,66.20,59.00,77.60,320.00,4.00,0.00,30.24,M,6.21,M,FEW,M,M,M,2000.00,M,M,M,M,M,M,M,M,M,M,66.20,LPMT 190900Z 32004KT 290V010 9999 FEW020 19/15 Q1024
LPMT,2017-09-19 11:00,-9.0359,38.7039,73.40,57.20,56.88,10.00,5.00,0.00,30.21,M,6.21,M,M,M,M,M,M,M,M,M,M,M,M,M,M,M,M,73.40,LPMT 191100Z 01005KT 300V040 CAVOK 23/14 Q1023
LPMT,2017-09-19 12:00,-9.0359,38.7039,75.20,57.20,53.55,360.00,6.00,0.00,30.21,M,6.21,M,M,M,M,M,M,M,M,M,M,M,M,M,M,M,M,75.20,LPMT 191200Z 36006KT 320V050 CAVOK 24/14 Q1023
LPMT,2017-09-19 13:00,-9.0359,38.7039,77.00,57.20,50.43,30.00,5.00,0.00,30.18,M,6.21,M,FEW,M,M,M,2000.00,M,M,M,M,M,M,M,M,M,M,77.00,LPMT 191300Z 03005KT 350V060 9999 FEW020 25/14 Q1022
LPMT,2017-09-19 14:00,-9.0359,38.7039,78.80,57.20,47.52,340.00,6.00,0.00,30.15,M,6.21,M,FEW,M,M,M,2000.00,M,M,M,M,M,M,M,M,M,M,78.80,LPMT 191400Z 34006KT 280V050 9999 FEW020 26/14 Q1021
LPMT,2017-09-19 15:00,-9.0359,38.7039,78.80,55.40,44.52,20.00,7.00,0.00,30.15,M,6.21,M,FEW,M,M,M,2000.00,M,M,M,M,M,M,M,M,M,M,78.80,LPMT 191500Z 02007KT 330V050 9999 FEW020 26/13 Q1021
LPMT,2017-09-19 17:00,-9.0359,38.7039,75.20,57.20,53.55,330.00,8.00,0.00,30.12,M,6.21,M,FEW,M,M,M,2000.00,M,M,M,M,M,M,M,M,M,M,75.20,LPMT 191700Z 33008KT 9999 FEW020 24/14 Q1020
LPMT,2017-09-19 18:00,-9.0359,38.7039,71.60,57.20,60.44,320.00,8.00,0.00,30.15,M,6.21,M,M,M,M,M,M,M,M,M,M,M,M,M,M,M,M,71.60,LPMT 191800Z 32008KT CAVOK 22/14 Q1021
LPMT,2017-09-19 19:00,-9.0359,38.7039,68.00,57.20,68.35,350.00,7.00,0.00,30.15,M,6.21,M,M,M,M,M,M,M,M,M,M,M,M,M,M,M,M,68.00,LPMT 191900Z 35007KT CAVOK 20/14 Q1021
LPMT,2017-09-19 20:00,-9.0359,38.7039,64.40,55.40,72.56,340.00,8.00,0.00,30.15,M,6.21,M,M,M,M,M,M,M,M,M,M,M,M,M,M,M,M,64.40,LPMT 192000Z 34008KT CAVOK 18/13 Q1021
LPMT,2017-09-19 21:00,-9.0359,38.7039,62.60,55.40,77.29,350.00,8.00,0.00,30.15,M,6.21,M,M,M,M,M,M,M,M,M,M,M,M,M,M,M,M,62.60,LPMT 192100Z 35008KT CAVOK 17/13 Q1021
LPMT,2017-09-19 22:00,-9.0359,38.7039,60.80,55.40,82.37,340.00,7.00,0.00,30.15,M,6.21,M,M,M,M,M,M,M,M,M,M,M,M,M,M,M,M,60.80,LPMT 192200Z 34007KT CAVOK 16/13 Q1021
LPMT,2017-09-19 23:00,-9.0359,38.7039,60.80,53.60,77.14,340.00,6.00,0.00,30.15,M,6.21,M,M,M,M,M,M,M,M,M,M,M,M,M,M,M,M,60.80,LPMT 192300Z 34006KT CAVOK 16/12 Q1021
LPMT,2017-09-20 00:00,-9.0359,38.7039,60.80,53.60,77.14,340.00,6.00,0.00,30.15,M,6.21,M,M,M,M,M,M,M,M,M,M,M,M,M,M,M,M,60.80,LPMT 200000Z 34006KT CAVOK 16/12 Q1021
LPMT,2017-09-20 01:00,-9.0359,38.7039,60.80,53.60,77.14,340.00,6.00,0.00,30.15,M,6.21,M,M,M,M,M,M,M,M,M,M,M,M,M,M,M,M,60.80,LPMT 200100Z 34006KT CAVOK 16/12 Q1021
LPMT,2017-09-20 02:00,-9.0359,38.7039,60.80,53.60,77.14,330.00,6.00,0.00,30.12,M,6.21,M,M,M,M,M,M,M,M,M,M,M,M,M,M,M,M,60.80,LPMT 200200Z 33006KT CAVOK 16/12 Q1020
LPMT,2017-09-20 03:00,-9.0359,38.7039,59.00,53.60,82.25,340.00,7.00,0.00,30.12,M,6.21,M,M,M,M,M,M,M,M,M,M,M,M,M,M,M,M,59.00,LPMT 200300Z 34007KT CAVOK 15/12 Q1020
LPMT,2017-09-20 04:00,-9.0359,38.7039,59.00,53.60,82.25,330.00,4.00,0.00,30.09,M,6.21,M,M,M,M,M,M,M,M,M,M,M,M,M,M,M,M,59.00,LPMT 200400Z 33004KT CAVOK 15/12 Q1019
LPMT,2017-09-20 05:00,-9.0359,38.7039,59.00,53.60,82.25,350.00,4.00,0.00,30.09,M,6.21,M,M,M,M,M,M,M,M,M,M,M,M,M,M,M,M,59.00,LPMT 200500Z 35004KT CAVOK 15/12 Q1019
LPMT,2017-09-20 06:00,-9.0359,38.7039,55.40,51.80,87.65,100.00,3.00,0.00,30.09,M,6.21,M,M,M,M,M,M,M,M,M,M,M,M,M,M,M,M,55.40,LPMT 200600Z 10003KT CAVOK 13/11 Q1019
LPMT,2017-09-20 07:00,-9.0359,38.7039,53.60,51.80,93.60,M,2.00,0.00,30.09,M,6.21,M,M,M,M,M,M,M,M,M,M,M,M,M,M,M,M,53.60,LPMT 200700Z VRB02KT CAVOK 12/11 Q1019
LPMT,2017-09-20 08:00,-9.0359,38.7039,60.80,55.40,82.37,120.00,3.00,0.00,30.09,M,6.21,M,M,M,M,M,M,M,M,M,M,M,M,M,M,M,M,60.80,LPMT 200800Z 12003KT CAVOK 16/13 Q1019
LPMT,2017-09-20 09:00,-9.0359,38.7039,62.60,55.40,77.29,M,2.00,0.00,30.09,M,6.21,M,M,M,M,M,M,M,M,M,M,M,M,M,M,M,M,62.60,LPMT 200900Z VRB02KT CAVOK 17/13 Q1019
LPMT,2017-09-20 10:00,-9.0359,38.7039,68.00,57.20,68.35,M,2.00,0.00,30.12,M,6.21,M,M,M,M,M,M,M,M,M,M,M,M,M,M,M,M,68.00,LPMT 201000Z VRB02KT CAVOK 20/14 Q1020
LPMT,2017-09-20 11:00,-9.0359,38.7039,69.80,55.40,60.21,250.00,4.00,0.00,30.09,M,6.21,M,M,M,M,M,M,M,M,M,M,M,M,M,M,M,M,69.80,LPMT 201100Z 25004KT 220V280 CAVOK 21/13 Q1019
LPMT,2017-09-20 12:00,-9.0359,38.7039,73.40,57.20,56.88,220.00,4.00,0.00,30.09,M,6.21,M,M,M,M,M,M,M,M,M,M,M,M,M,M,M,M,73.40,LPMT 201200Z 22004KT 180V300 CAVOK 23/14 Q1019
LPMT,2017-09-20 13:00,-9.0359,38.7039,77.00,57.20,50.43,270.00,5.00,0.00,30.06,M,6.21,M,M,M,M,M,M,M,M,M,M,M,M,M,M,M,M,77.00,LPMT 201300Z 27005KT 220V300 CAVOK 25/14 Q1018
LPMT,2017-09-20 14:00,-9.0359,38.7039,80.60,59.00,47.79,280.00,4.00,0.00,30.03,M,6.21,M,M,M,M,M,M,M,M,M,M,M,M,M,M,M,M,81.11,LPMT 201400Z 28004KT 230V330 CAVOK 27/15 Q1017
LPMT,2017-09-20 15:00,-9.0359,38.7039,80.60,59.00,47.79,260.00,5.00,0.00,30.00,M,6.21,M,M,M,M,M,M,M,M,M,M,M,M,M,M,M,M,81.11,LPMT 201500Z 26005KT 240V300 CAVOK 27/15 Q1016
LPMT,2017-09-20 16:00,-9.0359,38.7039,78.80,59.00,50.69,280.00,6.00,0.00,30.00,M,6.21,M,M,M,M,M,M,M,M,M,M,M,M,M,M,M,M,78.80,LPMT 201600Z 28006KT CAVOK 26/15 Q1016
LPMT,2017-09-20 17:00,-9.0359,38.7039,78.80,59.00,50.69,260.00,7.00,0.00,30.00,M,6.21,M,M,M,M,M,M,M,M,M,M,M,M,M,M,M,M,78.80,LPMT 201700Z 26007KT CAVOK 26/15 Q1016
LPMT,2017-09-20 19:00,-9.0359,38.7039,69.80,57.20,64.26,330.00,7.00,0.00,30.00,M,6.21,M,M,M,M,M,M,M,M,M,M,M,M,M,M,M,M,69.80,LPMT 201900Z 33007KT CAVOK 21/14 Q1016
LPMT,2017-09-20 20:00,-9.0359,38.7039,66.20,55.40,68.15,330.00,9.00,0.00,30.00,M,6.21,M,M,M,M,M,M,M,M,M,M,M,M,M,M,M,M,66.20,LPMT 202000Z 33009KT CAVOK 19/13 Q1016
LPMT,2017-09-20 21:00,-9.0359,38.7039,64.40,51.80,63.60,340.00,8.00,0.00,30.03,M,6.21,M,M,M,M,M,M,M,M,M,M,M,M,M,M,M,M,64.40,LPMT 202100Z 34008KT CAVOK 18/11 Q1017
LPMT,2017-09-20 22:00,-9.0359,38.7039,64.40,51.80,63.60,350.00,5.00,0.00,30.03,M,6.21,M,M,M,M,M,M,M,M,M,M,M,M,M,M,M,M,64.40,LPMT 202200Z 35005KT CAVOK 18/11 Q1017
LPMT,2017-09-20 23:00,-9.0359,38.7039,62.60,53.60,72.38,350.00,7.00,0.00,30.03,M,6.21,M,M,M,M,M,M,M,M,M,M,M,M,M,M,M,M,62.60,LPMT 202300Z 35007KT 320V020 CAVOK 17/12 Q1017
LPMT,2017-09-21 00:00,-9.0359,38.7039,62.60,53.60,72.38,340.00,6.00,0.00,30.03,M,6.21,M,M,M,M,M,M,M,M,M,M,M,M,M,M,M,M,62.60,LPMT 210000Z 34006KT CAVOK 17/12 Q1017
LPMT,2017-09-21 01:00,-9.0359,38.7039,60.80,55.40,82.37,340.00,6.00,0.00,30.03,M,6.21,M,M,M,M,M,M,M,M,M,M,M,M,M,M,M,M,60.80,LPMT 210100Z 34006KT CAVOK 16/13 Q1017
LPMT,2017-09-21 02:00,-9.0359,38.7039,60.80,57.20,87.92,340.00,4.00,0.00,30.03,M,6.21,M,M,M,M,M,M,M,M,M,M,M,M,M,M,M,M,60.80,LPMT 210200Z 34004KT CAVOK 16/14 Q1017
LPMT,2017-09-21 03:00,-9.0359,38.7039,59.00,55.40,87.83,340.00,4.00,0.00,30.03,M,6.21,M,M,M,M,M,M,M,M,M,M,M,M,M,M,M,M,59.00,LPMT 210300Z 34004KT CAVOK 15/13 Q1017
LPMT,2017-09-21 05:00,-9.0359,38.7039,60.80,57.20,87.92,350.00,4.00,0.00,30.03,M,6.21,M,FEW,M,M,M,1400.00,M,M,M,M,M,M,M,M,M,M,60.80,LPMT 210500Z 35004KT 9999 FEW014 16/14 Q1017
LPMT,2017-09-21 06:00,-9.0359,38.7039,60.80,57.20,87.92,M,2.00,0.00,30.03,M,6.21,M,FEW,M,M,M,1400.00,M,M,M,M,M,M,M,M,M,M,60.80,LPMT 210600Z VRB02KT 9999 FEW014 16/14 Q1017
LPMT,2017-09-21 07:00,-9.0359,38.7039,62.60,59.00,88.00,360.00,5.00,0.00,30.03,M,6.21,M,FEW,M,M,M,1400.00,M,M,M,M,M,M,M,M,M,M,62.60,LPMT 210700Z 36005KT 9999 FEW014 17/15 Q1017
LPMT,2017-09-21 09:00,-9.0359,38.7039,68.00,60.80,77.75,360.00,3.00,0.00,30.06,M,6.21,M,FEW,M,M,M,1500.00,M,M,M,M,M,M,M,M,M,M,68.00,LPMT 210900Z 36003KT 280V070 9999 FEW015 20/16 Q1018
LPMT,2017-09-21 11:00,-9.0359,38.7039,75.20,60.80,60.90,350.00,7.00,0.00,30.06,M,6.21,M,FEW,M,M,M,2000.00,M,M,M,M,M,M,M,M,M,M,75.20,LPMT 211100Z 35007KT 310V040 9999 FEW020 24/16 Q1018
LPMT,2017-09-21 12:00,-9.0359,38.7039,75.20,60.80,60.90,20.00,7.00,0.00,30.06,M,6.21,M,FEW,M,M,M,2000.00,M,M,M,M,M,M,M,M,M,M,75.20,LPMT 211200Z 02007KT 9999 FEW020 24/16 Q1018
LPMT,2017-09-21 13:00,-9.0359,38.7039,77.00,60.80,57.36,360.00,6.00,0.00,30.03,M,6.21,M,FEW,M,M,M,2500.00,M,M,M,M,M,M,M,M,M,M,77.00,LPMT 211300Z 36006KT 320V040 9999 FEW025 25/16 Q1017
LPMT,2017-09-21 14:00,-9.0359,38.7039,80.60,60.80,50.95,340.00,7.00,0.00,30.03,M,6.21,M,FEW,M,M,M,3000.00,M,M,M,M,M,M,M,M,M,M,81.46,LPMT 211400Z 34007KT 9999 FEW030 27/16 Q1017
LPMT,2017-09-21 16:00,-9.0359,38.7039,77.00,60.80,57.36,340.00,10.00,0.00,30.00,M,6.21,M,FEW,M,M,M,3500.00,M,M,M,M,M,M,M,M,M,M,77.00,LPMT 211600Z 34010KT 9999 FEW035 25/16 Q1016
LPMT,2017-09-21 18:00,-9.0359,38.7039,68.00,60.80,77.75,350.00,11.00,0.00,30.03,M,6.21,M,FEW,M,M,M,2500.00,M,M,M,M,M,M,M,M,M,M,68.00,LPMT 211800Z 35011KT 9999 FEW025 20/16 Q1017
LPMT,2017-09-21 22:00,-9.0359,38.7039,62.60,57.20,82.50,350.00,7.00,0.00,30.09,M,6.21,M,FEW,M,M,M,1500.00,M,M,M,M,M,M,M,M,M,M,62.60,LPMT 212200Z 35007KT 300V020 9999 FEW015 17/14 Q1019
LPMT,2017-09-21 23:00,-9.0359,38.7039,62.60,55.40,77.29,350.00,10.00,0.00,30.09,M,6.21,M,FEW,M,M,M,1500.00,M,M,M,M,M,M,M,M,M,M,62.60,LPMT 212300Z 35010KT 9999 FEW015 17/13 Q1019
LPMT,2017-09-22 00:00,-9.0359,38.7039,60.80,55.40,82.37,340.00,10.00,0.00,30.09,M,6.21,M,FEW,M,M,M,1500.00,M,M,M,M,M,M,M,M,M,M,60.80,LPMT 220000Z 34010KT 9999 FEW015 16/13 Q1019
LPMT,2017-09-22 01:00,-9.0359,38.7039,60.80,53.60,77.14,340.00,9.00,0.00,30.06,M,6.21,M,M,M,M,M,M,M,M,M,M,M,M,M,M,M,M,60.80,LPMT 220100Z 34009KT 310V010 CAVOK 16/12 Q1018
LPMT,2017-09-22 02:00,-9.0359,38.7039,60.80,53.60,77.14,340.00,6.00,0.00,30.06,M,6.21,M,M,M,M,M,M,M,M,M,M,M,M,M,M,M,M,60.80,LPMT 220200Z 34006KT 310V010 CAVOK 16/12 Q1018
LPMT,2017-09-22 03:00,-9.0359,38.7039,60.80,53.60,77.14,350.00,8.00,0.00,30.06,M,6.21,M,M,M,M,M,M,M,M,M,M,M,M,M,M,M,M,60.80,LPMT 220300Z 35008KT CAVOK 16/12 Q1018
LPMT,2017-09-22 04:00,-9.0359,38.7039,60.80,53.60,77.14,340.00,9.00,0.00,30.06,M,6.21,M,M,M,M,M,M,M,M,M,M,M,M,M,M,M,M,60.80,LPMT 220400Z 34009KT CAVOK 16/12 Q1018
LPMT,2017-09-22 05:00,-9.0359,38.7039,60.80,53.60,77.14,350.00,8.00,0.00,30.06,M,6.21,M,FEW,M,M,M,1700.00,M,M,M,M,M,M,M,M,M,M,60.80,LPMT 220500Z 35008KT 9999 FEW017 16/12 Q1018
LPMT,2017-09-22 06:00,-9.0359,38.7039,60.80,55.40,82.37,340.00,8.00,0.00,30.06,M,6.21,M,M,M,M,M,M,M,M,M,M,M,M,M,M,M,M,60.80,LPMT 220600Z 34008KT CAVOK 16/13 Q1018
LPMT,2017-09-22 07:00,-9.0359,38.7039,60.80,53.60,77.14,340.00,8.00,0.00,30.06,M,6.21,M,M,M,M,M,M,M,M,M,M,M,M,M,M,M,M,60.80,LPMT 220700Z 34008KT 310V010 CAVOK 16/12 Q1018
LPMT,2017-09-22 08:00,-9.0359,38.7039,62.60,55.40,77.29,340.00,8.00,0.00,30.06,M,6.21,M,M,M,M,M,M,M,M,M,M,M,M,M,M,M,M,62.60,LPMT 220800Z 34008KT CAVOK 17/13 Q1018
LPMT,2017-09-22 09:00,-9.0359,38.7039,64.40,53.60,67.95,360.00,8.00,0.00,30.09,M,6.21,M,FEW,M,M,M,2000.00,M,M,M,M,M,M,M,M,M,M,64.40,LPMT 220900Z 36008KT 330V030 9999 FEW020 18/12 Q1019
LPMT,2017-09-22 10:00,-9.0359,38.7039,68.00,55.40,64.04,10.00,6.00,0.00,30.09,M,6.21,M,M,M,M,M,M,M,M,M,M,M,M,M,M,M,M,68.00,LPMT 221000Z 01006KT 300V050 CAVOK 20/13 Q1019
LPMT,2017-09-22 11:00,-9.0359,38.7039,71.60,55.40,56.63,360.00,6.00,0.00,30.09,M,6.21,M,M,M,M,M,M,M,M,M,M,M,M,M,M,M,M,71.60,LPMT 221100Z 36006KT 310V050 CAVOK 22/13 Q1019
LPMT,2017-09-22 12:00,-9.0359,38.7039,75.20,57.20,53.55,20.00,6.00,0.00,30.06,M,6.21,M,M,M,M,M,M,M,M,M,M,M,M,M,M,M,M,75.20,LPMT 221200Z 02006KT 320V080 CAVOK 24/14 Q1018
LPMT,2017-09-22 13:00,-9.0359,38.7039,75.20,55.40,50.17,40.00,5.00,0.00,30.03,M,6.21,M,M,M,M,M,M,M,M,M,M,M,M,M,M,M,M,75.20,LPMT 221300Z 04005KT 310V090 CAVOK 24/13 Q1017
LPMT,2017-09-22 14:00,-9.0359,38.7039,78.80,53.60,41.69,350.00,4.00,0.00,30.03,M,6.21,M,M,M,M,M,M,M,M,M,M,M,M,M,M,M,M,78.80,LPMT 221400Z 35004KT 280V040 CAVOK 26/12 Q1017
LPMT,2017-09-22 15:00,-9.0359,38.7039,77.00,53.60,44.25,260.00,6.00,0.00,30.00,M,6.21,M,M,M,M,M,M,M,M,M,M,M,M,M,M,M,M,77.00,LPMT 221500Z 26006KT CAVOK 25/12 Q1016
LPMT,2017-09-22 16:00,-9.0359,38.7039,77.00,53.60,44.25,300.00,5.00,0.00,30.00,M,6.21,M,M,M,M,M,M,M,M,M,M,M,M,M,M,M,M,77.00,LPMT 221600Z 30005KT 230V360 CAVOK 25/12 Q1016
LPMT,2017-09-22 17:00,-9.0359,38.7039,73.40,57.20,56.88,320.00,8.00,0.00,30.00,M,6.21,M,M,M,M,M,M,M,M,M,M,M,M,M,M,M,M,73.40,LPMT 221700Z 32008KT CAVOK 23/14 Q1016
LPMT,2017-09-22 18:00,-9.0359,38.7039,69.80,57.20,64.26,320.00,10.00,0.00,30.00,M,6.21,M,M,M,M,M,M,M,M,M,M,M,M,M,M,M,M,69.80,LPMT 221800Z 32010KT CAVOK 21/14 Q1016
LPMT,2017-09-22 19:00,-9.0359,38.7039,66.20,55.40,68.15,340.00,8.00,0.00,30.03,M,6.21,M,M,M,M,M,M,M,M,M,M,M,M,M,M,M,M,66.20,LPMT 221900Z 34008KT CAVOK 19/13 Q1017
LPMT,2017-09-22 20:00,-9.0359,38.7039,62.60,55.40,77.29,340.00,5.00,0.00,30.03,M,6.21,M,M,M,M,M,M,M,M,M,M,M,M,M,M,M,M,62.60,LPMT 222000Z 34005KT 300V010 CAVOK 17/13 Q1017
LPMT,2017-09-22 21:00,-9.0359,38.7039,62.60,53.60,72.38,350.00,4.00,0.00,30.03,M,6.21,M,M,M,M,M,M,M,M,M,M,M,M,M,M,M,M,62.60,LPMT 222100Z 35004KT CAVOK 17/12 Q1017
LPMT,2017-09-22 22:00,-9.0359,38.7039,60.80,53.60,77.14,340.00,5.00,0.00,30.06,M,6.21,M,M,M,M,M,M,M,M,M,M,M,M,M,M,M,M,60.80,LPMT 222200Z 34005KT CAVOK 16/12 Q1018
LPMT,2017-09-22 23:00,-9.0359,38.7039,59.00,53.60,82.25,330.00,3.00,0.00,30.06,M,6.21,M,M,M,M,M,M,M,M,M,M,M,M,M,M,M,M,59.00,LPMT 222300Z 33003KT CAVOK 15/12 Q1018
LPMT,2017-09-23 00:00,-9.0359,38.7039,59.00,53.60,82.25,340.00,4.00,0.00,30.03,M,6.21,M,M,M,M,M,M,M,M,M,M,M,M,M,M,M,M,59.00,LPMT 230000Z 34004KT CAVOK 15/12 Q1017
LPMT,2017-09-23 01:00,-9.0359,38.7039,59.00,53.60,82.25,330.00,4.00,0.00,30.03,M,6.21,M,M,M,M,M,M,M,M,M,M,M,M,M,M,M,M,59.00,LPMT 230100Z 33004KT CAVOK 15/12 Q1017
LPMT,2017-09-23 02:00,-9.0359,38.7039,59.00,53.60,82.25,350.00,5.00,0.00,30.03,M,6.21,M,M,M,M,M,M,M,M,M,M,M,M,M,M,M,M,59.00,LPMT 230200Z 35005KT CAVOK 15/12 Q1017
LPMT,2017-09-23 03:00,-9.0359,38.7039,59.00,55.40,87.83,340.00,5.00,0.00,30.03,M,6.21,M,M,M,M,M,M,M,M,M,M,M,M,M,M,M,M,59.00,LPMT 230300Z 34005KT CAVOK 15/13 Q1017
LPMT,2017-09-23 04:00,-9.0359,38.7039,57.20,55.40,93.69,360.00,4.00,0.00,30.03,M,6.21,M,M,M,M,M,M,M,M,M,M,M,M,M,M,M,M,57.20,LPMT 230400Z 36004KT CAVOK 14/13 Q1017
LPMT,2017-09-23 05:00,-9.0359,38.7039,57.20,55.40,93.69,360.00,4.00,0.00,30.03,M,6.21,M,M,M,M,M,M,M,M,M,M,M,M,M,M,M,M,57.20,LPMT 230500Z 36004KT CAVOK 14/13 Q1017
LPMT,2017-09-23 06:00,-9.0359,38.7039,57.20,55.40,93.69,120.00,3.00,0.00,30.03,M,6.21,M,M,M,M,M,M,M,M,M,M,M,M,M,M,M,M,57.20,LPMT 230600Z 12003KT CAVOK 14/13 Q1017
LPMT,2017-09-23 07:00,-9.0359,38.7039,53.60,51.80,93.60,M,1.00,0.00,30.06,M,6.21,M,M,M,M,M,M,M,M,M,M,M,M,M,M,M,M,53.60,LPMT 230700Z VRB01KT CAVOK 12/11 Q1018
LPMT,2017-09-23 08:00,-9.0359,38.7039,59.00,55.40,87.83,120.00,3.00,0.00,30.06,M,6.21,M,FEW,M,M,M,800.00,M,M,M,M,M,M,M,M,M,M,59.00,LPMT 230800Z 12003KT 9999 FEW008 15/13 Q1018
LPMT,2017-09-23 10:00,-9.0359,38.7039,66.20,57.20,72.74,10.00,4.00,0.00,30.09,M,6.21,M,M,M,M,M,M,M,M,M,M,M,M,M,M,M,M,66.20,LPMT 231000Z 01004KT 330V060 CAVOK 19/14 Q1019
LPMT,2017-09-23 11:00,-9.0359,38.7039,71.60,57.20,60.44,20.00,5.00,0.00,30.09,M,6.21,M,M,M,M,M,M,M,M,M,M,M,M,M,M,M,M,71.60,LPMT 231100Z 02005KT 340V080 CAVOK 22/14 Q1019
LPMT,2017-09-23 12:00,-9.0359,38.7039,73.40,55.40,53.29,40.00,3.00,0.00,30.09,M,6.21,M,M,M,M,M,M,M,M,M,M,M,M,M,M,M,M,73.40,LPMT 231200Z 04003KT 330V010 CAVOK 23/13 Q1019
LPMT,2017-09-23 13:00,-9.0359,38.7039,75.20,55.40,50.17,300.00,5.00,0.00,30.09,M,6.21,M,M,M,M,M,M,M,M,M,M,M,M,M,M,M,M,75.20,LPMT 231300Z 30005KT CAVOK 24/13 Q1019
LPMT,2017-09-23 14:00,-9.0359,38.7039,78.80,53.60,41.69,280.00,5.00,0.00,30.06,M,6.21,M,M,M,M,M,M,M,M,M,M,M,M,M,M,M,M,78.80,LPMT 231400Z 28005KT 240V310 CAVOK 26/12 Q1018
LPMT,2017-09-23 15:00,-9.0359,38.7039,77.00,57.20,50.43,270.00,10.00,0.00,30.06,M,6.21,M,M,M,M,M,M,M,M,M,M,M,M,M,M,M,M,77.00,LPMT 231500Z 27010KT CAVOK 25/14 Q1018
LPMT,2017-09-23 16:00,-9.0359,38.7039,77.00,53.60,44.25,250.00,9.00,0.00,30.06,M,6.21,M,M,M,M,M,M,M,M,M,M,M,M,M,M,M,M,77.00,LPMT 231600Z 25009KT CAVOK 25/12 Q1018
LPMT,2017-09-23 17:00,-9.0359,38.7039,77.00,55.40,47.25,300.00,5.00,0.00,30.06,M,6.21,M,M,M,M,M,M,M,M,M,M,M,M,M,M,M,M,77.00,LPMT 231700Z 30005KT CAVOK 25/13 Q1018
LPMT,2017-09-23 18:00,-9.0359,38.7039,71.60,55.40,56.63,330.00,8.00,0.00,30.06,M,6.21,M,M,M,M,M,M,M,M,M,M,M,M,M,M,M,M,71.60,LPMT 231800Z 33008KT CAVOK 22/13 Q1018
LPMT,2017-09-23 19:00,-9.0359,38.7039,68.00,55.40,64.04,350.00,6.00,0.00,30.09,M,6.21,M,M,M,M,M,M,M,M,M,M,M,M,M,M,M,M,68.00,LPMT 231900Z 35006KT CAVOK 20/13 Q1019
LPMT,2017-09-23 20:00,-9.0359,38.7039,64.40,53.60,67.95,340.00,4.00,0.00,30.09,M,6.21,M,M,M,M,M,M,M,M,M,M,M,M,M,M,M,M,64.40,LPMT 232000Z 34004KT 300V010 CAVOK 18/12 Q1019
LPMT,2017-09-23 21:00,-9.0359,38.7039,60.80,51.80,72.20,350.00,2.00,0.00,30.09,M,6.21,M,M,M,M,M,M,M,M,M,M,M,M,M,M,M,M,60.80,LPMT 232100Z 35002KT CAVOK 16/11 Q1019
LPMT,2017-09-23 22:00,-9.0359,38.7039,62.60,53.60,72.38,350.00,4.00,0.00,30.12,M,6.21,M,M,M,M,M,M,M,M,M,M,M,M,M,M,M,M,62.60,LPMT 232200Z 35004KT CAVOK 17/12 Q1020
LPMT,2017-09-23 23:00,-9.0359,38.7039,59.00,53.60,82.25,360.00,3.00,0.00,30.09,M,6.21,M,M,M,M,M,M,M,M,M,M,M,M,M,M,M,M,59.00,LPMT 232300Z 36003KT CAVOK 15/12 Q1019
LPMT,2017-09-24 00:00,-9.0359,38.7039,55.40,51.80,87.65,M,1.00,0.00,30.09,M,6.21,M,M,M,M,M,M,M,M,M,M,M,M,M,M,M,M,55.40,LPMT 240000Z VRB01KT CAVOK 13/11 Q1019
LPMT,2017-09-24 01:00,-9.0359,38.7039,53.60,51.80,93.60,M,2.00,0.00,30.12,M,6.21,M,M,M,M,M,M,M,M,M,M,M,M,M,M,M,M,53.60,LPMT 240100Z VRB02KT CAVOK 12/11 Q1020
LPMT,2017-09-24 02:00,-9.0359,38.7039,51.80,50.00,93.55,100.00,1.00,0.00,30.09,M,6.21,M,M,M,M,M,M,M,M,M,M,M,M,M,M,M,M,51.80,LPMT 240200Z 10001KT CAVOK 11/10 Q1019
LPMT,2017-09-24 04:00,-9.0359,38.7039,53.60,51.80,93.60,250.00,3.00,0.00,30.09,M,6.21,M,M,M,M,M,M,M,M,M,M,M,M,M,M,M,M,53.60,LPMT 240400Z 25003KT CAVOK 12/11 Q1019
LPMT,2017-09-24 06:00,-9.0359,38.7039,51.80,50.00,93.55,340.00,3.00,0.00,30.12,M,6.21,M,M,M,M,M,M,M,M,M,M,M,M,M,M,M,M,51.80,LPMT 240600Z 34003KT CAVOK 11/10 Q1020
LPMT,2017-09-24 07:00,-9.0359,38.7039,53.60,50.00,87.56,70.00,3.00,0.00,30.12,M,6.21,M,M,M,M,M,M,M,M,M,M,M,M,M,M,M,M,53.60,LPMT 240700Z 07003KT CAVOK 12/10 Q1020
LPMT,2017-09-24 08:00,-9.0359,38.7039,59.00,55.40,87.83,120.00,5.00,0.00,30.12,M,6.21,M,M,M,M,M,M,M,M,M,M,M,M,M,M,M,M,59.00,LPMT 240800Z 12005KT CAVOK 15/13 Q1020
LPMT,2017-09-24 09:00,-9.0359,38.7039,64.40,55.40,72.56,130.00,3.00,0.00,30.15,M,6.21,M,M,M,M,M,M,M,M,M,M,M,M,M,M,M,M,64.40,LPMT 240900Z 13003KT 040V170 CAVOK 18/13 Q1021
LPMT,2017-09-24 10:00,-9.0359,38.7039,68.00,53.60,59.97,M,2.00,0.00,30.15,M,6.21,M,M,M,M,M,M,M,M,M,M,M,M,M,M,M,M,68.00,LPMT 241000Z VRB02KT CAVOK 20/12 Q1021
LPMT,2017-09-24 12:00,-9.0359,38.7039,77.00,44.60,31.62,240.00,4.00,0.00,30.15,M,6.21,M,M,M,M,M,M,M,M,M,M,M,M,M,M,M,M,75.89,LPMT 241200Z 24004KT 190V280 CAVOK 25/07 Q1021
LPMT,2017-09-24 13:00,-9.0359,38.7039,75.20,51.80,43.97,260.00,9.00,0.00,30.15,M,6.21,M,M,M,M,M,M,M,M,M,M,M,M,M,M,M,M,75.20,LPMT 241300Z 26009KT 220V280 CAVOK 24/11 Q1021
LPMT,2017-09-24 14:00,-9.0359,38.7039,77.00,50.00,38.74,260.00,7.00,0.00,30.15,M,6.21,M,M,M,M,M,M,M,M,M,M,M,M,M,M,M,M,77.00,LPMT 241400Z 26007KT CAVOK 25/10 Q1021
LPMT,2017-09-24 15:00,-9.0359,38.7039,75.20,53.60,46.98,260.00,9.00,0.00,30.12,M,6.21,M,M,M,M,M,M,M,M,M,M,M,M,M,M,M,M,75.20,LPMT 241500Z 26009KT CAVOK 24/12 Q1020
LPMT,2017-09-24 16:00,-9.0359,38.7039,71.60,59.00,64.48,260.00,11.00,0.00,30.12,M,6.21,M,M,M,M,M,M,M,M,M,M,M,M,M,M,M,M,71.60,LPMT 241600Z 26011KT CAVOK 22/15 Q1020
LPMT,2017-09-24 17:00,-9.0359,38.7039,71.60,59.00,64.48,250.00,8.00,0.00,30.12,M,6.21,M,M,M,M,M,M,M,M,M,M,M,M,M,M,M,M,71.60,LPMT 241700Z 25008KT CAVOK 22/15 Q1020
LPMT,2017-09-24 18:00,-9.0359,38.7039,68.00,59.00,72.92,250.00,5.00,0.00,30.15,M,6.21,M,M,M,M,M,M,M,M,M,M,M,M,M,M,M,M,68.00,LPMT 241800Z 25005KT 210V280 CAVOK 20/15 Q1021
LPMT,2017-09-24 19:00,-9.0359,38.7039,68.00,59.00,72.92,M,1.00,0.00,30.15,M,6.21,M,M,M,M,M,M,M,M,M,M,M,M,M,M,M,M,68.00,LPMT 241900Z VRB01KT CAVOK 20/15 Q1021
LPMT,2017-09-24 20:00,-9.0359,38.7039,66.20,59.00,77.60,350.00,4.00,0.00,30.18,M,6.21,M,FEW,M,M,M,2500.00,M,M,M,M,M,M,M,M,M,M,66.20,LPMT 242000Z 35004KT 310V030 9999 FEW025 19/15 Q1022
LPMT,2017-09-24 21:00,-9.0359,38.7039,68.00,62.60,82.86,360.00,4.00,0.00,30.18,M,6.21,M,SCT,M,M,M,2000.00,M,M,M,M,M,M,M,M,M,M,68.00,LPMT 242100Z 36004KT 310V050 9999 SCT020 20/17 Q1022
LPMT,2017-09-24 22:00,-9.0359,38.7039,68.00,64.40,88.26,M,2.00,0.00,30.18,M,6.21,M,SCT,M,M,M,1800.00,M,M,M,M,M,M,M,M,M,M,68.00,LPMT 242200Z VRB02KT 9999 SCT018 20/18 Q1022
LPMT,2017-09-24 23:00,-9.0359,38.7039,66.20,64.40,93.92,310.00,4.00,0.00,30.18,M,6.21,M,SCT,M,M,M,1400.00,M,M,M,M,M,M,M,M,M,M,66.20,LPMT 242300Z 31004KT 9999 SCT014 19/18 Q1022
LPMT,2017-09-25 00:00,-9.0359,38.7039,68.00,64.40,88.26,320.00,3.00,0.00,30.15,M,6.21,M,BKN,M,M,M,1200.00,M,M,M,M,M,M,M,M,M,M,68.00,LPMT 250000Z 32003KT 9999 BKN012 20/18 Q1021
LPMT,2017-09-25 02:00,-9.0359,38.7039,64.40,60.80,88.09,330.00,5.00,0.00,30.15,M,6.21,M,FEW,M,M,M,1200.00,M,M,M,M,M,M,M,M,M,M,64.40,LPMT 250200Z 33005KT 9999 FEW012 18/16 Q1021
LPMT,2017-09-25 03:00,-9.0359,38.7039,62.60,59.00,88.00,330.00,3.00,0.00,30.15,M,6.21,M,FEW,M,M,M,1200.00,M,M,M,M,M,M,M,M,M,M,62.60,LPMT 250300Z 33003KT 9999 FEW012 17/15 Q1021
LPMT,2017-09-25 04:00,-9.0359,38.7039,62.60,57.20,82.50,340.00,5.00,0.00,30.18,M,6.21,M,M,M,M,M,M,M,M,M,M,M,M,M,M,M,M,62.60,LPMT 250400Z 34005KT CAVOK 17/14 Q1022
LPMT,2017-09-25 05:00,-9.0359,38.7039,62.60,57.20,82.50,350.00,5.00,0.00,30.18,M,6.21,M,M,M,M,M,M,M,M,M,M,M,M,M,M,M,M,62.60,LPMT 250500Z 35005KT CAVOK 17/14 Q1022
LPMT,2017-09-25 06:00,-9.0359,38.7039,60.80,57.20,87.92,340.00,5.00,0.00,30.18,M,6.21,M,M,M,M,M,M,M,M,M,M,M,M,M,M,M,M,60.80,LPMT 250600Z 34005KT CAVOK 16/14 Q1022
LPMT,2017-09-25 07:00,-9.0359,38.7039,60.80,57.20,87.92,340.00,4.00,0.00,30.18,M,6.21,M,M,M,M,M,M,M,M,M,M,M,M,M,M,M,M,60.80,LPMT 250700Z 34004KT CAVOK 16/14 Q1022
LPMT,2017-09-25 08:00,-9.0359,38.7039,64.40,59.00,82.62,340.00,5.00,0.00,30.21,M,6.21,M,M,M,M,M,M,M,M,M,M,M,M,M,M,M,M,64.40,LPMT 250800Z 34005KT CAVOK 18/15 Q1023
LPMT,2017-09-25 09:00,-9.0359,38.7039,68.00,59.00,72.92,360.00,5.00,0.00,30.21,M,6.21,M,FEW,M,M,M,1200.00,M,M,M,M,M,M,M,M,M,M,68.00,LPMT 250900Z 36005KT 310V040 9999 FEW012 20/15 Q1023
LPMT,2017-09-25 10:00,-9.0359,38.7039,71.60,59.00,64.48,350.00,5.00,0.00,30.24,M,6.21,M,FEW,M,M,M,1500.00,M,M,M,M,M,M,M,M,M,M,71.60,LPMT 251000Z 35005KT 270V040 9999 FEW015 22/15 Q1024
LPMT,2017-09-25 11:00,-9.0359,38.7039,73.40,59.00,60.67,10.00,8.00,0.00,30.21,M,6.21,M,FEW,M,M,M,2000.00,M,M,M,M,M,M,M,M,M,M,73.40,LPMT 251100Z 01008KT 340V050 9999 FEW020 23/15 Q1023
LPMT,2017-09-25 12:00,-9.0359,38.7039,73.40,59.00,60.67,10.00,8.00,0.00,30.21,M,6.21,M,M,M,M,M,M,M,M,M,M,M,M,M,M,M,M,73.40,LPMT 251200Z 01008KT 330V040 CAVOK 23/15 Q1023
LPMT,2017-09-25 13:00,-9.0359,38.7039,77.00,57.20,50.43,M,6.00,0.00,30.18,M,6.21,M,M,M,M,M,M,M,M,M,M,M,M,M,M,M,M,77.00,LPMT 251300Z VRB06KT CAVOK 25/14 Q1022
LPMT,2017-09-25 14:00,-9.0359,38.7039,78.80,53.60,41.69,20.00,6.00,0.00,30.18,M,6.21,M,M,M,M,M,M,M,M,M,M,M,M,M,M,M,M,78.80,LPMT 251400Z 02006KT 350V070 CAVOK 26/12 Q1022
LPMT,2017-09-25 15:00,-9.0359,38.7039,80.60,51.80,36.79,360.00,7.00,0.00,30.15,M,6.21,M,M,M,M,M,M,M,M,M,M,M,M,M,M,M,M,80.60,LPMT 251500Z 36007KT 330V030 CAVOK 27/11 Q1021
LPMT,2017-09-25 16:00,-9.0359,38.7039,80.60,51.80,36.79,340.00,8.00,0.00,30.15,M,6.21,M,M,M,M,M,M,M,M,M,M,M,M,M,M,M,M,80.60,LPMT 251600Z 34008KT 310V010 CAVOK 27/11 Q1021
LPMT,2017-09-25 17:00,-9.0359,38.7039,77.00,50.00,38.74,350.00,9.00,0.00,30.15,M,6.21,M,M,M,M,M,M,M,M,M,M,M,M,M,M,M,M,77.00,LPMT 251700Z 35009KT 310V020 CAVOK 25/10 Q1021
LPMT,2017-09-25 18:00,-9.0359,38.7039,73.40,48.20,40.85,340.00,10.00,0.00,30.15,M,6.21,M,M,M,M,M,M,M,M,M,M,M,M,M,M,M,M,72.36,LPMT 251800Z 34010KT 310V010 CAVOK 23/09 Q1021
LPMT,2017-09-25 19:00,-9.0359,38.7039,68.00,55.40,64.04,330.00,8.00,0.00,30.15,M,6.21,M,M,M,M,M,M,M,M,M,M,M,M,M,M,M,M,68.00,LPMT 251900Z 33008KT CAVOK 20/13 Q1021
LPMT,2017-09-25 20:00,-9.0359,38.7039,66.20,53.60,63.82,330.00,9.00,0.00,30.18,M,6.21,M,M,M,M,M,M,M,M,M,M,M,M,M,M,M,M,66.20,LPMT 252000Z 33009KT CAVOK 19/12 Q1022
LPMT,2017-09-25 21:00,-9.0359,38.7039,64.40,53.60,67.95,340.00,7.00,0.00,30.18,M,6.21,M,M,M,M,M,M,M,M,M,M,M,M,M,M,M,M,64.40,LPMT 252100Z 34007KT CAVOK 18/12 Q1022
LPMT,2017-09-25 22:00,-9.0359,38.7039,62.60,55.40,77.29,330.00,4.00,0.00,30.18,M,6.21,M,M,M,M,M,M,M,M,M,M,M,M,M,M,M,M,62.60,LPMT 252200Z 33004KT 280V010 CAVOK 17/13 Q1022
LPMT,2017-09-25 23:00,-9.0359,38.7039,60.80,55.40,82.37,340.00,6.00,0.00,30.18,M,6.21,M,M,M,M,M,M,M,M,M,M,M,M,M,M,M,M,60.80,LPMT 252300Z 34006KT CAVOK 16/13 Q1022
LPMT,2017-09-26 00:00,-9.0359,38.7039,60.80,55.40,82.37,340.00,4.00,0.00,30.18,M,6.21,M,M,M,M,M,M,M,M,M,M,M,M,M,M,M,M,60.80,LPMT 260000Z 34004KT CAVOK 16/13 Q1022
LPMT,2017-09-26 02:00,-9.0359,38.7039,60.80,55.40,82.37,350.00,6.00,0.00,30.15,M,6.21,M,FEW,M,M,M,1200.00,M,M,M,M,M,M,M,M,M,M,60.80,LPMT 260200Z 35006KT 310V020 9999 FEW012 16/13 Q1021
LPMT,2017-09-26 03:00,-9.0359,38.7039,60.80,55.40,82.37,350.00,9.00,0.00,30.15,M,6.21,M,FEW,M,M,M,1200.00,M,M,M,M,M,M,M,M,M,M,60.80,LPMT 260300Z 35009KT 9999 FEW012 16/13 Q1021
LPMT,2017-09-26 04:00,-9.0359,38.7039,60.80,55.40,82.37,350.00,7.00,0.00,30.12,M,6.21,M,M,M,M,M,M,M,M,M,M,M,M,M,M,M,M,60.80,LPMT 260400Z 35007KT 310V010 CAVOK 16/13 Q1020
LPMT,2017-09-26 05:00,-9.0359,38.7039,59.00,55.40,87.83,330.00,4.00,0.00,30.12,M,6.21,M,M,M,M,M,M,M,M,M,M,M,M,M,M,M,M,59.00,LPMT 260500Z 33004KT CAVOK 15/13 Q1020
LPMT,2017-09-26 06:00,-9.0359,38.7039,59.00,53.60,82.25,360.00,5.00,0.00,30.12,M,6.21,M,M,M,M,M,M,M,M,M,M,M,M,M,M,M,M,59.00,LPMT 260600Z 36005KT CAVOK 15/12 Q1020
LPMT,2017-09-26 07:00,-9.0359,38.7039,59.00,53.60,82.25,330.00,5.00,0.00,30.12,M,6.21,M,M,M,M,M,M,M,M,M,M,M,M,M,M,M,M,59.00,LPMT 260700Z 33005KT CAVOK 15/12 Q1020
LPMT,2017-09-26 08:00,-9.0359,38.7039,62.60,53.60,72.38,330.00,5.00,0.00,30.12,M,6.21,M,M,M,M,M,M,M,M,M,M,M,M,M,M,M,M,62.60,LPMT 260800Z 33005KT CAVOK 17/12 Q1020
LPMT,2017-09-26 09:00,-9.0359,38.7039,66.20,50.00,55.88,340.00,4.00,0.00,30.15,M,6.21,M,M,M,M,M,M,M,M,M,M,M,M,M,M,M,M,66.20,LPMT 260900Z 34004KT 280V020 CAVOK 19/10 Q1021
LPMT,2017-09-26 10:00,-9.0359,38.7039,69.80,50.00,49.37,340.00,5.00,0.00,30.15,M,6.21,M,M,M,M,M,M,M,M,M,M,M,M,M,M,M,M,69.80,LPMT 261000Z 34005KT 290V050 CAVOK 21/10 Q1021
LPMT,2017-09-26 11:00,-9.0359,38.7039,71.60,50.00,46.43,10.00,5.00,0.00,30.12,M,6.21,M,M,M,M,M,M,M,M,M,M,M,M,M,M,M,M,71.60,LPMT 261100Z 01005KT 310V080 CAVOK 22/10 Q1020
LPMT,2017-09-26 12:00,-9.0359,38.7039,77.00,48.20,36.22,360.00,7.00,0.00,30.12,M,6.21,M,M,M,M,M,M,M,M,M,M,M,M,M,M,M,M,77.00,LPMT 261200Z 36007KT 320V040 CAVOK 25/09 Q1020
LPMT,2017-09-26 13:00,-9.0359,38.7039,78.80,42.80,27.81,360.00,4.00,0.00,30.09,M,6.21,M,M,M,M,M,M,M,M,M,M,M,M,M,M,M,M,77.69,LPMT 261300Z 36004KT 310V050 CAVOK 26/06 Q1019
LPMT,2017-09-26 14:00,-9.0359,38.7039,82.40,41.00,23.07,340.00,6.00,0.00,30.06,M,6.21,M,M,M,M,M,M,M,M,M,M,M,M,M,M,M,M,80.29,LPMT 261400Z 34006KT 290V070 CAVOK 28/05 Q1018
LPMT,2017-09-26 15:00,-9.0359,38.7039,82.40,37.40,20.04,330.00,5.00,0.00,30.06,M,6.21,M,M,M,M,M,M,M,M,M,M,M,M,M,M,M,M,80.14,LPMT 261500Z 33005KT 280V020 CAVOK 28/03 Q1018
LPMT,2017-09-26 16:00,-9.0359,38.7039,80.60,51.80,36.79,330.00,8.00,0.00,30.06,M,6.21,M,M,M,M,M,M,M,M,M,M,M,M,M,M,M,M,80.60,LPMT 261600Z 33008KT 300V360 CAVOK 27/11 Q1018
LPMT,2017-09-26 17:00,-9.0359,38.7039,77.00,50.00,38.74,330.00,11.00,0.00,30.06,M,6.21,M,M,M,M,M,M,M,M,M,M,M,M,M,M,M,M,77.00,LPMT 261700Z 33011KT CAVOK 25/10 Q1018
LPMT,2017-09-26 18:00,-9.0359,38.7039,71.60,48.20,43.42,340.00,8.00,0.00,30.06,M,6.21,M,M,M,M,M,M,M,M,M,M,M,M,M,M,M,M,70.50,LPMT 261800Z 34008KT CAVOK 22/09 Q1018
LPMT,2017-09-26 19:00,-9.0359,38.7039,68.00,46.40,45.88,340.00,6.00,0.00,30.09,M,6.21,M,M,M,M,M,M,M,M,M,M,M,M,M,M,M,M,68.00,LPMT 261900Z 34006KT CAVOK 20/08 Q1019
LPMT,2017-09-26 20:00,-9.0359,38.7039,66.20,44.60,45.60,340.00,7.00,0.00,30.09,M,6.21,M,M,M,M,M,M,M,M,M,M,M,M,M,M,M,M,66.20,LPMT 262000Z 34007KT CAVOK 19/07 Q1019
LPMT,2017-09-26 21:00,-9.0359,38.7039,66.20,44.60,45.60,340.00,7.00,0.00,30.09,M,6.21,M,M,M,M,M,M,M,M,M,M,M,M,M,M,M,M,66.20,LPMT 262100Z 34007KT CAVOK 19/07 Q1019
LPMT,2017-09-26 22:00,-9.0359,38.7039,62.60,50.00,63.38,340.00,4.00,0.00,30.09,M,6.21,M,M,M,M,M,M,M,M,M,M,M,M,M,M,M,M,62.60,LPMT 262200Z 34004KT CAVOK 17/10 Q1019
LPMT,2017-09-26 23:00,-9.0359,38.7039,62.60,50.00,63.38,330.00,5.00,0.00,30.09,M,6.21,M,M,M,M,M,M,M,M,M,M,M,M,M,M,M,M,62.60,LPMT 262300Z 33005KT CAVOK 17/10 Q1019
LPMT,2017-09-27 00:00,-9.0359,38.7039,62.60,51.80,67.75,320.00,4.00,0.00,30.09,M,6.21,M,M,M,M,M,M,M,M,M,M,M,M,M,M,M,M,62.60,LPMT 270000Z 32004KT CAVOK 17/11 Q1019
LPMT,2017-09-27 01:00,-9.0359,38.7039,62.60,50.00,63.38,340.00,4.00,0.00,30.06,M,6.21,M,M,M,M,M,M,M,M,M,M,M,M,M,M,M,M,62.60,LPMT 270100Z 34004KT CAVOK 17/10 Q1018
LPMT,2017-09-27 02:00,-9.0359,38.7039,60.80,50.00,67.54,320.00,4.00,0.00,30.06,M,6.21,M,M,M,M,M,M,M,M,M,M,M,M,M,M,M,M,60.80,LPMT 270200Z 32004KT CAVOK 16/10 Q1018
LPMT,2017-09-27 03:00,-9.0359,38.7039,62.60,51.80,67.75,310.00,4.00,0.00,30.06,M,6.21,M,M,M,M,M,M,M,M,M,M,M,M,M,M,M,M,62.60,LPMT 270300Z 31004KT CAVOK 17/11 Q1018
LPMT,2017-09-27 04:00,-9.0359,38.7039,62.60,51.80,67.75,340.00,5.00,0.00,30.06,M,6.21,M,M,M,M,M,M,M,M,M,M,M,M,M,M,M,M,62.60,LPMT 270400Z 34005KT CAVOK 17/11 Q1018
LPMT,2017-09-27 05:00,-9.0359,38.7039,57.20,51.80,82.12,100.00,4.00,0.00,30.06,M,6.21,M,M,M,M,M,M,M,M,M,M,M,M,M,M,M,M,57.20,LPMT 270500Z 10004KT CAVOK 14/11 Q1018
LPMT,2017-09-27 06:00,-9.0359,38.7039,53.60,50.00,87.56,80.00,3.00,0.00,30.06,M,6.21,M,M,M,M,M,M,M,M,M,M,M,M,M,M,M,M,53.60,LPMT 270600Z 08003KT CAVOK 12/10 Q1018
LPMT,2017-09-27 07:00,-9.0359,38.7039,53.60,50.00,87.56,100.00,4.00,0.00,30.09,M,6.21,M,M,M,M,M,M,M,M,M,M,M,M,M,M,M,M,53.60,LPMT 270700Z 10004KT CAVOK 12/10 Q1019
LPMT,2017-09-27 08:00,-9.0359,38.7039,62.60,53.60,72.38,140.00,4.00,0.00,30.09,M,6.21,M,M,M,M,M,M,M,M,M,M,M,M,M,M,M,M,62.60,LPMT 270800Z 14004KT CAVOK 17/12 Q1019
LPMT,2017-09-27 09:00,-9.0359,38.7039,64.40,51.80,63.60,130.00,3.00,0.00,30.09,M,6.21,M,M,M,M,M,M,M,M,M,M,M,M,M,M,M,M,64.40,LPMT 270900Z 13003KT 090V170 CAVOK 18/11 Q1019
LPMT,2017-09-27 10:00,-9.0359,38.7039,68.00,55.40,64.04,150.00,4.00,0.00,30.12,M,6.21,M,FEW,M,M,M,2500.00,M,M,M,M,M,M,M,M,M,M,68.00,LPMT 271000Z 15004KT 9999 FEW025 20/13 Q1020
LPMT,2017-09-27 11:00,-9.0359,38.7039,75.20,55.40,50.17,M,3.00,0.00,30.09,M,6.21,M,FEW,M,M,M,2500.00,M,M,M,M,M,M,M,M,M,M,75.20,LPMT 271100Z VRB03KT 9999 FEW025 24/13 Q1019
LPMT,2017-09-27 12:00,-9.0359,38.7039,78.80,53.60,41.69,40.00,7.00,0.00,30.09,M,6.21,M,FEW,M,M,M,2500.00,M,M,M,M,M,M,M,M,M,M,78.80,LPMT 271200Z 04007KT 340V070 9999 FEW025 26/12 Q1019
LPMT,2017-09-27 13:00,-9.0359,38.7039,77.00,57.20,50.43,270.00,8.00,0.00,30.09,M,6.21,M,FEW,M,M,M,2500.00,M,M,M,M,M,M,M,M,M,M,77.00,LPMT 271300Z 27008KT 9999 FEW025 25/14 Q1019
LPMT,2017-09-27 14:00,-9.0359,38.7039,77.00,57.20,50.43,270.00,6.00,0.00,30.06,M,6.21,M,FEW,M,M,M,2500.00,M,M,M,M,M,M,M,M,M,M,77.00,LPMT 271400Z 27006KT 230V290 9999 FEW025 25/14 Q1018
LPMT,2017-09-27 15:00,-9.0359,38.7039,73.40,60.80,64.69,260.00,9.00,0.00,30.06,M,6.21,M,FEW,M,M,M,3000.00,M,M,M,M,M,M,M,M,M,M,73.40,LPMT 271500Z 26009KT 9999 FEW030 23/16 Q1018
LPMT,2017-09-27 16:00,-9.0359,38.7039,77.00,62.60,61.13,250.00,6.00,0.00,30.06,M,6.21,M,M,M,M,M,M,M,M,M,M,M,M,M,M,M,M,77.00,LPMT 271600Z 25006KT 220V280 CAVOK 25/17 Q1018
LPMT,2017-09-27 17:00,-9.0359,38.7039,73.40,62.60,68.94,260.00,7.00,0.00,30.06,M,6.21,M,M,M,M,M,M,M,M,M,M,M,M,M,M,M,M,73.40,LPMT 271700Z 26007KT CAVOK 23/17 Q1018
LPMT,2017-09-27 18:00,-9.0359,38.7039,71.60,62.60,73.27,260.00,5.00,0.00,30.06,M,6.21,M,M,M,M,M,M,M,M,M,M,M,M,M,M,M,M,71.60,LPMT 271800Z 26005KT CAVOK 22/17 Q1018
LPMT,2017-09-27 19:00,-9.0359,38.7039,71.60,60.80,68.75,340.00,7.00,0.00,30.09,M,6.21,M,M,M,M,M,M,M,M,M,M,M,M,M,M,M,M,71.60,LPMT 271900Z 34007KT CAVOK 22/16 Q1019
LPMT,2017-09-27 20:00,-9.0359,38.7039,69.80,60.80,73.09,330.00,5.00,0.00,30.09,M,6.21,M,M,M,M,M,M,M,M,M,M,M,M,M,M,M,M,69.80,LPMT 272000Z 33005KT CAVOK 21/16 Q1019
LPMT,2017-09-27 21:00,-9.0359,38.7039,64.40,59.00,82.62,M,1.00,0.00,30.12,M,6.21,M,M,M,M,M,M,M,M,M,M,M,M,M,M,M,M,64.40,LPMT 272100Z VRB01KT CAVOK 18/15 Q1020
LPMT,2017-09-27 22:00,-9.0359,38.7039,60.80,57.20,87.92,340.00,3.00,0.00,30.12,M,6.21,M,M,M,M,M,M,M,M,M,M,M,M,M,M,M,M,60.80,LPMT 272200Z 34003KT CAVOK 16/14 Q1020
LPMT,2017-09-27 23:00,-9.0359,38.7039,64.40,59.00,82.62,M,1.00,0.00,30.15,M,6.21,M,M,M,M,M,M,M,M,M,M,M,M,M,M,M,M,64.40,LPMT 272300Z VRB01KT CAVOK 18/15 Q1021
LPMT,2017-09-28 00:00,-9.0359,38.7039,60.80,59.00,93.79,M,1.00,0.00,30.15,M,6.21,M,M,M,M,M,M,M,M,M,M,M,M,M,M,M,M,60.80,LPMT 280000Z VRB01KT CAVOK 16/15 Q1021
LPMT,2017-09-28 01:00,-9.0359,38.7039,59.00,57.20,93.74,120.00,2.00,0.00,30.15,M,6.21,M,M,M,M,M,M,M,M,M,M,M,M,M,M,M,M,59.00,LPMT 280100Z 12002KT CAVOK 15/14 Q1021
LPMT,2017-09-28 02:00,-9.0359,38.7039,57.20,55.40,93.69,M,1.00,0.00,30.12,M,6.21,M,M,M,M,M,M,M,M,M,M,M,M,M,M,M,M,57.20,LPMT 280200Z VRB01KT CAVOK 14/13 Q1020
LPMT,2017-09-28 03:00,-9.0359,38.7039,59.00,57.20,93.74,M,2.00,0.00,30.12,M,6.21,M,M,M,M,M,M,M,M,M,M,M,M,M,M,M,M,59.00,LPMT 280300Z VRB02KT CAVOK 15/14 Q1020
LPMT,2017-09-28 04:00,-9.0359,38.7039,57.20,55.40,93.69,100.00,1.00,0.00,30.12,M,6.21,M,M,M,M,M,M,M,M,M,M,M,M,M,M,M,M,57.20,LPMT 280400Z 10001KT CAVOK 14/13 Q1020
LPMT,2017-09-28 05:00,-9.0359,38.7039,57.20,55.40,93.69,130.00,2.00,0.00,30.12,M,6.21,M,M,M,M,M,M,M,M,M,M,M,M,M,M,M,M,57.20,LPMT 280500Z 13002KT CAVOK 14/13 Q1020
LPMT,2017-09-28 06:00,-9.0359,38.7039,55.40,53.60,93.65,240.00,1.00,0.00,30.12,M,6.21,M,M,M,M,M,M,M,M,M,M,M,M,M,M,M,M,55.40,LPMT 280600Z 24001KT CAVOK 13/12 Q1020
LPMT,2017-09-28 07:00,-9.0359,38.7039,55.40,55.40,100.00,M,1.00,0.00,30.15,M,6.21,M,M,M,M,M,M,M,M,M,M,M,M,M,M,M,M,55.40,LPMT 280700Z VRB01KT CAVOK 13/13 Q1021
LPMT,2017-09-28 08:00,-9.0359,38.7039,62.60,59.00,88.00,M,1.00,0.00,30.15,M,6.21,M,M,M,M,M,M,M,M,M,M,M,M,M,M,M,M,62.60,LPMT 280800Z VRB01KT CAVOK 17/15 Q1021
LPMT,2017-09-28 09:00,-9.0359,38.7039,68.00,60.80,77.75,150.00,3.00,0.00,30.18,M,6.21,M,M,M,M,M,M,M,M,M,M,M,M,M,M,M,M,68.00,LPMT 280900Z 15003KT 080V180 CAVOK 20/16 Q1022
LPMT,2017-09-28 10:00,-9.0359,38.7039,71.60,62.60,73.27,M,3.00,0.00,30.18,M,6.21,M,M,M,M,M,M,M,M,M,M,M,M,M,M,M,M,71.60,LPMT 281000Z VRB03KT CAVOK 22/17 Q1022
LPMT,2017-09-28 11:00,-9.0359,38.7039,75.20,60.80,60.90,340.00,4.00,0.00,30.18,M,6.21,M,M,M,M,M,M,M,M,M,M,M,M,M,M,M,M,75.20,LPMT 281100Z 34004KT 300V030 CAVOK 24/16 Q1022
LPMT,2017-09-28 12:00,-9.0359,38.7039,78.80,60.80,54.05,180.00,3.00,0.00,30.15,M,6.21,M,FEW,M,M,M,2500.00,M,M,M,M,M,M,M,M,M,M,78.80,LPMT 281200Z 18003KT 140V310 9999 FEW025 26/16 Q1021
LPMT,2017-09-28 13:00,-9.0359,38.7039,80.60,60.80,50.95,280.00,6.00,0.00,30.15,M,6.21,M,FEW,M,M,M,3000.00,M,M,M,M,M,M,M,M,M,M,81.46,LPMT 281300Z 28006KT 260V330 9999 FEW030 27/16 Q1021
LPMT,2017-09-28 14:00,-9.0359,38.7039,78.80,62.60,57.60,270.00,9.00,0.00,30.12,M,6.21,M,FEW,M,M,M,3000.00,M,M,M,M,M,M,M,M,M,M,80.31,LPMT 281400Z 27009KT 9999 FEW030 26/17 Q1020
LPMT,2017-09-28 15:00,-9.0359,38.7039,78.80,60.80,54.05,260.00,10.00,0.00,30.12,M,6.21,M,FEW,M,M,M,4000.00,M,M,M,M,M,M,M,M,M,M,78.80,LPMT 281500Z 26010KT 9999 FEW040 26/16 Q1020
LPMT,2017-09-28 16:00,-9.0359,38.7039,78.80,62.60,57.60,260.00,7.00,0.00,30.12,M,6.21,M,FEW,M,M,M,4000.00,M,M,M,M,M,M,M,M,M,M,80.31,LPMT 281600Z 26007KT 230V290 9999 FEW040 26/17 Q1020
LPMT,2017-09-28 17:00,-9.0359,38.7039,78.80,59.00,50.69,270.00,8.00,0.00,30.12,M,6.21,M,M,M,M,M,M,M,M,M,M,M,M,M,M,M,M,78.80,LPMT 281700Z 27008KT CAVOK 26/15 Q1020
LPMT,2017-09-28 18:00,-9.0359,38.7039,77.00,55.40,47.25,310.00,6.00,0.00,30.12,M,6.21,M,M,M,M,M,M,M,M,M,M,M,M,M,M,M,M,77.00,LPMT 281800Z 31006KT CAVOK 25/13 Q1020
LPMT,2017-09-28 19:00,-9.0359,38.7039,71.60,53.60,53.03,330.00,7.00,0.00,30.12,M,6.21,M,M,M,M,M,M,M,M,M,M,M,M,M,M,M,M,71.60,LPMT 281900Z 33007KT CAVOK 22/12 Q1020
LPMT,2017-09-28 20:00,-9.0359,38.7039,69.80,50.00,49.37,340.00,4.00,0.00,30.15,M,6.21,M,M,M,M,M,M,M,M,M,M,M,M,M,M,M,M,69.80,LPMT 282000Z 34004KT CAVOK 21/10 Q1021
LPMT,2017-09-28 21:00,-9.0359,38.7039,68.00,51.80,56.13,350.00,4.00,0.00,30.18,M,6.21,M,M,M,M,M,M,M,M,M,M,M,M,M,M,M,M,68.00,LPMT 282100Z 35004KT CAVOK 20/11 Q1022
LPMT,2017-09-28 22:00,-9.0359,38.7039,66.20,53.60,63.82,320.00,4.00,0.00,30.18,M,6.21,M,M,M,M,M,M,M,M,M,M,M,M,M,M,M,M,66.20,LPMT 282200Z 32004KT CAVOK 19/12 Q1022
LPMT,2017-09-28 23:00,-9.0359,38.7039,66.20,55.40,68.15,330.00,4.00,0.00,30.18,M,6.21,M,M,M,M,M,M,M,M,M,M,M,M,M,M,M,M,66.20,LPMT 282300Z 33004KT CAVOK 19/13 Q1022
LPMT,2017-09-29 00:00,-9.0359,38.7039,64.40,55.40,72.56,M,2.00,0.00,30.18,M,6.21,M,M,M,M,M,M,M,M,M,M,M,M,M,M,M,M,64.40,LPMT 290000Z VRB02KT CAVOK 18/13 Q1022
LPMT,2017-09-29 01:00,-9.0359,38.7039,60.80,53.60,77.14,340.00,2.00,0.00,30.15,M,6.21,M,M,M,M,M,M,M,M,M,M,M,M,M,M,M,M,60.80,LPMT 290100Z 34002KT CAVOK 16/12 Q1021
LPMT,2017-09-29 02:00,-9.0359,38.7039,59.00,53.60,82.25,0.00,0.00,0.00,30.15,M,6.21,M,M,M,M,M,M,M,M,M,M,M,M,M,M,M,M,59.00,LPMT 290200Z 00000KT CAVOK 15/12 Q1021
LPMT,2017-09-29 03:00,-9.0359,38.7039,59.00,55.40,87.83,170.00,2.00,0.00,30.15,M,6.21,M,M,M,M,M,M,M,M,M,M,M,M,M,M,M,M,59.00,LPMT 290300Z 17002KT CAVOK 15/13 Q1021
LPMT,2017-09-29 04:00,-9.0359,38.7039,57.20,55.40,93.69,210.00,2.00,0.00,30.15,M,6.21,M,M,M,M,M,M,M,M,M,M,M,M,M,M,M,M,57.20,LPMT 290400Z 21002KT CAVOK 14/13 Q1021
LPMT,2017-09-29 05:00,-9.0359,38.7039,57.20,55.40,93.69,240.00,2.00,0.00,30.15,M,6.21,M,M,M,M,M,M,M,M,M,M,M,M,M,M,M,M,57.20,LPMT 290500Z 24002KT CAVOK 14/13 Q1021
LPMT,2017-09-29 06:00,-9.0359,38.7039,57.20,53.60,87.74,M,1.00,0.00,30.15,M,6.21,M,M,M,M,M,M,M,M,M,M,M,M,M,M,M,M,57.20,LPMT 290600Z VRB01KT CAVOK 14/12 Q1021
LPMT,2017-09-29 07:00,-9.0359,38.7039,57.20,53.60,87.74,310.00,2.00,0.00,30.18,M,6.21,M,M,M,M,M,M,M,M,M,M,M,M,M,M,M,M,57.20,LPMT 290700Z 31002KT CAVOK 14/12 Q1022
LPMT,2017-09-29 08:00,-9.0359,38.7039,66.20,59.00,77.60,260.00,5.00,0.00,30.18,M,6.21,M,M,M,M,M,M,M,M,M,M,M,M,M,M,M,M,66.20,LPMT 290800Z 26005KT CAVOK 19/15 Q1022
LPMT,2017-09-29 09:00,-9.0359,38.7039,69.80,57.20,64.26,300.00,4.00,0.00,30.18,M,6.21,M,M,M,M,M,M,M,M,M,M,M,M,M,M,M,M,69.80,LPMT 290900Z 30004KT 270V360 CAVOK 21/14 Q1022
LPMT,2017-09-29 10:00,-9.0359,38.7039,73.40,55.40,53.29,10.00,3.00,0.00,30.21,M,6.21,M,M,M,M,M,M,M,M,M,M,M,M,M,M,M,M,73.40,LPMT 291000Z 01003KT 310V100 CAVOK 23/13 Q1023
LPMT,2017-09-29 11:00,-9.0359,38.7039,77.00,51.80,41.42,250.00,4.00,0.00,30.18,M,6.21,M,M,M,M,M,M,M,M,M,M,M,M,M,M,M,M,77.00,LPMT 291100Z 25004KT 210V290 CAVOK 25/11 Q1022
LPMT,2017-09-29 12:00,-9.0359,38.7039,78.80,46.40,31.90,280.00,5.00,0.00,30.15,M,6.21,M,M,M,M,M,M,M,M,M,M,M,M,M,M,M,M,78.80,LPMT 291200Z 28005KT 250V310 CAVOK 26/08 Q1021
LPMT,2017-09-29 13:00,-9.0359,38.7039,78.80,55.40,44.52,270.00,7.00,0.00,30.15,M,6.21,M,M,M,M,M,M,M,M,M,M,M,M,M,M,M,M,78.80,LPMT 291300Z 27007KT CAVOK 26/13 Q1021
LPMT,2017-09-29 14:00,-9.0359,38.7039,82.40,55.40,39.58,260.00,8.00,0.00,30.12,M,6.21,M,M,M,M,M,M,M,M,M,M,M,M,M,M,M,M,82.40,LPMT 291400Z 26008KT CAVOK 28/13 Q1020
LPMT,2017-09-29 15:00,-9.0359,38.7039,82.40,57.20,42.25,260.00,8.00,0.00,30.12,M,6.21,M,M,M,M,M,M,M,M,M,M,M,M,M,M,M,M,82.08,LPMT 291500Z 26008KT CAVOK 28/14 Q1020
LPMT,2017-09-29 16:00,-9.0359,38.7039,84.20,59.00,42.52,270.00,6.00,0.00,30.12,M,6.21,M,M,M,M,M,M,M,M,M,M,M,M,M,M,M,M,83.92,LPMT 291600Z 27006KT CAVOK 29/15 Q1020
LPMT,2017-09-29 17:00,-9.0359,38.7039,82.40,53.60,37.07,340.00,9.00,0.00,30.12,M,6.21,M,M,M,M,M,M,M,M,M,M,M,M,M,M,M,M,82.40,LPMT 291700Z 34009KT CAVOK 28/12 Q1020
LPMT,2017-09-29 18:00,-9.0359,38.7039,75.20,60.80,60.90,330.00,12.00,0.00,30.12,M,6.21,M,M,M,M,M,M,M,M,M,M,M,M,M,M,M,M,75.20,LPMT 291800Z 33012KT CAVOK 24/16 Q1020
LPMT,2017-09-29 19:00,-9.0359,38.7039,71.60,62.60,73.27,340.00,11.00,0.00,30.15,M,6.21,M,M,M,M,M,M,M,M,M,M,M,M,M,M,M,M,71.60,LPMT 291900Z 34011KT CAVOK 22/17 Q1021
LPMT,2017-09-29 20:00,-9.0359,38.7039,69.80,62.60,77.90,350.00,7.00,0.00,30.15,M,6.21,M,FEW,M,M,M,1500.00,M,M,M,M,M,M,M,M,M,M,69.80,LPMT 292000Z 35007KT 9999 FEW015 21/17 Q1021
LPMT,2017-09-29 21:00,-9.0359,38.7039,68.00,62.60,82.86,350.00,6.00,0.00,30.18,M,6.21,M,FEW,M,M,M,1500.00,M,M,M,M,M,M,M,M,M,M,68.00,LPMT 292100Z 35006KT 320V020 9999 FEW015 20/17 Q1022
LPMT,2017-09-29 23:00,-9.0359,38.7039,66.20,62.60,88.18,340.00,4.00,0.00,30.15,M,6.21,M,FEW,M,M,M,1200.00,M,M,M,M,M,M,M,M,M,M,66.20,LPMT 292300Z 34004KT 9999 FEW012 19/17 Q1021
LPMT,2017-09-30 00:00,-9.0359,38.7039,64.40,62.60,93.88,350.00,4.00,0.00,30.15,M,6.21,M,FEW,M,M,M,1200.00,M,M,M,M,M,M,M,M,M,M,64.40,LPMT 300000Z 35004KT 9999 FEW012 18/17 Q1021
LPMT,2017-09-30 02:00,-9.0359,38.7039,64.40,60.80,88.09,350.00,5.00,0.00,30.15,M,6.21,M,FEW,M,M,M,1200.00,M,M,M,M,M,M,M,M,M,M,64.40,LPMT 300200Z 35005KT 9999 FEW012 18/16 Q1021
LPMT,2017-09-30 03:00,-9.0359,38.7039,64.40,59.00,82.62,340.00,7.00,0.00,30.15,M,6.21,M,FEW,M,M,M,1200.00,M,M,M,M,M,M,M,M,M,M,64.40,LPMT 300300Z 34007KT 9999 FEW012 18/15 Q1021
LPMT,2017-09-30 04:00,-9.0359,38.7039,62.60,59.00,88.00,340.00,7.00,0.00,30.15,M,6.21,M,FEW,M,M,M,1200.00,M,M,M,M,M,M,M,M,M,M,62.60,LPMT 300400Z 34007KT 9999 FEW012 17/15 Q1021
LPMT,2017-09-30 05:00,-9.0359,38.7039,57.20,55.40,93.69,350.00,3.00,0.00,30.15,M,6.21,M,FEW,M,M,M,1200.00,M,M,M,M,M,M,M,M,M,M,57.20,LPMT 300500Z 35003KT 9999 FEW012 14/13 Q1021
LPMT,2017-09-30 06:00,-9.0359,38.7039,64.40,59.00,82.62,350.00,7.00,0.00,30.15,M,6.21,M,FEW,M,M,M,1500.00,M,M,M,M,M,M,M,M,M,M,64.40,LPMT 300600Z 35007KT 310V020 9999 FEW015 18/15 Q1021
LPMT,2017-09-30 07:00,-9.0359,38.7039,64.40,59.00,82.62,340.00,6.00,0.00,30.15,M,6.21,M,FEW,M,M,M,1500.00,M,M,M,M,M,M,M,M,M,M,64.40,LPMT 300700Z 34006KT 9999 FEW015 18/15 Q1021
LPMT,2017-09-30 08:00,-9.0359,38.7039,64.40,59.00,82.62,340.00,10.00,0.00,30.18,M,6.21,M,FEW,M,M,M,1500.00,M,M,M,M,M,M,M,M,M,M,64.40,LPMT 300800Z 34010KT 9999 FEW015 18/15 Q1022
LPMT,2017-09-30 09:00,-9.0359,38.7039,66.20,55.40,68.15,340.00,10.00,0.00,30.18,M,6.21,M,FEW,M,M,M,1500.00,M,M,M,M,M,M,M,M,M,M,66.20,LPMT 300900Z 34010KT 9999 FEW015 19/13 Q1022
LPMT,2017-09-30 10:00,-9.0359,38.7039,69.80,57.20,64.26,340.00,10.00,0.00,30.18,M,6.21,M,FEW,M,M,M,1500.00,M,M,M,M,M,M,M,M,M,M,69.80,LPMT 301000Z 34010KT 9999 FEW015 21/14 Q1022
LPMT,2017-09-30 11:00,-9.0359,38.7039,69.80,55.40,60.21,350.00,8.00,0.00,30.18,M,6.21,M,M,M,M,M,M,M,M,M,M,M,M,M,M,M,M,69.80,LPMT 301100Z 35008KT 320V020 CAVOK 21/13 Q1022
LPMT,2017-09-30 12:00,-9.0359,38.7039,71.60,55.40,56.63,340.00,9.00,0.00,30.18,M,6.21,M,M,M,M,M,M,M,M,M,M,M,M,M,M,M,M,71.60,LPMT 301200Z 34009KT 310V010 CAVOK 22/13 Q1022
LPMT,2017-09-30 13:00,-9.0359,38.7039,75.20,53.60,46.98,330.00,6.00,0.00,30.15,M,6.21,M,M,M,M,M,M,M,M,M,M,M,M,M,M,M,M,75.20,LPMT 301300Z 33006KT 290V010 CAVOK 24/12 Q1021
LPMT,2017-09-30 14:00,-9.0359,38.7039,77.00,53.60,44.25,340.00,11.00,0.00,30.12,M,6.21,M,M,M,M,M,M,M,M,M,M,M,M,M,M,M,M,77.00,LPMT 301400Z 34011KT 310V010 CAVOK 25/12 Q1020
LPMT,2017-09-30 15:00,-9.0359,38.7039,77.00,51.80,41.42,340.00,11.00,0.00,30.12,M,6.21,M,M,M,M,M,M,M,M,M,M,M,M,M,M,M,M,77.00,LPMT 301500Z 34011KT CAVOK 25/11 Q1020
LPMT,2017-09-30 16:00,-9.0359,38.7039,75.20,53.60,46.98,340.00,9.00,0.00,30.12,M,6.21,M,M,M,M,M,M,M,M,M,M,M,M,M,M,M,M,75.20,LPMT 301600Z 34009KT 300V010 CAVOK 24/12 Q1020
LPMT,2017-09-30 17:00,-9.0359,38.7039,73.40,50.00,43.69,350.00,14.00,0.00,30.12,M,6.21,M,M,M,M,M,M,M,M,M,M,M,M,M,M,M,M,73.40,LPMT 301700Z 35014KT CAVOK 23/10 Q1020
LPMT,2017-09-30 18:00,-9.0359,38.7039,68.00,51.80,56.13,350.00,10.00,0.00,30.15,M,6.21,M,M,M,M,M,M,M,M,M,M,M,M,M,M,M,M,68.00,LPMT 301800Z 35010KT CAVOK 20/11 Q1021
LPMT,2017-09-30 19:00,-9.0359,38.7039,66.20,50.00,55.88,340.00,13.00,0.00,30.15,M,6.21,M,FEW,M,M,M,2000.00,M,M,M,M,M,M,M,M,M,M,66.20,LPMT 301900Z 34013KT 9999 FEW020 19/10 Q1021
LPMT,2017-09-30 20:00,-9.0359,38.7039,66.20,51.80,59.74,360.00,12.00,0.00,30.15,M,6.21,M,M,M,M,M,M,M,M,M,M,M,M,M,M,M,M,66.20,LPMT 302000Z 36012KT CAVOK 19/11 Q1021
LPMT,2017-09-30 21:00,-9.0359,38.7039,66.20,53.60,63.82,360.00,9.00,0.00,30.15,M,6.21,M,M,M,M,M,M,M,M,M,M,M,M,M,M,M,M,66.20,LPMT 302100Z 36009KT 330V030 CAVOK 19/12 Q1021
LPMT,2017-09-30 22:00,-9.0359,38.7039,64.40,55.40,72.56,360.00,10.00,0.00,30.15,M,6.21,M,M,M,M,M,M,M,M,M,M,M,M,M,M,M,M,64.40,LPMT 302200Z 36010KT CAVOK 18/13 Q1021
LPMT,2017-09-30 23:00,-9.0359,38.7039,66.20,55.40,68.15,360.00,11.00,0.00,30.15,M,6.21,M,M,M,M,M,M,M,M,M,M,M,M,M,M,M,M,66.20,LPMT 302300Z 36011KT CAVOK 19/13 Q1021
LPMT,2017-10-01 00:00,-9.0359,38.7039,64.40,55.40,72.56,360.00,8.00,0.00,30.15,M,6.21,M,M,M,M,M,M,M,M,M,M,M,M,M,M,M,M,64.40,LPMT 010000Z 36008KT CAVOK 18/13 Q1021
LPMT,2017-10-01 01:00,-9.0359,38.7039,64.40,57.20,77.45,350.00,9.00,0.00,30.12,M,6.21,M,M,M,M,M,M,M,M,M,M,M,M,M,M,M,M,64.40,LPMT 010100Z 35009KT CAVOK 18/14 Q1020
LPMT,2017-10-01 02:00,-9.0359,38.7039,64.40,57.20,77.45,360.00,10.00,0.00,30.12,M,6.21,M,M,M,M,M,M,M,M,M,M,M,M,M,M,M,M,64.40,LPMT 010200Z 36010KT CAVOK 18/14 Q1020
LPMT,2017-10-01 03:00,-9.0359,38.7039,66.20,57.20,72.74,10.00,13.00,0.00,30.12,M,6.21,M,FEW,M,M,M,2000.00,M,M,M,M,M,M,M,M,M,M,66.20,LPMT 010300Z 01013KT 9999 FEW020 19/14 Q1020
LPMT,2017-10-01 04:00,-9.0359,38.7039,64.40,59.00,82.62,20.00,9.00,0.00,30.09,M,6.21,M,FEW,M,M,M,2000.00,M,M,M,M,M,M,M,M,M,M,64.40,LPMT 010400Z 02009KT 9999 FEW020 18/15 Q1019
LPMT,2017-10-01 05:00,-9.0359,38.7039,64.40,59.00,82.62,360.00,6.00,0.00,30.12,M,6.21,M,FEW,M,M,M,2000.00,M,M,M,M,M,M,M,M,M,M,64.40,LPMT 010500Z 36006KT 9999 FEW020 18/15 Q1020
LPMT,2017-10-01 06:00,-9.0359,38.7039,64.40,59.00,82.62,10.00,8.00,0.00,30.12,M,6.21,M,FEW,M,M,M,2000.00,M,M,M,M,M,M,M,M,M,M,64.40,LPMT 010600Z 01008KT 9999 FEW020 18/15 Q1020
LPMT,2017-10-01 07:00,-9.0359,38.7039,64.40,59.00,82.62,60.00,3.00,0.00,30.12,M,6.21,M,FEW,M,M,M,2000.00,M,M,M,M,M,M,M,M,M,M,64.40,LPMT 010700Z 06003KT 010V100 9999 FEW020 18/15 Q1020
LPMT,2017-10-01 08:00,-9.0359,38.7039,66.20,59.00,77.60,360.00,6.00,0.00,30.15,M,6.21,M,FEW,M,M,M,2000.00,M,M,M,M,M,M,M,M,M,M,66.20,LPMT 010800Z 36006KT 9999 FEW020 19/15 Q1021
LPMT,2017-10-01 09:00,-9.0359,38.7039,71.60,59.00,64.48,20.00,7.00,0.00,30.15,M,6.21,M,FEW,M,M,M,2200.00,M,M,M,M,M,M,M,M,M,M,71.60,LPMT 010900Z 02007KT 350V050 9999 FEW022 22/15 Q1021
LPMT,2017-10-01 10:00,-9.0359,38.7039,75.20,59.00,57.12,30.00,10.00,0.00,30.15,M,6.21,M,M,M,M,M,M,M,M,M,M,M,M,M,M,M,M,75.20,LPMT 011000Z 03010KT CAVOK 24/15 Q1021
LPMT,2017-10-01 11:00,-9.0359,38.7039,78.80,57.20,47.52,20.00,11.00,0.00,30.15,M,6.21,M,M,M,M,M,M,M,M,M,M,M,M,M,M,M,M,78.80,LPMT 011100Z 02011KT CAVOK 26/14 Q1021
LPMT,2017-10-01 12:00,-9.0359,38.7039,82.40,55.40,39.58,20.00,12.00,0.00,30.12,M,6.21,M,M,M,M,M,M,M,M,M,M,M,M,M,M,M,M,82.40,LPMT 011200Z 02012KT CAVOK 28/13 Q1020
LPMT,2017-10-01 13:00,-9.0359,38.7039,86.00,55.40,35.25,10.00,11.00,0.00,30.12,M,6.21,M,M,M,M,M,M,M,M,M,M,M,M,M,M,M,M,84.54,LPMT 011300Z 01011KT CAVOK 30/13 Q1020
LPMT,2017-10-01 14:00,-9.0359,38.7039,87.80,55.40,33.29,10.00,8.00,0.00,30.09,M,6.21,M,M,M,M,M,M,M,M,M,M,M,M,M,M,M,M,86.11,LPMT 011400Z 01008KT 330V040 CAVOK 31/13 Q1019
LPMT,2017-10-01 15:00,-9.0359,38.7039,89.60,57.20,33.56,350.00,10.00,0.00,30.06,M,6.21,M,M,M,M,M,M,M,M,M,M,M,M,M,M,M,M,88.28,LPMT 011500Z 35010KT CAVOK 32/14 Q1018
LPMT,2017-10-01 16:00,-9.0359,38.7039,82.40,59.00,45.07,330.00,12.00,0.00,30.06,M,6.21,M,M,M,M,M,M,M,M,M,M,M,M,M,M,M,M,82.46,LPMT 011600Z 33012KT CAVOK 28/15 Q1018
LPMT,2017-10-01 17:00,-9.0359,38.7039,80.60,59.00,47.79,340.00,11.00,0.00,30.06,M,6.21,M,M,M,M,M,M,M,M,M,M,M,M,M,M,M,M,81.11,LPMT 011700Z 34011KT CAVOK 27/15 Q1018
LPMT,2017-10-01 18:00,-9.0359,38.7039,77.00,59.00,53.80,350.00,10.00,0.00,30.09,M,6.21,M,M,M,M,M,M,M,M,M,M,M,M,M,M,M,M,77.00,LPMT 011800Z 35010KT CAVOK 25/15 Q1019
LPMT,2017-10-01 19:00,-9.0359,38.7039,73.40,59.00,60.67,350.00,12.00,0.00,30.09,M,6.21,M,M,M,M,M,M,M,M,M,M,M,M,M,M,M,M,73.40,LPMT 011900Z 35012KT CAVOK 23/15 Q1019
LPMT,2017-10-01 20:00,-9.0359,38.7039,71.60,59.00,64.48,330.00,7.00,0.00,30.12,M,6.21,M,M,M,M,M,M,M,M,M,M,M,M,M,M,M,M,71.60,LPMT 012000Z 33007KT 300V360 CAVOK 22/15 Q1020
LPMT,2017-10-01 21:00,-9.0359,38.7039,69.80,59.00,68.55,330.00,5.00,0.00,30.12,M,6.21,M,M,M,M,M,M,M,M,M,M,M,M,M,M,M,M,69.80,LPMT 012100Z 33005KT 300V010 CAVOK 21/15 Q1020
LPMT,2017-10-01 22:00,-9.0359,38.7039,68.00,59.00,72.92,350.00,5.00,0.00,30.12,M,6.21,M,M,M,M,M,M,M,M,M,M,M,M,M,M,M,M,68.00,LPMT 012200Z 35005KT CAVOK 20/15 Q1020
LPMT,2017-10-01 23:00,-9.0359,38.7039,68.00,59.00,72.92,40.00,3.00,0.00,30.12,M,6.21,M,M,M,M,M,M,M,M,M,M,M,M,M,M,M,M,68.00,LPMT 012300Z 04003KT CAVOK 20/15 Q1020
LPMT,2017-10-02 00:00,-9.0359,38.7039,62.60,57.20,82.50,90.00,3.00,0.00,30.12,M,6.21,M,M,M,M,M,M,M,M,M,M,M,M,M,M,M,M,62.60,LPMT 020000Z 09003KT CAVOK 17/14 Q1020
LPMT,2017-10-02 01:00,-9.0359,38.7039,62.60,59.00,88.00,M,2.00,0.00,30.12,M,6.21,M,M,M,M,M,M,M,M,M,M,M,M,M,M,M,M,62.60,LPMT 020100Z VRB02KT CAVOK 17/15 Q1020
LPMT,2017-10-02 02:00,-9.0359,38.7039,62.60,57.20,82.50,80.00,3.00,0.00,30.12,M,6.21,M,M,M,M,M,M,M,M,M,M,M,M,M,M,M,M,62.60,LPMT 020200Z 08003KT CAVOK 17/14 Q1020
LPMT,2017-10-02 03:00,-9.0359,38.7039,60.80,57.20,87.92,40.00,3.00,0.00,30.12,M,6.21,M,M,M,M,M,M,M,M,M,M,M,M,M,M,M,M,60.80,LPMT 020300Z 04003KT CAVOK 16/14 Q1020
LPMT,2017-10-02 04:00,-9.0359,38.7039,60.80,59.00,93.79,100.00,3.00,0.00,30.12,M,6.21,M,M,M,M,M,M,M,M,M,M,M,M,M,M,M,M,60.80,LPMT 020400Z 10003KT 050V140 CAVOK 16/15 Q1020
LPMT,2017-10-02 05:00,-9.0359,38.7039,60.80,59.00,93.79,30.00,4.00,0.00,30.12,M,6.21,M,M,M,M,M,M,M,M,M,M,M,M,M,M,M,M,60.80,LPMT 020500Z 03004KT CAVOK 16/15 Q1020
LPMT,2017-10-02 06:00,-9.0359,38.7039,64.40,59.00,82.62,20.00,8.00,0.00,30.12,M,6.21,M,M,M,M,M,M,M,M,M,M,M,M,M,M,M,M,64.40,LPMT 020600Z 02008KT CAVOK 18/15 Q1020
LPMT,2017-10-02 07:00,-9.0359,38.7039,64.40,59.00,82.62,30.00,7.00,0.00,30.15,M,6.21,M,M,M,M,M,M,M,M,M,M,M,M,M,M,M,M,64.40,LPMT 020700Z 03007KT CAVOK 18/15 Q1021
LPMT,2017-10-02 08:00,-9.0359,38.7039,69.80,57.20,64.26,40.00,9.00,0.00,30.15,M,6.21,M,M,M,M,M,M,M,M,M,M,M,M,M,M,M,M,69.80,LPMT 020800Z 04009KT CAVOK 21/14 Q1021
LPMT,2017-10-02 09:00,-9.0359,38.7039,71.60,57.20,60.44,30.00,10.00,0.00,30.15,M,6.21,M,M,M,M,M,M,M,M,M,M,M,M,M,M,M,M,71.60,LPMT 020900Z 03010KT CAVOK 22/14 Q1021
LPMT,2017-10-02 11:00,-9.0359,38.7039,82.40,57.20,42.25,10.00,8.00,0.00,30.18,M,6.21,M,M,M,M,M,M,M,M,M,M,M,M,M,M,M,M,82.08,LPMT 021100Z 01008KT CAVOK 28/14 Q1022
LPMT,2017-10-02 12:00,-9.0359,38.7039,86.00,57.20,37.62,360.00,6.00,0.00,30.15,M,6.21,M,M,M,M,M,M,M,M,M,M,M,M,M,M,M,M,84.97,LPMT 021200Z 36006KT 330V030 CAVOK 30/14 Q1021
LPMT,2017-10-02 13:00,-9.0359,38.7039,89.60,53.60,29.45,320.00,7.00,0.00,30.12,M,6.21,M,M,M,M,M,M,M,M,M,M,M,M,M,M,M,M,87.36,LPMT 021300Z 32007KT CAVOK 32/12 Q1020
LPMT,2017-10-02 14:00,-9.0359,38.7039,91.40,55.40,29.72,340.00,8.00,0.00,30.12,M,6.21,M,M,M,M,M,M,M,M,M,M,M,M,M,M,M,M,89.53,LPMT 021400Z 34008KT 300V360 CAVOK 33/13 Q1020
LPMT,2017-10-02 15:00,-9.0359,38.7039,93.20,53.60,26.31,350.00,9.00,0.00,30.09,M,6.21,M,M,M,M,M,M,M,M,M,M,M,M,M,M,M,M,90.86,LPMT 021500Z 35009KT CAVOK 34/12 Q1019
LPMT,2017-10-02 16:00,-9.0359,38.7039,93.20,57.20,29.99,340.00,8.00,0.00,30.09,M,6.21,M,M,M,M,M,M,M,M,M,M,M,M,M,M,M,M,91.91,LPMT 021600Z 34008KT 310V010 CAVOK 34/14 Q1019
LPMT,2017-10-02 17:00,-9.0359,38.7039,89.60,57.20,33.56,330.00,8.00,0.00,30.09,M,6.21,M,M,M,M,M,M,M,M,M,M,M,M,M,M,M,M,88.28,LPMT 021700Z 33008KT CAVOK 32/14 Q1019
LPMT,2017-10-02 18:00,-9.0359,38.7039,84.20,55.40,37.35,350.00,10.00,0.00,30.09,M,6.21,M,M,M,M,M,M,M,M,M,M,M,M,M,M,M,M,83.09,LPMT 021800Z 35010KT CAVOK 29/13 Q1019
LPMT,2017-10-02 19:00,-9.0359,38.7039,80.60,55.40,41.97,350.00,9.00,0.00,30.09,M,6.21,M,M,M,M,M,M,M,M,M,M,M,M,M,M,M,M,80.53,LPMT 021900Z 35009KT CAVOK 27/13 Q1019
LPMT,2017-10-02 20:00,-9.0359,38.7039,77.00,57.20,50.43,10.00,9.00,0.00,30.12,M,6.21,M,M,M,M,M,M,M,M,M,M,M,M,M,M,M,M,77.00,LPMT 022000Z 01009KT CAVOK 25/14 Q1020
LPMT,2017-10-02 21:00,-9.0359,38.7039,77.00,59.00,53.80,10.00,7.00,0.00,30.12,M,6.21,M,M,M,M,M,M,M,M,M,M,M,M,M,M,M,M,77.00,LPMT 022100Z 01007KT CAVOK 25/15 Q1020
LPMT,2017-10-02 22:00,-9.0359,38.7039,71.60,59.00,64.48,10.00,3.00,0.00,30.12,M,6.21,M,M,M,M,M,M,M,M,M,M,M,M,M,M,M,M,71.60,LPMT 022200Z 01003KT CAVOK 22/15 Q1020
LPMT,2017-10-02 23:00,-9.0359,38.7039,71.60,60.80,68.75,10.00,3.00,0.00,30.12,M,6.21,M,M,M,M,M,M,M,M,M,M,M,M,M,M,M,M,71.60,LPMT 022300Z 01003KT 340V050 CAVOK 22/16 Q1020
LPMT,2017-10-03 00:00,-9.0359,38.7039,69.80,60.80,73.09,50.00,3.00,0.00,30.12,M,6.21,M,M,M,M,M,M,M,M,M,M,M,M,M,M,M,M,69.80,LPMT 030000Z 05003KT CAVOK 21/16 Q1020
LPMT,2017-10-03 01:00,-9.0359,38.7039,66.20,59.00,77.60,90.00,3.00,0.00,30.12,M,6.21,M,M,M,M,M,M,M,M,M,M,M,M,M,M,M,M,66.20,LPMT 030100Z 09003KT CAVOK 19/15 Q1020
LPMT,2017-10-03 02:00,-9.0359,38.7039,64.40,59.00,82.62,M,2.00,0.00,30.09,M,6.21,M,M,M,M,M,M,M,M,M,M,M,M,M,M,M,M,64.40,LPMT 030200Z VRB02KT CAVOK 18/15 Q1019
LPMT,2017-10-03 03:00,-9.0359,38.7039,66.20,60.80,82.74,10.00,5.00,0.00,30.09,M,6.21,M,M,M,M,M,M,M,M,M,M,M,M,M,M,M,M,66.20,LPMT 030300Z 01005KT CAVOK 19/16 Q1019
LPMT,2017-10-03 04:00,-9.0359,38.7039,64.40,60.80,88.09,40.00,3.00,0.00,30.09,M,6.21,M,M,M,M,M,M,M,M,M,M,M,M,M,M,M,M,64.40,LPMT 030400Z 04003KT CAVOK 18/16 Q1019
LPMT,2017-10-03 05:00,-9.0359,38.7039,62.60,59.00,88.00,110.00,3.00,0.00,30.09,M,6.21,M,M,M,M,M,M,M,M,M,M,M,M,M,M,M,M,62.60,LPMT 030500Z 11003KT CAVOK 17/15 Q1019
LPMT,2017-10-03 06:00,-9.0359,38.7039,60.80,57.20,87.92,80.00,2.00,0.00,30.09,M,6.21,M,M,M,M,M,M,M,M,M,M,M,M,M,M,M,M,60.80,LPMT 030600Z 08002KT CAVOK 16/14 Q1019
LPMT,2017-10-03 07:00,-9.0359,38.7039,60.80,57.20,87.92,90.00,3.00,0.00,30.12,M,6.21,M,M,M,M,M,M,M,M,M,M,M,M,M,M,M,M,60.80,LPMT 030700Z 09003KT CAVOK 16/14 Q1020
LPMT,2017-10-03 08:00,-9.0359,38.7039,66.20,60.80,82.74,40.00,4.00,0.00,30.12,M,6.21,M,M,M,M,M,M,M,M,M,M,M,M,M,M,M,M,66.20,LPMT 030800Z 04004KT CAVOK 19/16 Q1020
LPMT,2017-10-03 09:00,-9.0359,38.7039,71.60,60.80,68.75,M,2.00,0.00,30.12,M,6.21,M,M,M,M,M,M,M,M,M,M,M,M,M,M,M,M,71.60,LPMT 030900Z VRB02KT CAVOK 22/16 Q1020
LPMT,2017-10-03 10:00,-9.0359,38.7039,75.20,62.60,64.91,30.00,4.00,0.00,30.15,M,6.21,M,M,M,M,M,M,M,M,M,M,M,M,M,M,M,M,75.20,LPMT 031000Z 03004KT 340V070 CAVOK 24/17 Q1021
LPMT,2017-10-03 11:00,-9.0359,38.7039,77.00,62.60,61.13,20.00,3.00,0.00,30.12,M,6.21,M,M,M,M,M,M,M,M,M,M,M,M,M,M,M,M,77.00,LPMT 031100Z 02003KT CAVOK 25/17 Q1020
LPMT,2017-10-03 12:00,-9.0359,38.7039,82.40,64.40,54.55,320.00,4.00,0.00,30.12,M,6.21,M,M,M,M,M,M,M,M,M,M,M,M,M,M,M,M,83.98,LPMT 031200Z 32004KT 270V020 CAVOK 28/18 Q1020
LPMT,2017-10-03 13:00,-9.0359,38.7039,80.60,62.60,54.30,270.00,5.00,0.00,30.09,M,6.21,M,M,M,M,M,M,M,M,M,M,M,M,M,M,M,M,81.84,LPMT 031300Z 27005KT CAVOK 27/17 Q1019
LPMT,2017-10-03 14:00,-9.0359,38.7039,84.20,62.60,48.32,270.00,6.00,0.00,30.06,M,6.21,M,M,M,M,M,M,M,M,M,M,M,M,M,M,M,M,85.03,LPMT 031400Z 27006KT CAVOK 29/17 Q1018
LPMT,2017-10-03 15:00,-9.0359,38.7039,82.40,62.60,51.21,270.00,10.00,0.00,30.06,M,6.21,M,M,M,M,M,M,M,M,M,M,M,M,M,M,M,M,83.41,LPMT 031500Z 27010KT CAVOK 28/17 Q1018
LPMT,2017-10-03 16:00,-9.0359,38.7039,82.40,64.40,54.55,270.00,8.00,0.00,30.06,M,6.21,M,M,M,M,M,M,M,M,M,M,M,M,M,M,M,M,83.98,LPMT 031600Z 27008KT CAVOK 28/18 Q1018
LPMT,2017-10-03 17:00,-9.0359,38.7039,84.20,59.00,42.52,320.00,6.00,0.00,30.06,M,6.21,M,M,M,M,M,M,M,M,M,M,M,M,M,M,M,M,83.92,LPMT 031700Z 32006KT 290V350 CAVOK 29/15 Q1018
LPMT,2017-10-03 18:00,-9.0359,38.7039,78.80,51.80,39.02,340.00,7.00,0.00,30.06,M,6.21,M,M,M,M,M,M,M,M,M,M,M,M,M,M,M,M,78.80,LPMT 031800Z 34007KT CAVOK 26/11 Q1018
LPMT,2017-10-03 19:00,-9.0359,38.7039,75.20,51.80,43.97,340.00,10.00,0.00,30.06,M,6.21,M,M,M,M,M,M,M,M,M,M,M,M,M,M,M,M,75.20,LPMT 031900Z 34010KT CAVOK 24/11 Q1018
LPMT,2017-10-03 20:00,-9.0359,38.7039,71.60,51.80,49.64,340.00,10.00,0.00,30.09,M,6.21,M,M,M,M,M,M,M,M,M,M,M,M,M,M,M,M,71.60,LPMT 032000Z 34010KT CAVOK 22/11 Q1019
LPMT,2017-10-03 21:00,-9.0359,38.7039,69.80,53.60,56.38,320.00,6.00,0.00,30.09,M,6.21,M,M,M,M,M,M,M,M,M,M,M,M,M,M,M,M,69.80,LPMT 032100Z 32006KT CAVOK 21/12 Q1019
LPMT,2017-10-03 22:00,-9.0359,38.7039,68.00,53.60,59.97,310.00,5.00,0.00,30.09,M,6.21,M,M,M,M,M,M,M,M,M,M,M,M,M,M,M,M,68.00,LPMT 032200Z 31005KT CAVOK 20/12 Q1019
LPMT,2017-10-03 23:00,-9.0359,38.7039,66.20,57.20,72.74,340.00,6.00,0.00,30.12,M,6.21,M,M,M,M,M,M,M,M,M,M,M,M,M,M,M,M,66.20,LPMT 032300Z 34006KT CAVOK 19/14 Q1020
LPMT,2017-10-04 00:00,-9.0359,38.7039,66.20,59.00,77.60,330.00,6.00,0.00,30.12,M,6.21,M,M,M,M,M,M,M,M,M,M,M,M,M,M,M,M,66.20,LPMT 040000Z 33006KT CAVOK 19/15 Q1020
LPMT,2017-10-04 01:00,-9.0359,38.7039,64.40,59.00,82.62,340.00,3.00,0.00,30.09,M,6.21,M,M,M,M,M,M,M,M,M,M,M,M,M,M,M,M,64.40,LPMT 040100Z 34003KT CAVOK 18/15 Q1019
LPMT,2017-10-04 02:00,-9.0359,38.7039,64.40,59.00,82.62,330.00,6.00,0.00,30.09,M,6.21,M,M,M,M,M,M,M,M,M,M,M,M,M,M,M,M,64.40,LPMT 040200Z 33006KT CAVOK 18/15 Q1019
LPMT,2017-10-04 03:00,-9.0359,38.7039,64.40,59.00,82.62,340.00,6.00,0.00,30.09,M,6.21,M,M,M,M,M,M,M,M,M,M,M,M,M,M,M,M,64.40,LPMT 040300Z 34006KT CAVOK 18/15 Q1019
LPMT,2017-10-04 04:00,-9.0359,38.7039,62.60,57.20,82.50,M,2.00,0.00,30.09,M,6.21,M,M,M,M,M,M,M,M,M,M,M,M,M,M,M,M,62.60,LPMT 040400Z VRB02KT CAVOK 17/14 Q1019
LPMT,2017-10-04 05:00,-9.0359,38.7039,62.60,57.20,82.50,320.00,4.00,0.00,30.09,M,6.21,M,M,M,M,M,M,M,M,M,M,M,M,M,M,M,M,62.60,LPMT 040500Z 32004KT CAVOK 17/14 Q1019
LPMT,2017-10-04 06:00,-9.0359,38.7039,62.60,57.20,82.50,330.00,6.00,0.00,30.09,M,6.21,M,M,M,M,M,M,M,M,M,M,M,M,M,M,M,M,62.60,LPMT 040600Z 33006KT CAVOK 17/14 Q1019
LPMT,2017-10-04 07:00,-9.0359,38.7039,62.60,59.00,88.00,340.00,6.00,0.00,30.09,M,6.21,M,M,M,M,M,M,M,M,M,M,M,M,M,M,M,M,62.60,LPMT 040700Z 34006KT CAVOK 17/15 Q1019
LPMT,2017-10-04 08:00,-9.0359,38.7039,64.40,59.00,82.62,340.00,5.00,0.00,30.12,M,6.21,M,M,M,M,M,M,M,M,M,M,M,M,M,M,M,M,64.40,LPMT 040800Z 34005KT CAVOK 18/15 Q1020
LPMT,2017-10-04 09:00,-9.0359,38.7039,66.20,59.00,77.60,360.00,5.00,0.00,30.15,M,6.21,M,M,M,M,M,M,M,M,M,M,M,M,M,M,M,M,66.20,LPMT 040900Z 36005KT 320V050 CAVOK 19/15 Q1021
LPMT,2017-10-04 10:00,-9.0359,38.7039,69.80,60.80,73.09,M,2.00,0.00,30.15,M,6.21,M,M,M,M,M,M,M,M,M,M,M,M,M,M,M,M,69.80,LPMT 041000Z VRB02KT CAVOK 21/16 Q1021
LPMT,2017-10-04 11:00,-9.0359,38.7039,71.60,59.00,64.48,290.00,3.00,0.00,30.15,M,6.21,M,M,M,M,M,M,M,M,M,M,M,M,M,M,M,M,71.60,LPMT 041100Z 29003KT 240V360 CAVOK 22/15 Q1021
LPMT,2017-10-04 12:00,-9.0359,38.7039,75.20,59.00,57.12,250.00,4.00,0.00,30.15,M,6.21,M,M,M,M,M,M,M,M,M,M,M,M,M,M,M,M,75.20,LPMT 041200Z 25004KT 200V280 CAVOK 24/15 Q1021
LPMT,2017-10-04 13:00,-9.0359,38.7039,78.80,59.00,50.69,M,4.00,0.00,30.12,M,6.21,M,M,M,M,M,M,M,M,M,M,M,M,M,M,M,M,78.80,LPMT 041300Z VRB04KT CAVOK 26/15 Q1020
LPMT,2017-10-04 14:00,-9.0359,38.7039,80.60,59.00,47.79,260.00,4.00,0.00,30.12,M,6.21,M,M,M,M,M,M,M,M,M,M,M,M,M,M,M,M,81.11,LPMT 041400Z 26004KT 160V310 CAVOK 27/15 Q1020
LPMT,2017-10-04 15:00,-9.0359,38.7039,78.80,59.00,50.69,290.00,5.00,0.00,30.12,M,6.21,M,M,M,M,M,M,M,M,M,M,M,M,M,M,M,M,78.80,LPMT 041500Z 29005KT CAVOK 26/15 Q1020
LPMT,2017-10-04 16:00,-9.0359,38.7039,78.80,59.00,50.69,250.00,6.00,0.00,30.12,M,6.21,M,M,M,M,M,M,M,M,M,M,M,M,M,M,M,M,78.80,LPMT 041600Z 25006KT CAVOK 26/15 Q1020
LPMT,2017-10-04 17:00,-9.0359,38.7039,75.20,60.80,60.90,260.00,6.00,0.00,30.12,M,6.21,M,M,M,M,M,M,M,M,M,M,M,M,M,M,M,M,75.20,LPMT 041700Z 26006KT CAVOK 24/16 Q1020
LPMT,2017-10-04 18:00,-9.0359,38.7039,71.60,59.00,64.48,260.00,6.00,0.00,30.12,M,6.21,M,M,M,M,M,M,M,M,M,M,M,M,M,M,M,M,71.60,LPMT 041800Z 26006KT CAVOK 22/15 Q1020
LPMT,2017-10-04 19:00,-9.0359,38.7039,69.80,59.00,68.55,240.00,5.00,0.00,30.12,M,6.21,M,M,M,M,M,M,M,M,M,M,M,M,M,M,M,M,69.80,LPMT 041900Z 24005KT CAVOK 21/15 Q1020
LPMT,2017-10-04 20:00,-9.0359,38.7039,64.40,57.20,77.45,300.00,3.00,0.00,30.12,M,6.21,M,M,M,M,M,M,M,M,M,M,M,M,M,M,M,M,64.40,LPMT 042000Z 30003KT CAVOK 18/14 Q1020
LPMT,2017-10-04 21:00,-9.0359,38.7039,62.60,57.20,82.50,10.00,4.00,0.00,30.15,M,6.21,M,M,M,M,M,M,M,M,M,M,M,M,M,M,M,M,62.60,LPMT 042100Z 01004KT CAVOK 17/14 Q1021
LPMT,2017-10-04 22:00,-9.0359,38.7039,62.60,59.00,88.00,360.00,5.00,0.00,30.15,M,6.21,M,M,M,M,M,M,M,M,M,M,M,M,M,M,M,M,62.60,LPMT 042200Z 36005KT CAVOK 17/15 Q1021
LPMT,2017-10-04 23:00,-9.0359,38.7039,60.80,57.20,87.92,30.00,5.00,0.00,30.15,M,6.21,M,M,M,M,M,M,M,M,M,M,M,M,M,M,M,M,60.80,LPMT 042300Z 03005KT CAVOK 16/14 Q1021
LPMT,2017-10-05 00:00,-9.0359,38.7039,57.20,55.40,93.69,60.00,4.00,0.00,30.15,M,6.21,M,M,M,M,M,M,M,M,M,M,M,M,M,M,M,M,57.20,LPMT 050000Z 06004KT CAVOK 14/13 Q1021
LPMT,2017-10-05 01:00,-9.0359,38.7039,57.20,55.40,93.69,40.00,3.00,0.00,30.45,M,6.21,M,M,M,M,M,M,M,M,M,M,M,M,M,M,M,M,57.20,LPMT 050100Z 04003KT CAVOK 14/13 Q1031
LPMT,2017-10-05 02:00,-9.0359,38.7039,55.40,55.40,100.00,60.00,2.00,0.00,30.15,M,6.21,M,M,M,M,M,M,M,M,M,M,M,M,M,M,M,M,55.40,LPMT 050200Z 06002KT CAVOK 13/13 Q1021
LPMT,2017-10-05 03:00,-9.0359,38.7039,53.60,51.80,93.60,80.00,2.00,0.00,30.15,M,6.21,M,M,M,M,M,M,M,M,M,M,M,M,M,M,M,M,53.60,LPMT 050300Z 08002KT CAVOK 12/11 Q1021
LPMT,2017-10-05 04:00,-9.0359,38.7039,53.60,51.80,93.60,70.00,3.00,0.00,30.15,M,6.21,M,M,M,M,M,M,M,M,M,M,M,M,M,M,M,M,53.60,LPMT 050400Z 07003KT CAVOK 12/11 Q1021
LPMT,2017-10-05 05:00,-9.0359,38.7039,53.60,53.60,100.00,70.00,3.00,0.00,30.15,M,6.21,M,M,M,M,M,M,M,M,M,M,M,M,M,M,M,M,53.60,LPMT 050500Z 07003KT CAVOK 12/12 Q1021
LPMT,2017-10-05 06:00,-9.0359,38.7039,55.40,53.60,93.65,70.00,4.00,0.00,30.15,M,6.21,M,BKN,M,M,M,600.00,M,M,M,M,M,M,M,M,M,M,55.40,LPMT 050600Z 07004KT 9999 BKN006 13/12 Q1021
LPMT,2017-10-05 07:00,-9.0359,38.7039,57.20,55.40,93.69,50.00,5.00,0.00,30.18,M,3.11,M,BKN,M,M,M,600.00,M,M,M,BCFG,M,M,M,M,M,M,57.20,LPMT 050700Z 05005KT 5000 2000W BCFG BKN006 14/13 Q1022
LPMT,2017-10-05 08:00,-9.0359,38.7039,59.00,55.40,87.83,80.00,4.00,0.00,30.18,M,3.73,M,SCT,M,M,M,600.00,M,M,M,BCFG,M,M,M,M,M,M,59.00,LPMT 050800Z 08004KT 6000 2000W BCFG SCT006 15/13 Q1022
LPMT,2017-10-05 09:00,-9.0359,38.7039,62.60,55.40,77.29,30.00,7.00,0.00,30.18,M,3.73,M,FEW,M,M,M,700.00,M,M,M,BCFG,M,M,M,M,M,M,62.60,LPMT 050900Z 03007KT 6000 2000NW BCFG FEW007 17/13 Q1022
LPMT,2017-10-05 10:00,-9.0359,38.7039,64.40,57.20,77.45,20.00,7.00,0.00,30.18,M,4.35,M,FEW,M,M,M,800.00,M,M,M,M,M,M,M,M,M,M,64.40,LPMT 051000Z 02007KT 7000 FEW008 18/14 Q1022
LPMT,2017-10-05 11:00,-9.0359,38.7039,69.80,59.00,68.55,20.00,6.00,0.00,30.18,M,6.21,M,M,M,M,M,M,M,M,M,M,M,M,M,M,M,M,69.80,LPMT 051100Z 02006KT 340V070 CAVOK 21/15 Q1022
LPMT,2017-10-05 13:00,-9.0359,38.7039,78.80,59.00,50.69,30.00,5.00,0.00,30.15,M,6.21,M,M,M,M,M,M,M,M,M,M,M,M,M,M,M,M,78.80,LPMT 051300Z 03005KT 350V090 CAVOK 26/15 Q1021
LPMT,2017-10-05 14:00,-9.0359,38.7039,77.00,59.00,53.80,260.00,5.00,0.00,30.12,M,6.21,M,M,M,M,M,M,M,M,M,M,M,M,M,M,M,M,77.00,LPMT 051400Z 26005KT 240V300 CAVOK 25/15 Q1020
LPMT,2017-10-05 15:00,-9.0359,38.7039,80.60,59.00,47.79,260.00,6.00,0.00,30.09,M,6.21,M,M,M,M,M,M,M,M,M,M,M,M,M,M,M,M,81.11,LPMT 051500Z 26006KT CAVOK 27/15 Q1019
LPMT,2017-10-05 16:00,-9.0359,38.7039,80.60,60.80,50.95,260.00,4.00,0.00,30.09,M,6.21,M,M,M,M,M,M,M,M,M,M,M,M,M,M,M,M,81.46,LPMT 051600Z 26004KT CAVOK 27/16 Q1019
LPMT,2017-10-05 17:00,-9.0359,38.7039,78.80,59.00,50.69,270.00,4.00,0.00,30.09,M,6.21,M,M,M,M,M,M,M,M,M,M,M,M,M,M,M,M,78.80,LPMT 051700Z 27004KT CAVOK 26/15 Q1019
LPMT,2017-10-05 18:00,-9.0359,38.7039,75.20,59.00,57.12,M,2.00,0.00,30.09,M,6.21,M,M,M,M,M,M,M,M,M,M,M,M,M,M,M,M,75.20,LPMT 051800Z VRB02KT CAVOK 24/15 Q1019
LPMT,2017-10-05 19:00,-9.0359,38.7039,75.20,51.80,43.97,340.00,6.00,0.00,30.09,M,6.21,M,M,M,M,M,M,M,M,M,M,M,M,M,M,M,M,75.20,LPMT 051900Z 34006KT CAVOK 24/11 Q1019
LPMT,2017-10-05 20:00,-9.0359,38.7039,71.60,53.60,53.03,340.00,5.00,0.00,30.09,M,6.21,M,M,M,M,M,M,M,M,M,M,M,M,M,M,M,M,71.60,LPMT 052000Z 34005KT CAVOK 22/12 Q1019
LPMT,2017-10-05 21:00,-9.0359,38.7039,68.00,55.40,64.04,340.00,6.00,0.00,30.09,M,6.21,M,M,M,M,M,M,M,M,M,M,M,M,M,M,M,M,68.00,LPMT 052100Z 34006KT 300V360 CAVOK 20/13 Q1019
LPMT,2017-10-05 22:00,-9.0359,38.7039,66.20,55.40,68.15,360.00,4.00,0.00,30.09,M,6.21,M,M,M,M,M,M,M,M,M,M,M,M,M,M,M,M,66.20,LPMT 052200Z 36004KT CAVOK 19/13 Q1019
LPMT,2017-10-05 23:00,-9.0359,38.7039,64.40,55.40,72.56,20.00,7.00,0.00,30.09,M,6.21,M,M,M,M,M,M,M,M,M,M,M,M,M,M,M,M,64.40,LPMT 052300Z 02007KT CAVOK 18/13 Q1019
LPMT,2017-10-06 00:00,-9.0359,38.7039,62.60,55.40,77.29,50.00,5.00,0.00,30.09,M,6.21,M,M,M,M,M,M,M,M,M,M,M,M,M,M,M,M,62.60,LPMT 060000Z 05005KT CAVOK 17/13 Q1019
LPMT,2017-10-06 01:00,-9.0359,38.7039,60.80,53.60,77.14,60.00,4.00,0.00,30.09,M,6.21,M,M,M,M,M,M,M,M,M,M,M,M,M,M,M,M,60.80,LPMT 060100Z 06004KT CAVOK 16/12 Q1019
LPMT,2017-10-06 02:00,-9.0359,38.7039,59.00,53.60,82.25,50.00,3.00,0.00,30.09,M,6.21,M,M,M,M,M,M,M,M,M,M,M,M,M,M,M,M,59.00,LPMT 060200Z 05003KT CAVOK 15/12 Q1019
LPMT,2017-10-06 03:00,-9.0359,38.7039,57.20,53.60,87.74,100.00,3.00,0.00,30.06,M,6.21,M,M,M,M,M,M,M,M,M,M,M,M,M,M,M,M,57.20,LPMT 060300Z 10003KT 060V120 CAVOK 14/12 Q1018
LPMT,2017-10-06 04:00,-9.0359,38.7039,55.40,51.80,87.65,100.00,2.00,0.00,30.06,M,6.21,M,M,M,M,M,M,M,M,M,M,M,M,M,M,M,M,55.40,LPMT 060400Z 10002KT CAVOK 13/11 Q1018
LPMT,2017-10-06 05:00,-9.0359,38.7039,53.60,51.80,93.60,M,1.00,0.00,30.03,M,6.21,M,M,M,M,M,M,M,M,M,M,M,M,M,M,M,M,53.60,LPMT 060500Z VRB01KT CAVOK 12/11 Q1017
LPMT,2017-10-06 06:00,-9.0359,38.7039,55.40,51.80,87.65,110.00,1.00,0.00,30.06,M,6.21,M,M,M,M,M,M,M,M,M,M,M,M,M,M,M,M,55.40,LPMT 060600Z 11001KT CAVOK 13/11 Q1018
LPMT,2017-10-06 08:00,-9.0359,38.7039,62.60,57.20,82.50,80.00,3.00,0.00,30.09,M,6.21,M,M,M,M,M,M,M,M,M,M,M,M,M,M,M,M,62.60,LPMT 060800Z 08003KT CAVOK 17/14 Q1019
LPMT,2017-10-06 09:00,-9.0359,38.7039,68.00,57.20,68.35,M,2.00,0.00,30.09,M,6.21,M,M,M,M,M,M,M,M,M,M,M,M,M,M,M,M,68.00,LPMT 060900Z VRB02KT CAVOK 20/14 Q1019
LPMT,2017-10-06 10:00,-9.0359,38.7039,73.40,59.00,60.67,M,2.00,0.00,30.09,M,6.21,M,M,M,M,M,M,M,M,M,M,M,M,M,M,M,M,73.40,LPMT 061000Z VRB02KT CAVOK 23/15 Q1019
LPMT,2017-10-06 11:00,-9.0359,38.7039,77.00,57.20,50.43,300.00,4.00,0.00,30.09,M,6.21,M,M,M,M,M,M,M,M,M,M,M,M,M,M,M,M,77.00,LPMT 061100Z 30004KT 260V340 CAVOK 25/14 Q1019
LPMT,2017-10-06 12:00,-9.0359,38.7039,78.80,53.60,41.69,260.00,4.00,0.00,30.09,M,6.21,M,M,M,M,M,M,M,M,M,M,M,M,M,M,M,M,78.80,LPMT 061200Z 26004KT 220V280 CAVOK 26/12 Q1019
LPMT,2017-10-06 13:00,-9.0359,38.7039,80.60,51.80,36.79,260.00,5.00,0.00,30.06,M,6.21,M,M,M,M,M,M,M,M,M,M,M,M,M,M,M,M,80.60,LPMT 061300Z 26005KT CAVOK 27/11 Q1018
LPMT,2017-10-06 14:00,-9.0359,38.7039,82.40,55.40,39.58,270.00,6.00,0.00,30.03,M,6.21,M,M,M,M,M,M,M,M,M,M,M,M,M,M,M,M,82.40,LPMT 061400Z 27006KT CAVOK 28/13 Q1017
LPMT,2017-10-06 15:00,-9.0359,38.7039,84.20,51.80,32.73,270.00,8.00,0.00,30.00,M,6.21,M,M,M,M,M,M,M,M,M,M,M,M,M,M,M,M,82.48,LPMT 061500Z 27008KT CAVOK 29/11 Q1016
LPMT,2017-10-06 16:00,-9.0359,38.7039,84.20,53.60,34.97,270.00,10.00,0.00,30.00,M,6.21,M,M,M,M,M,M,M,M,M,M,M,M,M,M,M,M,82.76,LPMT 061600Z 27010KT CAVOK 29/12 Q1016
LPMT,2017-10-06 17:00,-9.0359,38.7039,87.80,55.40,33.29,340.00,5.00,0.00,30.00,M,6.21,M,M,M,M,M,M,M,M,M,M,M,M,M,M,M,M,86.11,LPMT 061700Z 34005KT 310V010 CAVOK 31/13 Q1016
LPMT,2017-10-06 18:00,-9.0359,38.7039,82.40,55.40,39.58,340.00,6.00,0.00,30.00,M,6.21,M,M,M,M,M,M,M,M,M,M,M,M,M,M,M,M,82.40,LPMT 061800Z 34006KT CAVOK 28/13 Q1016
LPMT,2017-10-06 19:00,-9.0359,38.7039,78.80,51.80,39.02,340.00,5.00,0.00,30.03,M,6.21,M,M,M,M,M,M,M,M,M,M,M,M,M,M,M,M,78.80,LPMT 061900Z 34005KT CAVOK 26/11 Q1017
LPMT,2017-10-06 20:00,-9.0359,38.7039,77.00,51.80,41.42,10.00,8.00,0.00,30.03,M,6.21,M,M,M,M,M,M,M,M,M,M,M,M,M,M,M,M,77.00,LPMT 062000Z 01008KT CAVOK 25/11 Q1017
LPMT,2017-10-06 21:00,-9.0359,38.7039,77.00,50.00,38.74,360.00,6.00,0.00,30.03,M,6.21,M,M,M,M,M,M,M,M,M,M,M,M,M,M,M,M,77.00,LPMT 062100Z 36006KT CAVOK 25/10 Q1017
LPMT,2017-10-06 22:00,-9.0359,38.7039,68.00,51.80,56.13,M,1.00,0.00,30.03,M,6.21,M,M,M,M,M,M,M,M,M,M,M,M,M,M,M,M,68.00,LPMT 062200Z VRB01KT CAVOK 20/11 Q1017
LPMT,2017-10-06 23:00,-9.0359,38.7039,62.60,51.80,67.75,M,1.00,0.00,30.03,M,6.21,M,M,M,M,M,M,M,M,M,M,M,M,M,M,M,M,62.60,LPMT 062300Z VRB01KT CAVOK 17/11 Q1017
LPMT,2017-10-07 00:00,-9.0359,38.7039,62.60,50.00,63.38,90.00,2.00,0.00,30.03,M,6.21,M,M,M,M,M,M,M,M,M,M,M,M,M,M,M,M,62.60,LPMT 070000Z 09002KT CAVOK 17/10 Q1017
LPMT,2017-10-07 01:00,-9.0359,38.7039,60.80,48.20,63.15,120.00,2.00,0.00,30.03,M,6.21,M,M,M,M,M,M,M,M,M,M,M,M,M,M,M,M,60.80,LPMT 070100Z 12002KT CAVOK 16/09 Q1017
LPMT,2017-10-07 02:00,-9.0359,38.7039,59.00,46.40,62.92,M,1.00,0.00,30.03,M,6.21,M,M,M,M,M,M,M,M,M,M,M,M,M,M,M,M,59.00,LPMT 070200Z VRB01KT CAVOK 15/08 Q1017
LPMT,2017-10-07 03:00,-9.0359,38.7039,60.80,50.00,67.54,50.00,3.00,0.00,30.00,M,6.21,M,M,M,M,M,M,M,M,M,M,M,M,M,M,M,M,60.80,LPMT 070300Z 05003KT CAVOK 16/10 Q1016
LPMT,2017-10-07 04:00,-9.0359,38.7039,59.00,51.80,76.98,20.00,3.00,0.00,30.00,M,6.21,M,M,M,M,M,M,M,M,M,M,M,M,M,M,M,M,59.00,LPMT 070400Z 02003KT CAVOK 15/11 Q1016
LPMT,2017-10-07 05:00,-9.0359,38.7039,62.60,51.80,67.75,360.00,5.00,0.00,30.00,M,6.21,M,M,M,M,M,M,M,M,M,M,M,M,M,M,M,M,62.60,LPMT 070500Z 36005KT CAVOK 17/11 Q1016
LPMT,2017-10-07 07:00,-9.0359,38.7039,62.60,50.00,63.38,50.00,5.00,0.00,30.03,M,6.21,M,M,M,M,M,M,M,M,M,M,M,M,M,M,M,M,62.60,LPMT 070700Z 05005KT 020V100 CAVOK 17/10 Q1017
LPMT,2017-10-07 08:00,-9.0359,38.7039,69.80,50.00,49.37,30.00,10.00,0.00,30.03,M,6.21,M,M,M,M,M,M,M,M,M,M,M,M,M,M,M,M,69.80,LPMT 070800Z 03010KT CAVOK 21/10 Q1017
LPMT,2017-10-07 09:00,-9.0359,38.7039,73.40,48.20,40.85,30.00,12.00,0.00,30.03,M,6.21,M,M,M,M,M,M,M,M,M,M,M,M,M,M,M,M,72.36,LPMT 070900Z 03012KT CAVOK 23/09 Q1017
LPMT,2017-10-07 10:00,-9.0359,38.7039,77.00,46.40,33.85,30.00,12.00,0.00,30.03,M,6.21,M,M,M,M,M,M,M,M,M,M,M,M,M,M,M,M,75.99,LPMT 071000Z 03012KT CAVOK 25/08 Q1017
LPMT,2017-10-07 11:00,-9.0359,38.7039,80.60,46.40,30.07,20.00,11.00,0.00,30.03,M,6.21,M,M,M,M,M,M,M,M,M,M,M,M,M,M,M,M,79.56,LPMT 071100Z 02011KT CAVOK 27/08 Q1017
LPMT,2017-10-07 12:00,-9.0359,38.7039,84.20,46.40,26.76,10.00,10.00,0.00,30.03,M,6.21,M,M,M,M,M,M,M,M,M,M,M,M,M,M,M,M,81.87,LPMT 071200Z 01010KT 340V040 CAVOK 29/08 Q1017
LPMT,2017-10-07 13:00,-9.0359,38.7039,89.60,46.40,22.53,360.00,7.00,0.00,30.00,M,6.21,M,M,M,M,M,M,M,M,M,M,M,M,M,M,M,M,86.24,LPMT 071300Z 36007KT 330V040 CAVOK 32/08 Q1016
LPMT,2017-10-07 14:00,-9.0359,38.7039,89.60,46.40,22.53,10.00,9.00,0.00,29.97,M,6.21,M,M,M,M,M,M,M,M,M,M,M,M,M,M,M,M,86.24,LPMT 071400Z 01009KT 330V030 CAVOK 32/08 Q1015
LPMT,2017-10-07 15:00,-9.0359,38.7039,89.60,42.80,19.64,10.00,10.00,0.00,29.97,M,6.21,M,M,M,M,M,M,M,M,M,M,M,M,M,M,M,M,85.93,LPMT 071500Z 01010KT CAVOK 32/06 Q1015
LPMT,2017-10-07 16:00,-9.0359,38.7039,87.80,44.60,22.27,10.00,9.00,0.00,29.97,M,6.21,M,M,M,M,M,M,M,M,M,M,M,M,M,M,M,M,84.53,LPMT 071600Z 01009KT CAVOK 31/07 Q1015
LPMT,2017-10-07 17:00,-9.0359,38.7039,86.00,42.80,22.02,10.00,6.00,0.00,29.97,M,6.21,M,M,M,M,M,M,M,M,M,M,M,M,M,M,M,M,82.95,LPMT 071700Z 01006KT CAVOK 30/06 Q1015
LPMT,2017-10-07 18:00,-9.0359,38.7039,80.60,42.80,26.22,360.00,5.00,0.00,29.97,M,6.21,M,M,M,M,M,M,M,M,M,M,M,M,M,M,M,M,79.30,LPMT 071800Z 36005KT CAVOK 27/06 Q1015
LPMT,2017-10-07 19:00,-9.0359,38.7039,71.60,50.00,46.43,340.00,3.00,0.00,29.97,M,6.21,M,M,M,M,M,M,M,M,M,M,M,M,M,M,M,M,71.60,LPMT 071900Z 34003KT CAVOK 22/10 Q1015
LPMT,2017-10-07 20:00,-9.0359,38.7039,69.80,51.80,52.77,40.00,2.00,0.00,30.00,M,6.21,M,M,M,M,M,M,M,M,M,M,M,M,M,M,M,M,69.80,LPMT 072000Z 04002KT CAVOK 21/11 Q1016
LPMT,2017-10-07 21:00,-9.0359,38.7039,66.20,51.80,59.74,60.00,2.00,0.00,30.00,M,6.21,M,M,M,M,M,M,M,M,M,M,M,M,M,M,M,M,66.20,LPMT 072100Z 06002KT CAVOK 19/11 Q1016
LPMT,2017-10-07 22:00,-9.0359,38.7039,64.40,53.60,67.95,160.00,3.00,0.00,30.03,M,6.21,M,M,M,M,M,M,M,M,M,M,M,M,M,M,M,M,64.40,LPMT 072200Z 16003KT CAVOK 18/12 Q1017
LPMT,2017-10-07 23:00,-9.0359,38.7039,62.60,57.20,82.50,130.00,3.00,0.00,30.03,M,6.21,M,M,M,M,M,M,M,M,M,M,M,M,M,M,M,M,62.60,LPMT 072300Z 13003KT 090V150 CAVOK 17/14 Q1017
LPMT,2017-10-08 00:00,-9.0359,38.7039,59.00,48.20,67.33,M,2.00,0.00,30.03,M,6.21,M,M,M,M,M,M,M,M,M,M,M,M,M,M,M,M,59.00,LPMT 080000Z VRB02KT CAVOK 15/09 Q1017
LPMT,2017-10-08 01:00,-9.0359,38.7039,57.20,46.40,67.12,M,1.00,0.00,30.03,M,6.21,M,M,M,M,M,M,M,M,M,M,M,M,M,M,M,M,57.20,LPMT 080100Z VRB01KT CAVOK 14/08 Q1017
LPMT,2017-10-08 02:00,-9.0359,38.7039,55.40,48.20,76.66,260.00,4.00,0.00,30.03,M,6.21,M,M,M,M,M,M,M,M,M,M,M,M,M,M,M,M,55.40,LPMT 080200Z 26004KT CAVOK 13/09 Q1017
LPMT,2017-10-08 03:00,-9.0359,38.7039,57.20,50.00,76.82,100.00,3.00,0.00,30.03,M,6.21,M,M,M,M,M,M,M,M,M,M,M,M,M,M,M,M,57.20,LPMT 080300Z 10003KT CAVOK 14/10 Q1017
LPMT,2017-10-08 04:00,-9.0359,38.7039,53.60,50.00,87.56,110.00,1.00,0.00,30.03,M,6.21,M,M,M,M,M,M,M,M,M,M,M,M,M,M,M,M,53.60,LPMT 080400Z 11001KT CAVOK 12/10 Q1017
LPMT,2017-10-08 05:00,-9.0359,38.7039,53.60,50.00,87.56,90.00,3.00,0.00,30.03,M,6.21,M,M,M,M,M,M,M,M,M,M,M,M,M,M,M,M,53.60,LPMT 080500Z 09003KT CAVOK 12/10 Q1017
LPMT,2017-10-08 06:00,-9.0359,38.7039,51.80,48.20,87.47,360.00,3.00,0.00,30.06,M,6.21,M,M,M,M,M,M,M,M,M,M,M,M,M,M,M,M,51.80,LPMT 080600Z 36003KT CAVOK 11/09 Q1018
LPMT,2017-10-08 07:00,-9.0359,38.7039,51.80,50.00,93.55,20.00,2.00,0.00,30.06,M,6.21,M,M,M,M,M,M,M,M,M,M,M,M,M,M,M,M,51.80,LPMT 080700Z 02002KT CAVOK 11/10 Q1018
LPMT,2017-10-08 08:00,-9.0359,38.7039,60.80,50.00,67.54,70.00,2.00,0.00,30.09,M,6.21,M,M,M,M,M,M,M,M,M,M,M,M,M,M,M,M,60.80,LPMT 080800Z 07002KT CAVOK 16/10 Q1019
LPMT,2017-10-08 09:00,-9.0359,38.7039,66.20,55.40,68.15,M,2.00,0.00,30.09,M,6.21,M,M,M,M,M,M,M,M,M,M,M,M,M,M,M,M,66.20,LPMT 080900Z VRB02KT CAVOK 19/13 Q1019
LPMT,2017-10-08 10:00,-9.0359,38.7039,69.80,57.20,64.26,M,2.00,0.00,30.12,M,6.21,M,M,M,M,M,M,M,M,M,M,M,M,M,M,M,M,69.80,LPMT 081000Z VRB02KT CAVOK 21/14 Q1020
LPMT,2017-10-08 11:00,-9.0359,38.7039,73.40,60.80,64.69,300.00,3.00,0.00,30.09,M,6.21,M,M,M,M,M,M,M,M,M,M,M,M,M,M,M,M,73.40,LPMT 081100Z 30003KT 360V340 CAVOK 23/16 Q1019
LPMT,2017-10-08 12:00,-9.0359,38.7039,77.00,60.80,57.36,280.00,6.00,0.00,30.09,M,6.21,M,M,M,M,M,M,M,M,M,M,M,M,M,M,M,M,77.00,LPMT 081200Z 28006KT 250V320 CAVOK 25/16 Q1019
LPMT,2017-10-08 13:00,-9.0359,38.7039,77.00,62.60,61.13,270.00,9.00,0.00,30.09,M,6.21,M,M,M,M,M,M,M,M,M,M,M,M,M,M,M,M,77.00,LPMT 081300Z 27009KT CAVOK 25/17 Q1019
LPMT,2017-10-08 15:00,-9.0359,38.7039,75.20,60.80,60.90,260.00,11.00,0.00,30.06,M,6.21,M,M,M,M,M,M,M,M,M,M,M,M,M,M,M,M,75.20,LPMT 081500Z 26011KT CAVOK 24/16 Q1018
LPMT,2017-10-08 16:00,-9.0359,38.7039,73.40,60.80,64.69,270.00,12.00,0.00,30.06,M,6.21,M,M,M,M,M,M,M,M,M,M,M,M,M,M,M,M,73.40,LPMT 081600Z 27012KT CAVOK 23/16 Q1018
LPMT,2017-10-08 17:00,-9.0359,38.7039,73.40,60.80,64.69,260.00,11.00,0.00,30.06,M,6.21,M,M,M,M,M,M,M,M,M,M,M,M,M,M,M,M,73.40,LPMT 081700Z 26011KT CAVOK 23/16 Q1018
LPMT,2017-10-08 18:00,-9.0359,38.7039,69.80,60.80,73.09,250.00,8.00,0.00,30.06,M,6.21,M,M,M,M,M,M,M,M,M,M,M,M,M,M,M,M,69.80,LPMT 081800Z 25008KT CAVOK 21/16 Q1018
LPMT,2017-10-08 19:00,-9.0359,38.7039,68.00,62.60,82.86,250.00,6.00,0.00,30.06,M,6.21,M,M,M,M,M,M,M,M,M,M,M,M,M,M,M,M,68.00,LPMT 081900Z 25006KT CAVOK 20/17 Q1018
LPMT,2017-10-08 20:00,-9.0359,38.7039,66.20,60.80,82.74,250.00,6.00,0.00,30.06,M,6.21,M,M,M,M,M,M,M,M,M,M,M,M,M,M,M,M,66.20,LPMT 082000Z 25006KT CAVOK 19/16 Q1018
LPMT,2017-10-08 21:00,-9.0359,38.7039,64.40,59.00,82.62,240.00,4.00,0.00,30.06,M,6.21,M,M,M,M,M,M,M,M,M,M,M,M,M,M,M,M,64.40,LPMT 082100Z 24004KT CAVOK 18/15 Q1018
LPMT,2017-10-08 22:00,-9.0359,38.7039,64.40,60.80,88.09,210.00,4.00,0.00,30.09,M,6.21,M,M,M,M,M,M,M,M,M,M,M,M,M,M,M,M,64.40,LPMT 082200Z 21004KT CAVOK 18/16 Q1019
LPMT,2017-10-08 23:00,-9.0359,38.7039,59.00,57.20,93.74,200.00,2.00,0.00,30.09,M,6.21,M,M,M,M,M,M,M,M,M,M,M,M,M,M,M,M,59.00,LPMT 082300Z 20002KT CAVOK 15/14 Q1019
LPMT,2017-10-09 00:00,-9.0359,38.7039,57.20,55.40,93.69,M,1.00,0.00,30.06,M,6.21,M,M,M,M,M,M,M,M,M,M,M,M,M,M,M,M,57.20,LPMT 090000Z VRB01KT CAVOK 14/13 Q1018
LPMT,2017-10-09 01:00,-9.0359,38.7039,55.40,55.40,100.00,100.00,2.00,0.00,30.06,M,4.97,M,NSC,M,M,M,M,M,M,M,M,M,M,M,M,M,M,55.40,LPMT 090100Z 10002KT 8000 NSC 13/13 Q1018
LPMT,2017-10-09 02:00,-9.0359,38.7039,57.20,55.40,93.69,100.00,2.00,0.00,30.06,M,4.97,M,NSC,M,M,M,M,M,M,M,M,M,M,M,M,M,M,57.20,LPMT 090200Z 10002KT 8000 NSC 14/13 Q1018
LPMT,2017-10-09 03:00,-9.0359,38.7039,55.40,55.40,100.00,90.00,1.00,0.00,30.06,M,4.97,M,NSC,M,M,M,M,M,M,M,M,M,M,M,M,M,M,55.40,LPMT 090300Z 09001KT 8000 NSC 13/13 Q1018
LPMT,2017-10-09 04:00,-9.0359,38.7039,55.40,53.60,93.65,M,1.00,0.00,30.06,M,4.35,M,NSC,M,M,M,M,M,M,M,M,M,M,M,M,M,M,55.40,LPMT 090400Z VRB01KT 7000 NSC 13/12 Q1018
LPMT,2017-10-09 05:00,-9.0359,38.7039,53.60,51.80,93.60,280.00,2.00,0.00,30.06,M,4.97,M,NSC,M,M,M,M,M,M,M,M,M,M,M,M,M,M,53.60,LPMT 090500Z 28002KT 8000 NSC 12/11 Q1018
LPMT,2017-10-09 06:00,-9.0359,38.7039,53.60,51.80,93.60,130.00,2.00,0.00,30.06,M,4.97,M,NSC,M,M,M,M,M,M,M,M,M,M,M,M,M,M,53.60,LPMT 090600Z 13002KT 8000 NSC 12/11 Q1018
LPMT,2017-10-09 07:00,-9.0359,38.7039,51.80,51.80,100.00,110.00,2.00,0.00,30.09,M,3.73,M,NSC,M,M,M,M,M,M,M,MIFG,M,M,M,M,M,M,51.80,LPMT 090700Z 11002KT 6000 MIFG NSC 11/11 Q1019
LPMT,2017-10-09 08:00,-9.0359,38.7039,59.00,59.00,100.00,140.00,3.00,0.00,30.09,M,0.19,M,BKN,M,M,M,300.00,M,M,M,FG,M,M,M,M,M,M,59.00,LPMT 090800Z 14003KT 0300 FG BKN003 15/15 Q1019
LPMT,2017-10-09 11:00,-9.0359,38.7039,71.60,60.80,68.75,M,2.00,0.00,30.09,M,2.80,M,FEW,M,M,M,300.00,M,M,M,BR,M,M,M,M,M,M,71.60,LPMT 091100Z VRB02KT 4500 BR FEW003 22/16 Q1019
LPMT,2017-10-09 12:00,-9.0359,38.7039,73.40,60.80,64.69,290.00,3.00,0.00,30.09,M,3.73,M,FEW,M,M,M,800.00,M,M,M,M,M,M,M,M,M,M,73.40,LPMT 091200Z 29003KT 230V330 6000 FEW008 23/16 Q1019
LPMT,2017-10-09 13:00,-9.0359,38.7039,75.20,59.00,57.12,260.00,4.00,0.00,30.06,M,6.21,M,M,M,M,M,M,M,M,M,M,M,M,M,M,M,M,75.20,LPMT 091300Z 26004KT 230V300 CAVOK 24/15 Q1018
LPMT,2017-10-09 14:00,-9.0359,38.7039,75.20,60.80,60.90,280.00,6.00,0.00,30.06,M,6.21,M,M,M,M,M,M,M,M,M,M,M,M,M,M,M,M,75.20,LPMT 091400Z 28006KT CAVOK 24/16 Q1018
LPMT,2017-10-09 15:00,-9.0359,38.7039,73.40,59.00,60.67,270.00,9.00,0.00,30.03,M,6.21,M,M,M,M,M,M,M,M,M,M,M,M,M,M,M,M,73.40,LPMT 091500Z 27009KT CAVOK 23/15 Q1017
LPMT,2017-10-09 16:00,-9.0359,38.7039,75.20,50.00,41.14,260.00,9.00,0.00,30.03,M,6.21,M,M,M,M,M,M,M,M,M,M,M,M,M,M,M,M,75.20,LPMT 091600Z 26009KT CAVOK 24/10 Q1017
LPMT,2017-10-09 17:00,-9.0359,38.7039,75.20,53.60,46.98,260.00,6.00,0.00,30.03,M,6.21,M,M,M,M,M,M,M,M,M,M,M,M,M,M,M,M,75.20,LPMT 091700Z 26006KT CAVOK 24/12 Q1017
LPMT,2017-10-09 18:00,-9.0359,38.7039,69.80,55.40,60.21,260.00,7.00,0.00,30.03,M,6.21,M,M,M,M,M,M,M,M,M,M,M,M,M,M,M,M,69.80,LPMT 091800Z 26007KT CAVOK 21/13 Q1017
LPMT,2017-10-09 19:00,-9.0359,38.7039,64.40,57.20,77.45,270.00,4.00,0.00,30.03,M,6.21,M,M,M,M,M,M,M,M,M,M,M,M,M,M,M,M,64.40,LPMT 091900Z 27004KT CAVOK 18/14 Q1017
LPMT,2017-10-09 20:00,-9.0359,38.7039,60.80,55.40,82.37,200.00,3.00,0.00,30.03,M,6.21,M,M,M,M,M,M,M,M,M,M,M,M,M,M,M,M,60.80,LPMT 092000Z 20003KT CAVOK 16/13 Q1017
LPMT,2017-10-09 21:00,-9.0359,38.7039,59.00,53.60,82.25,170.00,2.00,0.00,30.06,M,6.21,M,M,M,M,M,M,M,M,M,M,M,M,M,M,M,M,59.00,LPMT 092100Z 17002KT CAVOK 15/12 Q1018
LPMT,2017-10-09 22:00,-9.0359,38.7039,57.20,53.60,87.74,130.00,2.00,0.00,30.06,M,6.21,M,M,M,M,M,M,M,M,M,M,M,M,M,M,M,M,57.20,LPMT 092200Z 13002KT CAVOK 14/12 Q1018
LPMT,2017-10-09 23:00,-9.0359,38.7039,57.20,53.60,87.74,100.00,3.00,0.00,30.06,M,6.21,M,M,M,M,M,M,M,M,M,M,M,M,M,M,M,M,57.20,LPMT 092300Z 10003KT CAVOK 14/12 Q1018
LPMT,2017-10-10 00:00,-9.0359,38.7039,57.20,53.60,87.74,110.00,3.00,0.00,30.06,M,6.21,M,M,M,M,M,M,M,M,M,M,M,M,M,M,M,M,57.20,LPMT 100000Z 11003KT CAVOK 14/12 Q1018
LPMT,2017-10-10 01:00,-9.0359,38.7039,57.20,55.40,93.69,120.00,4.00,0.00,30.06,M,6.21,M,M,M,M,M,M,M,M,M,M,M,M,M,M,M,M,57.20,LPMT 100100Z 12004KT CAVOK 14/13 Q1018
LPMT,2017-10-10 02:00,-9.0359,38.7039,55.40,53.60,93.65,100.00,3.00,0.00,30.06,M,4.97,M,NSC,M,M,M,M,M,M,M,M,M,M,M,M,M,M,55.40,LPMT 100200Z 10003KT 8000 NSC 13/12 Q1018
LPMT,2017-10-10 03:00,-9.0359,38.7039,55.40,53.60,93.65,110.00,3.00,0.00,30.03,M,4.97,M,NSC,M,M,M,M,M,M,M,M,M,M,M,M,M,M,55.40,LPMT 100300Z 11003KT 8000 NSC 13/12 Q1017
LPMT,2017-10-10 04:00,-9.0359,38.7039,57.20,55.40,93.69,120.00,4.00,0.00,30.03,M,4.97,M,NSC,M,M,M,M,M,M,M,M,M,M,M,M,M,M,57.20,LPMT 100400Z 12004KT 8000 NSC 14/13 Q1017
LPMT,2017-10-10 05:00,-9.0359,38.7039,53.60,53.60,100.00,110.00,3.00,0.00,30.03,M,4.97,M,NSC,M,M,M,M,M,M,M,M,M,M,M,M,M,M,53.60,LPMT 100500Z 11003KT 8000 NSC 12/12 Q1017
LPMT,2017-10-10 06:00,-9.0359,38.7039,55.40,53.60,93.65,120.00,4.00,0.00,30.03,M,4.97,M,NSC,M,M,M,M,M,M,M,M,M,M,M,M,M,M,55.40,LPMT 100600Z 12004KT 8000 NSC 13/12 Q1017
LPMT,2017-10-10 07:00,-9.0359,38.7039,50.00,50.00,100.00,90.00,3.00,0.00,30.06,M,3.73,M,NSC,M,M,M,M,M,M,M,M,M,M,M,M,M,M,49.27,LPMT 100700Z 09003KT 6000 NSC 10/10 Q1018
LPMT,2017-10-10 08:00,-9.0359,38.7039,55.40,53.60,93.65,120.00,3.00,0.00,30.06,M,4.97,M,NSC,M,M,M,M,M,M,M,M,M,M,M,M,M,M,55.40,LPMT 100800Z 12003KT 8000 NSC 13/12 Q1018
LPMT,2017-10-10 09:00,-9.0359,38.7039,60.80,55.40,82.37,M,2.00,0.00,30.09,M,5.59,M,NSC,M,M,M,M,M,M,M,M,M,M,M,M,M,M,60.80,LPMT 100900Z VRB02KT 9000 NSC 16/13 Q1019
LPMT,2017-10-10 10:00,-9.0359,38.7039,64.40,57.20,77.45,10.00,4.00,0.00,30.09,M,5.59,M,NSC,M,M,M,M,M,M,M,M,M,M,M,M,M,M,64.40,LPMT 101000Z 01004KT 340V040 9000 NSC 18/14 Q1019
LPMT,2017-10-10 11:00,-9.0359,38.7039,68.00,57.20,68.35,10.00,5.00,0.00,30.09,M,5.59,M,NSC,M,M,M,M,M,M,M,M,M,M,M,M,M,M,68.00,LPMT 101100Z 01005KT 340V040 9000 NSC 20/14 Q1019
LPMT,2017-10-10 12:00,-9.0359,38.7039,73.40,55.40,53.29,10.00,4.00,0.00,30.06,M,5.59,M,NSC,M,M,M,M,M,M,M,M,M,M,M,M,M,M,73.40,LPMT 101200Z 01004KT 310V040 9000 NSC 23/13 Q1018
LPMT,2017-10-10 13:00,-9.0359,38.7039,77.00,48.20,36.22,320.00,3.00,0.00,30.06,M,5.59,M,NSC,M,M,M,M,M,M,M,M,M,M,M,M,M,M,77.00,LPMT 101300Z 32003KT 270V360 9000 NSC 25/09 Q1018
LPMT,2017-10-10 14:00,-9.0359,38.7039,78.80,46.40,31.90,290.00,4.00,0.00,30.03,M,6.21,M,M,M,M,M,M,M,M,M,M,M,M,M,M,M,M,78.80,LPMT 101400Z 29004KT 260V320 CAVOK 26/08 Q1017
LPMT,2017-10-10 15:00,-9.0359,38.7039,73.40,55.40,53.29,270.00,10.00,0.00,30.03,M,6.21,M,M,M,M,M,M,M,M,M,M,M,M,M,M,M,M,73.40,LPMT 101500Z 27010KT CAVOK 23/13 Q1017
LPMT,2017-10-10 16:00,-9.0359,38.7039,73.40,51.80,46.71,260.00,10.00,0.00,30.03,M,6.21,M,M,M,M,M,M,M,M,M,M,M,M,M,M,M,M,73.40,LPMT 101600Z 26010KT CAVOK 23/11 Q1017
LPMT,2017-10-10 17:00,-9.0359,38.7039,71.60,53.60,53.03,240.00,8.00,0.00,30.03,M,6.21,M,M,M,M,M,M,M,M,M,M,M,M,M,M,M,M,71.60,LPMT 101700Z 24008KT CAVOK 22/12 Q1017
LPMT,2017-10-10 18:00,-9.0359,38.7039,69.80,48.20,46.16,240.00,6.00,0.00,30.03,M,6.21,M,M,M,M,M,M,M,M,M,M,M,M,M,M,M,M,69.80,LPMT 101800Z 24006KT CAVOK 21/09 Q1017
LPMT,2017-10-10 19:00,-9.0359,38.7039,64.40,51.80,63.60,270.00,3.00,0.00,30.03,M,6.21,M,M,M,M,M,M,M,M,M,M,M,M,M,M,M,M,64.40,LPMT 101900Z 27003KT CAVOK 18/11 Q1017
LPMT,2017-10-10 20:00,-9.0359,38.7039,59.00,53.60,82.25,220.00,3.00,0.00,30.06,M,6.21,M,M,M,M,M,M,M,M,M,M,M,M,M,M,M,M,59.00,LPMT 102000Z 22003KT CAVOK 15/12 Q1018
LPMT,2017-10-10 21:00,-9.0359,38.7039,57.20,50.00,76.82,M,1.00,0.00,30.06,M,6.21,M,M,M,M,M,M,M,M,M,M,M,M,M,M,M,M,57.20,LPMT 102100Z VRB01KT CAVOK 14/10 Q1018
LPMT,2017-10-10 22:00,-9.0359,38.7039,55.40,50.00,81.99,120.00,2.00,0.00,30.09,M,6.21,M,M,M,M,M,M,M,M,M,M,M,M,M,M,M,M,55.40,LPMT 102200Z 12002KT CAVOK 13/10 Q1019
LPMT,2017-10-10 23:00,-9.0359,38.7039,53.60,50.00,87.56,90.00,3.00,0.00,30.09,M,6.21,M,M,M,M,M,M,M,M,M,M,M,M,M,M,M,M,53.60,LPMT 102300Z 09003KT CAVOK 12/10 Q1019
LPMT,2017-10-11 00:00,-9.0359,38.7039,53.60,48.20,81.87,100.00,3.00,0.00,30.09,M,6.21,M,M,M,M,M,M,M,M,M,M,M,M,M,M,M,M,53.60,LPMT 110000Z 10003KT CAVOK 12/09 Q1019
LPMT,2017-10-11 01:00,-9.0359,38.7039,55.40,53.60,93.65,120.00,3.00,0.00,30.09,M,6.21,M,M,M,M,M,M,M,M,M,M,M,M,M,M,M,M,55.40,LPMT 110100Z 12003KT CAVOK 13/12 Q1019
LPMT,2017-10-11 02:00,-9.0359,38.7039,53.60,51.80,93.60,80.00,2.00,0.00,30.09,M,6.21,M,M,M,M,M,M,M,M,M,M,M,M,M,M,M,M,53.60,LPMT 110200Z 08002KT CAVOK 12/11 Q1019
LPMT,2017-10-11 03:00,-9.0359,38.7039,51.80,50.00,93.55,30.00,3.00,0.00,30.06,M,4.97,M,NSC,M,M,M,M,M,M,M,M,M,M,M,M,M,M,51.80,LPMT 110300Z 03003KT 8000 NSC 11/10 Q1018
LPMT,2017-10-11 04:00,-9.0359,38.7039,51.80,50.00,93.55,70.00,4.00,0.00,30.09,M,4.35,M,NSC,M,M,M,M,M,M,M,BCFG,M,M,M,M,M,M,51.80,LPMT 110400Z 07004KT 7000 2000W BCFG NSC 11/10 Q1019
LPMT,2017-10-11 05:00,-9.0359,38.7039,50.00,48.20,93.50,50.00,4.00,0.00,30.09,M,0.93,M,SCT,M,M,M,100.00,M,M,M,BR,M,M,M,M,M,M,48.44,LPMT 110500Z 05004KT 1500 BR SCT001 10/09 Q1019
LPMT,2017-10-11 06:00,-9.0359,38.7039,53.60,53.60,100.00,20.00,4.00,0.00,30.09,M,0.31,M,VV ,M,M,M,200.00,M,M,M,FG,M,M,M,M,M,M,53.60,LPMT 110600Z 02004KT 0500 FG VV002 12/12 Q1019
LPMT,2017-10-11 07:00,-9.0359,38.7039,57.20,57.20,100.00,10.00,5.00,0.00,30.09,M,0.19,M,VV ,M,M,M,200.00,M,M,M,FG,M,M,M,M,M,M,57.20,LPMT 110700Z 01005KT 0300 FG VV002 14/14 Q1019
LPMT,2017-10-11 08:00,-9.0359,38.7039,57.20,57.20,100.00,60.00,4.00,0.00,30.12,M,4.35,M,FEW,M,M,M,2000.00,M,M,M,M,M,M,M,M,M,M,57.20,LPMT 110800Z 06004KT 7000 FEW020 14/14 Q1020
LPMT,2017-10-11 09:00,-9.0359,38.7039,59.00,53.60,82.25,50.00,5.00,0.00,30.15,M,4.97,M,FEW,M,M,M,2000.00,M,M,M,M,M,M,M,M,M,M,59.00,LPMT 110900Z 05005KT 020V100 8000 FEW020 15/12 Q1021
LPMT,2017-10-11 10:00,-9.0359,38.7039,64.40,53.60,67.95,20.00,7.00,0.00,30.15,M,4.97,M,FEW,M,M,M,2000.00,M,M,M,M,M,M,M,M,M,M,64.40,LPMT 111000Z 02007KT 350V050 8000 FEW020 18/12 Q1021
LPMT,2017-10-11 11:00,-9.0359,38.7039,68.00,53.60,59.97,10.00,7.00,0.00,30.15,M,4.97,M,FEW,M,M,M,2500.00,M,M,M,M,M,M,M,M,M,M,68.00,LPMT 111100Z 01007KT 8000 FEW025 20/12 Q1021
LPMT,2017-10-11 12:00,-9.0359,38.7039,71.60,53.60,53.03,10.00,6.00,0.00,30.12,M,6.21,M,M,M,M,M,M,M,M,M,M,M,M,M,M,M,M,71.60,LPMT 111200Z 01006KT 330V040 CAVOK 22/12 Q1020
LPMT,2017-10-11 13:00,-9.0359,38.7039,77.00,51.80,41.42,10.00,7.00,0.00,30.12,M,6.21,M,M,M,M,M,M,M,M,M,M,M,M,M,M,M,M,77.00,LPMT 111300Z 01007KT CAVOK 25/11 Q1020
LPMT,2017-10-11 14:00,-9.0359,38.7039,82.40,48.20,30.35,360.00,6.00,0.00,30.09,M,6.21,M,M,M,M,M,M,M,M,M,M,M,M,M,M,M,M,80.80,LPMT 111400Z 36006KT CAVOK 28/09 Q1019
LPMT,2017-10-11 15:00,-9.0359,38.7039,84.20,42.80,23.33,340.00,4.00,0.00,30.09,M,6.21,M,M,M,M,M,M,M,M,M,M,M,M,M,M,M,M,81.61,LPMT 111500Z 34004KT 290V020 CAVOK 29/06 Q1019
LPMT,2017-10-11 16:00,-9.0359,38.7039,82.40,46.40,28.36,320.00,4.00,0.00,30.06,M,6.21,M,M,M,M,M,M,M,M,M,M,M,M,M,M,M,M,80.64,LPMT 111600Z 32004KT CAVOK 28/08 Q1018
LPMT,2017-10-11 17:00,-9.0359,38.7039,82.40,44.60,26.49,330.00,3.00,0.00,30.06,M,6.21,M,M,M,M,M,M,M,M,M,M,M,M,M,M,M,M,80.50,LPMT 111700Z 33003KT CAVOK 28/07 Q1018
LPMT,2017-10-11 18:00,-9.0359,38.7039,77.00,46.40,33.85,10.00,6.00,0.00,30.06,M,6.21,M,M,M,M,M,M,M,M,M,M,M,M,M,M,M,M,75.99,LPMT 111800Z 01006KT CAVOK 25/08 Q1018
LPMT,2017-10-11 19:00,-9.0359,38.7039,73.40,46.40,38.18,20.00,6.00,0.00,30.09,M,6.21,M,M,M,M,M,M,M,M,M,M,M,M,M,M,M,M,72.23,LPMT 111900Z 02006KT CAVOK 23/08 Q1019
LPMT,2017-10-11 20:00,-9.0359,38.7039,73.40,50.00,43.69,20.00,7.00,0.00,30.09,M,6.21,M,M,M,M,M,M,M,M,M,M,M,M,M,M,M,M,73.40,LPMT 112000Z 02007KT CAVOK 23/10 Q1019
LPMT,2017-10-11 21:00,-9.0359,38.7039,73.40,50.00,43.69,30.00,10.00,0.00,30.12,M,6.21,M,M,M,M,M,M,M,M,M,M,M,M,M,M,M,M,73.40,LPMT 112100Z 03010KT CAVOK 23/10 Q1020
LPMT,2017-10-11 22:00,-9.0359,38.7039,71.60,48.20,43.42,30.00,10.00,0.00,30.12,M,6.21,M,M,M,M,M,M,M,M,M,M,M,M,M,M,M,M,70.50,LPMT 112200Z 03010KT CAVOK 22/09 Q1020
LPMT,2017-10-11 23:00,-9.0359,38.7039,69.80,50.00,49.37,120.00,6.00,0.00,30.12,M,6.21,M,M,M,M,M,M,M,M,M,M,M,M,M,M,M,M,69.80,LPMT 112300Z 12006KT 050V150 CAVOK 21/10 Q1020
LPMT,2017-10-12 00:00,-9.0359,38.7039,66.20,44.60,45.60,10.00,5.00,0.00,30.12,M,6.21,M,M,M,M,M,M,M,M,M,M,M,M,M,M,M,M,66.20,LPMT 120000Z 01005KT CAVOK 19/07 Q1020
LPMT,2017-10-12 01:00,-9.0359,38.7039,68.00,51.80,56.13,10.00,8.00,0.00,30.09,M,6.21,M,M,M,M,M,M,M,M,M,M,M,M,M,M,M,M,68.00,LPMT 120100Z 01008KT CAVOK 20/11 Q1019
LPMT,2017-10-12 02:00,-9.0359,38.7039,64.40,51.80,63.60,50.00,4.00,0.00,30.09,M,6.21,M,M,M,M,M,M,M,M,M,M,M,M,M,M,M,M,64.40,LPMT 120200Z 05004KT 020V080 CAVOK 18/11 Q1019
LPMT,2017-10-12 03:00,-9.0359,38.7039,62.60,46.40,55.37,40.00,7.00,0.00,30.09,M,6.21,M,M,M,M,M,M,M,M,M,M,M,M,M,M,M,M,62.60,LPMT 120300Z 04007KT CAVOK 17/08 Q1019
LPMT,2017-10-12 04:00,-9.0359,38.7039,62.60,48.20,59.26,20.00,7.00,0.00,30.09,M,6.21,M,M,M,M,M,M,M,M,M,M,M,M,M,M,M,M,62.60,LPMT 120400Z 02007KT CAVOK 17/09 Q1019
LPMT,2017-10-12 05:00,-9.0359,38.7039,59.00,46.40,62.92,60.00,3.00,0.00,30.12,M,6.21,M,M,M,M,M,M,M,M,M,M,M,M,M,M,M,M,59.00,LPMT 120500Z 06003KT 030V130 CAVOK 15/08 Q1020
LPMT,2017-10-12 06:00,-9.0359,38.7039,55.40,44.60,66.91,M,2.00,0.00,30.12,M,6.21,M,M,M,M,M,M,M,M,M,M,M,M,M,M,M,M,55.40,LPMT 120600Z VRB02KT CAVOK 13/07 Q1020
LPMT,2017-10-12 07:00,-9.0359,38.7039,53.60,46.40,76.50,M,1.00,0.00,30.15,M,6.21,M,FEW,M,M,M,1400.00,M,M,M,M,M,M,M,M,M,M,53.60,LPMT 120700Z VRB01KT 9999 FEW014 12/08 Q1021
LPMT,2017-10-12 08:00,-9.0359,38.7039,62.60,51.80,67.75,M,1.00,0.00,30.15,M,6.21,M,FEW,M,M,M,1200.00,M,M,M,M,M,M,M,M,M,M,62.60,LPMT 120800Z VRB01KT 9999 FEW012 17/11 Q1021
LPMT,2017-10-12 09:00,-9.0359,38.7039,69.80,59.00,68.55,210.00,3.00,0.00,30.18,M,6.21,M,FEW,M,M,M,1600.00,M,M,M,M,M,M,M,M,M,M,69.80,LPMT 120900Z 21003KT 170V260 9999 FEW016 21/15 Q1022
LPMT,2017-10-12 10:00,-9.0359,38.7039,73.40,60.80,64.69,230.00,4.00,0.00,30.18,M,6.21,M,FEW,M,M,M,2000.00,M,M,M,M,M,M,M,M,M,M,73.40,LPMT 121000Z 23004KT 200V270 9999 FEW020 23/16 Q1022
LPMT,2017-10-12 11:00,-9.0359,38.7039,77.00,66.20,69.33,280.00,5.00,0.00,30.18,M,6.21,M,FEW,M,M,M,2500.00,M,M,M,M,M,M,M,M,M,M,77.00,LPMT 121100Z 28005KT 220V320 9999 FEW025 25/19 Q1022
LPMT,2017-10-12 12:00,-9.0359,38.7039,77.00,68.00,73.78,270.00,6.00,0.00,30.18,M,6.21,M,FEW,M,M,M,2500.00,M,M,M,M,M,M,M,M,M,M,77.00,LPMT 121200Z 27006KT 230V290 9999 FEW025 25/20 Q1022
LPMT,2017-10-12 13:00,-9.0359,38.7039,77.00,64.40,65.12,280.00,9.00,0.00,30.18,M,6.21,M,FEW,M,M,M,3000.00,M,M,M,M,M,M,M,M,M,M,77.00,LPMT 121300Z 28009KT 9999 FEW030 25/18 Q1022
LPMT,2017-10-12 14:00,-9.0359,38.7039,77.00,62.60,61.13,270.00,9.00,0.00,30.15,M,6.21,M,FEW,M,M,M,3000.00,M,M,M,M,M,M,M,M,M,M,77.00,LPMT 121400Z 27009KT 9999 FEW030 25/17 Q1021
LPMT,2017-10-12 15:00,-9.0359,38.7039,77.00,64.40,65.12,260.00,8.00,0.00,30.15,M,6.21,M,FEW,M,M,M,3200.00,M,M,M,M,M,M,M,M,M,M,77.00,LPMT 121500Z 26008KT 9999 FEW032 25/18 Q1021
LPMT,2017-10-12 16:00,-9.0359,38.7039,75.20,60.80,60.90,250.00,9.00,0.00,30.15,M,6.21,M,FEW,M,M,M,3200.00,M,M,M,M,M,M,M,M,M,M,75.20,LPMT 121600Z 25009KT 9999 FEW032 24/16 Q1021
LPMT,2017-10-12 17:00,-9.0359,38.7039,71.60,62.60,73.27,270.00,8.00,0.00,30.18,M,6.21,M,FEW,M,M,M,2800.00,M,M,M,M,M,M,M,M,M,M,71.60,LPMT 121700Z 27008KT 9999 FEW028 22/17 Q1022
LPMT,2017-10-12 18:00,-9.0359,38.7039,68.00,62.60,82.86,260.00,7.00,0.00,30.18,M,6.21,M,FEW,M,M,M,2500.00,M,M,M,M,M,M,M,M,M,M,68.00,LPMT 121800Z 26007KT 9999 FEW025 20/17 Q1022
LPMT,2017-10-12 19:00,-9.0359,38.7039,66.20,64.40,93.92,260.00,8.00,0.00,30.18,M,6.21,M,FEW,M,M,M,2200.00,M,M,M,M,M,M,M,M,M,M,66.20,LPMT 121900Z 26008KT 9999 FEW022 19/18 Q1022
LPMT,2017-10-12 20:00,-9.0359,38.7039,66.20,62.60,88.18,260.00,4.00,0.00,30.21,M,6.21,M,FEW,M,M,M,1800.00,M,M,M,M,M,M,M,M,M,M,66.20,LPMT 122000Z 26004KT 9999 FEW018 19/17 Q1023
LPMT,2017-10-12 21:00,-9.0359,38.7039,64.40,62.60,93.88,240.00,5.00,0.00,30.21,M,6.21,M,FEW,M,M,M,1400.00,M,M,M,M,M,M,M,M,M,M,64.40,LPMT 122100Z 24005KT 9999 FEW014 18/17 Q1023
LPMT,2017-10-12 22:00,-9.0359,38.7039,64.40,62.60,93.88,250.00,6.00,0.00,30.21,M,6.21,M,FEW,M,M,M,1400.00,M,M,M,M,M,M,M,M,M,M,64.40,LPMT 122200Z 25006KT 9999 FEW014 18/17 Q1023
LPMT,2017-10-12 23:00,-9.0359,38.7039,64.40,62.60,93.88,M,2.00,0.00,30.21,M,6.21,M,FEW,M,M,M,1000.00,M,M,M,M,M,M,M,M,M,M,64.40,LPMT 122300Z VRB02KT 9999 FEW010 18/17 Q1023
LPMT,2017-10-13 00:00,-9.0359,38.7039,62.60,60.80,93.83,M,2.00,0.00,30.21,M,6.21,M,SCT,M,M,M,600.00,M,M,M,M,M,M,M,M,M,M,62.60,LPMT 130000Z VRB02KT 9999 SCT006 17/16 Q1023
LPMT,2017-10-13 01:00,-9.0359,38.7039,62.60,62.60,100.00,M,2.00,0.00,30.21,M,6.21,M,BKN,M,M,M,600.00,M,M,M,M,M,M,M,M,M,M,62.60,LPMT 130100Z VRB02KT 9999 BKN006 17/17 Q1023
LPMT,2017-10-13 02:00,-9.0359,38.7039,64.40,62.60,93.88,130.00,4.00,0.00,30.21,M,6.21,M,BKN,M,M,M,600.00,M,M,M,M,M,M,M,M,M,M,64.40,LPMT 130200Z 13004KT 9999 BKN006 18/17 Q1023
LPMT,2017-10-13 03:00,-9.0359,38.7039,62.60,62.60,100.00,170.00,3.00,0.00,30.21,M,6.21,M,BKN,M,M,M,600.00,M,M,M,M,M,M,M,M,M,M,62.60,LPMT 130300Z 17003KT 9999 BKN006 17/17 Q1023
LPMT,2017-10-13 04:00,-9.0359,38.7039,64.40,62.60,93.88,160.00,3.00,0.00,30.21,M,6.21,M,BKN,M,M,M,800.00,M,M,M,M,M,M,M,M,M,M,64.40,LPMT 130400Z 16003KT 9999 BKN008 18/17 Q1023
LPMT,2017-10-13 05:00,-9.0359,38.7039,60.80,59.00,93.79,M,2.00,0.00,30.21,M,6.21,M,SCT,M,M,M,800.00,M,M,M,M,M,M,M,M,M,M,60.80,LPMT 130500Z VRB02KT 9999 SCT008 16/15 Q1023
LPMT,2017-10-13 06:00,-9.0359,38.7039,59.00,57.20,93.74,70.00,3.00,0.00,30.21,M,4.35,M,SCT,M,M,M,800.00,M,M,M,M,M,M,M,M,M,M,59.00,LPMT 130600Z 07003KT 7000 SCT008 15/14 Q1023
LPMT,2017-10-13 07:00,-9.0359,38.7039,57.20,57.20,100.00,50.00,2.00,0.00,30.21,M,0.31,M,BKN,M,M,M,200.00,M,M,M,FG,M,M,M,M,M,M,57.20,LPMT 130700Z 05002KT 0500 FG BKN002 14/14 Q1023
LPMT,2017-10-13 08:00,-9.0359,38.7039,60.80,60.80,100.00,30.00,4.00,0.00,30.24,M,0.93,M,BKN,M,M,M,400.00,M,M,M,BR,M,M,M,M,M,M,60.80,LPMT 130800Z 03004KT 1500 BR BKN004 16/16 Q1024
LPMT,2017-10-13 09:00,-9.0359,38.7039,62.60,60.80,93.83,20.00,5.00,0.00,30.27,M,1.55,M,BKN,BKN,M,M,500.00,1200.00,M,M,BR,M,M,M,M,M,M,62.60,LPMT 130900Z 02005KT 2500 BR BKN005 BKN012 17/16 Q1025
LPMT,2017-10-13 10:00,-9.0359,38.7039,66.20,62.60,88.18,20.00,4.00,0.00,30.27,M,3.73,M,SCT,BKN,M,M,800.00,1200.00,M,M,M,M,M,M,M,M,M,66.20,LPMT 131000Z 02004KT 350V050 6000 SCT008 BKN012 19/17 Q1025
LPMT,2017-10-13 11:00,-9.0359,38.7039,69.80,60.80,73.09,30.00,3.00,0.00,30.27,M,4.97,M,FEW,SCT,M,M,800.00,1400.00,M,M,M,M,M,M,M,M,M,69.80,LPMT 131100Z 03003KT 320V090 8000 FEW008 SCT014 21/16 Q1025
LPMT,2017-10-13 12:00,-9.0359,38.7039,71.60,62.60,73.27,170.00,4.00,0.00,30.24,M,6.21,M,FEW,M,M,M,1600.00,M,M,M,M,M,M,M,M,M,M,71.60,LPMT 131200Z 17004KT 120V230 9999 FEW016 22/17 Q1024
LPMT,2017-10-13 13:00,-9.0359,38.7039,71.60,60.80,68.75,320.00,4.00,0.00,30.24,M,6.21,M,M,M,M,M,M,M,M,M,M,M,M,M,M,M,M,71.60,LPMT 131300Z 32004KT 260V010 CAVOK 22/16 Q1024
LPMT,2017-10-13 14:00,-9.0359,38.7039,75.20,60.80,60.90,M,2.00,0.00,30.21,M,6.21,M,M,M,M,M,M,M,M,M,M,M,M,M,M,M,M,75.20,LPMT 131400Z VRB02KT CAVOK 24/16 Q1023
LPMT,2017-10-13 15:00,-9.0359,38.7039,75.20,60.80,60.90,270.00,5.00,0.00,30.21,M,6.21,M,M,M,M,M,M,M,M,M,M,M,M,M,M,M,M,75.20,LPMT 131500Z 27005KT 240V300 CAVOK 24/16 Q1023
LPMT,2017-10-13 16:00,-9.0359,38.7039,75.20,60.80,60.90,300.00,3.00,0.00,30.18,M,6.21,M,M,M,M,M,M,M,M,M,M,M,M,M,M,M,M,75.20,LPMT 131600Z 30003KT 240V020 CAVOK 24/16 Q1022
LPMT,2017-10-13 17:00,-9.0359,38.7039,73.40,62.60,68.94,270.00,4.00,0.00,30.18,M,6.21,M,M,M,M,M,M,M,M,M,M,M,M,M,M,M,M,73.40,LPMT 131700Z 27004KT CAVOK 23/17 Q1022
LPMT,2017-10-13 18:00,-9.0359,38.7039,69.80,64.40,82.98,280.00,4.00,0.00,30.18,M,6.21,M,M,M,M,M,M,M,M,M,M,M,M,M,M,M,M,69.80,LPMT 131800Z 28004KT CAVOK 21/18 Q1022
LPMT,2017-10-13 19:00,-9.0359,38.7039,66.20,62.60,88.18,260.00,4.00,0.00,30.18,M,6.21,M,M,M,M,M,M,M,M,M,M,M,M,M,M,M,M,66.20,LPMT 131900Z 26004KT CAVOK 19/17 Q1022
LPMT,2017-10-13 20:00,-9.0359,38.7039,66.20,60.80,82.74,230.00,2.00,0.00,30.18,M,6.21,M,M,M,M,M,M,M,M,M,M,M,M,M,M,M,M,66.20,LPMT 132000Z 23002KT CAVOK 19/16 Q1022
LPMT,2017-10-13 21:00,-9.0359,38.7039,62.60,60.80,93.83,240.00,2.00,0.00,30.18,M,6.21,M,M,M,M,M,M,M,M,M,M,M,M,M,M,M,M,62.60,LPMT 132100Z 24002KT CAVOK 17/16 Q1022
LPMT,2017-10-13 22:00,-9.0359,38.7039,66.20,62.60,88.18,260.00,3.00,0.00,30.21,M,6.21,M,M,M,M,M,M,M,M,M,M,M,M,M,M,M,M,66.20,LPMT 132200Z 26003KT CAVOK 19/17 Q1023
LPMT,2017-10-13 23:00,-9.0359,38.7039,64.40,62.60,93.88,270.00,4.00,0.00,30.21,M,6.21,M,M,M,M,M,M,M,M,M,M,M,M,M,M,M,M,64.40,LPMT 132300Z 27004KT CAVOK 18/17 Q1023
LPMT,2017-10-14 00:00,-9.0359,38.7039,64.40,60.80,88.09,M,2.00,0.00,30.18,M,6.21,M,M,M,M,M,M,M,M,M,M,M,M,M,M,M,M,64.40,LPMT 140000Z VRB02KT CAVOK 18/16 Q1022
LPMT,2017-10-14 01:00,-9.0359,38.7039,62.60,60.80,93.83,M,2.00,0.00,30.18,M,6.21,M,M,M,M,M,M,M,M,M,M,M,M,M,M,M,M,62.60,LPMT 140100Z VRB02KT CAVOK 17/16 Q1022
LPMT,2017-10-14 02:00,-9.0359,38.7039,64.40,60.80,88.09,360.00,3.00,0.00,30.18,M,6.21,M,M,M,M,M,M,M,M,M,M,M,M,M,M,M,M,64.40,LPMT 140200Z 36003KT CAVOK 18/16 Q1022
LPMT,2017-10-14 03:00,-9.0359,38.7039,62.60,59.00,88.00,10.00,4.00,0.00,30.18,M,6.21,M,M,M,M,M,M,M,M,M,M,M,M,M,M,M,M,62.60,LPMT 140300Z 01004KT CAVOK 17/15 Q1022
LPMT,2017-10-14 04:00,-9.0359,38.7039,64.40,59.00,82.62,40.00,5.00,0.00,30.15,M,6.21,M,M,M,M,M,M,M,M,M,M,M,M,M,M,M,M,64.40,LPMT 140400Z 04005KT CAVOK 18/15 Q1021
LPMT,2017-10-14 06:00,-9.0359,38.7039,62.60,59.00,88.00,30.00,6.00,0.00,30.15,M,6.21,M,M,M,M,M,M,M,M,M,M,M,M,M,M,M,M,62.60,LPMT 140600Z 03006KT CAVOK 17/15 Q1021
LPMT,2017-10-14 08:00,-9.0359,38.7039,62.60,57.20,82.50,20.00,11.00,0.00,30.15,M,6.21,M,M,M,M,M,M,M,M,M,M,M,M,M,M,M,M,62.60,LPMT 140800Z 02011KT CAVOK 17/14 Q1021
LPMT,2017-10-14 09:00,-9.0359,38.7039,64.40,59.00,82.62,20.00,9.00,0.00,30.18,M,6.21,M,M,M,M,M,M,M,M,M,M,M,M,M,M,M,M,64.40,LPMT 140900Z 02009KT CAVOK 18/15 Q1022
LPMT,2017-10-14 10:00,-9.0359,38.7039,69.80,59.00,68.55,50.00,7.00,0.00,30.18,M,6.21,M,M,M,M,M,M,M,M,M,M,M,M,M,M,M,M,69.80,LPMT 141000Z 05007KT CAVOK 21/15 Q1022
LPMT,2017-10-14 11:00,-9.0359,38.7039,71.60,59.00,64.48,360.00,8.00,0.00,30.18,M,6.21,M,M,M,M,M,M,M,M,M,M,M,M,M,M,M,M,71.60,LPMT 141100Z 36008KT CAVOK 22/15 Q1022
LPMT,2017-10-14 12:00,-9.0359,38.7039,73.40,60.80,64.69,350.00,7.00,0.00,30.15,M,6.21,M,M,M,M,M,M,M,M,M,M,M,M,M,M,M,M,73.40,LPMT 141200Z 35007KT 300V060 CAVOK 23/16 Q1021
LPMT,2017-10-14 13:00,-9.0359,38.7039,77.00,57.20,50.43,330.00,4.00,0.00,30.15,M,6.21,M,M,M,M,M,M,M,M,M,M,M,M,M,M,M,M,77.00,LPMT 141300Z 33004KT 300V360 CAVOK 25/14 Q1021
LPMT,2017-10-14 14:00,-9.0359,38.7039,82.40,57.20,42.25,360.00,5.00,0.00,30.12,M,6.21,M,M,M,M,M,M,M,M,M,M,M,M,M,M,M,M,82.08,LPMT 141400Z 36005KT 320V040 CAVOK 28/14 Q1020
LPMT,2017-10-14 15:00,-9.0359,38.7039,84.20,57.20,39.86,20.00,3.00,0.00,30.12,M,6.21,M,M,M,M,M,M,M,M,M,M,M,M,M,M,M,M,84.20,LPMT 141500Z 02003KT 320V090 CAVOK 29/14 Q1020
LPMT,2017-10-14 16:00,-9.0359,38.7039,80.60,57.20,44.80,280.00,5.00,0.00,30.12,M,6.21,M,M,M,M,M,M,M,M,M,M,M,M,M,M,M,M,80.81,LPMT 141600Z 28005KT CAVOK 27/14 Q1020
LPMT,2017-10-14 17:00,-9.0359,38.7039,80.60,55.40,41.97,280.00,3.00,0.00,30.12,M,6.21,M,M,M,M,M,M,M,M,M,M,M,M,M,M,M,M,80.53,LPMT 141700Z 28003KT 250V310 CAVOK 27/13 Q1020
LPMT,2017-10-14 18:00,-9.0359,38.7039,75.20,60.80,60.90,M,2.00,0.00,30.12,M,6.21,M,M,M,M,M,M,M,M,M,M,M,M,M,M,M,M,75.20,LPMT 141800Z VRB02KT CAVOK 24/16 Q1020
LPMT,2017-10-14 19:00,-9.0359,38.7039,73.40,55.40,53.29,M,2.00,0.00,30.12,M,6.21,M,M,M,M,M,M,M,M,M,M,M,M,M,M,M,M,73.40,LPMT 141900Z VRB02KT CAVOK 23/13 Q1020
LPMT,2017-10-14 20:00,-9.0359,38.7039,73.40,55.40,53.29,270.00,4.00,0.00,30.12,M,6.21,M,M,M,M,M,M,M,M,M,M,M,M,M,M,M,M,73.40,LPMT 142000Z 27004KT CAVOK 23/13 Q1020
LPMT,2017-10-14 21:00,-9.0359,38.7039,71.60,57.20,60.44,270.00,3.00,0.00,30.12,M,6.21,M,M,M,M,M,M,M,M,M,M,M,M,M,M,M,M,71.60,LPMT 142100Z 27003KT CAVOK 22/14 Q1020
LPMT,2017-10-14 22:00,-9.0359,38.7039,68.00,59.00,72.92,100.00,4.00,0.00,30.12,M,6.21,M,M,M,M,M,M,M,M,M,M,M,M,M,M,M,M,68.00,LPMT 142200Z 10004KT CAVOK 20/15 Q1020
LPMT,2017-10-14 23:00,-9.0359,38.7039,66.20,55.40,68.15,110.00,1.00,0.00,30.12,M,6.21,M,M,M,M,M,M,M,M,M,M,M,M,M,M,M,M,66.20,LPMT 142300Z 11001KT CAVOK 19/13 Q1020
LPMT,2017-10-15 00:00,-9.0359,38.7039,66.20,53.60,63.82,M,3.00,0.00,30.12,M,6.21,M,M,M,M,M,M,M,M,M,M,M,M,M,M,M,M,66.20,LPMT 150000Z VRB03KT CAVOK 19/12 Q1020
LPMT,2017-10-15 03:00,-9.0359,38.7039,64.40,59.00,82.62,M,2.00,0.00,30.09,M,6.21,M,M,M,M,M,M,M,M,M,M,M,M,M,M,M,M,64.40,LPMT 150300Z VRB02KT CAVOK 18/15 Q1019
LPMT,2017-10-15 05:00,-9.0359,38.7039,62.60,59.00,88.00,70.00,4.00,0.00,30.09,M,6.21,M,M,M,M,M,M,M,M,M,M,M,M,M,M,M,M,62.60,LPMT 150500Z 07004KT CAVOK 17/15 Q1019
LPMT,2017-10-15 06:00,-9.0359,38.7039,60.80,55.40,82.37,M,2.00,0.00,30.09,M,6.21,M,M,M,M,M,M,M,M,M,M,M,M,M,M,M,M,60.80,LPMT 150600Z VRB02KT CAVOK 16/13 Q1019
LPMT,2017-10-15 07:00,-9.0359,38.7039,62.60,55.40,77.29,50.00,7.00,0.00,30.06,M,6.21,M,M,M,M,M,M,M,M,M,M,M,M,M,M,M,M,62.60,LPMT 150700Z 05007KT CAVOK 17/13 Q1018
LPMT,2017-10-15 08:00,-9.0359,38.7039,66.20,55.40,68.15,10.00,5.00,0.00,30.09,M,6.21,M,M,M,M,M,M,M,M,M,M,M,M,M,M,M,M,66.20,LPMT 150800Z 01005KT 350V050 CAVOK 19/13 Q1019
LPMT,2017-10-15 09:00,-9.0359,38.7039,75.20,51.80,43.97,60.00,7.00,0.00,30.09,M,6.21,M,M,M,M,M,M,M,M,M,M,M,M,M,M,M,M,75.20,LPMT 150900Z 06007KT CAVOK 24/11 Q1019
LPMT,2017-10-15 10:00,-9.0359,38.7039,82.40,51.80,34.69,140.00,6.00,0.00,30.09,M,6.21,M,M,M,M,M,M,M,M,M,M,M,M,M,M,M,M,81.20,LPMT 151000Z 14006KT CAVOK 28/11 Q1019
LPMT,2017-10-15 11:00,-9.0359,38.7039,84.20,51.80,32.73,170.00,7.00,0.00,30.09,M,6.21,M,M,M,M,M,M,M,M,M,M,M,M,M,M,M,M,82.48,LPMT 151100Z 17007KT 140V210 CAVOK 29/11 Q1019
LPMT,2017-10-15 12:00,-9.0359,38.7039,89.60,53.60,29.45,160.00,8.00,0.00,30.06,M,6.21,M,M,M,M,M,M,M,M,M,M,M,M,M,M,M,M,87.36,LPMT 151200Z 16008KT 130V190 CAVOK 32/12 Q1018
LPMT,2017-10-15 13:00,-9.0359,38.7039,91.40,50.00,24.37,180.00,14.00,0.00,30.03,M,6.21,M,M,M,M,M,M,M,M,M,M,M,M,M,M,M,M,88.36,LPMT 151300Z 18014KT CAVOK 33/10 Q1017
LPMT,2017-10-15 14:00,-9.0359,38.7039,91.40,50.00,24.37,190.00,13.00,0.00,30.00,M,6.21,M,M,M,M,M,M,M,M,M,M,M,M,M,M,M,M,88.36,LPMT 151400Z 19013KT CAVOK 33/10 Q1016
LPMT,2017-10-15 15:00,-9.0359,38.7039,93.20,46.40,20.13,200.00,14.00,0.00,30.00,M,6.21,M,M,M,M,M,M,M,M,M,M,M,M,M,M,M,M,89.55,LPMT 151500Z 20014KT CAVOK 34/08 Q1016
LPMT,2017-10-15 16:00,-9.0359,38.7039,91.40,44.60,19.89,200.00,14.00,0.00,29.97,M,6.21,M,M,M,M,M,M,M,M,M,M,M,M,M,M,M,M,87.68,LPMT 151600Z 20014KT CAVOK 33/07 Q1015
LPMT,2017-10-15 17:00,-9.0359,38.7039,87.80,46.40,23.85,210.00,12.00,0.00,29.97,M,6.21,M,M,M,M,M,M,M,M,M,M,M,M,M,M,M,M,84.68,LPMT 151700Z 21012KT CAVOK 31/08 Q1015
LPMT,2017-10-15 18:00,-9.0359,38.7039,82.40,51.80,34.69,200.00,11.00,0.00,29.97,M,6.21,M,M,M,M,M,M,M,M,M,M,M,M,M,M,M,M,81.20,LPMT 151800Z 20011KT CAVOK 28/11 Q1015
LPMT,2017-10-15 19:00,-9.0359,38.7039,80.60,53.60,39.30,210.00,8.00,0.00,30.00,M,6.21,M,M,M,M,M,M,M,M,M,M,M,M,M,M,M,M,80.60,LPMT 151900Z 21008KT CAVOK 27/12 Q1016
LPMT,2017-10-15 20:00,-9.0359,38.7039,77.00,57.20,50.43,180.00,9.00,0.00,30.00,M,6.21,M,M,M,M,M,M,M,M,M,M,M,M,M,M,M,M,77.00,LPMT 152000Z 18009KT CAVOK 25/14 Q1016
LPMT,2017-10-15 21:00,-9.0359,38.7039,71.60,60.80,68.75,260.00,7.00,0.00,30.03,M,6.21,M,M,M,M,M,M,M,M,M,M,M,M,M,M,M,M,71.60,LPMT 152100Z 26007KT CAVOK 22/16 Q1017
LPMT,2017-10-15 22:00,-9.0359,38.7039,71.60,62.60,73.27,260.00,8.00,0.00,30.06,M,6.21,M,M,M,M,M,M,M,M,M,M,M,M,M,M,M,M,71.60,LPMT 152200Z 26008KT CAVOK 22/17 Q1018
LPMT,2017-10-15 23:00,-9.0359,38.7039,69.80,62.60,77.90,260.00,6.00,0.00,30.06,M,6.21,M,M,M,M,M,M,M,M,M,M,M,M,M,M,M,M,69.80,LPMT 152300Z 26006KT CAVOK 21/17 Q1018
LPMT,2017-10-16 00:00,-9.0359,38.7039,69.80,60.80,73.09,210.00,5.00,0.00,30.06,M,6.21,M,M,M,M,M,M,M,M,M,M,M,M,M,M,M,M,69.80,LPMT 160000Z 21005KT 180V240 CAVOK 21/16 Q1018
LPMT,2017-10-16 01:00,-9.0359,38.7039,73.40,60.80,64.69,200.00,7.00,0.00,30.06,M,6.21,M,M,M,M,M,M,M,M,M,M,M,M,M,M,M,M,73.40,LPMT 160100Z 20007KT CAVOK 23/16 Q1018
LPMT,2017-10-16 02:00,-9.0359,38.7039,69.80,62.60,77.90,240.00,7.00,0.00,30.09,M,6.21,M,M,M,M,M,M,M,M,M,M,M,M,M,M,M,M,69.80,LPMT 160200Z 24007KT CAVOK 21/17 Q1019
LPMT,2017-10-16 03:00,-9.0359,38.7039,69.80,64.40,82.98,210.00,4.00,0.00,30.06,M,6.21,M,M,M,M,M,M,M,M,M,M,M,M,M,M,M,M,69.80,LPMT 160300Z 21004KT CAVOK 21/18 Q1018
LPMT,2017-10-16 04:00,-9.0359,38.7039,68.00,64.40,88.26,330.00,3.00,0.00,30.06,M,6.21,M,M,M,M,M,M,M,M,M,M,M,M,M,M,M,M,68.00,LPMT 160400Z 33003KT 300V020 CAVOK 20/18 Q1018
LPMT,2017-10-16 05:00,-9.0359,38.7039,68.00,62.60,82.86,100.00,2.00,0.00,30.06,M,6.21,M,M,M,M,M,M,M,M,M,M,M,M,M,M,M,M,68.00,LPMT 160500Z 10002KT CAVOK 20/17 Q1018
LPMT,2017-10-16 06:00,-9.0359,38.7039,66.20,62.60,88.18,40.00,1.00,0.00,30.09,M,6.21,M,BKN,M,M,M,1600.00,M,M,M,M,M,M,M,M,M,M,66.20,LPMT 160600Z 04001KT 9999 BKN016 19/17 Q1019
LPMT,2017-10-16 07:00,-9.0359,38.7039,68.00,62.60,82.86,110.00,2.00,0.00,30.09,M,6.21,M,BKN,M,M,M,1300.00,M,M,M,M,M,M,M,M,M,M,68.00,LPMT 160700Z 11002KT 9999 BKN013 20/17 Q1019
LPMT,2017-10-16 08:00,-9.0359,38.7039,68.00,62.60,82.86,120.00,2.00,0.00,30.12,M,6.21,M,BKN,M,M,M,1300.00,M,M,M,M,M,M,M,M,M,M,68.00,LPMT 160800Z 12002KT 9999 BKN013 20/17 Q1020
LPMT,2017-10-16 09:00,-9.0359,38.7039,71.60,62.60,73.27,110.00,3.00,0.00,30.12,M,6.21,M,FEW,BKN,M,M,1300.00,2300.00,M,M,M,M,M,M,M,M,M,71.60,LPMT 160900Z 11003KT 9999 FEW013 BKN023 22/17 Q1020
LPMT,2017-10-16 10:00,-9.0359,38.7039,75.20,66.20,73.61,130.00,3.00,0.00,30.15,M,6.21,M,FEW,BKN,M,M,1200.00,1600.00,M,M,M,M,M,M,M,M,M,75.20,LPMT 161000Z 13003KT 050V200 9999 FEW012 BKN016 24/19 Q1021
LPMT,2017-10-16 11:00,-9.0359,38.7039,75.20,66.20,73.61,M,2.00,0.00,30.12,M,4.97,M,FEW,BKN,M,M,1800.00,2200.00,M,M,M,M,M,M,M,M,M,75.20,LPMT 161100Z VRB02KT 8000 FEW018 BKN022 24/19 Q1020
LPMT,2017-10-16 12:00,-9.0359,38.7039,77.00,66.20,69.33,250.00,5.00,0.00,30.12,M,5.59,M,FEW,BKN,M,M,2000.00,2600.00,M,M,M,M,M,M,M,M,M,77.00,LPMT 161200Z 25005KT 220V290 9000 FEW020 BKN026 25/19 Q1020
LPMT,2017-10-16 13:00,-9.0359,38.7039,75.20,66.20,73.61,270.00,8.00,0.00,30.12,M,5.59,M,FEW,M,M,M,2800.00,M,M,M,M,M,M,M,M,M,M,75.20,LPMT 161300Z 27008KT 9000 FEW028 24/19 Q1020
LPMT,2017-10-16 14:00,-9.0359,38.7039,73.40,66.20,78.19,270.00,7.00,0.00,30.09,M,6.21,M,FEW,M,M,M,3400.00,M,M,M,M,M,M,M,M,M,M,73.40,LPMT 161400Z 27007KT 9999 FEW034 23/19 Q1019
LPMT,2017-10-16 15:00,-9.0359,38.7039,73.40,66.20,78.19,270.00,8.00,0.00,30.09,M,6.21,M,FEW,M,M,M,3400.00,M,M,M,M,M,M,M,M,M,M,73.40,LPMT 161500Z 27008KT 9999 FEW034 23/19 Q1019
LPMT,2017-10-16 16:00,-9.0359,38.7039,71.60,64.40,78.04,250.00,8.00,0.00,30.09,M,6.21,M,FEW,M,M,M,3400.00,M,M,M,M,M,M,M,M,M,M,71.60,LPMT 161600Z 25008KT 9999 FEW034 22/18 Q1019
LPMT,2017-10-16 17:00,-9.0359,38.7039,71.60,64.40,78.04,250.00,7.00,0.00,30.06,M,6.21,M,FEW,M,M,M,4000.00,M,M,M,M,M,M,M,M,M,M,71.60,LPMT 161700Z 25007KT 9999 FEW040 22/18 Q1018
LPMT,2017-10-16 18:00,-9.0359,38.7039,71.60,66.20,83.09,250.00,5.00,0.00,30.06,M,6.21,M,BKN,M,M,M,4800.00,M,M,M,M,M,M,M,M,M,M,71.60,LPMT 161800Z 25005KT 9999 BKN048 22/19 Q1018
LPMT,2017-10-16 20:00,-9.0359,38.7039,69.80,64.40,82.98,280.00,3.00,0.00,30.09,M,6.21,M,BKN,SCT,M,M,3800.00,4800.00,M,M,M,M,M,M,M,M,M,69.80,LPMT 162000Z 28003KT 9999 BKN038 SCT048 21/18 Q1019
LPMT,2017-10-16 21:00,-9.0359,38.7039,69.80,64.40,82.98,150.00,2.00,0.00,30.09,M,6.21,M,SCT,BKN,M,M,2200.00,2800.00,M,M,M,M,M,M,M,M,M,69.80,LPMT 162100Z 15002KT 9999 SCT022 BKN028 21/18 Q1019
LPMT,2017-10-16 22:00,-9.0359,38.7039,69.80,66.20,88.34,M,2.00,0.00,30.09,M,6.21,M,FEW,BKN,M,M,2000.00,2800.00,M,M,-RA,M,M,M,M,M,M,69.80,LPMT 162200Z VRB02KT 9999 -RA FEW020 BKN028 21/19 Q1019
LPMT,2017-10-17 00:00,-9.0359,38.7039,62.60,60.80,93.83,340.00,6.00,0.00,30.09,M,6.21,M,SCT,SCT,M,M,1500.00,3500.00,M,M,M,M,M,M,M,M,M,62.60,LPMT 170000Z 34006KT 310V020 9999 SCT015 SCT035 17/16 Q1019
LPMT,2017-10-17 01:00,-9.0359,38.7039,62.60,59.00,88.00,340.00,4.00,0.00,30.09,M,5.59,M,BKN,M,M,M,4500.00,M,M,M,M,M,M,M,M,M,M,62.60,LPMT 170100Z 34004KT 9000 BKN045 17/15 Q1019
LPMT,2017-10-17 02:00,-9.0359,38.7039,62.60,59.00,88.00,330.00,3.00,0.00,30.09,M,6.21,M,SCT,M,M,M,4500.00,M,M,M,M,M,M,M,M,M,M,62.60,LPMT 170200Z 33003KT 9999 SCT045 17/15 Q1019
LPMT,2017-10-17 03:00,-9.0359,38.7039,59.00,57.20,93.74,320.00,2.00,0.00,30.06,M,6.21,M,FEW,M,M,M,4500.00,M,M,M,M,M,M,M,M,M,M,59.00,LPMT 170300Z 32002KT 9999 FEW045 15/14 Q1018
LPMT,2017-10-17 04:00,-9.0359,38.7039,60.80,55.40,82.37,300.00,4.00,0.00,30.06,M,6.21,M,M,M,M,M,M,M,M,M,M,M,M,M,M,M,M,60.80,LPMT 170400Z 30004KT CAVOK 16/13 Q1018
LPMT,2017-10-17 05:00,-9.0359,38.7039,60.80,57.20,87.92,270.00,6.00,0.00,30.09,M,6.21,M,M,M,M,M,M,M,M,M,M,M,M,M,M,M,M,60.80,LPMT 170500Z 27006KT CAVOK 16/14 Q1019
LPMT,2017-10-17 06:00,-9.0359,38.7039,59.00,55.40,87.83,280.00,4.00,0.00,30.09,M,6.21,M,M,M,M,M,M,M,M,M,M,M,M,M,M,M,M,59.00,LPMT 170600Z 28004KT CAVOK 15/13 Q1019
LPMT,2017-10-17 07:00,-9.0359,38.7039,57.20,53.60,87.74,M,1.00,0.00,30.09,M,6.21,M,M,M,M,M,M,M,M,M,M,M,M,M,M,M,M,57.20,LPMT 170700Z VRB01KT CAVOK 14/12 Q1019
LPMT,2017-10-17 08:00,-9.0359,38.7039,62.60,59.00,88.00,M,2.00,0.00,30.09,M,6.21,M,M,M,M,M,M,M,M,M,M,M,M,M,M,M,M,62.60,LPMT 170800Z VRB02KT CAVOK 17/15 Q1019
LPMT,2017-10-17 09:00,-9.0359,38.7039,62.60,57.20,82.50,M,2.00,0.00,30.12,M,6.21,M,M,M,M,M,M,M,M,M,M,M,M,M,M,M,M,62.60,LPMT 170900Z VRB02KT CAVOK 17/14 Q1020
LPMT,2017-10-17 10:00,-9.0359,38.7039,66.20,57.20,72.74,230.00,4.00,0.00,30.12,M,6.21,M,M,M,M,M,M,M,M,M,M,M,M,M,M,M,M,66.20,LPMT 171000Z 23004KT 200V270 CAVOK 19/14 Q1020
LPMT,2017-10-17 11:00,-9.0359,38.7039,68.00,57.20,68.35,250.00,4.00,0.00,30.12,M,6.21,M,FEW,M,M,M,2500.00,M,M,M,M,M,M,M,M,M,M,68.00,LPMT 171100Z 25004KT 210V310 9999 FEW025 20/14 Q1020
LPMT,2017-10-17 12:00,-9.0359,38.7039,68.00,57.20,68.35,270.00,5.00,0.00,30.09,M,6.21,M,FEW,M,M,M,3200.00,M,M,M,M,M,M,M,M,M,M,68.00,LPMT 171200Z 27005KT 220V300 9999 FEW032 20/14 Q1019
LPMT,2017-10-17 13:00,-9.0359,38.7039,71.60,53.60,53.03,250.00,8.00,0.00,30.06,M,6.21,M,FEW,M,M,M,3200.00,M,M,M,M,M,M,M,M,M,M,71.60,LPMT 171300Z 25008KT 210V270 9999 FEW032 22/12 Q1018
LPMT,2017-10-17 14:00,-9.0359,38.7039,71.60,55.40,56.63,250.00,9.00,0.00,30.06,M,6.21,M,FEW,M,M,M,3200.00,M,M,M,M,M,M,M,M,M,M,71.60,LPMT 171400Z 25009KT 9999 FEW032 22/13 Q1018
LPMT,2017-10-17 15:00,-9.0359,38.7039,69.80,53.60,56.38,240.00,11.00,0.00,30.03,M,6.21,M,FEW,SCT,M,M,3200.00,4000.00,M,M,M,M,M,M,M,M,M,69.80,LPMT 171500Z 24011KT 9999 FEW032 SCT040 21/12 Q1017
LPMT,2017-10-17 16:00,-9.0359,38.7039,69.80,55.40,60.21,230.00,11.00,0.00,30.03,M,6.21,M,SCT,SCT,M,M,3200.00,4000.00,M,M,M,M,M,M,M,M,M,69.80,LPMT 171600Z 23011KT 9999 SCT032 SCT040 21/13 Q1017
LPMT,2017-10-17 17:00,-9.0359,38.7039,68.00,55.40,64.04,210.00,9.00,0.00,30.03,M,6.21,M,SCT,SCT,M,M,3200.00,4000.00,M,M,M,M,M,M,M,M,M,68.00,LPMT 171700Z 21009KT 170V250 9999 SCT032 SCT040 20/13 Q1017
LPMT,2017-10-17 18:00,-9.0359,38.7039,M,M,M,220.00,6.00,0.00,30.03,M,6.21,M,SCT,SCT,M,M,3200.00,4000.00,M,M,M,M,M,M,M,M,M,M,LPMT 171800Z 22006KT 180V250 9999 SCT032 SCT040 Q1017
LPMT,2017-10-17 19:00,-9.0359,38.7039,66.20,59.00,77.60,210.00,7.00,0.00,30.00,M,6.21,M,SCT,SCT,M,M,3000.00,3500.00,M,M,-RA,M,M,M,M,M,M,66.20,LPMT 171900Z 21007KT 9999 -RA SCT030 SCT035 19/15 Q1016
LPMT,2017-10-17 20:00,-9.0359,38.7039,64.40,59.00,82.62,190.00,9.00,0.00,30.00,M,6.21,M,SCT,SCT,BKN,M,1500.00,2500.00,3500.00,M,-RA,M,M,M,M,M,M,64.40,LPMT 172000Z 19009KT 9999 -RA SCT015 SCT025 BKN035 18/15 Q1016
LPMT,2017-10-17 21:00,-9.0359,38.7039,62.60,60.80,93.83,250.00,6.00,0.00,30.00,M,6.21,M,SCT,BKN,BKN,M,1200.00,2000.00,3200.00,M,-RA,M,M,M,M,M,M,62.60,LPMT 172100Z 25006KT 9999 -RA SCT012 BKN020 BKN032 17/16 Q1016
LPMT,2017-10-17 22:00,-9.0359,38.7039,62.60,60.80,93.83,180.00,8.00,0.00,29.97,M,6.21,M,SCT,BKN,OVC,M,1000.00,2000.00,3200.00,M,-RA,M,M,M,M,M,M,62.60,LPMT 172200Z 18008KT 9999 -RA SCT010 BKN020 OVC032 17/16 Q1015
LPMT,2017-10-17 23:00,-9.0359,38.7039,60.80,59.00,93.79,230.00,9.00,0.00,29.97,M,2.49,M,BKN,BKN,OVC,M,800.00,1500.00,2800.00,M,RA,M,M,M,M,M,M,60.80,LPMT 172300Z 23009KT 4000 RA BKN008 BKN015 OVC028 16/15 Q1015
LPMT,2017-10-18 00:00,-9.0359,38.7039,60.80,60.80,100.00,220.00,5.00,0.00,29.94,M,6.21,M,SCT,SCT,OVC,M,800.00,1500.00,2800.00,M,M,M,M,M,M,M,M,60.80,LPMT 180000Z 22005KT 180V280 9999 SCT008 SCT015 OVC028 16/16 Q1014 RERA
LPMT,2017-10-18 01:00,-9.0359,38.7039,60.80,60.80,100.00,240.00,6.00,0.00,29.94,M,6.21,M,BKN,BKN,OVC,M,900.00,1500.00,2800.00,M,M,M,M,M,M,M,M,60.80,LPMT 180100Z 24006KT 9999 BKN009 BKN015 OVC028 16/16 Q1014
LPMT,2017-10-18 02:00,-9.0359,38.7039,60.80,60.80,100.00,230.00,6.00,0.00,29.94,M,6.21,M,FEW,SCT,BKN,M,900.00,1500.00,2800.00,M,M,M,M,M,M,M,M,60.80,LPMT 180200Z 23006KT 200V260 9999 FEW009 SCT015 BKN028 16/16 Q1014
LPMT,2017-10-18 03:00,-9.0359,38.7039,62.60,60.80,93.83,230.00,6.00,0.00,29.91,M,6.21,M,FEW,SCT,M,M,900.00,1500.00,M,M,M,M,M,M,M,M,M,62.60,LPMT 180300Z 23006KT 9999 FEW009 SCT015 17/16 Q1013
LPMT,2017-10-18 04:00,-9.0359,38.7039,60.80,60.80,100.00,250.00,5.00,0.00,29.91,M,6.21,M,FEW,SCT,M,M,900.00,1500.00,M,M,M,M,M,M,M,M,M,60.80,LPMT 180400Z 25005KT 9999 FEW009 SCT015 16/16 Q1013
LPMT,2017-10-18 05:00,-9.0359,38.7039,60.80,57.20,87.92,230.00,7.00,0.00,29.91,M,6.21,M,FEW,SCT,M,M,900.00,1500.00,M,M,M,M,M,M,M,M,M,60.80,LPMT 180500Z 23007KT 9999 FEW009 SCT015 16/14 Q1013
LPMT,2017-10-18 06:00,-9.0359,38.7039,60.80,57.20,87.92,280.00,6.00,0.00,29.91,M,6.21,M,FEW,SCT,M,M,1500.00,2800.00,M,M,M,M,M,M,M,M,M,60.80,LPMT 180600Z 28006KT 9999 FEW015 SCT028 16/14 Q1013
LPMT,2017-10-18 07:00,-9.0359,38.7039,60.80,57.20,87.92,260.00,7.00,0.00,29.91,M,6.21,M,FEW,SCT,M,M,1500.00,2800.00,M,M,VCSH,M,M,M,M,M,M,60.80,LPMT 180700Z 26007KT 9999 VCSH FEW015 SCT028 16/14 Q1013
LPMT,2017-10-18 08:00,-9.0359,38.7039,60.80,57.20,87.92,270.00,4.00,0.00,29.94,M,6.21,M,FEW,SCT,M,M,2000.00,3000.00,M,M,M,M,M,M,M,M,M,60.80,LPMT 180800Z 27004KT 250V310 9999 FEW020 SCT030 16/14 Q1014
LPMT,2017-10-18 09:00,-9.0359,38.7039,62.60,57.20,82.50,200.00,4.00,0.00,29.94,M,6.21,M,FEW,SCT,M,M,2000.00,3000.00,M,M,M,M,M,M,M,M,M,62.60,LPMT 180900Z 20004KT 160V250 9999 FEW020 SCT030 17/14 Q1014
LPMT,2017-10-18 10:00,-9.0359,38.7039,66.20,57.20,72.74,240.00,7.00,0.00,29.94,M,6.21,M,SCT,M,M,M,2200.00,M,M,M,M,M,M,M,M,M,M,66.20,LPMT 181000Z 24007KT 210V270 9999 SCT022 19/14 Q1014
LPMT,2017-10-18 11:00,-9.0359,38.7039,66.20,57.20,72.74,240.00,7.00,0.00,29.94,M,6.21,M,SCT,M,M,M,2200.00,M,M,M,M,M,M,M,M,M,M,66.20,LPMT 181100Z 24007KT 9999 SCT022 19/14 Q1014
LPMT,2017-10-18 12:00,-9.0359,38.7039,68.00,59.00,72.92,240.00,9.00,0.00,29.94,M,6.21,M,SCT,BKN,M,M,2500.00,3500.00,M,M,M,M,M,M,M,M,M,68.00,LPMT 181200Z 24009KT 210V270 9999 SCT025 BKN035 20/15 Q1014
LPMT,2017-10-18 13:00,-9.0359,38.7039,69.80,59.00,68.55,250.00,11.00,0.00,29.91,M,6.21,M,SCT,BKN,M,M,2000.00,3500.00,M,M,M,M,M,M,M,M,M,69.80,LPMT 181300Z 25011KT 9999 SCT020 BKN035 21/15 Q1013
LPMT,2017-10-18 14:00,-9.0359,38.7039,64.40,59.00,82.62,280.00,8.00,0.00,29.91,M,6.21,M,SCT,BKN,M,M,2000.00,3500.00,M,M,VCSH,M,M,M,M,M,M,64.40,LPMT 181400Z 28008KT 9999 VCSH SCT020 BKN035 18/15 Q1013
LPMT,2017-10-18 15:00,-9.0359,38.7039,64.40,60.80,88.09,270.00,7.00,0.00,29.91,M,6.21,M,SCT,BKN,M,M,2000.00,3500.00,M,M,VCSH,M,M,M,M,M,M,64.40,LPMT 181500Z 27007KT 9999 VCSH SCT020 BKN035 18/16 Q1013
LPMT,2017-10-18 16:00,-9.0359,38.7039,64.40,59.00,82.62,230.00,8.00,0.00,29.88,M,6.21,M,FEW,BKN,M,M,1800.00,3000.00,M,M,VCSH,M,M,M,M,M,M,64.40,LPMT 181600Z 23008KT 190V260 9999 VCSH FEW018 BKN030 18/15 Q1012
LPMT,2017-10-18 17:00,-9.0359,38.7039,64.40,59.00,82.62,210.00,6.00,0.00,29.88,M,6.21,M,FEW,SCT,M,M,1200.00,3000.00,M,M,VCSH,M,M,M,M,M,M,64.40,LPMT 181700Z 21006KT 9999 VCSH FEW012 SCT030 18/15 Q1012
LPMT,2017-10-18 18:00,-9.0359,38.7039,62.60,60.80,93.83,200.00,6.00,0.00,29.88,M,3.73,M,FEW,BKN,M,M,900.00,2000.00,M,M,-RADZ,M,M,M,M,M,M,62.60,LPMT 181800Z 20006KT 6000 -RADZ FEW009 BKN020 17/16 Q1012
LPMT,2017-10-18 19:00,-9.0359,38.7039,62.60,60.80,93.83,190.00,7.00,0.00,29.88,M,6.21,M,FEW,BKN,M,M,900.00,1600.00,M,M,VCSH,M,M,M,M,M,M,62.60,LPMT 181900Z 19007KT 9999 VCSH FEW009 BKN016 17/16 Q1012
LPMT,2017-10-18 20:00,-9.0359,38.7039,60.80,59.00,93.79,180.00,6.00,0.00,29.88,M,6.21,M,FEW,BKN,M,M,600.00,1600.00,M,M,VCSH,M,M,M,M,M,M,60.80,LPMT 182000Z 18006KT 9999 VCSH FEW006 BKN016 16/15 Q1012
LPMT,2017-10-18 21:00,-9.0359,38.7039,60.80,59.00,93.79,M,1.00,0.00,29.88,M,6.21,M,FEW,BKN,M,M,600.00,1600.00,M,M,M,M,M,M,M,M,M,60.80,LPMT 182100Z VRB01KT 9999 FEW006 BKN016 16/15 Q1012
LPMT,2017-10-18 22:00,-9.0359,38.7039,60.80,59.00,93.79,M,1.00,0.00,29.88,M,6.21,M,FEW,BKN,M,M,600.00,1300.00,M,M,M,M,M,M,M,M,M,60.80,LPMT 182200Z VRB01KT 9999 FEW006 BKN013 16/15 Q1012
LPMT,2017-10-18 23:00,-9.0359,38.7039,60.80,60.80,100.00,30.00,3.00,0.00,29.88,M,6.21,M,FEW,BKN,M,M,600.00,1200.00,M,M,VCSH,M,M,M,M,M,M,60.80,LPMT 182300Z 03003KT 9999 VCSH FEW006 BKN012 16/16 Q1012
LPMT,2017-10-19 00:00,-9.0359,38.7039,60.80,60.80,100.00,M,2.00,0.00,29.88,M,6.21,M,FEW,BKN,M,M,600.00,1200.00,M,M,M,M,M,M,M,M,M,60.80,LPMT 190000Z VRB02KT 9999 FEW006 BKN012 16/16 Q1012
LPMT,2017-10-19 01:00,-9.0359,38.7039,62.60,60.80,93.83,360.00,3.00,0.00,29.85,M,6.21,M,FEW,BKN,M,M,600.00,3000.00,M,M,M,M,M,M,M,M,M,62.60,LPMT 190100Z 36003KT 240V050 9999 FEW006 BKN030 17/16 Q1011
LPMT,2017-10-19 02:00,-9.0359,38.7039,60.80,60.80,100.00,90.00,2.00,0.00,29.85,M,6.21,M,FEW,BKN,M,M,600.00,3000.00,M,M,M,M,M,M,M,M,M,60.80,LPMT 190200Z 09002KT 9999 FEW006 BKN030 16/16 Q1011
LPMT,2017-10-19 03:00,-9.0359,38.7039,60.80,60.80,100.00,M,1.00,0.00,29.88,M,6.21,M,FEW,BKN,M,M,800.00,2500.00,M,M,M,M,M,M,M,M,M,60.80,LPMT 190300Z VRB01KT 9999 FEW008 BKN025 16/16 Q1012
LPMT,2017-10-19 04:00,-9.0359,38.7039,60.80,59.00,93.79,30.00,8.00,0.00,29.88,M,6.21,M,FEW,BKN,M,M,1200.00,2000.00,M,M,M,M,M,M,M,M,M,60.80,LPMT 190400Z 03008KT 9999 FEW012 BKN020 16/15 Q1012
LPMT,2017-10-19 05:00,-9.0359,38.7039,60.80,59.00,93.79,40.00,7.00,0.00,29.88,M,6.21,M,FEW,BKN,M,M,700.00,1400.00,M,M,M,M,M,M,M,M,M,60.80,LPMT 190500Z 04007KT 9999 FEW007 BKN014 16/15 Q1012
LPMT,2017-10-19 06:00,-9.0359,38.7039,60.80,57.20,87.92,10.00,1.00,0.00,29.91,M,6.21,M,FEW,BKN,M,M,900.00,1400.00,M,M,M,M,M,M,M,M,M,60.80,LPMT 190600Z 01001KT 9999 FEW009 BKN014 16/14 Q1013
LPMT,2017-10-19 07:00,-9.0359,38.7039,60.80,59.00,93.79,350.00,2.00,0.00,29.91,M,6.21,M,FEW,BKN,M,M,900.00,1600.00,M,M,M,M,M,M,M,M,M,60.80,LPMT 190700Z 35002KT 9999 FEW009 BKN016 16/15 Q1013
LPMT,2017-10-19 08:00,-9.0359,38.7039,60.80,59.00,93.79,M,1.00,0.00,29.94,M,6.21,M,FEW,SCT,M,M,1200.00,1800.00,M,M,M,M,M,M,M,M,M,60.80,LPMT 190800Z VRB01KT 9999 FEW012 SCT018 16/15 Q1014
LPMT,2017-10-19 09:00,-9.0359,38.7039,64.40,60.80,88.09,210.00,3.00,0.00,29.94,M,6.21,M,FEW,SCT,M,M,1400.00,1800.00,M,M,M,M,M,M,M,M,M,64.40,LPMT 190900Z 21003KT 180V280 9999 FEW014 SCT018 18/16 Q1014
LPMT,2017-10-19 10:00,-9.0359,38.7039,64.40,60.80,88.09,230.00,5.00,0.00,29.97,M,6.21,M,FEW,SCT,M,M,900.00,1800.00,M,M,M,M,M,M,M,M,M,64.40,LPMT 191000Z 23005KT 9999 FEW009 SCT018 18/16 Q1015
LPMT,2017-10-19 11:00,-9.0359,38.7039,64.40,62.60,93.88,220.00,4.00,0.00,29.97,M,5.59,M,FEW,SCT,M,M,900.00,1800.00,M,M,-RADZ,M,M,M,M,M,M,64.40,LPMT 191100Z 22004KT 180V270 9000 -RADZ FEW009 SCT018 18/17 Q1015
LPMT,2017-10-19 12:00,-9.0359,38.7039,68.00,60.80,77.75,220.00,5.00,0.00,30.00,M,6.21,M,FEW,SCT,M,M,1200.00,2200.00,M,M,VCSH,M,M,M,M,M,M,68.00,LPMT 191200Z 22005KT 180V250 9999 VCSH FEW012 SCT022 20/16 Q1016
LPMT,2017-10-19 13:00,-9.0359,38.7039,68.00,62.60,82.86,240.00,4.00,0.00,30.00,M,6.21,M,FEW,SCT,M,M,1500.00,2500.00,M,M,VCSH,M,M,M,M,M,M,68.00,LPMT 191300Z 24004KT 200V280 9999 VCSH FEW015 SCT025 20/17 Q1016
LPMT,2017-10-19 14:00,-9.0359,38.7039,69.80,62.60,77.90,230.00,6.00,0.00,29.97,M,6.21,M,FEW,SCT,M,M,1500.00,3500.00,M,M,VCSH,M,M,M,M,M,M,69.80,LPMT 191400Z 23006KT 9999 VCSH FEW015 SCT035 21/17 Q1015
LPMT,2017-10-19 15:00,-9.0359,38.7039,69.80,60.80,73.09,260.00,9.00,0.00,29.97,M,6.21,M,SCT,M,M,M,3500.00,M,M,M,M,M,M,M,M,M,M,69.80,LPMT 191500Z 26009KT 9999 SCT035 21/16 Q1015
LPMT,2017-10-19 16:00,-9.0359,38.7039,69.80,60.80,73.09,260.00,10.00,0.00,29.97,M,6.21,M,SCT,M,M,M,3500.00,M,M,M,M,M,M,M,M,M,M,69.80,LPMT 191600Z 26010KT 9999 SCT035 21/16 Q1015
LPMT,2017-10-19 17:00,-9.0359,38.7039,68.00,60.80,77.75,270.00,8.00,0.00,30.00,M,6.21,M,SCT,M,M,M,3500.00,M,M,M,M,M,M,M,M,M,M,68.00,LPMT 191700Z 27008KT 9999 SCT035 20/16 Q1016
LPMT,2017-10-19 18:00,-9.0359,38.7039,68.00,62.60,82.86,240.00,6.00,0.00,30.00,M,6.21,M,SCT,M,M,M,3500.00,M,M,M,M,M,M,M,M,M,M,68.00,LPMT 191800Z 24006KT 9999 SCT035 20/17 Q1016
LPMT,2017-10-19 19:00,-9.0359,38.7039,64.40,62.60,93.88,250.00,5.00,0.00,30.03,M,6.21,M,SCT,M,M,M,3500.00,M,M,M,M,M,M,M,M,M,M,64.40,LPMT 191900Z 25005KT 9999 SCT035 18/17 Q1017
LPMT,2017-10-19 20:00,-9.0359,38.7039,66.20,62.60,88.18,230.00,6.00,0.00,30.03,M,6.21,M,SCT,M,M,M,3500.00,M,M,M,M,M,M,M,M,M,M,66.20,LPMT 192000Z 23006KT 190V270 9999 SCT035 19/17 Q1017
LPMT,2017-10-19 21:00,-9.0359,38.7039,66.20,64.40,93.92,230.00,6.00,0.00,30.03,M,6.21,M,FEW,SCT,M,M,800.00,3500.00,M,M,M,M,M,M,M,M,M,66.20,LPMT 192100Z 23006KT 9999 FEW008 SCT035 19/18 Q1017
LPMT,2017-10-19 22:00,-9.0359,38.7039,66.20,64.40,93.92,250.00,4.00,0.00,30.06,M,6.21,M,SCT,SCT,M,M,600.00,2500.00,M,M,M,M,M,M,M,M,M,66.20,LPMT 192200Z 25004KT 9999 SCT006 SCT025 19/18 Q1018
LPMT,2017-10-19 23:00,-9.0359,38.7039,66.20,66.20,100.00,230.00,6.00,0.00,30.06,M,6.21,M,SCT,SCT,BKN,M,300.00,1200.00,1500.00,M,-DZ,M,M,M,M,M,M,66.20,LPMT 192300Z 23006KT 9999 -DZ SCT003 SCT012 BKN015 19/19 Q1018
LPMT,2017-10-20 01:00,-9.0359,38.7039,66.20,66.20,100.00,250.00,4.00,0.00,30.06,M,6.21,M,SCT,SCT,BKN,M,300.00,1200.00,1500.00,M,M,M,M,M,M,M,M,66.20,LPMT 200100Z 25004KT 200V260 9999 SCT003 SCT012 BKN015 19/19 Q1018
LPMT,2017-10-20 02:00,-9.0359,38.7039,66.20,66.20,100.00,230.00,5.00,0.00,30.06,M,6.21,M,SCT,SCT,BKN,M,300.00,1200.00,1500.00,M,M,M,M,M,M,M,M,66.20,LPMT 200200Z 23005KT 9999 SCT003 SCT012 BKN015 19/19 Q1018
LPMT,2017-10-20 03:00,-9.0359,38.7039,66.20,64.40,93.92,230.00,4.00,0.00,30.06,M,6.21,M,SCT,SCT,BKN,M,300.00,1200.00,1500.00,M,M,M,M,M,M,M,M,66.20,LPMT 200300Z 23004KT 9999 SCT003 SCT012 BKN015 19/18 Q1018
LPMT,2017-10-20 04:00,-9.0359,38.7039,66.20,64.40,93.92,240.00,2.00,0.00,30.06,M,6.21,M,SCT,SCT,BKN,M,300.00,1200.00,2000.00,M,M,M,M,M,M,M,M,66.20,LPMT 200400Z 24002KT 9999 SCT003 SCT012 BKN020 19/18 Q1018
LPMT,2017-10-20 05:00,-9.0359,38.7039,66.20,66.20,100.00,230.00,3.00,0.00,30.06,M,6.21,M,SCT,SCT,BKN,M,300.00,1200.00,2000.00,M,M,M,M,M,M,M,M,66.20,LPMT 200500Z 23003KT 9999 SCT003 SCT012 BKN020 19/19 Q1018
LPMT,2017-10-20 06:00,-9.0359,38.7039,66.20,66.20,100.00,230.00,4.00,0.00,30.06,M,6.21,M,SCT,SCT,BKN,M,300.00,1200.00,2000.00,M,M,M,M,M,M,M,M,66.20,LPMT 200600Z 23004KT 190V260 9999 SCT003 SCT012 BKN020 19/19 Q1018
LPMT,2017-10-20 07:00,-9.0359,38.7039,66.20,66.20,100.00,230.00,5.00,0.00,30.09,M,6.21,M,SCT,SCT,BKN,M,400.00,1500.00,2000.00,M,M,M,M,M,M,M,M,66.20,LPMT 200700Z 23005KT 9999 SCT004 SCT015 BKN020 19/19 Q1019
LPMT,2017-10-20 08:00,-9.0359,38.7039,66.20,66.20,100.00,230.00,5.00,0.00,30.09,M,5.59,M,SCT,SCT,BKN,M,300.00,600.00,1500.00,M,M,M,M,M,M,M,M,66.20,LPMT 200800Z 23005KT 210V270 9000 SCT003 SCT006 BKN015 19/19 Q1019
LPMT,2017-10-20 09:00,-9.0359,38.7039,68.00,66.20,93.97,240.00,5.00,0.00,30.12,M,1.55,M,BKN,BKN,M,M,300.00,600.00,M,M,-DZ BR,M,M,M,M,M,M,68.00,LPMT 200900Z 24005KT 210V270 2500 -DZ BR BKN003 BKN006 20/19 Q1020
LPMT,2017-10-20 10:00,-9.0359,38.7039,68.00,66.20,93.97,260.00,6.00,0.00,30.15,M,6.21,M,FEW,SCT,BKN,M,400.00,800.00,1200.00,M,M,M,M,M,M,M,M,68.00,LPMT 201000Z 26006KT 9999 FEW004 SCT008 BKN012 20/19 Q1021
LPMT,2017-10-20 11:00,-9.0359,38.7039,69.80,66.20,88.34,250.00,7.00,0.00,30.15,M,6.21,M,FEW,SCT,BKN,M,800.00,1800.00,2500.00,M,M,M,M,M,M,M,M,69.80,LPMT 201100Z 25007KT 9999 FEW008 SCT018 BKN025 21/19 Q1021
LPMT,2017-10-20 12:00,-9.0359,38.7039,71.60,66.20,83.09,250.00,7.00,0.00,30.15,M,6.21,M,FEW,SCT,BKN,M,1000.00,2500.00,3500.00,M,M,M,M,M,M,M,M,71.60,LPMT 201200Z 25007KT 9999 FEW010 SCT025 BKN035 22/19 Q1021
LPMT,2017-10-20 13:00,-9.0359,38.7039,73.40,66.20,78.19,260.00,8.00,0.00,30.15,M,6.21,M,FEW,BKN,BKN,M,1400.00,2500.00,3200.00,M,M,M,M,M,M,M,M,73.40,LPMT 201300Z 26008KT 230V290 9999 FEW014 BKN025 BKN032 23/19 Q1021
LPMT,2017-10-20 14:00,-9.0359,38.7039,71.60,66.20,83.09,260.00,9.00,0.00,30.15,M,6.21,M,FEW,BKN,BKN,M,1500.00,2800.00,3600.00,M,M,M,M,M,M,M,M,71.60,LPMT 201400Z 26009KT 9999 FEW015 BKN028 BKN036 22/19 Q1021
LPMT,2017-10-20 15:00,-9.0359,38.7039,71.60,66.20,83.09,260.00,9.00,0.00,30.12,M,6.21,M,FEW,SCT,M,M,1800.00,2900.00,M,M,M,M,M,M,M,M,M,71.60,LPMT 201500Z 26009KT 9999 FEW018 SCT029 22/19 Q1020
LPMT,2017-10-20 16:00,-9.0359,38.7039,69.80,64.40,82.98,260.00,10.00,0.00,30.12,M,6.21,M,SCT,BKN,M,M,2800.00,3500.00,M,M,M,M,M,M,M,M,M,69.80,LPMT 201600Z 26010KT 9999 SCT028 BKN035 21/18 Q1020
LPMT,2017-10-20 17:00,-9.0359,38.7039,69.80,64.40,82.98,250.00,8.00,0.00,30.15,M,6.21,M,SCT,BKN,M,M,2800.00,3500.00,M,M,M,M,M,M,M,M,M,69.80,LPMT 201700Z 25008KT 9999 SCT028 BKN035 21/18 Q1021
LPMT,2017-10-20 18:00,-9.0359,38.7039,66.20,64.40,93.92,270.00,7.00,0.00,30.15,M,6.21,M,FEW,BKN,M,M,2800.00,3800.00,M,M,M,M,M,M,M,M,M,66.20,LPMT 201800Z 27007KT 9999 FEW028 BKN038 19/18 Q1021
LPMT,2017-10-20 19:00,-9.0359,38.7039,68.00,64.40,88.26,250.00,5.00,0.00,30.18,M,6.21,M,FEW,BKN,M,M,2500.00,3500.00,M,M,M,M,M,M,M,M,M,68.00,LPMT 201900Z 25005KT 9999 FEW025 BKN035 20/18 Q1022
LPMT,2017-10-20 20:00,-9.0359,38.7039,68.00,64.40,88.26,230.00,4.00,0.00,30.18,M,6.21,M,FEW,BKN,M,M,2500.00,3200.00,M,M,M,M,M,M,M,M,M,68.00,LPMT 202000Z 23004KT 9999 FEW025 BKN032 20/18 Q1022
LPMT,2017-10-20 21:00,-9.0359,38.7039,68.00,66.20,93.97,250.00,4.00,0.00,30.18,M,6.21,M,BKN,SCT,M,M,2500.00,3000.00,M,M,M,M,M,M,M,M,M,68.00,LPMT 202100Z 25004KT 9999 BKN025 SCT030 20/19 Q1022
LPMT,2017-10-20 22:00,-9.0359,38.7039,68.00,64.40,88.26,270.00,3.00,0.00,30.21,M,6.21,M,FEW,SCT,BKN,M,1600.00,2500.00,3200.00,M,M,M,M,M,M,M,M,68.00,LPMT 202200Z 27003KT 240V300 9999 FEW016 SCT025 BKN032 20/18 Q1023
LPMT,2017-10-20 23:00,-9.0359,38.7039,68.00,66.20,93.97,230.00,2.00,0.00,30.21,M,6.21,M,FEW,BKN,M,M,1600.00,3200.00,M,M,M,M,M,M,M,M,M,68.00,LPMT 202300Z 23002KT 9999 FEW016 BKN032 20/19 Q1023
LPMT,2017-10-21 00:00,-9.0359,38.7039,68.00,66.20,93.97,250.00,3.00,0.00,30.21,M,6.21,M,FEW,BKN,M,M,2500.00,3500.00,M,M,M,M,M,M,M,M,M,68.00,LPMT 210000Z 25003KT 9999 FEW025 BKN035 20/19 Q1023
LPMT,2017-10-21 01:00,-9.0359,38.7039,68.00,66.20,93.97,250.00,5.00,0.00,30.21,M,6.21,M,BKN,M,M,M,4000.00,M,M,M,M,M,M,M,M,M,M,68.00,LPMT 210100Z 25005KT 9999 BKN040 20/19 Q1023
LPMT,2017-10-21 02:00,-9.0359,38.7039,66.20,64.40,93.92,250.00,4.00,0.00,30.21,M,6.21,M,BKN,M,M,M,4000.00,M,M,M,M,M,M,M,M,M,M,66.20,LPMT 210200Z 25004KT 9999 BKN040 19/18 Q1023
LPMT,2017-10-21 03:00,-9.0359,38.7039,66.20,64.40,93.92,250.00,4.00,0.00,30.21,M,6.21,M,BKN,M,M,M,4500.00,M,M,M,M,M,M,M,M,M,M,66.20,LPMT 210300Z 25004KT 9999 BKN045 19/18 Q1023
LPMT,2017-10-21 04:00,-9.0359,38.7039,66.20,64.40,93.92,250.00,4.00,0.00,30.21,M,6.21,M,BKN,M,M,M,4500.00,M,M,M,M,M,M,M,M,M,M,66.20,LPMT 210400Z 25004KT 9999 BKN045 19/18 Q1023
LPMT,2017-10-21 05:00,-9.0359,38.7039,64.40,62.60,93.88,350.00,10.00,0.00,30.21,M,6.21,M,FEW,SCT,BKN,M,1000.00,1800.00,4500.00,M,M,M,M,M,M,M,M,64.40,LPMT 210500Z 35010KT 9999 FEW010 SCT018 BKN045 18/17 Q1023
LPMT,2017-10-21 06:00,-9.0359,38.7039,64.40,59.00,82.62,350.00,10.00,0.00,30.24,M,6.21,M,SCT,BKN,M,M,2000.00,4000.00,M,M,M,M,M,M,M,M,M,64.40,LPMT 210600Z 35010KT 9999 SCT020 BKN040 18/15 Q1024
LPMT,2017-10-21 07:00,-9.0359,38.7039,64.40,57.20,77.45,360.00,10.00,0.00,30.27,M,6.21,M,SCT,OVC,M,M,2000.00,3000.00,M,M,M,M,M,M,M,M,M,64.40,LPMT 210700Z 36010KT 9999 SCT020 OVC030 18/14 Q1025
LPMT,2017-10-21 08:00,-9.0359,38.7039,64.40,57.20,77.45,10.00,10.00,0.00,30.30,M,6.21,M,SCT,OVC,M,M,2500.00,3800.00,M,M,M,M,M,M,M,M,M,64.40,LPMT 210800Z 01010KT 9999 SCT025 OVC038 18/14 Q1026
LPMT,2017-10-21 09:00,-9.0359,38.7039,66.20,55.40,68.15,10.00,13.00,0.00,30.30,M,6.21,M,FEW,BKN,M,M,2500.00,4000.00,M,M,M,M,M,M,M,M,M,66.20,LPMT 210900Z 01013KT 9999 FEW025 BKN040 19/13 Q1026
LPMT,2017-10-21 10:00,-9.0359,38.7039,66.20,55.40,68.15,10.00,11.00,0.00,30.33,M,6.21,M,FEW,BKN,M,M,2500.00,4500.00,M,M,M,M,M,M,M,M,M,66.20,LPMT 211000Z 01011KT 9999 FEW025 BKN045 19/13 Q1027
LPMT,2017-10-21 11:00,-9.0359,38.7039,68.00,53.60,59.97,10.00,13.00,0.00,30.33,M,6.21,M,FEW,M,M,M,4500.00,M,M,M,M,M,M,M,M,M,M,68.00,LPMT 211100Z 01013KT 9999 FEW045 20/12 Q1027
LPMT,2017-10-21 12:00,-9.0359,38.7039,71.60,51.80,49.64,10.00,11.00,0.00,30.30,M,6.21,M,M,M,M,M,M,M,M,M,M,M,M,M,M,M,M,71.60,LPMT 211200Z 01011KT 320V040 CAVOK 22/11 Q1026
LPMT,2017-10-21 13:00,-9.0359,38.7039,71.60,50.00,46.43,10.00,10.00,0.00,30.30,M,6.21,M,M,M,M,M,M,M,M,M,M,M,M,M,M,M,M,71.60,LPMT 211300Z 01010KT CAVOK 22/10 Q1026
LPMT,2017-10-21 14:00,-9.0359,38.7039,71.60,50.00,46.43,360.00,8.00,0.00,30.27,M,6.21,M,M,M,M,M,M,M,M,M,M,M,M,M,M,M,M,71.60,LPMT 211400Z 36008KT 320V040 CAVOK 22/10 Q1025
LPMT,2017-10-21 15:00,-9.0359,38.7039,71.60,50.00,46.43,350.00,11.00,0.00,30.30,M,6.21,M,FEW,M,M,M,4800.00,M,M,M,M,M,M,M,M,M,M,71.60,LPMT 211500Z 35011KT 9999 FEW048 22/10 Q1026
LPMT,2017-10-21 16:00,-9.0359,38.7039,69.80,50.00,49.37,360.00,11.00,0.00,30.30,M,6.21,M,FEW,M,M,M,4800.00,M,M,M,M,M,M,M,M,M,M,69.80,LPMT 211600Z 36011KT 9999 FEW048 21/10 Q1026
LPMT,2017-10-21 17:00,-9.0359,38.7039,68.00,50.00,52.51,350.00,12.00,0.00,30.30,M,6.21,M,FEW,M,M,M,4800.00,M,M,M,M,M,M,M,M,M,M,68.00,LPMT 211700Z 35012KT 9999 FEW048 20/10 Q1026
LPMT,2017-10-21 18:00,-9.0359,38.7039,64.40,50.00,59.50,350.00,11.00,0.00,30.30,M,6.21,M,M,M,M,M,M,M,M,M,M,M,M,M,M,M,M,64.40,LPMT 211800Z 35011KT CAVOK 18/10 Q1026
LPMT,2017-10-21 19:00,-9.0359,38.7039,64.40,51.80,63.60,340.00,11.00,0.00,30.33,M,6.21,M,M,M,M,M,M,M,M,M,M,M,M,M,M,M,M,64.40,LPMT 211900Z 34011KT CAVOK 18/11 Q1027
LPMT,2017-10-21 20:00,-9.0359,38.7039,62.60,51.80,67.75,350.00,11.00,0.00,30.33,M,6.21,M,M,M,M,M,M,M,M,M,M,M,M,M,M,M,M,62.60,LPMT 212000Z 35011KT CAVOK 17/11 Q1027
LPMT,2017-10-21 21:00,-9.0359,38.7039,60.80,50.00,67.54,350.00,12.00,0.00,30.33,M,6.21,M,M,M,M,M,M,M,M,M,M,M,M,M,M,M,M,60.80,LPMT 212100Z 35012KT CAVOK 16/10 Q1027
LPMT,2017-10-21 22:00,-9.0359,38.7039,60.80,48.20,63.15,10.00,11.00,0.00,30.33,M,6.21,M,M,M,M,M,M,M,M,M,M,M,M,M,M,M,M,60.80,LPMT 212200Z 01011KT CAVOK 16/09 Q1027
LPMT,2017-10-21 23:00,-9.0359,38.7039,60.80,48.20,63.15,10.00,11.00,0.00,30.33,M,6.21,M,M,M,M,M,M,M,M,M,M,M,M,M,M,M,M,60.80,LPMT 212300Z 01011KT CAVOK 16/09 Q1027
LPMT,2017-10-22 00:00,-9.0359,38.7039,59.00,50.00,72.01,360.00,11.00,0.00,30.36,M,6.21,M,M,M,M,M,M,M,M,M,M,M,M,M,M,M,M,59.00,LPMT 220000Z 36011KT CAVOK 15/10 Q1028
LPMT,2017-10-22 01:00,-9.0359,38.7039,59.00,50.00,72.01,360.00,11.00,0.00,30.33,M,6.21,M,M,M,M,M,M,M,M,M,M,M,M,M,M,M,M,59.00,LPMT 220100Z 36011KT CAVOK 15/10 Q1027
LPMT,2017-10-22 02:00,-9.0359,38.7039,59.00,46.40,62.92,360.00,11.00,0.00,30.30,M,6.21,M,M,M,M,M,M,M,M,M,M,M,M,M,M,M,M,59.00,LPMT 220200Z 36011KT CAVOK 15/08 Q1026
LPMT,2017-10-22 03:00,-9.0359,38.7039,59.00,46.40,62.92,360.00,12.00,0.00,30.30,M,6.21,M,M,M,M,M,M,M,M,M,M,M,M,M,M,M,M,59.00,LPMT 220300Z 36012KT CAVOK 15/08 Q1026
LPMT,2017-10-22 04:00,-9.0359,38.7039,59.00,46.40,62.92,350.00,9.00,0.00,30.30,M,6.21,M,M,M,M,M,M,M,M,M,M,M,M,M,M,M,M,59.00,LPMT 220400Z 35009KT CAVOK 15/08 Q1026
LPMT,2017-10-22 06:00,-9.0359,38.7039,57.20,48.20,71.83,340.00,8.00,0.00,30.30,M,6.21,M,M,M,M,M,M,M,M,M,M,M,M,M,M,M,M,57.20,LPMT 220600Z 34008KT CAVOK 14/09 Q1026
LPMT,2017-10-22 07:00,-9.0359,38.7039,57.20,46.40,67.12,350.00,7.00,0.00,30.33,M,6.21,M,M,M,M,M,M,M,M,M,M,M,M,M,M,M,M,57.20,LPMT 220700Z 35007KT CAVOK 14/08 Q1027
LPMT,2017-10-22 08:00,-9.0359,38.7039,57.20,48.20,71.83,30.00,5.00,0.00,30.33,M,6.21,M,M,M,M,M,M,M,M,M,M,M,M,M,M,M,M,57.20,LPMT 220800Z 03005KT CAVOK 14/09 Q1027
LPMT,2017-10-22 09:00,-9.0359,38.7039,60.80,44.60,55.12,10.00,12.00,0.00,30.33,M,6.21,M,M,M,M,M,M,M,M,M,M,M,M,M,M,M,M,60.80,LPMT 220900Z 01012KT CAVOK 16/07 Q1027
LPMT,2017-10-22 10:00,-9.0359,38.7039,64.40,44.60,48.55,20.00,13.00,0.00,30.33,M,6.21,M,M,M,M,M,M,M,M,M,M,M,M,M,M,M,M,64.40,LPMT 221000Z 02013KT 350V050 CAVOK 18/07 Q1027
LPMT,2017-10-22 11:00,-9.0359,38.7039,66.20,44.60,45.60,20.00,13.00,0.00,30.33,M,6.21,M,M,M,M,M,M,M,M,M,M,M,M,M,M,M,M,66.20,LPMT 221100Z 02013KT CAVOK 19/07 Q1027
LPMT,2017-10-22 12:00,-9.0359,38.7039,68.00,44.60,42.85,10.00,10.00,0.00,30.30,M,6.21,M,M,M,M,M,M,M,M,M,M,M,M,M,M,M,M,68.00,LPMT 221200Z 01010KT 340V040 CAVOK 20/07 Q1026
LPMT,2017-10-22 13:00,-9.0359,38.7039,69.80,44.60,40.29,10.00,9.00,0.00,30.27,M,6.21,M,M,M,M,M,M,M,M,M,M,M,M,M,M,M,M,69.80,LPMT 221300Z 01009KT CAVOK 21/07 Q1025
LPMT,2017-10-22 14:00,-9.0359,38.7039,71.60,42.80,35.37,10.00,10.00,0.00,30.24,M,6.21,M,M,M,M,M,M,M,M,M,M,M,M,M,M,M,M,70.12,LPMT 221400Z 01010KT CAVOK 22/06 Q1024
LPMT,2017-10-22 15:00,-9.0359,38.7039,71.60,46.40,40.57,360.00,9.00,0.00,30.24,M,6.21,M,M,M,M,M,M,M,M,M,M,M,M,M,M,M,M,70.37,LPMT 221500Z 36009KT CAVOK 22/08 Q1024
LPMT,2017-10-22 16:00,-9.0359,38.7039,71.60,48.20,43.42,350.00,7.00,0.00,30.24,M,6.21,M,M,M,M,M,M,M,M,M,M,M,M,M,M,M,M,70.50,LPMT 221600Z 35007KT 320V020 CAVOK 22/09 Q1024
LPMT,2017-10-22 17:00,-9.0359,38.7039,69.80,50.00,49.37,360.00,7.00,0.00,30.21,M,6.21,M,M,M,M,M,M,M,M,M,M,M,M,M,M,M,M,69.80,LPMT 221700Z 36007KT CAVOK 21/10 Q1023
LPMT,2017-10-22 18:00,-9.0359,38.7039,66.20,50.00,55.88,340.00,8.00,0.00,30.24,M,6.21,M,M,M,M,M,M,M,M,M,M,M,M,M,M,M,M,66.20,LPMT 221800Z 34008KT CAVOK 19/10 Q1024
LPMT,2017-10-22 19:00,-9.0359,38.7039,62.60,50.00,63.38,340.00,7.00,0.00,30.24,M,6.21,M,M,M,M,M,M,M,M,M,M,M,M,M,M,M,M,62.60,LPMT 221900Z 34007KT CAVOK 17/10 Q1024
LPMT,2017-10-22 20:00,-9.0359,38.7039,60.80,48.20,63.15,350.00,11.00,0.00,30.27,M,6.21,M,M,M,M,M,M,M,M,M,M,M,M,M,M,M,M,60.80,LPMT 222000Z 35011KT CAVOK 16/09 Q1025
LPMT,2017-10-22 21:00,-9.0359,38.7039,59.00,50.00,72.01,350.00,7.00,0.00,30.27,M,6.21,M,M,M,M,M,M,M,M,M,M,M,M,M,M,M,M,59.00,LPMT 222100Z 35007KT 320V020 CAVOK 15/10 Q1025
LPMT,2017-10-22 22:00,-9.0359,38.7039,55.40,50.00,81.99,M,2.00,0.00,30.27,M,6.21,M,M,M,M,M,M,M,M,M,M,M,M,M,M,M,M,55.40,LPMT 222200Z VRB02KT CAVOK 13/10 Q1025
LPMT,2017-10-22 23:00,-9.0359,38.7039,53.60,50.00,87.56,M,2.00,0.00,30.27,M,6.21,M,M,M,M,M,M,M,M,M,M,M,M,M,M,M,M,53.60,LPMT 222300Z VRB02KT CAVOK 12/10 Q1025
LPMT,2017-10-23 00:00,-9.0359,38.7039,51.80,48.20,87.47,80.00,2.00,0.00,30.27,M,6.21,M,M,M,M,M,M,M,M,M,M,M,M,M,M,M,M,51.80,LPMT 230000Z 08002KT CAVOK 11/09 Q1025
LPMT,2017-10-23 01:00,-9.0359,38.7039,51.80,48.20,87.47,60.00,4.00,0.00,30.24,M,6.21,M,M,M,M,M,M,M,M,M,M,M,M,M,M,M,M,51.80,LPMT 230100Z 06004KT CAVOK 11/09 Q1024
LPMT,2017-10-23 02:00,-9.0359,38.7039,51.80,48.20,87.47,100.00,3.00,0.00,30.24,M,6.21,M,M,M,M,M,M,M,M,M,M,M,M,M,M,M,M,51.80,LPMT 230200Z 10003KT 060V120 CAVOK 11/09 Q1024
LPMT,2017-10-23 03:00,-9.0359,38.7039,50.00,46.40,87.37,40.00,2.00,0.00,30.24,M,6.21,M,M,M,M,M,M,M,M,M,M,M,M,M,M,M,M,50.00,LPMT 230300Z 04002KT CAVOK 10/08 Q1024
LPMT,2017-10-23 04:00,-9.0359,38.7039,50.00,48.20,93.50,40.00,2.00,0.00,30.21,M,6.21,M,M,M,M,M,M,M,M,M,M,M,M,M,M,M,M,50.00,LPMT 230400Z 04002KT CAVOK 10/09 Q1023
LPMT,2017-10-23 05:00,-9.0359,38.7039,50.00,46.40,87.37,50.00,3.00,0.00,30.21,M,6.21,M,M,M,M,M,M,M,M,M,M,M,M,M,M,M,M,49.27,LPMT 230500Z 05003KT CAVOK 10/08 Q1023
LPMT,2017-10-23 06:00,-9.0359,38.7039,53.60,50.00,87.56,40.00,6.00,0.00,30.21,M,6.21,M,M,M,M,M,M,M,M,M,M,M,M,M,M,M,M,53.60,LPMT 230600Z 04006KT CAVOK 12/10 Q1023
LPMT,2017-10-23 07:00,-9.0359,38.7039,53.60,50.00,87.56,30.00,5.00,0.00,30.24,M,6.21,M,M,M,M,M,M,M,M,M,M,M,M,M,M,M,M,53.60,LPMT 230700Z 03005KT CAVOK 12/10 Q1024
LPMT,2017-10-23 08:00,-9.0359,38.7039,57.20,50.00,76.82,40.00,6.00,0.00,30.24,M,6.21,M,M,M,M,M,M,M,M,M,M,M,M,M,M,M,M,57.20,LPMT 230800Z 04006KT CAVOK 14/10 Q1024
LPMT,2017-10-23 09:00,-9.0359,38.7039,59.00,50.00,72.01,40.00,8.00,0.00,30.27,M,6.21,M,M,M,M,M,M,M,M,M,M,M,M,M,M,M,M,59.00,LPMT 230900Z 04008KT CAVOK 15/10 Q1025
LPMT,2017-10-23 10:00,-9.0359,38.7039,60.80,46.40,59.01,30.00,10.00,0.00,30.24,M,6.21,M,M,M,M,M,M,M,M,M,M,M,M,M,M,M,M,60.80,LPMT 231000Z 03010KT CAVOK 16/08 Q1024
LPMT,2017-10-23 11:00,-9.0359,38.7039,66.20,50.00,55.88,30.00,8.00,0.00,30.24,M,6.21,M,M,M,M,M,M,M,M,M,M,M,M,M,M,M,M,66.20,LPMT 231100Z 03008KT CAVOK 19/10 Q1024
LPMT,2017-10-23 12:00,-9.0359,38.7039,68.00,51.80,56.13,10.00,9.00,0.00,30.24,M,6.21,M,M,M,M,M,M,M,M,M,M,M,M,M,M,M,M,68.00,LPMT 231200Z 01009KT 330V040 CAVOK 20/11 Q1024
LPMT,2017-10-23 13:00,-9.0359,38.7039,71.60,51.80,49.64,360.00,10.00,0.00,30.21,M,6.21,M,M,M,M,M,M,M,M,M,M,M,M,M,M,M,M,71.60,LPMT 231300Z 36010KT CAVOK 22/11 Q1023
LPMT,2017-10-23 14:00,-9.0359,38.7039,75.20,53.60,46.98,360.00,8.00,0.00,30.18,M,6.21,M,M,M,M,M,M,M,M,M,M,M,M,M,M,M,M,75.20,LPMT 231400Z 36008KT 330V030 CAVOK 24/12 Q1022
LPMT,2017-10-23 15:00,-9.0359,38.7039,75.20,51.80,43.97,340.00,9.00,0.00,30.15,M,6.21,M,M,M,M,M,M,M,M,M,M,M,M,M,M,M,M,75.20,LPMT 231500Z 34009KT CAVOK 24/11 Q1021
LPMT,2017-10-23 16:00,-9.0359,38.7039,77.00,51.80,41.42,340.00,6.00,0.00,30.15,M,6.21,M,M,M,M,M,M,M,M,M,M,M,M,M,M,M,M,77.00,LPMT 231600Z 34006KT 310V010 CAVOK 25/11 Q1021
LPMT,2017-10-23 17:00,-9.0359,38.7039,75.20,51.80,43.97,330.00,5.00,0.00,30.15,M,6.21,M,M,M,M,M,M,M,M,M,M,M,M,M,M,M,M,75.20,LPMT 231700Z 33005KT CAVOK 24/11 Q1021
LPMT,2017-10-23 18:00,-9.0359,38.7039,71.60,51.80,49.64,330.00,4.00,0.00,30.15,M,6.21,M,M,M,M,M,M,M,M,M,M,M,M,M,M,M,M,71.60,LPMT 231800Z 33004KT CAVOK 22/11 Q1021
LPMT,2017-10-23 19:00,-9.0359,38.7039,62.60,53.60,72.38,280.00,4.00,0.00,30.15,M,6.21,M,M,M,M,M,M,M,M,M,M,M,M,M,M,M,M,62.60,LPMT 231900Z 28004KT CAVOK 17/12 Q1021
LPMT,2017-10-23 20:00,-9.0359,38.7039,59.00,51.80,76.98,0.00,0.00,0.00,30.15,M,6.21,M,M,M,M,M,M,M,M,M,M,M,M,M,M,M,M,59.00,LPMT 232000Z 00000KT CAVOK 15/11 Q1021
LPMT,2017-10-23 21:00,-9.0359,38.7039,62.60,53.60,72.38,10.00,6.00,0.00,30.15,M,6.21,M,M,M,M,M,M,M,M,M,M,M,M,M,M,M,M,62.60,LPMT 232100Z 01006KT CAVOK 17/12 Q1021
LPMT,2017-10-23 22:00,-9.0359,38.7039,60.80,51.80,72.20,20.00,4.00,0.00,30.15,M,6.21,M,M,M,M,M,M,M,M,M,M,M,M,M,M,M,M,60.80,LPMT 232200Z 02004KT CAVOK 16/11 Q1021
LPMT,2017-10-23 23:00,-9.0359,38.7039,60.80,53.60,77.14,20.00,6.00,0.00,30.15,M,6.21,M,M,M,M,M,M,M,M,M,M,M,M,M,M,M,M,60.80,LPMT 232300Z 02006KT CAVOK 16/12 Q1021
LPMT,2017-10-24 00:00,-9.0359,38.7039,62.60,53.60,72.38,360.00,5.00,0.00,30.15,M,6.21,M,M,M,M,M,M,M,M,M,M,M,M,M,M,M,M,62.60,LPMT 240000Z 36005KT CAVOK 17/12 Q1021
LPMT,2017-10-24 01:00,-9.0359,38.7039,59.00,53.60,82.25,10.00,6.00,0.00,30.15,M,6.21,M,M,M,M,M,M,M,M,M,M,M,M,M,M,M,M,59.00,LPMT 240100Z 01006KT CAVOK 15/12 Q1021
LPMT,2017-10-24 02:00,-9.0359,38.7039,59.00,51.80,76.98,20.00,7.00,0.00,30.15,M,6.21,M,M,M,M,M,M,M,M,M,M,M,M,M,M,M,M,59.00,LPMT 240200Z 02007KT CAVOK 15/11 Q1021
LPMT,2017-10-24 04:00,-9.0359,38.7039,59.00,51.80,76.98,30.00,7.00,0.00,30.12,M,6.21,M,M,M,M,M,M,M,M,M,M,M,M,M,M,M,M,59.00,LPMT 240400Z 03007KT CAVOK 15/11 Q1020
LPMT,2017-10-24 05:00,-9.0359,38.7039,59.00,51.80,76.98,30.00,7.00,0.00,30.12,M,6.21,M,M,M,M,M,M,M,M,M,M,M,M,M,M,M,M,59.00,LPMT 240500Z 03007KT CAVOK 15/11 Q1020
LPMT,2017-10-24 06:00,-9.0359,38.7039,57.20,51.80,82.12,30.00,7.00,0.00,30.15,M,6.21,M,M,M,M,M,M,M,M,M,M,M,M,M,M,M,M,57.20,LPMT 240600Z 03007KT CAVOK 14/11 Q1021
LPMT,2017-10-24 07:00,-9.0359,38.7039,57.20,50.00,76.82,30.00,8.00,0.00,30.15,M,6.21,M,M,M,M,M,M,M,M,M,M,M,M,M,M,M,M,57.20,LPMT 240700Z 03008KT CAVOK 14/10 Q1021
LPMT,2017-10-24 08:00,-9.0359,38.7039,59.00,50.00,72.01,40.00,6.00,0.00,30.18,M,6.21,M,M,M,M,M,M,M,M,M,M,M,M,M,M,M,M,59.00,LPMT 240800Z 04006KT CAVOK 15/10 Q1022
LPMT,2017-10-24 09:00,-9.0359,38.7039,60.80,48.20,63.15,40.00,9.00,0.00,30.18,M,6.21,M,M,M,M,M,M,M,M,M,M,M,M,M,M,M,M,60.80,LPMT 240900Z 04009KT CAVOK 16/09 Q1022
LPMT,2017-10-24 10:00,-9.0359,38.7039,66.20,51.80,59.74,30.00,8.00,0.00,30.18,M,6.21,M,M,M,M,M,M,M,M,M,M,M,M,M,M,M,M,66.20,LPMT 241000Z 03008KT CAVOK 19/11 Q1022
LPMT,2017-10-24 11:00,-9.0359,38.7039,69.80,53.60,56.38,30.00,4.00,0.00,30.18,M,6.21,M,M,M,M,M,M,M,M,M,M,M,M,M,M,M,M,69.80,LPMT 241100Z 03004KT 340V070 CAVOK 21/12 Q1022
LPMT,2017-10-24 12:00,-9.0359,38.7039,71.60,53.60,53.03,10.00,6.00,0.00,30.15,M,6.21,M,M,M,M,M,M,M,M,M,M,M,M,M,M,M,M,71.60,LPMT 241200Z 01006KT 340V040 CAVOK 22/12 Q1021
LPMT,2017-10-24 13:00,-9.0359,38.7039,73.40,53.60,49.90,350.00,7.00,0.00,30.15,M,6.21,M,M,M,M,M,M,M,M,M,M,M,M,M,M,M,M,73.40,LPMT 241300Z 35007KT CAVOK 23/12 Q1021
LPMT,2017-10-24 14:00,-9.0359,38.7039,77.00,55.40,47.25,350.00,6.00,0.00,30.12,M,6.21,M,M,M,M,M,M,M,M,M,M,M,M,M,M,M,M,77.00,LPMT 241400Z 35006KT CAVOK 25/13 Q1020
LPMT,2017-10-24 15:00,-9.0359,38.7039,78.80,55.40,44.52,330.00,5.00,0.00,30.09,M,6.21,M,M,M,M,M,M,M,M,M,M,M,M,M,M,M,M,78.80,LPMT 241500Z 33005KT 300V360 CAVOK 26/13 Q1019
LPMT,2017-10-24 16:00,-9.0359,38.7039,75.20,59.00,57.12,290.00,5.00,0.00,30.09,M,6.21,M,M,M,M,M,M,M,M,M,M,M,M,M,M,M,M,75.20,LPMT 241600Z 29005KT 260V330 CAVOK 24/15 Q1019
LPMT,2017-10-24 17:00,-9.0359,38.7039,73.40,57.20,56.88,270.00,7.00,0.00,30.09,M,6.21,M,M,M,M,M,M,M,M,M,M,M,M,M,M,M,M,73.40,LPMT 241700Z 27007KT CAVOK 23/14 Q1019
LPMT,2017-10-24 18:00,-9.0359,38.7039,69.80,59.00,68.55,270.00,6.00,0.00,30.09,M,6.21,M,M,M,M,M,M,M,M,M,M,M,M,M,M,M,M,69.80,LPMT 241800Z 27006KT CAVOK 21/15 Q1019
LPMT,2017-10-24 19:00,-9.0359,38.7039,68.00,57.20,68.35,240.00,3.00,0.00,30.12,M,6.21,M,M,M,M,M,M,M,M,M,M,M,M,M,M,M,M,68.00,LPMT 241900Z 24003KT CAVOK 20/14 Q1020
LPMT,2017-10-24 20:00,-9.0359,38.7039,68.00,57.20,68.35,240.00,5.00,0.00,30.12,M,6.21,M,M,M,M,M,M,M,M,M,M,M,M,M,M,M,M,68.00,LPMT 242000Z 24005KT CAVOK 20/14 Q1020
LPMT,2017-10-24 21:00,-9.0359,38.7039,66.20,57.20,72.74,200.00,3.00,0.00,30.12,M,6.21,M,M,M,M,M,M,M,M,M,M,M,M,M,M,M,M,66.20,LPMT 242100Z 20003KT CAVOK 19/14 Q1020
LPMT,2017-10-24 22:00,-9.0359,38.7039,59.00,57.20,93.74,160.00,2.00,0.00,30.12,M,6.21,M,M,M,M,M,M,M,M,M,M,M,M,M,M,M,M,59.00,LPMT 242200Z 16002KT CAVOK 15/14 Q1020
LPMT,2017-10-24 23:00,-9.0359,38.7039,57.20,55.40,93.69,100.00,2.00,0.00,30.15,M,6.21,M,M,M,M,M,M,M,M,M,M,M,M,M,M,M,M,57.20,LPMT 242300Z 10002KT CAVOK 14/13 Q1021
LPMT,2017-10-25 00:00,-9.0359,38.7039,57.20,55.40,93.69,170.00,2.00,0.00,30.15,M,6.21,M,M,M,M,M,M,M,M,M,M,M,M,M,M,M,M,57.20,LPMT 250000Z 17002KT CAVOK 14/13 Q1021
LPMT,2017-10-25 01:00,-9.0359,38.7039,53.60,53.60,100.00,70.00,1.00,0.00,30.12,M,6.21,M,M,M,M,M,M,M,M,M,M,M,M,M,M,M,M,53.60,LPMT 250100Z 07001KT CAVOK 12/12 Q1020
LPMT,2017-10-25 02:00,-9.0359,38.7039,55.40,53.60,93.65,100.00,4.00,0.00,30.15,M,6.21,M,M,M,M,M,M,M,M,M,M,M,M,M,M,M,M,55.40,LPMT 250200Z 10004KT CAVOK 13/12 Q1021
LPMT,2017-10-25 03:00,-9.0359,38.7039,57.20,53.60,87.74,80.00,2.00,0.00,30.12,M,6.21,M,M,M,M,M,M,M,M,M,M,M,M,M,M,M,M,57.20,LPMT 250300Z 08002KT CAVOK 14/12 Q1020
LPMT,2017-10-25 04:00,-9.0359,38.7039,55.40,53.60,93.65,80.00,3.00,0.00,30.12,M,6.21,M,M,M,M,M,M,M,M,M,M,M,M,M,M,M,M,55.40,LPMT 250400Z 08003KT CAVOK 13/12 Q1020
LPMT,2017-10-25 05:00,-9.0359,38.7039,55.40,51.80,87.65,20.00,4.00,0.00,30.12,M,6.21,M,M,M,M,M,M,M,M,M,M,M,M,M,M,M,M,55.40,LPMT 250500Z 02004KT CAVOK 13/11 Q1020
LPMT,2017-10-25 06:00,-9.0359,38.7039,55.40,51.80,87.65,20.00,6.00,0.00,30.12,M,6.21,M,M,M,M,M,M,M,M,M,M,M,M,M,M,M,M,55.40,LPMT 250600Z 02006KT CAVOK 13/11 Q1020
LPMT,2017-10-25 07:00,-9.0359,38.7039,51.80,50.00,93.55,20.00,4.00,0.00,30.12,M,6.21,M,M,M,M,M,M,M,M,M,M,M,M,M,M,M,M,51.80,LPMT 250700Z 02004KT CAVOK 11/10 Q1020
LPMT,2017-10-25 08:00,-9.0359,38.7039,57.20,53.60,87.74,50.00,5.00,0.00,30.12,M,6.21,M,M,M,M,M,M,M,M,M,M,M,M,M,M,M,M,57.20,LPMT 250800Z 05005KT 010V100 CAVOK 14/12 Q1020
LPMT,2017-10-25 09:00,-9.0359,38.7039,64.40,55.40,72.56,110.00,6.00,0.00,30.15,M,6.21,M,M,M,M,M,M,M,M,M,M,M,M,M,M,M,M,64.40,LPMT 250900Z 11006KT 060V140 CAVOK 18/13 Q1021
LPMT,2017-10-25 10:00,-9.0359,38.7039,68.00,55.40,64.04,140.00,4.00,0.00,30.15,M,6.21,M,M,M,M,M,M,M,M,M,M,M,M,M,M,M,M,68.00,LPMT 251000Z 14004KT 120V180 CAVOK 20/13 Q1021
LPMT,2017-10-25 11:00,-9.0359,38.7039,73.40,55.40,53.29,150.00,10.00,0.00,30.15,M,6.21,M,M,M,M,M,M,M,M,M,M,M,M,M,M,M,M,73.40,LPMT 251100Z 15010KT CAVOK 23/13 Q1021
LPMT,2017-10-25 12:00,-9.0359,38.7039,75.20,57.20,53.55,190.00,9.00,0.00,30.15,M,6.21,M,M,M,M,M,M,M,M,M,M,M,M,M,M,M,M,75.20,LPMT 251200Z 19009KT CAVOK 24/14 Q1021
LPMT,2017-10-25 13:00,-9.0359,38.7039,75.20,59.00,57.12,230.00,7.00,0.00,30.12,M,6.21,M,FEW,M,M,M,3000.00,M,M,M,M,M,M,M,M,M,M,75.20,LPMT 251300Z 23007KT 170V270 9999 FEW030 24/15 Q1020
LPMT,2017-10-25 14:00,-9.0359,38.7039,77.00,59.00,53.80,190.00,10.00,0.00,30.12,M,6.21,M,FEW,M,M,M,3200.00,M,M,M,M,M,M,M,M,M,M,77.00,LPMT 251400Z 19010KT 170V230 9999 FEW032 25/15 Q1020
LPMT,2017-10-25 15:00,-9.0359,38.7039,75.20,60.80,60.90,200.00,12.00,0.00,30.12,M,6.21,M,FEW,M,M,M,3200.00,M,M,M,M,M,M,M,M,M,M,75.20,LPMT 251500Z 20012KT 9999 FEW032 24/16 Q1020
LPMT,2017-10-25 16:00,-9.0359,38.7039,73.40,60.80,64.69,220.00,10.00,0.00,30.12,M,6.21,M,FEW,M,M,M,2800.00,M,M,M,M,M,M,M,M,M,M,73.40,LPMT 251600Z 22010KT 190V250 9999 FEW028 23/16 Q1020
LPMT,2017-10-25 17:00,-9.0359,38.7039,69.80,62.60,77.90,230.00,9.00,0.00,30.15,M,6.21,M,FEW,M,M,M,2400.00,M,M,M,M,M,M,M,M,M,M,69.80,LPMT 251700Z 23009KT 9999 FEW024 21/17 Q1021
LPMT,2017-10-25 18:00,-9.0359,38.7039,68.00,62.60,82.86,240.00,6.00,0.00,30.15,M,6.21,M,FEW,M,M,M,1200.00,M,M,M,M,M,M,M,M,M,M,68.00,LPMT 251800Z 24006KT 9999 FEW012 20/17 Q1021
LPMT,2017-10-25 19:00,-9.0359,38.7039,66.20,62.60,88.18,240.00,5.00,0.00,30.18,M,6.21,M,M,M,M,M,M,M,M,M,M,M,M,M,M,M,M,66.20,LPMT 251900Z 24005KT CAVOK 19/17 Q1022
LPMT,2017-10-25 20:00,-9.0359,38.7039,64.40,62.60,93.88,M,2.00,0.00,30.18,M,6.21,M,M,M,M,M,M,M,M,M,M,M,M,M,M,M,M,64.40,LPMT 252000Z VRB02KT CAVOK 18/17 Q1022
LPMT,2017-10-25 21:00,-9.0359,38.7039,64.40,62.60,93.88,170.00,3.00,0.00,30.21,M,6.21,M,M,M,M,M,M,M,M,M,M,M,M,M,M,M,M,64.40,LPMT 252100Z 17003KT 140V220 CAVOK 18/17 Q1023
LPMT,2017-10-25 22:00,-9.0359,38.7039,60.80,59.00,93.79,M,1.00,0.00,30.21,M,5.59,M,FEW,M,M,M,800.00,M,M,M,M,M,M,M,M,M,M,60.80,LPMT 252200Z VRB01KT 9000 FEW008 16/15 Q1023
LPMT,2017-10-25 23:00,-9.0359,38.7039,59.00,59.00,100.00,90.00,3.00,0.00,30.21,M,5.59,M,FEW,M,M,M,800.00,M,M,M,M,M,M,M,M,M,M,59.00,LPMT 252300Z 09003KT 9000 FEW008 15/15 Q1023
LPMT,2017-10-26 00:00,-9.0359,38.7039,59.00,59.00,100.00,110.00,3.00,0.00,30.21,M,3.73,M,FEW,M,M,M,500.00,M,M,M,M,M,M,M,M,M,M,59.00,LPMT 260000Z 11003KT 6000 FEW005 15/15 Q1023
LPMT,2017-10-26 01:00,-9.0359,38.7039,59.00,59.00,100.00,90.00,4.00,0.00,30.21,M,0.19,M,FEW,BKN,M,M,300.00,1000.00,M,M,FG,M,M,M,M,M,M,59.00,LPMT 260100Z 09004KT 0300 FG FEW003 BKN010 15/15 Q1023
LPMT,2017-10-26 02:00,-9.0359,38.7039,59.00,59.00,100.00,90.00,2.00,0.00,30.21,M,0.19,M,VV ,M,M,M,300.00,M,M,M,FG,M,M,M,M,M,M,59.00,LPMT 260200Z 09002KT 0300 FG VV003 15/15 Q1023
LPMT,2017-10-26 03:00,-9.0359,38.7039,60.80,59.00,93.79,60.00,3.00,0.00,30.21,M,0.19,M,VV ,M,M,M,200.00,M,M,M,FG,M,M,M,M,M,M,60.80,LPMT 260300Z 06003KT 0300 FG VV002 16/15 Q1023
LPMT,2017-10-26 04:00,-9.0359,38.7039,59.00,59.00,100.00,60.00,3.00,0.00,30.21,M,0.19,M,VV ,M,M,M,200.00,M,M,M,FG,M,M,M,M,M,M,59.00,LPMT 260400Z 06003KT 0300 FG VV002 15/15 Q1023
LPMT,2017-10-26 05:00,-9.0359,38.7039,59.00,57.20,93.74,30.00,5.00,0.00,30.21,M,0.19,M,VV ,M,M,M,200.00,M,M,M,FG,M,M,M,M,M,M,59.00,LPMT 260500Z 03005KT 0300 FG VV002 15/14 Q1023
LPMT,2017-10-26 06:00,-9.0359,38.7039,59.00,59.00,100.00,30.00,6.00,0.00,30.21,M,0.19,M,VV ,M,M,M,200.00,M,M,M,FG,M,M,M,M,M,M,59.00,LPMT 260600Z 03006KT 0300 FG VV002 15/15 Q1023
LPMT,2017-10-26 07:00,-9.0359,38.7039,59.00,59.00,100.00,40.00,6.00,0.00,30.21,M,0.19,M,VV ,M,M,M,200.00,M,M,M,FG,M,M,M,M,M,M,59.00,LPMT 260700Z 04006KT 0300 FG VV002 15/15 Q1023
LPMT,2017-10-26 08:00,-9.0359,38.7039,59.00,57.20,93.74,40.00,6.00,0.00,30.24,M,0.19,M,VV ,M,M,M,200.00,M,M,M,FG,M,M,M,M,M,M,59.00,LPMT 260800Z 04006KT 0300 FG VV002 15/14 Q1024
LPMT,2017-10-26 09:00,-9.0359,38.7039,59.00,57.20,93.74,30.00,8.00,0.00,30.24,M,0.25,M,BKN,M,M,M,300.00,M,M,M,FG,M,M,M,M,M,M,59.00,LPMT 260900Z 03008KT 0400 FG BKN003 15/14 Q1024
LPMT,2017-10-26 10:00,-9.0359,38.7039,60.80,59.00,93.79,20.00,8.00,0.00,30.27,M,0.93,M,BKN,M,M,M,400.00,M,M,M,BR,M,M,M,M,M,M,60.80,LPMT 261000Z 02008KT 1500 BR BKN004 16/15 Q1025
LPMT,2017-10-26 11:00,-9.0359,38.7039,62.60,59.00,88.00,10.00,10.00,0.00,30.27,M,4.35,M,SCT,M,M,M,400.00,M,M,M,VCFG,M,M,M,M,M,M,62.60,LPMT 261100Z 01010KT 7000 VCFG SCT004 17/15 Q1025
LPMT,2017-10-26 12:00,-9.0359,38.7039,68.00,60.80,77.75,10.00,8.00,0.00,30.24,M,6.21,M,M,M,M,M,M,M,M,M,M,M,M,M,M,M,M,68.00,LPMT 261200Z 01008KT CAVOK 20/16 Q1024
LPMT,2017-10-26 13:00,-9.0359,38.7039,73.40,62.60,68.94,20.00,8.00,0.00,30.24,M,6.21,M,M,M,M,M,M,M,M,M,M,M,M,M,M,M,M,73.40,LPMT 261300Z 02008KT CAVOK 23/17 Q1024
LPMT,2017-10-26 14:00,-9.0359,38.7039,77.00,60.80,57.36,340.00,6.00,0.00,30.21,M,6.21,M,M,M,M,M,M,M,M,M,M,M,M,M,M,M,M,77.00,LPMT 261400Z 34006KT 310V010 CAVOK 25/16 Q1023
LPMT,2017-10-26 15:00,-9.0359,38.7039,78.80,60.80,54.05,340.00,7.00,0.00,30.21,M,6.21,M,M,M,M,M,M,M,M,M,M,M,M,M,M,M,M,78.80,LPMT 261500Z 34007KT CAVOK 26/16 Q1023
LPMT,2017-10-26 16:00,-9.0359,38.7039,80.60,59.00,47.79,340.00,7.00,0.00,30.21,M,6.21,M,M,M,M,M,M,M,M,M,M,M,M,M,M,M,M,81.11,LPMT 261600Z 34007KT CAVOK 27/15 Q1023
LPMT,2017-10-26 17:00,-9.0359,38.7039,78.80,57.20,47.52,350.00,7.00,0.00,30.21,M,6.21,M,M,M,M,M,M,M,M,M,M,M,M,M,M,M,M,78.80,LPMT 261700Z 35007KT CAVOK 26/14 Q1023
LPMT,2017-10-26 18:00,-9.0359,38.7039,77.00,55.40,47.25,10.00,7.00,0.00,30.21,M,6.21,M,M,M,M,M,M,M,M,M,M,M,M,M,M,M,M,77.00,LPMT 261800Z 01007KT CAVOK 25/13 Q1023
LPMT,2017-10-26 19:00,-9.0359,38.7039,71.60,57.20,60.44,20.00,7.00,0.00,30.24,M,6.21,M,M,M,M,M,M,M,M,M,M,M,M,M,M,M,M,71.60,LPMT 261900Z 02007KT CAVOK 22/14 Q1024
LPMT,2017-10-26 20:00,-9.0359,38.7039,69.80,57.20,64.26,30.00,8.00,0.00,30.24,M,6.21,M,M,M,M,M,M,M,M,M,M,M,M,M,M,M,M,69.80,LPMT 262000Z 03008KT CAVOK 21/14 Q1024
LPMT,2017-10-26 21:00,-9.0359,38.7039,68.00,55.40,64.04,M,1.00,0.00,30.27,M,6.21,M,M,M,M,M,M,M,M,M,M,M,M,M,M,M,M,68.00,LPMT 262100Z VRB01KT CAVOK 20/13 Q1025
LPMT,2017-10-26 22:00,-9.0359,38.7039,64.40,57.20,77.45,360.00,3.00,0.00,30.27,M,6.21,M,M,M,M,M,M,M,M,M,M,M,M,M,M,M,M,64.40,LPMT 262200Z 36003KT CAVOK 18/14 Q1025
LPMT,2017-10-26 23:00,-9.0359,38.7039,68.00,55.40,64.04,30.00,8.00,0.00,30.27,M,6.21,M,M,M,M,M,M,M,M,M,M,M,M,M,M,M,M,68.00,LPMT 262300Z 03008KT CAVOK 20/13 Q1025
LPMT,2017-10-27 00:00,-9.0359,38.7039,66.20,55.40,68.15,30.00,6.00,0.00,30.27,M,6.21,M,M,M,M,M,M,M,M,M,M,M,M,M,M,M,M,66.20,LPMT 270000Z 03006KT CAVOK 19/13 Q1025
LPMT,2017-10-27 01:00,-9.0359,38.7039,66.20,53.60,63.82,40.00,8.00,0.00,30.24,M,6.21,M,M,M,M,M,M,M,M,M,M,M,M,M,M,M,M,66.20,LPMT 270100Z 04008KT CAVOK 19/12 Q1024
LPMT,2017-10-27 02:00,-9.0359,38.7039,64.40,51.80,63.60,30.00,8.00,0.00,30.24,M,6.21,M,M,M,M,M,M,M,M,M,M,M,M,M,M,M,M,64.40,LPMT 270200Z 03008KT CAVOK 18/11 Q1024
LPMT,2017-10-27 03:00,-9.0359,38.7039,60.80,55.40,82.37,20.00,4.00,0.00,30.24,M,6.21,M,M,M,M,M,M,M,M,M,M,M,M,M,M,M,M,60.80,LPMT 270300Z 02004KT CAVOK 16/13 Q1024
LPMT,2017-10-27 04:00,-9.0359,38.7039,59.00,53.60,82.25,45.00,5.00,0.00,30.24,M,6.21,M,M,M,M,M,M,M,M,M,M,M,M,M,M,M,M,59.00,LPMT 270400Z 045005KT CAVOK 15/12 Q1024
LPMT,2017-10-27 05:00,-9.0359,38.7039,59.00,51.80,76.98,20.00,3.00,0.00,30.24,M,6.21,M,M,M,M,M,M,M,M,M,M,M,M,M,M,M,M,59.00,LPMT 270500Z 02003KT CAVOK 15/11 Q1024
LPMT,2017-10-27 06:00,-9.0359,38.7039,59.00,53.60,82.25,30.00,4.00,0.00,30.27,M,6.21,M,M,M,M,M,M,M,M,M,M,M,M,M,M,M,M,59.00,LPMT 270600Z 03004KT CAVOK 15/12 Q1025
LPMT,2017-10-27 07:00,-9.0359,38.7039,59.00,53.60,82.25,30.00,6.00,0.00,30.27,M,6.21,M,M,M,M,M,M,M,M,M,M,M,M,M,M,M,M,59.00,LPMT 270700Z 03006KT CAVOK 15/12 Q1025
LPMT,2017-10-27 08:00,-9.0359,38.7039,62.60,53.60,72.38,30.00,7.00,0.00,30.30,M,6.21,M,M,M,M,M,M,M,M,M,M,M,M,M,M,M,M,62.60,LPMT 270800Z 03007KT CAVOK 17/12 Q1026
LPMT,2017-10-27 09:00,-9.0359,38.7039,68.00,53.60,59.97,30.00,8.00,0.00,30.30,M,6.21,M,M,M,M,M,M,M,M,M,M,M,M,M,M,M,M,68.00,LPMT 270900Z 03008KT CAVOK 20/12 Q1026
LPMT,2017-10-27 10:00,-9.0359,38.7039,69.80,51.80,52.77,30.00,9.00,0.00,30.33,M,6.21,M,M,M,M,M,M,M,M,M,M,M,M,M,M,M,M,69.80,LPMT 271000Z 03009KT CAVOK 21/11 Q1027
LPMT,2017-10-27 11:00,-9.0359,38.7039,73.40,53.60,49.90,10.00,7.00,0.00,30.30,M,6.21,M,M,M,M,M,M,M,M,M,M,M,M,M,M,M,M,73.40,LPMT 271100Z 01007KT CAVOK 23/12 Q1026
LPMT,2017-10-27 12:00,-9.0359,38.7039,77.00,51.80,41.42,10.00,7.00,0.00,30.30,M,6.21,M,M,M,M,M,M,M,M,M,M,M,M,M,M,M,M,77.00,LPMT 271200Z 01007KT CAVOK 25/11 Q1026
LPMT,2017-10-27 13:00,-9.0359,38.7039,82.40,53.60,37.07,10.00,6.00,0.00,30.24,M,6.21,M,M,M,M,M,M,M,M,M,M,M,M,M,M,M,M,82.40,LPMT 271300Z 01006KT 310V050 CAVOK 28/12 Q1024
LPMT,2017-10-27 14:00,-9.0359,38.7039,86.00,53.60,33.01,10.00,7.00,0.00,30.21,M,6.21,M,M,M,M,M,M,M,M,M,M,M,M,M,M,M,M,84.18,LPMT 271400Z 01007KT 340V040 CAVOK 30/12 Q1023
LPMT,2017-10-27 15:00,-9.0359,38.7039,89.60,51.80,27.56,20.00,8.00,0.00,30.21,M,6.21,M,M,M,M,M,M,M,M,M,M,M,M,M,M,M,M,87.00,LPMT 271500Z 02008KT CAVOK 32/11 Q1023
LPMT,2017-10-27 16:00,-9.0359,38.7039,84.20,46.40,26.76,30.00,6.00,0.00,30.21,M,6.21,M,M,M,M,M,M,M,M,M,M,M,M,M,M,M,M,81.87,LPMT 271600Z 03006KT CAVOK 29/08 Q1023
LPMT,2017-10-27 17:00,-9.0359,38.7039,80.60,44.60,28.08,50.00,5.00,0.00,30.21,M,6.21,M,M,M,M,M,M,M,M,M,M,M,M,M,M,M,M,79.42,LPMT 271700Z 05005KT CAVOK 27/07 Q1023
LPMT,2017-10-27 18:00,-9.0359,38.7039,75.20,50.00,41.14,40.00,6.00,0.00,30.21,M,6.21,M,M,M,M,M,M,M,M,M,M,M,M,M,M,M,M,75.20,LPMT 271800Z 04006KT CAVOK 24/10 Q1023
LPMT,2017-10-27 19:00,-9.0359,38.7039,71.60,53.60,53.03,M,2.00,0.00,30.21,M,6.21,M,M,M,M,M,M,M,M,M,M,M,M,M,M,M,M,71.60,LPMT 271900Z VRB02KT CAVOK 22/12 Q1023
LPMT,2017-10-27 20:00,-9.0359,38.7039,62.60,53.60,72.38,280.00,3.00,0.00,30.21,M,6.21,M,M,M,M,M,M,M,M,M,M,M,M,M,M,M,M,62.60,LPMT 272000Z 28003KT CAVOK 17/12 Q1023
LPMT,2017-10-27 21:00,-9.0359,38.7039,59.00,53.60,82.25,330.00,3.00,0.00,30.21,M,6.21,M,M,M,M,M,M,M,M,M,M,M,M,M,M,M,M,59.00,LPMT 272100Z 33003KT 310V020 CAVOK 15/12 Q1023
LPMT,2017-10-27 23:00,-9.0359,38.7039,57.20,51.80,82.12,340.00,4.00,0.00,30.24,M,6.21,M,M,M,M,M,M,M,M,M,M,M,M,M,M,M,M,57.20,LPMT 272300Z 34004KT CAVOK 14/11 Q1024
LPMT,2017-10-28 00:00,-9.0359,38.7039,64.40,50.00,59.50,10.00,5.00,0.00,30.21,M,6.21,M,M,M,M,M,M,M,M,M,M,M,M,M,M,M,M,64.40,LPMT 280000Z 01005KT CAVOK 18/10 Q1023
LPMT,2017-10-28 01:00,-9.0359,38.7039,64.40,51.80,63.60,40.00,3.00,0.00,30.21,M,6.21,M,M,M,M,M,M,M,M,M,M,M,M,M,M,M,M,64.40,LPMT 280100Z 04003KT 360V070 CAVOK 18/11 Q1023
LPMT,2017-10-28 02:00,-9.0359,38.7039,66.20,50.00,55.88,50.00,4.00,0.00,30.21,M,6.21,M,M,M,M,M,M,M,M,M,M,M,M,M,M,M,M,66.20,LPMT 280200Z 05004KT 030V100 CAVOK 19/10 Q1023
LPMT,2017-10-28 03:00,-9.0359,38.7039,57.20,50.00,76.82,M,2.00,0.00,30.18,M,6.21,M,M,M,M,M,M,M,M,M,M,M,M,M,M,M,M,57.20,LPMT 280300Z VRB02KT CAVOK 14/10 Q1022
LPMT,2017-10-28 04:00,-9.0359,38.7039,59.00,50.00,72.01,360.00,3.00,0.00,30.18,M,6.21,M,M,M,M,M,M,M,M,M,M,M,M,M,M,M,M,59.00,LPMT 280400Z 36003KT 320V020 CAVOK 15/10 Q1022
LPMT,2017-10-28 06:00,-9.0359,38.7039,62.60,50.00,63.38,30.00,8.00,0.00,30.18,M,6.21,M,M,M,M,M,M,M,M,M,M,M,M,M,M,M,M,62.60,LPMT 280600Z 03008KT CAVOK 17/10 Q1022
LPMT,2017-10-28 07:00,-9.0359,38.7039,64.40,48.20,55.63,40.00,8.00,0.00,30.18,M,6.21,M,M,M,M,M,M,M,M,M,M,M,M,M,M,M,M,64.40,LPMT 280700Z 04008KT CAVOK 18/09 Q1022
LPMT,2017-10-28 08:00,-9.0359,38.7039,64.40,50.00,59.50,30.00,7.00,0.00,30.18,M,6.21,M,M,M,M,M,M,M,M,M,M,M,M,M,M,M,M,64.40,LPMT 280800Z 03007KT CAVOK 18/10 Q1022
LPMT,2017-10-28 09:00,-9.0359,38.7039,66.20,51.80,59.74,30.00,7.00,0.00,30.21,M,6.21,M,M,M,M,M,M,M,M,M,M,M,M,M,M,M,M,66.20,LPMT 280900Z 03007KT CAVOK 19/11 Q1023
LPMT,2017-10-28 10:00,-9.0359,38.7039,69.80,50.00,49.37,30.00,9.00,0.00,30.21,M,6.21,M,M,M,M,M,M,M,M,M,M,M,M,M,M,M,M,69.80,LPMT 281000Z 03009KT CAVOK 21/10 Q1023
LPMT,2017-10-28 11:00,-9.0359,38.7039,73.40,48.20,40.85,20.00,9.00,0.00,30.18,M,6.21,M,M,M,M,M,M,M,M,M,M,M,M,M,M,M,M,72.36,LPMT 281100Z 02009KT CAVOK 23/09 Q1022
LPMT,2017-10-28 13:00,-9.0359,38.7039,82.40,50.00,32.46,10.00,9.00,0.00,30.12,M,6.21,M,M,M,M,M,M,M,M,M,M,M,M,M,M,M,M,80.99,LPMT 281300Z 01009KT CAVOK 28/10 Q1020
LPMT,2017-10-28 14:00,-9.0359,38.7039,84.20,50.00,30.62,360.00,7.00,0.00,30.12,M,6.21,M,M,M,M,M,M,M,M,M,M,M,M,M,M,M,M,82.24,LPMT 281400Z 36007KT CAVOK 29/10 Q1020
LPMT,2017-10-28 15:00,-9.0359,38.7039,86.00,48.20,27.03,360.00,7.00,0.00,30.09,M,6.21,M,M,M,M,M,M,M,M,M,M,M,M,M,M,M,M,83.40,LPMT 281500Z 36007KT CAVOK 30/09 Q1019
LPMT,2017-10-28 16:00,-9.0359,38.7039,86.00,44.60,23.59,360.00,7.00,0.00,30.09,M,6.21,M,M,M,M,M,M,M,M,M,M,M,M,M,M,M,M,83.07,LPMT 281600Z 36007KT CAVOK 30/07 Q1019
LPMT,2017-10-28 17:00,-9.0359,38.7039,84.20,42.80,23.33,360.00,6.00,0.00,30.09,M,6.21,M,M,M,M,M,M,M,M,M,M,M,M,M,M,M,M,81.61,LPMT 281700Z 36006KT CAVOK 29/06 Q1019
LPMT,2017-10-28 18:00,-9.0359,38.7039,77.00,46.40,33.85,350.00,5.00,0.00,30.09,M,6.21,M,M,M,M,M,M,M,M,M,M,M,M,M,M,M,M,75.99,LPMT 281800Z 35005KT CAVOK 25/08 Q1019
LPMT,2017-10-28 19:00,-9.0359,38.7039,73.40,50.00,43.69,360.00,5.00,0.00,30.12,M,6.21,M,M,M,M,M,M,M,M,M,M,M,M,M,M,M,M,73.40,LPMT 281900Z 36005KT CAVOK 23/10 Q1020
LPMT,2017-10-28 20:00,-9.0359,38.7039,64.40,50.00,59.50,M,1.00,0.00,30.12,M,6.21,M,M,M,M,M,M,M,M,M,M,M,M,M,M,M,M,64.40,LPMT 282000Z VRB01KT CAVOK 18/10 Q1020
LPMT,2017-10-28 21:00,-9.0359,38.7039,60.80,50.00,67.54,110.00,2.00,0.00,30.12,M,6.21,M,M,M,M,M,M,M,M,M,M,M,M,M,M,M,M,60.80,LPMT 282100Z 11002KT CAVOK 16/10 Q1020
LPMT,2017-10-28 22:00,-9.0359,38.7039,64.40,50.00,59.50,20.00,7.00,0.00,30.12,M,6.21,M,M,M,M,M,M,M,M,M,M,M,M,M,M,M,M,64.40,LPMT 282200Z 02007KT CAVOK 18/10 Q1020
LPMT,2017-10-28 23:00,-9.0359,38.7039,64.40,53.60,67.95,10.00,8.00,0.00,30.12,M,6.21,M,M,M,M,M,M,M,M,M,M,M,M,M,M,M,M,64.40,LPMT 282300Z 01008KT CAVOK 18/12 Q1020
LPMT,2017-10-29 00:00,-9.0359,38.7039,66.20,51.80,59.74,20.00,9.00,0.00,30.12,M,6.21,M,M,M,M,M,M,M,M,M,M,M,M,M,M,M,M,66.20,LPMT 290000Z 02009KT CAVOK 19/11 Q1020
LPMT,2017-10-29 02:00,-9.0359,38.7039,60.80,50.00,67.54,10.00,5.00,0.00,30.12,M,6.21,M,M,M,M,M,M,M,M,M,M,M,M,M,M,M,M,60.80,LPMT 290200Z 01005KT CAVOK 16/10 Q1020
LPMT,2017-10-29 04:00,-9.0359,38.7039,59.00,50.00,72.01,20.00,5.00,0.00,30.12,M,6.21,M,M,M,M,M,M,M,M,M,M,M,M,M,M,M,M,59.00,LPMT 290400Z 02005KT CAVOK 15/10 Q1020
LPMT,2017-10-29 06:00,-9.0359,38.7039,57.20,50.00,76.82,20.00,7.00,0.00,30.12,M,6.21,M,M,M,M,M,M,M,M,M,M,M,M,M,M,M,M,57.20,LPMT 290600Z 02007KT CAVOK 14/10 Q1020
LPMT,2017-10-29 08:00,-9.0359,38.7039,59.00,50.00,72.01,30.00,8.00,0.00,30.15,M,6.21,M,M,M,M,M,M,M,M,M,M,M,M,M,M,M,M,59.00,LPMT 290800Z 03008KT CAVOK 15/10 Q1021
LPMT,2017-10-29 09:00,-9.0359,38.7039,64.40,48.20,55.63,30.00,10.00,0.00,30.15,M,6.21,M,M,M,M,M,M,M,M,M,M,M,M,M,M,M,M,64.40,LPMT 290900Z 03010KT CAVOK 18/09 Q1021
LPMT,2017-10-29 10:00,-9.0359,38.7039,66.20,44.60,45.60,30.00,11.00,0.00,30.15,M,6.21,M,M,M,M,M,M,M,M,M,M,M,M,M,M,M,M,66.20,LPMT 291000Z 03011KT CAVOK 19/07 Q1021
LPMT,2017-10-29 11:00,-9.0359,38.7039,69.80,46.40,43.13,10.00,7.00,0.00,30.15,M,6.21,M,M,M,M,M,M,M,M,M,M,M,M,M,M,M,M,69.80,LPMT 291100Z 01007KT CAVOK 21/08 Q1021
LPMT,2017-10-29 12:00,-9.0359,38.7039,73.40,48.20,40.85,360.00,8.00,0.00,30.12,M,6.21,M,M,M,M,M,M,M,M,M,M,M,M,M,M,M,M,72.36,LPMT 291200Z 36008KT CAVOK 23/09 Q1020
LPMT,2017-10-29 13:00,-9.0359,38.7039,75.20,48.20,38.46,340.00,6.00,0.00,30.09,M,6.21,M,M,M,M,M,M,M,M,M,M,M,M,M,M,M,M,75.20,LPMT 291300Z 34006KT 310V020 CAVOK 24/09 Q1019
LPMT,2017-10-29 14:00,-9.0359,38.7039,77.00,46.40,33.85,340.00,7.00,0.00,30.09,M,6.21,M,M,M,M,M,M,M,M,M,M,M,M,M,M,M,M,75.99,LPMT 291400Z 34007KT CAVOK 25/08 Q1019
LPMT,2017-10-29 15:00,-9.0359,38.7039,80.60,46.40,30.07,330.00,5.00,0.00,30.06,M,6.21,M,M,M,M,M,M,M,M,M,M,M,M,M,M,M,M,79.56,LPMT 291500Z 33005KT CAVOK 27/08 Q1018
LPMT,2017-10-29 16:00,-9.0359,38.7039,78.80,53.60,41.69,290.00,4.00,0.00,30.03,M,6.21,M,M,M,M,M,M,M,M,M,M,M,M,M,M,M,M,78.80,LPMT 291600Z 29004KT 240V320 CAVOK 26/12 Q1017
LPMT,2017-10-29 17:00,-9.0359,38.7039,73.40,55.40,53.29,280.00,5.00,0.00,30.03,M,6.21,M,M,M,M,M,M,M,M,M,M,M,M,M,M,M,M,73.40,LPMT 291700Z 28005KT CAVOK 23/13 Q1017
LPMT,2017-10-29 18:00,-9.0359,38.7039,71.60,50.00,46.43,330.00,6.00,0.00,30.03,M,6.21,M,M,M,M,M,M,M,M,M,M,M,M,M,M,M,M,71.60,LPMT 291800Z 33006KT CAVOK 22/10 Q1017
LPMT,2017-10-29 19:00,-9.0359,38.7039,69.80,48.20,46.16,340.00,6.00,0.00,30.03,M,6.21,M,M,M,M,M,M,M,M,M,M,M,M,M,M,M,M,69.80,LPMT 291900Z 34006KT CAVOK 21/09 Q1017
LPMT,2017-10-29 20:00,-9.0359,38.7039,64.40,48.20,55.63,M,1.00,0.00,30.03,M,6.21,M,M,M,M,M,M,M,M,M,M,M,M,M,M,M,M,64.40,LPMT 292000Z VRB01KT CAVOK 18/09 Q1017
LPMT,2017-10-29 21:00,-9.0359,38.7039,60.80,44.60,55.12,360.00,2.00,0.00,30.03,M,6.21,M,M,M,M,M,M,M,M,M,M,M,M,M,M,M,M,60.80,LPMT 292100Z 36002KT CAVOK 16/07 Q1017
LPMT,2017-10-29 22:00,-9.0359,38.7039,55.40,46.40,71.64,70.00,3.00,0.00,30.03,M,6.21,M,M,M,M,M,M,M,M,M,M,M,M,M,M,M,M,55.40,LPMT 292200Z 07003KT CAVOK 13/08 Q1017
LPMT,2017-10-29 23:00,-9.0359,38.7039,53.60,46.40,76.50,130.00,3.00,0.00,30.03,M,6.21,M,M,M,M,M,M,M,M,M,M,M,M,M,M,M,M,53.60,LPMT 292300Z 13003KT CAVOK 12/08 Q1017
LPMT,2017-10-30 00:00,-9.0359,38.7039,55.40,48.20,76.66,100.00,3.00,0.00,30.03,M,6.21,M,M,M,M,M,M,M,M,M,M,M,M,M,M,M,M,55.40,LPMT 300000Z 10003KT CAVOK 13/09 Q1017
LPMT,2017-10-30 01:00,-9.0359,38.7039,51.80,48.20,87.47,M,2.00,0.00,30.00,M,6.21,M,M,M,M,M,M,M,M,M,M,M,M,M,M,M,M,51.80,LPMT 300100Z VRB02KT CAVOK 11/09 Q1016
LPMT,2017-10-30 02:00,-9.0359,38.7039,50.00,46.40,87.37,30.00,3.00,0.00,30.00,M,6.21,M,M,M,M,M,M,M,M,M,M,M,M,M,M,M,M,49.27,LPMT 300200Z 03003KT CAVOK 10/08 Q1016
LPMT,2017-10-30 04:00,-9.0359,38.7039,51.80,48.20,87.47,30.00,5.00,0.00,29.97,M,6.21,M,M,M,M,M,M,M,M,M,M,M,M,M,M,M,M,51.80,LPMT 300400Z 03005KT CAVOK 11/09 Q1015
LPMT,2017-10-30 05:00,-9.0359,38.7039,55.40,46.40,71.64,30.00,7.00,0.00,29.97,M,6.21,M,M,M,M,M,M,M,M,M,M,M,M,M,M,M,M,55.40,LPMT 300500Z 03007KT CAVOK 13/08 Q1015
LPMT,2017-10-30 06:00,-9.0359,38.7039,53.60,44.60,71.45,30.00,5.00,0.00,29.97,M,6.21,M,M,M,M,M,M,M,M,M,M,M,M,M,M,M,M,53.60,LPMT 300600Z 03005KT CAVOK 12/07 Q1015
LPMT,2017-10-30 07:00,-9.0359,38.7039,53.60,42.80,66.70,30.00,7.00,0.00,30.00,M,6.21,M,M,M,M,M,M,M,M,M,M,M,M,M,M,M,M,53.60,LPMT 300700Z 03007KT CAVOK 12/06 Q1016
LPMT,2017-10-30 08:00,-9.0359,38.7039,57.20,44.60,62.69,30.00,8.00,0.00,30.00,M,6.21,M,M,M,M,M,M,M,M,M,M,M,M,M,M,M,M,57.20,LPMT 300800Z 03008KT CAVOK 14/07 Q1016
LPMT,2017-10-30 09:00,-9.0359,38.7039,60.80,44.60,55.12,40.00,7.00,0.00,30.03,M,6.21,M,M,M,M,M,M,M,M,M,M,M,M,M,M,M,M,60.80,LPMT 300900Z 04007KT CAVOK 16/07 Q1017
LPMT,2017-10-30 10:00,-9.0359,38.7039,64.40,46.40,51.98,30.00,9.00,0.00,30.03,M,6.21,M,M,M,M,M,M,M,M,M,M,M,M,M,M,M,M,64.40,LPMT 301000Z 03009KT CAVOK 18/08 Q1017
LPMT,2017-10-30 11:00,-9.0359,38.7039,66.20,46.40,48.83,10.00,8.00,0.00,30.00,M,6.21,M,M,M,M,M,M,M,M,M,M,M,M,M,M,M,M,66.20,LPMT 301100Z 01008KT 340V040 CAVOK 19/08 Q1016
LPMT,2017-10-30 12:00,-9.0359,38.7039,69.80,46.40,43.13,10.00,9.00,0.00,29.97,M,6.21,M,M,M,M,M,M,M,M,M,M,M,M,M,M,M,M,69.80,LPMT 301200Z 01009KT CAVOK 21/08 Q1015
LPMT,2017-10-30 13:00,-9.0359,38.7039,73.40,48.20,40.85,360.00,9.00,0.00,29.97,M,6.21,M,M,M,M,M,M,M,M,M,M,M,M,M,M,M,M,72.36,LPMT 301300Z 36009KT CAVOK 23/09 Q1015
LPMT,2017-10-30 14:00,-9.0359,38.7039,75.20,48.20,38.46,360.00,8.00,0.00,29.94,M,6.21,M,M,M,M,M,M,M,M,M,M,M,M,M,M,M,M,75.20,LPMT 301400Z 36008KT 330V030 CAVOK 24/09 Q1014
LPMT,2017-10-30 15:00,-9.0359,38.7039,77.00,48.20,36.22,350.00,7.00,0.00,29.91,M,6.21,M,M,M,M,M,M,M,M,M,M,M,M,M,M,M,M,77.00,LPMT 301500Z 35007KT CAVOK 25/09 Q1013
LPMT,2017-10-30 16:00,-9.0359,38.7039,77.00,48.20,36.22,350.00,7.00,0.00,29.91,M,6.21,M,M,M,M,M,M,M,M,M,M,M,M,M,M,M,M,77.00,LPMT 301600Z 35007KT CAVOK 25/09 Q1013
LPMT,2017-10-30 17:00,-9.0359,38.7039,75.20,48.20,38.46,350.00,7.00,0.00,29.91,M,6.21,M,M,M,M,M,M,M,M,M,M,M,M,M,M,M,M,75.20,LPMT 301700Z 35007KT CAVOK 24/09 Q1013
LPMT,2017-10-30 18:00,-9.0359,38.7039,69.80,50.00,49.37,20.00,6.00,0.00,29.94,M,6.21,M,M,M,M,M,M,M,M,M,M,M,M,M,M,M,M,69.80,LPMT 301800Z 02006KT CAVOK 21/10 Q1014
LPMT,2017-10-30 19:00,-9.0359,38.7039,69.80,48.20,46.16,30.00,10.00,0.00,29.94,M,6.21,M,M,M,M,M,M,M,M,M,M,M,M,M,M,M,M,69.80,LPMT 301900Z 03010KT CAVOK 21/09 Q1014
LPMT,2017-10-30 20:00,-9.0359,38.7039,66.20,50.00,55.88,20.00,8.00,0.00,29.94,M,6.21,M,M,M,M,M,M,M,M,M,M,M,M,M,M,M,M,66.20,LPMT 302000Z 02008KT CAVOK 19/10 Q1014
LPMT,2017-10-30 21:00,-9.0359,38.7039,64.40,48.20,55.63,20.00,7.00,0.00,29.97,M,6.21,M,M,M,M,M,M,M,M,M,M,M,M,M,M,M,M,64.40,LPMT 302100Z 02007KT CAVOK 18/09 Q1015
LPMT,2017-10-30 22:00,-9.0359,38.7039,62.60,50.00,63.38,30.00,6.00,0.00,29.97,M,6.21,M,M,M,M,M,M,M,M,M,M,M,M,M,M,M,M,62.60,LPMT 302200Z 03006KT CAVOK 17/10 Q1015
LPMT,2017-10-30 23:00,-9.0359,38.7039,62.60,50.00,63.38,50.00,3.00,0.00,29.97,M,6.21,M,M,M,M,M,M,M,M,M,M,M,M,M,M,M,M,62.60,LPMT 302300Z 05003KT 020V150 CAVOK 17/10 Q1015
LPMT,2017-10-31 00:00,-9.0359,38.7039,57.20,50.00,76.82,20.00,5.00,0.00,29.97,M,6.21,M,M,M,M,M,M,M,M,M,M,M,M,M,M,M,M,57.20,LPMT 310000Z 02005KT CAVOK 14/10 Q1015
LPMT,2017-10-31 01:00,-9.0359,38.7039,59.00,50.00,72.01,20.00,7.00,0.00,29.97,M,6.21,M,M,M,M,M,M,M,M,M,M,M,M,M,M,M,M,59.00,LPMT 310100Z 02007KT CAVOK 15/10 Q1015
LPMT,2017-10-31 02:00,-9.0359,38.7039,60.80,48.20,63.15,30.00,8.00,0.00,29.97,M,6.21,M,M,M,M,M,M,M,M,M,M,M,M,M,M,M,M,60.80,LPMT 310200Z 03008KT CAVOK 16/09 Q1015
LPMT,2017-10-31 03:00,-9.0359,38.7039,60.80,48.20,63.15,30.00,8.00,0.00,29.97,M,6.21,M,M,M,M,M,M,M,M,M,M,M,M,M,M,M,M,60.80,LPMT 310300Z 03008KT CAVOK 16/09 Q1015
LPMT,2017-10-31 04:00,-9.0359,38.7039,57.20,50.00,76.82,30.00,7.00,0.00,29.97,M,6.21,M,M,M,M,M,M,M,M,M,M,M,M,M,M,M,M,57.20,LPMT 310400Z 03007KT CAVOK 14/10 Q1015
LPMT,2017-10-31 05:00,-9.0359,38.7039,57.20,48.20,71.83,60.00,4.00,0.00,29.97,M,6.21,M,M,M,M,M,M,M,M,M,M,M,M,M,M,M,M,57.20,LPMT 310500Z 06004KT CAVOK 14/09 Q1015
LPMT,2017-10-31 06:00,-9.0359,38.7039,55.40,46.40,71.64,70.00,5.00,0.00,30.00,M,6.21,M,M,M,M,M,M,M,M,M,M,M,M,M,M,M,M,55.40,LPMT 310600Z 07005KT CAVOK 13/08 Q1016
LPMT,2017-10-31 07:00,-9.0359,38.7039,51.80,44.60,76.34,70.00,5.00,0.00,30.00,M,6.21,M,M,M,M,M,M,M,M,M,M,M,M,M,M,M,M,51.80,LPMT 310700Z 07005KT CAVOK 11/07 Q1016
LPMT,2017-10-31 08:00,-9.0359,38.7039,55.40,46.40,71.64,40.00,7.00,0.00,30.03,M,6.21,M,M,M,M,M,M,M,M,M,M,M,M,M,M,M,M,55.40,LPMT 310800Z 04007KT CAVOK 13/08 Q1017
LPMT,2017-10-31 09:00,-9.0359,38.7039,59.00,46.40,62.92,40.00,7.00,0.00,30.03,M,6.21,M,M,M,M,M,M,M,M,M,M,M,M,M,M,M,M,59.00,LPMT 310900Z 04007KT 010V070 CAVOK 15/08 Q1017
LPMT,2017-10-31 10:00,-9.0359,38.7039,62.60,48.20,59.26,20.00,5.00,0.00,30.06,M,6.21,M,M,M,M,M,M,M,M,M,M,M,M,M,M,M,M,62.60,LPMT 311000Z 02005KT 340V070 CAVOK 17/09 Q1018
LPMT,2017-10-31 11:00,-9.0359,38.7039,66.20,50.00,55.88,20.00,4.00,0.00,30.06,M,6.21,M,M,M,M,M,M,M,M,M,M,M,M,M,M,M,M,66.20,LPMT 311100Z 02004KT 300V100 CAVOK 19/10 Q1018
LPMT,2017-10-31 12:00,-9.0359,38.7039,69.80,51.80,52.77,M,3.00,0.00,30.03,M,6.21,M,M,M,M,M,M,M,M,M,M,M,M,M,M,M,M,69.80,LPMT 311200Z VRB03KT CAVOK 21/11 Q1017
LPMT,2017-10-31 13:00,-9.0359,38.7039,69.80,51.80,52.77,330.00,3.00,0.00,30.03,M,6.21,M,M,M,M,M,M,M,M,M,M,M,M,M,M,M,M,69.80,LPMT 311300Z 33003KT 290V020 CAVOK 21/11 Q1017
LPMT,2017-10-31 14:00,-9.0359,38.7039,71.60,51.80,49.64,290.00,5.00,0.00,30.03,M,6.21,M,FEW,M,M,M,3000.00,M,M,M,M,M,M,M,M,M,M,71.60,LPMT 311400Z 29005KT 9999 FEW030 22/11 Q1017
LPMT,2017-10-31 15:00,-9.0359,38.7039,71.60,57.20,60.44,270.00,6.00,0.00,30.00,M,6.21,M,FEW,M,M,M,2800.00,M,M,M,M,M,M,M,M,M,M,71.60,LPMT 311500Z 27006KT 9999 FEW028 22/14 Q1016
LPMT,2017-10-31 16:00,-9.0359,38.7039,69.80,60.80,73.09,280.00,8.00,0.00,30.03,M,6.21,M,M,M,M,M,M,M,M,M,M,M,M,M,M,M,M,69.80,LPMT 311600Z 28008KT CAVOK 21/16 Q1017
LPMT,2017-10-31 17:00,-9.0359,38.7039,68.00,60.80,77.75,260.00,9.00,0.00,30.00,M,6.21,M,M,M,M,M,M,M,M,M,M,M,M,M,M,M,M,68.00,LPMT 311700Z 26009KT CAVOK 20/16 Q1016
LPMT,2017-10-31 18:00,-9.0359,38.7039,66.20,60.80,82.74,250.00,7.00,0.00,30.00,M,6.21,M,M,M,M,M,M,M,M,M,M,M,M,M,M,M,M,66.20,LPMT 311800Z 25007KT CAVOK 19/16 Q1016
LPMT,2017-10-31 19:00,-9.0359,38.7039,66.20,62.60,88.18,250.00,5.00,0.00,30.03,M,6.21,M,M,M,M,M,M,M,M,M,M,M,M,M,M,M,M,66.20,LPMT 311900Z 25005KT CAVOK 19/17 Q1017
LPMT,2017-10-31 20:00,-9.0359,38.7039,64.40,60.80,88.09,190.00,2.00,0.00,30.03,M,6.21,M,M,M,M,M,M,M,M,M,M,M,M,M,M,M,M,64.40,LPMT 312000Z 19002KT CAVOK 18/16 Q1017
LPMT,2017-10-31 21:00,-9.0359,38.7039,62.60,60.80,93.83,180.00,5.00,0.00,30.06,M,5.59,M,NSC,M,M,M,M,M,M,M,M,M,M,M,M,M,M,62.60,LPMT 312100Z 18005KT 9000 NSC 17/16 Q1018
LPMT,2017-10-31 22:00,-9.0359,38.7039,60.80,59.00,93.79,210.00,2.00,0.00,30.06,M,4.97,M,NSC,M,M,M,M,M,M,M,MIFG,M,M,M,M,M,M,60.80,LPMT 312200Z 21002KT 8000 MIFG NSC 16/15 Q1018
LPMT,2017-10-31 23:00,-9.0359,38.7039,60.80,60.80,100.00,130.00,4.00,0.00,30.06,M,3.73,M,NSC,M,M,M,M,M,M,M,M,M,M,M,M,M,M,60.80,LPMT 312300Z 13004KT 6000 NSC 16/16 Q1018
LPMT,2017-11-01 00:00,-9.0359,38.7039,60.80,59.00,93.79,130.00,3.00,0.00,30.06,M,3.11,M,NSC,M,M,M,M,M,M,M,MIFG BR,M,M,M,M,M,M,60.80,LPMT 010000Z 13003KT 5000 MIFG BR NSC 16/15 Q1018
LPMT,2017-11-01 01:00,-9.0359,38.7039,57.20,57.20,100.00,110.00,4.00,0.00,30.03,M,3.11,M,NSC,M,M,M,M,M,M,M,MIFG BR,M,M,M,M,M,M,57.20,LPMT 010100Z 11004KT 5000 MIFG BR NSC 14/14 Q1017
LPMT,2017-11-01 02:00,-9.0359,38.7039,57.20,57.20,100.00,M,2.00,0.00,30.03,M,3.11,M,NSC,M,M,M,M,M,M,M,BR,M,M,M,M,M,M,57.20,LPMT 010200Z VRB02KT 5000 BR NSC 14/14 Q1017
LPMT,2017-11-01 03:00,-9.0359,38.7039,55.40,53.60,93.65,M,1.00,0.00,30.03,M,3.73,M,NSC,M,M,M,M,M,M,M,M,M,M,M,M,M,M,55.40,LPMT 010300Z VRB01KT 6000 NSC 13/12 Q1017
LPMT,2017-11-01 04:00,-9.0359,38.7039,57.20,57.20,100.00,30.00,3.00,0.00,30.03,M,3.73,M,SCT,M,M,M,2800.00,M,M,M,M,M,M,M,M,M,M,57.20,LPMT 010400Z 03003KT 6000 SCT028 14/14 Q1017
LPMT,2017-11-01 05:00,-9.0359,38.7039,57.20,55.40,93.69,40.00,5.00,0.00,30.03,M,3.11,M,SCT,M,M,M,2500.00,M,M,M,BR,M,M,M,M,M,M,57.20,LPMT 010500Z 04005KT 5000 BR SCT025 14/13 Q1017
LPMT,2017-11-01 06:00,-9.0359,38.7039,55.40,55.40,100.00,40.00,7.00,0.00,30.03,M,1.12,M,SCT,BKN,M,M,700.00,2500.00,M,M,BR,M,M,M,M,M,M,55.40,LPMT 010600Z 04007KT 1800 BR SCT007 BKN025 13/13 Q1017
LPMT,2017-11-01 07:00,-9.0359,38.7039,55.40,55.40,100.00,40.00,4.00,0.00,30.03,M,1.55,M,FEW,BKN,M,M,700.00,2800.00,M,M,PRFG BR,M,M,M,M,M,M,55.40,LPMT 010700Z 04004KT 2500 1200NW PRFG BR FEW007 BKN028 13/13 Q1017
LPMT,2017-11-01 08:00,-9.0359,38.7039,57.20,57.20,100.00,20.00,6.00,0.00,30.06,M,2.49,M,FEW,BKN,M,M,800.00,3500.00,M,M,PRFG BR,M,M,M,M,M,M,57.20,LPMT 010800Z 02006KT 4000 1500NW PRFG BR FEW008 BKN035 14/14 Q1018
LPMT,2017-11-01 09:00,-9.0359,38.7039,59.00,57.20,93.74,20.00,6.00,0.00,30.06,M,2.49,M,SCT,BKN,M,M,2600.00,3200.00,M,M,BR,M,M,M,M,M,M,59.00,LPMT 010900Z 02006KT 4000 BR SCT026 BKN032 15/14 Q1018
LPMT,2017-11-01 10:00,-9.0359,38.7039,60.80,57.20,87.92,40.00,4.00,0.00,30.06,M,3.11,M,SCT,BKN,M,M,3000.00,4800.00,M,M,BR,M,M,M,M,M,M,60.80,LPMT 011000Z 04004KT 5000 BR SCT030 BKN048 16/14 Q1018
LPMT,2017-11-01 11:00,-9.0359,38.7039,68.00,59.00,72.92,110.00,4.00,0.00,30.06,M,4.97,M,FEW,BKN,M,M,3000.00,4800.00,M,M,M,M,M,M,M,M,M,68.00,LPMT 011100Z 11004KT 050V160 8000 FEW030 BKN048 20/15 Q1018
LPMT,2017-11-01 12:00,-9.0359,38.7039,69.80,60.80,73.09,150.00,10.00,0.00,30.03,M,6.21,M,FEW,SCT,BKN,M,2500.00,3300.00,4800.00,M,M,M,M,M,M,M,M,69.80,LPMT 011200Z 15010KT 9999 FEW025 SCT033 BKN048 21/16 Q1017
LPMT,2017-11-01 13:00,-9.0359,38.7039,71.60,59.00,64.48,190.00,10.00,0.00,30.00,M,6.21,M,SCT,BKN,M,M,2500.00,3300.00,M,M,M,M,M,M,M,M,M,71.60,LPMT 011300Z 19010KT 9999 SCT025 BKN033 22/15 Q1016
LPMT,2017-11-01 14:00,-9.0359,38.7039,71.60,59.00,64.48,190.00,8.00,0.00,29.97,M,6.21,M,FEW,M,M,M,3300.00,M,M,M,M,M,M,M,M,M,M,71.60,LPMT 011400Z 19008KT 9999 FEW033 22/15 Q1015
LPMT,2017-11-01 16:00,-9.0359,38.7039,69.80,57.20,64.26,180.00,9.00,0.00,29.97,M,6.21,M,FEW,M,M,M,4800.00,M,M,M,M,M,M,M,M,M,M,69.80,LPMT 011600Z 18009KT 9999 FEW048 21/14 Q1015
LPMT,2017-11-01 17:00,-9.0359,38.7039,68.00,60.80,77.75,200.00,7.00,0.00,29.97,M,6.21,M,SCT,M,M,M,2200.00,M,M,M,M,M,M,M,M,M,M,68.00,LPMT 011700Z 20007KT 9999 SCT022 20/16 Q1015
LPMT,2017-11-01 18:00,-9.0359,38.7039,68.00,60.80,77.75,200.00,6.00,0.00,29.97,M,6.21,M,FEW,M,M,M,1800.00,M,M,M,M,M,M,M,M,M,M,68.00,LPMT 011800Z 20006KT 9999 FEW018 20/16 Q1015
LPMT,2017-11-01 19:00,-9.0359,38.7039,66.20,60.80,82.74,210.00,6.00,0.00,29.97,M,6.21,M,SCT,M,M,M,1500.00,M,M,M,M,M,M,M,M,M,M,66.20,LPMT 011900Z 21006KT 9999 SCT015 19/16 Q1015
LPMT,2017-11-01 20:00,-9.0359,38.7039,64.40,59.00,82.62,210.00,4.00,0.00,29.97,M,6.21,M,FEW,M,M,M,1500.00,M,M,M,M,M,M,M,M,M,M,64.40,LPMT 012000Z 21004KT 9999 FEW015 18/15 Q1015
LPMT,2017-11-01 21:00,-9.0359,38.7039,64.40,59.00,82.62,130.00,4.00,0.00,30.00,M,6.21,M,FEW,M,M,M,2000.00,M,M,M,M,M,M,M,M,M,M,64.40,LPMT 012100Z 13004KT 9999 FEW020 18/15 Q1016
LPMT,2017-11-01 22:00,-9.0359,38.7039,62.60,60.80,93.83,160.00,4.00,0.00,30.00,M,6.21,M,FEW,M,M,M,2000.00,M,M,M,M,M,M,M,M,M,M,62.60,LPMT 012200Z 16004KT 9999 FEW020 17/16 Q1016
LPMT,2017-11-01 23:00,-9.0359,38.7039,64.40,60.80,88.09,200.00,4.00,0.00,30.00,M,6.21,M,FEW,M,M,M,2000.00,M,M,M,M,M,M,M,M,M,M,64.40,LPMT 012300Z 20004KT 9999 FEW020 18/16 Q1016
LPMT,2017-11-02 00:00,-9.0359,38.7039,62.60,60.80,93.83,140.00,6.00,0.00,30.00,M,6.21,M,FEW,M,M,M,1800.00,M,M,M,M,M,M,M,M,M,M,62.60,LPMT 020000Z 14006KT 9999 FEW018 17/16 Q1016
LPMT,2017-11-02 01:00,-9.0359,38.7039,62.60,60.80,93.83,150.00,5.00,0.00,29.97,M,6.21,M,SCT,SCT,M,M,1800.00,2800.00,M,M,M,M,M,M,M,M,M,62.60,LPMT 020100Z 15005KT 9999 SCT018 SCT028 17/16 Q1015
LPMT,2017-11-02 02:00,-9.0359,38.7039,62.60,60.80,93.83,160.00,5.00,0.00,29.97,M,6.21,M,FEW,SCT,M,M,1500.00,4500.00,M,M,M,M,M,M,M,M,M,62.60,LPMT 020200Z 16005KT 9999 FEW015 SCT045 17/16 Q1015
LPMT,2017-11-02 03:00,-9.0359,38.7039,62.60,60.80,93.83,170.00,5.00,0.00,29.97,M,6.21,M,FEW,M,M,M,1500.00,M,M,M,M,M,M,M,M,M,M,62.60,LPMT 020300Z 17005KT 9999 FEW015 17/16 Q1015
LPMT,2017-11-02 04:00,-9.0359,38.7039,62.60,60.80,93.83,150.00,4.00,0.00,29.97,M,6.21,M,SCT,M,M,M,4500.00,M,M,M,M,M,M,M,M,M,M,62.60,LPMT 020400Z 15004KT 9999 SCT045 17/16 Q1015
LPMT,2017-11-02 05:00,-9.0359,38.7039,60.80,60.80,100.00,110.00,5.00,0.00,29.94,M,6.21,M,FEW,BKN,M,M,2000.00,4500.00,M,M,M,M,M,M,M,M,M,60.80,LPMT 020500Z 11005KT 9999 FEW020 BKN045 16/16 Q1014
LPMT,2017-11-02 06:00,-9.0359,38.7039,62.60,60.80,93.83,150.00,5.00,0.00,29.94,M,6.21,M,FEW,BKN,M,M,2000.00,4800.00,M,M,M,M,M,M,M,M,M,62.60,LPMT 020600Z 15005KT 9999 FEW020 BKN048 17/16 Q1014
LPMT,2017-11-02 07:00,-9.0359,38.7039,62.60,59.00,88.00,170.00,7.00,0.00,29.94,M,6.21,M,FEW,BKN,M,M,2000.00,4800.00,M,M,M,M,M,M,M,M,M,62.60,LPMT 020700Z 17007KT 9999 FEW020 BKN048 17/15 Q1014
LPMT,2017-11-02 08:00,-9.0359,38.7039,62.60,60.80,93.83,130.00,5.00,0.00,29.94,M,6.21,M,FEW,SCT,BKN,M,900.00,1500.00,4500.00,M,M,M,M,M,M,M,M,62.60,LPMT 020800Z 13005KT 9999 FEW009 SCT015 BKN045 17/16 Q1014
LPMT,2017-11-02 09:00,-9.0359,38.7039,64.40,60.80,88.09,210.00,5.00,0.00,29.97,M,6.21,M,SCT,SCT,M,M,1500.00,4800.00,M,M,M,M,M,M,M,M,M,64.40,LPMT 020900Z 21005KT 9999 SCT015 SCT048 18/16 Q1015
LPMT,2017-11-02 10:00,-9.0359,38.7039,64.40,60.80,88.09,180.00,7.00,0.00,29.97,M,6.21,M,FEW,SCT,M,M,1500.00,4500.00,M,M,M,M,M,M,M,M,M,64.40,LPMT 021000Z 18007KT 150V210 9999 FEW015 SCT045 18/16 Q1015
LPMT,2017-11-02 11:00,-9.0359,38.7039,66.20,60.80,82.74,210.00,8.00,0.00,29.97,M,6.21,M,SCT,SCT,M,M,1700.00,4500.00,M,M,VCSH,M,M,M,M,M,M,66.20,LPMT 021100Z 21008KT 9999 3000SW VCSH SCT017 SCT045 19/16 Q1015
LPMT,2017-11-02 12:00,-9.0359,38.7039,66.20,60.80,82.74,210.00,7.00,0.00,29.97,M,6.21,M,SCT,SCT,M,M,1800.00,4500.00,M,M,M,M,M,M,M,M,M,66.20,LPMT 021200Z 21007KT 180V240 9999 SCT018 SCT045 19/16 Q1015
LPMT,2017-11-02 13:00,-9.0359,38.7039,62.60,59.00,88.00,260.00,11.00,0.00,29.94,M,6.21,M,SCT,FEW,M,M,1800.00,2000.00,M,M,VCSH,M,M,M,M,M,M,62.60,LPMT 021300Z 26011KT 9999 VCSH SCT018 FEW020TCU 17/15 Q1014
LPMT,2017-11-02 14:00,-9.0359,38.7039,66.20,60.80,82.74,250.00,4.00,0.00,29.91,M,6.21,M,SCT,FEW,M,M,1800.00,2000.00,M,M,VCSH,M,M,M,M,M,M,66.20,LPMT 021400Z 25004KT 200V280 9999 VCSH SCT018 FEW020TCU 19/16 Q1013
LPMT,2017-11-02 15:00,-9.0359,38.7039,68.00,60.80,77.75,280.00,5.00,0.00,29.91,M,6.21,M,SCT,FEW,M,M,1800.00,2000.00,M,M,VCSH,M,M,M,M,M,M,68.00,LPMT 021500Z 28005KT 240V310 9999 VCSH SCT018 FEW020TCU 20/16 Q1013
LPMT,2017-11-02 16:00,-9.0359,38.7039,68.00,62.60,82.86,230.00,7.00,0.00,29.91,M,6.21,M,SCT,FEW,M,M,1800.00,2000.00,M,M,VCSH,M,M,M,M,M,M,68.00,LPMT 021600Z 23007KT 200V260 9999 VCSH SCT018 FEW020TCU 20/17 Q1013
LPMT,2017-11-02 17:00,-9.0359,38.7039,66.20,60.80,82.74,230.00,7.00,0.00,29.91,M,6.21,M,SCT,FEW,M,M,1800.00,2000.00,M,M,M,M,M,M,M,M,M,66.20,LPMT 021700Z 23007KT 9999 SCT018 FEW020TCU 19/16 Q1013
LPMT,2017-11-02 18:00,-9.0359,38.7039,64.40,60.80,88.09,220.00,4.00,0.00,29.91,M,6.21,M,FEW,SCT,M,M,1800.00,2200.00,M,M,M,M,M,M,M,M,M,64.40,LPMT 021800Z 22004KT 190V260 9999 FEW018 SCT022 18/16 Q1013
LPMT,2017-11-02 19:00,-9.0359,38.7039,64.40,60.80,88.09,190.00,4.00,0.00,29.91,M,6.21,M,FEW,SCT,M,M,1800.00,2200.00,M,M,M,M,M,M,M,M,M,64.40,LPMT 021900Z 19004KT 9999 FEW018 SCT022 18/16 Q1013
LPMT,2017-11-02 20:00,-9.0359,38.7039,62.60,60.80,93.83,160.00,4.00,0.00,29.91,M,6.21,M,FEW,SCT,M,M,1800.00,2200.00,M,M,M,M,M,M,M,M,M,62.60,LPMT 022000Z 16004KT 9999 FEW018 SCT022 17/16 Q1013
LPMT,2017-11-02 21:00,-9.0359,38.7039,60.80,59.00,93.79,170.00,5.00,0.00,29.91,M,6.21,M,FEW,M,M,M,1800.00,M,M,M,M,M,M,M,M,M,M,60.80,LPMT 022100Z 17005KT 9999 FEW018 16/15 Q1013
LPMT,2017-11-02 22:00,-9.0359,38.7039,60.80,59.00,93.79,200.00,4.00,0.00,29.94,M,6.21,M,SCT,FEW,M,M,1800.00,2200.00,M,M,M,M,M,M,M,M,M,60.80,LPMT 022200Z 20004KT 9999 SCT018 FEW022TCU 16/15 Q1014
LPMT,2017-11-02 23:00,-9.0359,38.7039,60.80,55.40,82.37,180.00,6.00,0.00,29.91,M,6.21,M,FEW,FEW,M,M,1800.00,2200.00,M,M,M,M,M,M,M,M,M,60.80,LPMT 022300Z 18006KT 9999 FEW018 FEW022TCU 16/13 Q1013
LPMT,2017-11-03 00:00,-9.0359,38.7039,60.80,57.20,87.92,160.00,4.00,0.00,29.91,M,6.21,M,FEW,M,M,M,1800.00,M,M,M,M,M,M,M,M,M,M,60.80,LPMT 030000Z 16004KT 9999 FEW018 16/14 Q1013
LPMT,2017-11-03 01:00,-9.0359,38.7039,59.00,57.20,93.74,150.00,4.00,0.00,29.91,M,6.21,M,FEW,M,M,M,1800.00,M,M,M,M,M,M,M,M,M,M,59.00,LPMT 030100Z 15004KT 9999 FEW018 15/14 Q1013
LPMT,2017-11-03 02:00,-9.0359,38.7039,59.00,57.20,93.74,150.00,4.00,0.00,29.88,M,6.21,M,FEW,FEW,M,M,1800.00,2200.00,M,M,M,M,M,M,M,M,M,59.00,LPMT 030200Z 15004KT 9999 FEW018 FEW022TCU 15/14 Q1012
LPMT,2017-11-03 03:00,-9.0359,38.7039,59.00,57.20,93.74,140.00,5.00,0.00,29.88,M,6.21,M,FEW,SCT,M,M,2000.00,2500.00,M,M,M,M,M,M,M,M,M,59.00,LPMT 030300Z 14005KT 9999 FEW020 SCT025 15/14 Q1012
LPMT,2017-11-03 04:00,-9.0359,38.7039,60.80,59.00,93.79,150.00,5.00,0.00,29.88,M,6.21,M,FEW,SCT,M,M,2000.00,2500.00,M,M,M,M,M,M,M,M,M,60.80,LPMT 030400Z 15005KT 9999 FEW020 SCT025 16/15 Q1012
LPMT,2017-11-03 05:00,-9.0359,38.7039,60.80,57.20,87.92,200.00,5.00,0.00,29.85,M,6.21,M,FEW,SCT,M,M,1800.00,2000.00,M,M,M,M,M,M,M,M,M,60.80,LPMT 030500Z 20005KT 170V230 9999 FEW018 SCT020 16/14 Q1011
LPMT,2017-11-03 06:00,-9.0359,38.7039,60.80,57.20,87.92,180.00,7.00,0.00,29.85,M,6.21,M,FEW,SCT,M,M,1800.00,2000.00,M,M,M,M,M,M,M,M,M,60.80,LPMT 030600Z 18007KT 9999 FEW018 SCT020 16/14 Q1011
LPMT,2017-11-03 07:00,-9.0359,38.7039,60.80,59.00,93.79,170.00,6.00,0.00,29.85,M,6.21,M,FEW,SCT,M,M,1800.00,2000.00,M,M,VCSH,M,M,M,M,M,M,60.80,LPMT 030700Z 17006KT 9999 VCSH FEW018 SCT020 16/15 Q1011
LPMT,2017-11-03 08:00,-9.0359,38.7039,60.80,59.00,93.79,190.00,6.00,0.00,29.85,M,6.21,M,FEW,SCT,M,M,1800.00,2000.00,M,M,VCSH,M,M,M,M,M,M,60.80,LPMT 030800Z 19006KT 9999 VCSH FEW018TCU SCT020 16/15 Q1011
LPMT,2017-11-03 09:00,-9.0359,38.7039,64.40,60.80,88.09,180.00,8.00,0.00,29.88,M,6.21,M,FEW,SCT,M,M,1800.00,2000.00,M,M,-SHRA,M,M,M,M,M,M,64.40,LPMT 030900Z 18008KT 9999 -SHRA FEW018TCU SCT020 18/16 Q1012
LPMT,2017-11-03 10:00,-9.0359,38.7039,66.20,60.80,82.74,200.00,8.00,0.00,29.88,M,6.21,M,FEW,SCT,M,M,2200.00,2400.00,M,M,VCSH,M,M,M,M,M,M,66.20,LPMT 031000Z 20008KT 180V240 9999 VCSH FEW022CB SCT024 19/16 Q1012
LPMT,2017-11-03 11:00,-9.0359,38.7039,62.60,57.20,82.50,200.00,11.00,0.00,29.88,M,5.59,M,FEW,BKN,SCT,M,2200.00,2400.00,2600.00,M,-SHRA,M,M,M,M,M,M,62.60,LPMT 031100Z 20011KT 9000 -SHRA FEW022 BKN024 SCT026CB 17/14 Q1012
LPMT,2017-11-03 12:00,-9.0359,38.7039,64.40,60.80,88.09,240.00,9.00,0.00,29.85,M,6.21,M,SCT,SCT,FEW,M,2200.00,2400.00,2600.00,M,-SHRA,M,M,M,M,M,M,64.40,LPMT 031200Z 24009KT 9999 -SHRA SCT022 SCT024 FEW026CB 18/16 Q1011
LPMT,2017-11-03 13:00,-9.0359,38.7039,68.00,57.20,68.35,220.00,10.00,0.00,29.83,M,6.21,M,FEW,SCT,M,M,2500.00,2800.00,M,M,M,M,M,M,M,M,M,68.00,LPMT 031300Z 22010KT 190V250 9999 FEW025 SCT028 20/14 Q1010
LPMT,2017-11-03 14:00,-9.0359,38.7039,69.80,57.20,64.26,210.00,13.00,0.00,29.80,M,6.21,M,FEW,SCT,M,M,2800.00,3200.00,M,M,M,M,M,M,M,M,M,69.80,LPMT 031400Z 21013KT 9999 FEW028 SCT032 21/14 Q1009
LPMT,2017-11-03 15:00,-9.0359,38.7039,68.00,57.20,68.35,210.00,13.00,0.00,29.80,M,6.21,M,FEW,SCT,FEW,M,2800.00,3200.00,3500.00,M,M,M,M,M,M,M,M,68.00,LPMT 031500Z 21013KT 190V250 9999 FEW028 SCT032 FEW035CB 20/14 Q1009
LPMT,2017-11-03 17:00,-9.0359,38.7039,62.60,59.00,88.00,180.00,5.00,0.00,29.80,M,6.21,M,FEW,BKN,FEW,M,2200.00,2800.00,3000.00,M,M,M,M,M,M,M,M,62.60,LPMT 031700Z 18005KT 150V210 9999 FEW022 BKN028 FEW030CB 17/15 Q1009
LPMT,2017-11-03 18:00,-9.0359,38.7039,62.60,59.00,88.00,150.00,8.00,0.00,29.77,M,6.21,M,SCT,BKN,M,M,2500.00,3000.00,M,M,M,M,M,M,M,M,M,62.60,LPMT 031800Z 15008KT 9999 SCT025 BKN030 17/15 Q1008
LPMT,2017-11-03 19:00,-9.0359,38.7039,62.60,59.00,88.00,190.00,11.00,0.00,29.77,M,6.21,M,FEW,SCT,M,M,2500.00,3000.00,M,M,M,M,M,M,M,M,M,62.60,LPMT 031900Z 19011KT 9999 FEW025 SCT030 17/15 Q1008
LPMT,2017-11-03 20:00,-9.0359,38.7039,62.60,59.00,88.00,220.00,11.00,0.00,29.77,M,6.21,M,FEW,SCT,FEW,M,2000.00,2500.00,2700.00,M,TS,M,M,M,M,M,M,62.60,LPMT 032000Z 22011KT 200V260 9999 TS FEW020 SCT025 FEW027CB 17/15 Q1008
LPMT,2017-11-03 21:00,-9.0359,38.7039,62.60,60.80,93.83,230.00,6.00,0.00,29.77,M,6.21,M,FEW,SCT,M,M,1500.00,2000.00,M,M,M,M,M,M,M,M,M,62.60,LPMT 032100Z 23006KT 9999 FEW015 SCT020 17/16 Q1008
LPMT,2017-11-03 22:00,-9.0359,38.7039,60.80,59.00,93.79,210.00,6.00,0.00,29.77,M,6.21,M,FEW,SCT,M,M,1500.00,2000.00,M,M,M,M,M,M,M,M,M,60.80,LPMT 032200Z 21006KT 180V240 9999 FEW015 SCT020 16/15 Q1008
LPMT,2017-11-03 23:00,-9.0359,38.7039,62.60,59.00,88.00,230.00,7.00,0.00,29.80,M,6.21,M,FEW,SCT,M,M,1500.00,2000.00,M,M,M,M,M,M,M,M,M,62.60,LPMT 032300Z 23007KT 200V260 9999 FEW015 SCT020 17/15 Q1009
LPMT,2017-11-04 00:00,-9.0359,38.7039,62.60,59.00,88.00,250.00,6.00,0.00,29.80,M,6.21,M,FEW,SCT,M,M,1500.00,3500.00,M,M,M,M,M,M,M,M,M,62.60,LPMT 040000Z 25006KT 9999 FEW015 SCT035 17/15 Q1009
LPMT,2017-11-04 01:00,-9.0359,38.7039,62.60,57.20,82.50,270.00,8.00,0.00,29.80,M,6.21,M,FEW,SCT,M,M,1500.00,3500.00,M,M,M,M,M,M,M,M,M,62.60,LPMT 040100Z 27008KT 9999 FEW015 SCT035 17/14 Q1009
LPMT,2017-11-04 02:00,-9.0359,38.7039,60.80,57.20,87.92,270.00,6.00,0.00,29.80,M,6.21,M,FEW,SCT,M,M,1500.00,3000.00,M,M,M,M,M,M,M,M,M,60.80,LPMT 040200Z 27006KT 9999 FEW015 SCT030 16/14 Q1009
LPMT,2017-11-04 03:00,-9.0359,38.7039,60.80,57.20,87.92,260.00,8.00,0.00,29.80,M,6.21,M,FEW,SCT,M,M,1500.00,2500.00,M,M,M,M,M,M,M,M,M,60.80,LPMT 040300Z 26008KT 9999 FEW015 SCT025 16/14 Q1009
LPMT,2017-11-04 04:00,-9.0359,38.7039,62.60,57.20,82.50,270.00,8.00,0.00,29.80,M,6.21,M,FEW,SCT,M,M,1500.00,2500.00,M,M,M,M,M,M,M,M,M,62.60,LPMT 040400Z 27008KT 9999 FEW015 SCT025 17/14 Q1009
LPMT,2017-11-04 05:00,-9.0359,38.7039,60.80,57.20,87.92,270.00,7.00,0.00,29.83,M,6.21,M,FEW,SCT,M,M,1500.00,2500.00,M,M,M,M,M,M,M,M,M,60.80,LPMT 040500Z 27007KT 9999 FEW015 SCT025 16/14 Q1010
LPMT,2017-11-04 06:00,-9.0359,38.7039,60.80,57.20,87.92,260.00,8.00,0.00,29.83,M,6.21,M,FEW,SCT,M,M,1500.00,2500.00,M,M,M,M,M,M,M,M,M,60.80,LPMT 040600Z 26008KT 9999 FEW015 SCT025 16/14 Q1010
LPMT,2017-11-04 07:00,-9.0359,38.7039,62.60,57.20,82.50,270.00,9.00,0.00,29.85,M,6.21,M,FEW,M,M,M,2500.00,M,M,M,M,M,M,M,M,M,M,62.60,LPMT 040700Z 27009KT 9999 FEW025 17/14 Q1011
LPMT,2017-11-04 08:00,-9.0359,38.7039,62.60,57.20,82.50,270.00,9.00,0.00,29.85,M,6.21,M,FEW,M,M,M,2500.00,M,M,M,M,M,M,M,M,M,M,62.60,LPMT 040800Z 27009KT 9999 FEW025 17/14 Q1011
LPMT,2017-11-04 09:00,-9.0359,38.7039,62.60,57.20,82.50,290.00,8.00,0.00,29.91,M,6.21,M,FEW,M,M,M,2000.00,M,M,M,M,M,M,M,M,M,M,62.60,LPMT 040900Z 29008KT 9999 FEW020 17/14 Q1013
LPMT,2017-11-04 10:00,-9.0359,38.7039,64.40,55.40,72.56,310.00,10.00,0.00,29.91,M,6.21,M,FEW,SCT,M,M,2000.00,3000.00,M,M,M,M,M,M,M,M,M,64.40,LPMT 041000Z 31010KT 280V350 9999 FEW020 SCT030 18/13 Q1013
LPMT,2017-11-04 11:00,-9.0359,38.7039,66.20,57.20,72.74,310.00,8.00,0.00,29.94,M,6.21,M,FEW,SCT,M,M,2000.00,3000.00,M,M,VCSH,M,M,M,M,M,M,66.20,LPMT 041100Z 31008KT 270V340 9999 VCSH FEW020TCU SCT030 19/14 Q1014
LPMT,2017-11-04 12:00,-9.0359,38.7039,68.00,59.00,72.92,320.00,7.00,0.00,29.94,M,6.21,M,FEW,SCT,M,M,2000.00,3000.00,M,M,M,M,M,M,M,M,M,68.00,LPMT 041200Z 32007KT 290V350 9999 FEW020 SCT030 20/15 Q1014
LPMT,2017-11-04 13:00,-9.0359,38.7039,66.20,57.20,72.74,310.00,9.00,0.00,29.94,M,6.21,M,FEW,SCT,M,M,2000.00,3500.00,M,M,M,M,M,M,M,M,M,66.20,LPMT 041300Z 31009KT 9999 FEW020 SCT035 19/14 Q1014
LPMT,2017-11-04 14:00,-9.0359,38.7039,64.40,57.20,77.45,330.00,10.00,0.00,29.97,M,6.21,M,FEW,SCT,M,M,2000.00,3500.00,M,M,VCSH,M,M,M,M,M,M,64.40,LPMT 041400Z 33010KT 290V350 9999 VCSH FEW020 SCT035 18/14 Q1015
LPMT,2017-11-04 15:00,-9.0359,38.7039,66.20,55.40,68.15,330.00,13.00,0.00,29.97,M,6.21,M,FEW,SCT,M,M,2000.00,3500.00,M,M,M,M,M,M,M,M,M,66.20,LPMT 041500Z 33013KT 9999 FEW020 SCT035 19/13 Q1015
LPMT,2017-11-04 16:00,-9.0359,38.7039,66.20,57.20,72.74,340.00,9.00,0.00,30.00,M,6.21,M,FEW,SCT,M,M,2200.00,4000.00,M,M,M,M,M,M,M,M,M,66.20,LPMT 041600Z 34009KT 9999 FEW022 SCT040 19/14 Q1016
LPMT,2017-11-04 17:00,-9.0359,38.7039,66.20,57.20,72.74,330.00,9.00,0.00,30.03,M,6.21,M,FEW,SCT,M,M,2000.00,4000.00,M,M,M,M,M,M,M,M,M,66.20,LPMT 041700Z 33009KT 290V350 9999 FEW020 SCT040 19/14 Q1017
LPMT,2017-11-04 18:00,-9.0359,38.7039,64.40,55.40,72.56,330.00,8.00,0.00,30.06,M,6.21,M,FEW,M,M,M,2000.00,M,M,M,M,M,M,M,M,M,M,64.40,LPMT 041800Z 33008KT 9999 FEW020 18/13 Q1018
LPMT,2017-11-04 19:00,-9.0359,38.7039,62.60,55.40,77.29,340.00,7.00,0.00,30.09,M,6.21,M,FEW,M,M,M,2000.00,M,M,M,M,M,M,M,M,M,M,62.60,LPMT 041900Z 34007KT 9999 FEW020 17/13 Q1019
LPMT,2017-11-04 20:00,-9.0359,38.7039,62.60,55.40,77.29,340.00,5.00,0.00,30.09,M,6.21,M,FEW,M,M,M,2000.00,M,M,M,M,M,M,M,M,M,M,62.60,LPMT 042000Z 34005KT 300V020 9999 FEW020 17/13 Q1019
LPMT,2017-11-04 21:00,-9.0359,38.7039,60.80,55.40,82.37,330.00,4.00,0.00,30.12,M,6.21,M,FEW,M,M,M,2200.00,M,M,M,M,M,M,M,M,M,M,60.80,LPMT 042100Z 33004KT 300V020 9999 FEW022 16/13 Q1020
LPMT,2017-11-04 22:00,-9.0359,38.7039,60.80,55.40,82.37,340.00,10.00,0.00,30.15,M,6.21,M,FEW,M,M,M,2200.00,M,M,M,M,M,M,M,M,M,M,60.80,LPMT 042200Z 34010KT 9999 FEW022 16/13 Q1021
LPMT,2017-11-04 23:00,-9.0359,38.7039,60.80,55.40,82.37,350.00,11.00,0.00,30.15,M,6.21,M,FEW,M,M,M,2200.00,M,M,M,M,M,M,M,M,M,M,60.80,LPMT 042300Z 35011KT 9999 FEW022 16/13 Q1021
LPMT,2017-11-05 00:00,-9.0359,38.7039,60.80,53.60,77.14,350.00,6.00,0.00,30.18,M,6.21,M,FEW,M,M,M,2200.00,M,M,M,M,M,M,M,M,M,M,60.80,LPMT 050000Z 35006KT 310V020 9999 FEW022 16/12 Q1022
LPMT,2017-11-05 01:00,-9.0359,38.7039,59.00,53.60,82.25,360.00,8.00,0.00,30.18,M,6.21,M,FEW,M,M,M,2000.00,M,M,M,M,M,M,M,M,M,M,59.00,LPMT 050100Z 36008KT 9999 FEW020 15/12 Q1022
LPMT,2017-11-05 02:00,-9.0359,38.7039,59.00,51.80,76.98,350.00,11.00,0.00,30.18,M,6.21,M,FEW,M,M,M,2000.00,M,M,M,M,M,M,M,M,M,M,59.00,LPMT 050200Z 35011KT 9999 FEW020 15/11 Q1022
LPMT,2017-11-05 03:00,-9.0359,38.7039,59.00,51.80,76.98,340.00,9.00,0.00,30.18,M,6.21,M,M,M,M,M,M,M,M,M,M,M,M,M,M,M,M,59.00,LPMT 050300Z 34009KT CAVOK 15/11 Q1022
LPMT,2017-11-05 04:00,-9.0359,38.7039,59.00,51.80,76.98,350.00,9.00,0.00,30.21,M,6.21,M,M,M,M,M,M,M,M,M,M,M,M,M,M,M,M,59.00,LPMT 050400Z 35009KT CAVOK 15/11 Q1023
LPMT,2017-11-05 05:00,-9.0359,38.7039,59.00,51.80,76.98,340.00,9.00,0.00,30.21,M,6.21,M,M,M,M,M,M,M,M,M,M,M,M,M,M,M,M,59.00,LPMT 050500Z 34009KT CAVOK 15/11 Q1023
LPMT,2017-11-05 06:00,-9.0359,38.7039,59.00,50.00,72.01,360.00,12.00,0.00,30.21,M,6.21,M,M,M,M,M,M,M,M,M,M,M,M,M,M,M,M,59.00,LPMT 050600Z 36012KT CAVOK 15/10 Q1023
LPMT,2017-11-05 07:00,-9.0359,38.7039,57.20,50.00,76.82,360.00,12.00,0.00,30.21,M,6.21,M,M,M,M,M,M,M,M,M,M,M,M,M,M,M,M,57.20,LPMT 050700Z 36012KT CAVOK 14/10 Q1023
LPMT,2017-11-05 08:00,-9.0359,38.7039,59.00,50.00,72.01,360.00,12.00,0.00,30.24,M,6.21,M,FEW,M,M,M,2000.00,M,M,M,M,M,M,M,M,M,M,59.00,LPMT 050800Z 36012KT 9999 FEW020 15/10 Q1024
LPMT,2017-11-05 09:00,-9.0359,38.7039,60.80,50.00,67.54,360.00,10.00,0.00,30.27,M,6.21,M,FEW,M,M,M,2000.00,M,M,M,M,M,M,M,M,M,M,60.80,LPMT 050900Z 36010KT 330V030 9999 FEW020 16/10 Q1025
LPMT,2017-11-05 10:00,-9.0359,38.7039,62.60,50.00,63.38,360.00,10.00,0.00,30.27,M,6.21,M,FEW,M,M,M,2000.00,M,M,M,M,M,M,M,M,M,M,62.60,LPMT 051000Z 36010KT 9999 FEW020 17/10 Q1025
LPMT,2017-11-05 11:00,-9.0359,38.7039,64.40,48.20,55.63,10.00,12.00,0.00,30.27,M,6.21,M,M,M,M,M,M,M,M,M,M,M,M,M,M,M,M,64.40,LPMT 051100Z 01012KT CAVOK 18/09 Q1025
LPMT,2017-11-05 12:00,-9.0359,38.7039,64.40,46.40,51.98,360.00,13.00,0.00,30.27,M,6.21,M,M,M,M,M,M,M,M,M,M,M,M,M,M,M,M,64.40,LPMT 051200Z 36013KT CAVOK 18/08 Q1025
LPMT,2017-11-05 13:00,-9.0359,38.7039,66.20,44.60,45.60,360.00,12.00,0.00,30.24,M,6.21,M,M,M,M,M,M,M,M,M,M,M,M,M,M,M,M,66.20,LPMT 051300Z 36012KT 320V020 CAVOK 19/07 Q1024
LPMT,2017-11-05 14:00,-9.0359,38.7039,64.40,44.60,48.55,360.00,14.00,0.00,30.24,M,6.21,M,M,M,M,M,M,M,M,M,M,M,M,M,M,M,M,64.40,LPMT 051400Z 36014KT CAVOK 18/07 Q1024
LPMT,2017-11-05 15:00,-9.0359,38.7039,66.20,44.60,45.60,360.00,13.00,0.00,30.24,M,6.21,M,M,M,M,M,M,M,M,M,M,M,M,M,M,M,M,66.20,LPMT 051500Z 36013KT CAVOK 19/07 Q1024
LPMT,2017-11-05 16:00,-9.0359,38.7039,64.40,44.60,48.55,360.00,12.00,0.00,30.24,M,6.21,M,M,M,M,M,M,M,M,M,M,M,M,M,M,M,M,64.40,LPMT 051600Z 36012KT CAVOK 18/07 Q1024
LPMT,2017-11-05 17:00,-9.0359,38.7039,62.60,44.60,51.72,350.00,12.00,0.00,30.24,M,6.21,M,M,M,M,M,M,M,M,M,M,M,M,M,M,M,M,62.60,LPMT 051700Z 35012KT CAVOK 17/07 Q1024
LPMT,2017-11-05 18:00,-9.0359,38.7039,60.80,46.40,59.01,360.00,13.00,0.00,30.24,M,6.21,M,M,M,M,M,M,M,M,M,M,M,M,M,M,M,M,60.80,LPMT 051800Z 36013KT CAVOK 16/08 Q1024
LPMT,2017-11-05 19:00,-9.0359,38.7039,59.00,46.40,62.92,360.00,13.00,0.00,30.27,M,6.21,M,M,M,M,M,M,M,M,M,M,M,M,M,M,M,M,59.00,LPMT 051900Z 36013KT CAVOK 15/08 Q1025
LPMT,2017-11-05 20:00,-9.0359,38.7039,59.00,48.20,67.33,360.00,11.00,0.00,30.27,M,6.21,M,M,M,M,M,M,M,M,M,M,M,M,M,M,M,M,59.00,LPMT 052000Z 36011KT 330V030 CAVOK 15/09 Q1025
LPMT,2017-11-05 21:00,-9.0359,38.7039,59.00,48.20,67.33,20.00,14.00,0.00,30.27,M,6.21,M,M,M,M,M,M,M,M,M,M,M,M,M,M,M,M,59.00,LPMT 052100Z 02014KT CAVOK 15/09 Q1025
LPMT,2017-11-05 22:00,-9.0359,38.7039,57.20,48.20,71.83,10.00,10.00,0.00,30.27,M,6.21,M,M,M,M,M,M,M,M,M,M,M,M,M,M,M,M,57.20,LPMT 052200Z 01010KT CAVOK 14/09 Q1025
LPMT,2017-11-05 23:00,-9.0359,38.7039,55.40,48.20,76.66,20.00,8.00,0.00,30.27,M,6.21,M,M,M,M,M,M,M,M,M,M,M,M,M,M,M,M,55.40,LPMT 052300Z 02008KT CAVOK 13/09 Q1025
LPMT,2017-11-06 00:00,-9.0359,38.7039,55.40,48.20,76.66,20.00,8.00,0.00,30.27,M,6.21,M,M,M,M,M,M,M,M,M,M,M,M,M,M,M,M,55.40,LPMT 060000Z 02008KT CAVOK 13/09 Q1025
LPMT,2017-11-06 01:00,-9.0359,38.7039,55.40,46.40,71.64,20.00,9.00,0.00,30.27,M,6.21,M,M,M,M,M,M,M,M,M,M,M,M,M,M,M,M,55.40,LPMT 060100Z 02009KT CAVOK 13/08 Q1025
LPMT,2017-11-06 02:00,-9.0359,38.7039,55.40,46.40,71.64,20.00,11.00,0.00,30.27,M,6.21,M,M,M,M,M,M,M,M,M,M,M,M,M,M,M,M,55.40,LPMT 060200Z 02011KT CAVOK 13/08 Q1025
LPMT,2017-11-06 03:00,-9.0359,38.7039,55.40,44.60,66.91,20.00,11.00,0.00,30.27,M,6.21,M,M,M,M,M,M,M,M,M,M,M,M,M,M,M,M,55.40,LPMT 060300Z 02011KT CAVOK 13/07 Q1025
LPMT,2017-11-06 04:00,-9.0359,38.7039,55.40,44.60,66.91,30.00,11.00,0.00,30.24,M,6.21,M,M,M,M,M,M,M,M,M,M,M,M,M,M,M,M,55.40,LPMT 060400Z 03011KT CAVOK 13/07 Q1024
LPMT,2017-11-06 05:00,-9.0359,38.7039,55.40,44.60,66.91,30.00,10.00,0.00,30.24,M,6.21,M,M,M,M,M,M,M,M,M,M,M,M,M,M,M,M,55.40,LPMT 060500Z 03010KT CAVOK 13/07 Q1024
LPMT,2017-11-06 06:00,-9.0359,38.7039,53.60,44.60,71.45,30.00,9.00,0.00,30.24,M,6.21,M,M,M,M,M,M,M,M,M,M,M,M,M,M,M,M,53.60,LPMT 060600Z 03009KT CAVOK 12/07 Q1024
LPMT,2017-11-06 07:00,-9.0359,38.7039,48.20,44.60,87.28,40.00,6.00,0.00,29.94,M,6.21,M,M,M,M,M,M,M,M,M,M,M,M,M,M,M,M,45.04,LPMT 060700Z 04006KT CAVOK 09/07 Q1014
LPMT,2017-11-06 08:00,-9.0359,38.7039,50.00,44.60,81.61,30.00,7.00,0.00,30.27,M,6.21,M,M,M,M,M,M,M,M,M,M,M,M,M,M,M,M,46.72,LPMT 060800Z 03007KT CAVOK 10/07 Q1025
LPMT,2017-11-06 09:00,-9.0359,38.7039,53.60,44.60,71.45,30.00,11.00,0.00,30.24,M,6.21,M,M,M,M,M,M,M,M,M,M,M,M,M,M,M,M,53.60,LPMT 060900Z 03011KT CAVOK 12/07 Q1024
LPMT,2017-11-06 10:00,-9.0359,38.7039,55.40,44.60,66.91,30.00,14.00,0.00,30.24,M,6.21,M,M,M,M,M,M,M,M,M,M,M,M,M,M,M,M,55.40,LPMT 061000Z 03014KT CAVOK 13/07 Q1024
LPMT,2017-11-06 11:00,-9.0359,38.7039,59.00,44.60,58.77,30.00,12.00,0.00,30.24,M,6.21,M,M,M,M,M,M,M,M,M,M,M,M,M,M,M,M,59.00,LPMT 061100Z 03012KT CAVOK 15/07 Q1024
LPMT,2017-11-06 12:00,-9.0359,38.7039,62.60,46.40,55.37,20.00,9.00,0.00,30.21,M,6.21,M,M,M,M,M,M,M,M,M,M,M,M,M,M,M,M,62.60,LPMT 061200Z 02009KT 350V050 CAVOK 17/08 Q1023
LPMT,2017-11-06 13:00,-9.0359,38.7039,64.40,48.20,55.63,360.00,9.00,0.00,30.18,M,6.21,M,M,M,M,M,M,M,M,M,M,M,M,M,M,M,M,64.40,LPMT 061300Z 36009KT 330V030 CAVOK 18/09 Q1022
LPMT,2017-11-06 14:00,-9.0359,38.7039,66.20,48.20,52.25,360.00,10.00,0.00,30.15,M,6.21,M,M,M,M,M,M,M,M,M,M,M,M,M,M,M,M,66.20,LPMT 061400Z 36010KT CAVOK 19/09 Q1021
LPMT,2017-11-06 15:00,-9.0359,38.7039,66.20,46.40,48.83,360.00,9.00,0.00,30.15,M,6.21,M,M,M,M,M,M,M,M,M,M,M,M,M,M,M,M,66.20,LPMT 061500Z 36009KT CAVOK 19/08 Q1021
LPMT,2017-11-06 16:00,-9.0359,38.7039,66.20,46.40,48.83,350.00,7.00,0.00,30.12,M,6.21,M,M,M,M,M,M,M,M,M,M,M,M,M,M,M,M,66.20,LPMT 061600Z 35007KT 330V030 CAVOK 19/08 Q1020
LPMT,2017-11-06 17:00,-9.0359,38.7039,64.40,46.40,51.98,360.00,7.00,0.00,30.12,M,6.21,M,M,M,M,M,M,M,M,M,M,M,M,M,M,M,M,64.40,LPMT 061700Z 36007KT CAVOK 18/08 Q1020
LPMT,2017-11-06 18:00,-9.0359,38.7039,62.60,44.60,51.72,10.00,7.00,0.00,30.12,M,6.21,M,M,M,M,M,M,M,M,M,M,M,M,M,M,M,M,62.60,LPMT 061800Z 01007KT CAVOK 17/07 Q1020
LPMT,2017-11-06 19:00,-9.0359,38.7039,60.80,46.40,59.01,340.00,7.00,0.00,30.15,M,6.21,M,M,M,M,M,M,M,M,M,M,M,M,M,M,M,M,60.80,LPMT 061900Z 34007KT CAVOK 16/08 Q1021
LPMT,2017-11-06 20:00,-9.0359,38.7039,59.00,48.20,67.33,350.00,7.00,0.00,30.15,M,6.21,M,M,M,M,M,M,M,M,M,M,M,M,M,M,M,M,59.00,LPMT 062000Z 35007KT CAVOK 15/09 Q1021
LPMT,2017-11-06 21:00,-9.0359,38.7039,57.20,48.20,71.83,350.00,6.00,0.00,30.15,M,6.21,M,M,M,M,M,M,M,M,M,M,M,M,M,M,M,M,57.20,LPMT 062100Z 35006KT CAVOK 14/09 Q1021
LPMT,2017-11-06 22:00,-9.0359,38.7039,57.20,48.20,71.83,350.00,6.00,0.00,30.15,M,6.21,M,M,M,M,M,M,M,M,M,M,M,M,M,M,M,M,57.20,LPMT 062200Z 35006KT CAVOK 14/09 Q1021
LPMT,2017-11-06 23:00,-9.0359,38.7039,53.60,50.00,87.56,360.00,4.00,0.00,30.15,M,6.21,M,M,M,M,M,M,M,M,M,M,M,M,M,M,M,M,53.60,LPMT 062300Z 36004KT CAVOK 12/10 Q1021
LPMT,2017-11-07 00:00,-9.0359,38.7039,51.80,48.20,87.47,M,2.00,0.00,30.15,M,6.21,M,M,M,M,M,M,M,M,M,M,M,M,M,M,M,M,51.80,LPMT 070000Z VRB02KT CAVOK 11/09 Q1021
LPMT,2017-11-07 01:00,-9.0359,38.7039,48.20,44.60,87.28,M,2.00,0.00,30.15,M,6.21,M,M,M,M,M,M,M,M,M,M,M,M,M,M,M,M,48.20,LPMT 070100Z VRB02KT CAVOK 09/07 Q1021
LPMT,2017-11-07 02:00,-9.0359,38.7039,46.40,44.60,93.40,120.00,2.00,0.00,30.15,M,6.21,M,M,M,M,M,M,M,M,M,M,M,M,M,M,M,M,46.40,LPMT 070200Z 12002KT CAVOK 08/07 Q1021
LPMT,2017-11-07 03:00,-9.0359,38.7039,46.40,44.60,93.40,40.00,5.00,0.00,30.12,M,6.21,M,M,M,M,M,M,M,M,M,M,M,M,M,M,M,M,43.50,LPMT 070300Z 04005KT CAVOK 08/07 Q1020
LPMT,2017-11-07 04:00,-9.0359,38.7039,48.20,46.40,93.45,40.00,3.00,0.00,30.15,M,6.21,M,M,M,M,M,M,M,M,M,M,M,M,M,M,M,M,47.21,LPMT 070400Z 04003KT CAVOK 09/08 Q1021
LPMT,2017-11-07 05:00,-9.0359,38.7039,46.40,42.80,87.19,50.00,4.00,0.00,30.12,M,6.21,M,M,M,M,M,M,M,M,M,M,M,M,M,M,M,M,44.24,LPMT 070500Z 05004KT CAVOK 08/06 Q1020
LPMT,2017-11-07 06:00,-9.0359,38.7039,48.20,44.60,87.28,30.00,4.00,0.00,30.15,M,6.21,M,M,M,M,M,M,M,M,M,M,M,M,M,M,M,M,46.34,LPMT 070600Z 03004KT CAVOK 09/07 Q1021
LPMT,2017-11-07 07:00,-9.0359,38.7039,44.60,42.80,93.35,60.00,3.00,0.00,30.15,M,6.21,M,M,M,M,M,M,M,M,M,M,M,M,M,M,M,M,43.09,LPMT 070700Z 06003KT CAVOK 07/06 Q1021
LPMT,2017-11-07 08:00,-9.0359,38.7039,48.20,44.60,87.28,50.00,4.00,0.00,30.18,M,6.21,M,M,M,M,M,M,M,M,M,M,M,M,M,M,M,M,46.34,LPMT 070800Z 05004KT CAVOK 09/07 Q1022
LPMT,2017-11-07 09:00,-9.0359,38.7039,51.80,46.40,81.74,40.00,6.00,0.00,30.18,M,6.21,M,M,M,M,M,M,M,M,M,M,M,M,M,M,M,M,51.80,LPMT 070900Z 04006KT CAVOK 11/08 Q1022
LPMT,2017-11-07 10:00,-9.0359,38.7039,55.40,46.40,71.64,30.00,5.00,0.00,30.21,M,6.21,M,M,M,M,M,M,M,M,M,M,M,M,M,M,M,M,55.40,LPMT 071000Z 03005KT CAVOK 13/08 Q1023
LPMT,2017-11-07 11:00,-9.0359,38.7039,59.00,48.20,67.33,40.00,7.00,0.00,30.21,M,6.21,M,M,M,M,M,M,M,M,M,M,M,M,M,M,M,M,59.00,LPMT 071100Z 04007KT CAVOK 15/09 Q1023
LPMT,2017-11-07 12:00,-9.0359,38.7039,64.40,46.40,51.98,30.00,12.00,0.00,30.18,M,6.21,M,M,M,M,M,M,M,M,M,M,M,M,M,M,M,M,64.40,LPMT 071200Z 03012KT CAVOK 18/08 Q1022
LPMT,2017-11-07 13:00,-9.0359,38.7039,68.00,48.20,49.10,30.00,7.00,0.00,30.15,M,6.21,M,M,M,M,M,M,M,M,M,M,M,M,M,M,M,M,68.00,LPMT 071300Z 03007KT 010V070 CAVOK 20/09 Q1021
LPMT,2017-11-07 14:00,-9.0359,38.7039,68.00,48.20,49.10,360.00,6.00,0.00,30.15,M,6.21,M,FEW,M,M,M,2000.00,M,M,M,M,M,M,M,M,M,M,68.00,LPMT 071400Z 36006KT 320V040 9999 FEW020 20/09 Q1021
LPMT,2017-11-07 15:00,-9.0359,38.7039,68.00,50.00,52.51,340.00,11.00,0.00,30.15,M,6.21,M,FEW,M,M,M,2000.00,M,M,M,M,M,M,M,M,M,M,68.00,LPMT 071500Z 34011KT 9999 FEW020 20/10 Q1021
LPMT,2017-11-07 16:00,-9.0359,38.7039,66.20,51.80,59.74,350.00,9.00,0.00,30.15,M,6.21,M,FEW,M,M,M,2000.00,M,M,M,M,M,M,M,M,M,M,66.20,LPMT 071600Z 35009KT 9999 FEW020 19/11 Q1021
LPMT,2017-11-07 17:00,-9.0359,38.7039,64.40,50.00,59.50,350.00,8.00,0.00,30.15,M,6.21,M,FEW,M,M,M,2000.00,M,M,M,M,M,M,M,M,M,M,64.40,LPMT 071700Z 35008KT 320V020 9999 FEW020 18/10 Q1021
LPMT,2017-11-07 18:00,-9.0359,38.7039,60.80,50.00,67.54,350.00,9.00,0.00,30.15,M,6.21,M,FEW,M,M,M,2000.00,M,M,M,M,M,M,M,M,M,M,60.80,LPMT 071800Z 35009KT 9999 FEW020 16/10 Q1021
LPMT,2017-11-07 19:00,-9.0359,38.7039,59.00,50.00,72.01,360.00,6.00,0.00,30.18,M,6.21,M,FEW,M,M,M,2000.00,M,M,M,M,M,M,M,M,M,M,59.00,LPMT 071900Z 36006KT 9999 FEW020 15/10 Q1022
LPMT,2017-11-07 20:00,-9.0359,38.7039,59.00,51.80,76.98,360.00,10.00,0.00,30.18,M,6.21,M,FEW,M,M,M,2000.00,M,M,M,M,M,M,M,M,M,M,59.00,LPMT 072000Z 36010KT 320V020 9999 FEW020 15/11 Q1022
LPMT,2017-11-07 21:00,-9.0359,38.7039,59.00,53.60,82.25,360.00,11.00,0.00,30.18,M,6.21,M,FEW,M,M,M,2000.00,M,M,M,M,M,M,M,M,M,M,59.00,LPMT 072100Z 36011KT 9999 FEW020 15/12 Q1022
LPMT,2017-11-07 22:00,-9.0359,38.7039,59.00,51.80,76.98,360.00,12.00,0.00,30.21,M,6.21,M,FEW,M,M,M,2000.00,M,M,M,M,M,M,M,M,M,M,59.00,LPMT 072200Z 36012KT 9999 FEW020 15/11 Q1023
LPMT,2017-11-07 23:00,-9.0359,38.7039,59.00,51.80,76.98,360.00,10.00,0.00,30.21,M,6.21,M,FEW,M,M,M,2000.00,M,M,M,M,M,M,M,M,M,M,59.00,LPMT 072300Z 36010KT 9999 FEW020 15/11 Q1023
LPMT,2017-11-08 00:00,-9.0359,38.7039,59.00,51.80,76.98,340.00,7.00,0.00,30.21,M,6.21,M,FEW,M,M,M,2000.00,M,M,M,M,M,M,M,M,M,M,59.00,LPMT 080000Z 34007KT 300V030 9999 FEW020 15/11 Q1023
LPMT,2017-11-08 01:00,-9.0359,38.7039,57.20,51.80,82.12,350.00,10.00,0.00,30.21,M,6.21,M,FEW,M,M,M,2000.00,M,M,M,M,M,M,M,M,M,M,57.20,LPMT 080100Z 35010KT 9999 FEW020 14/11 Q1023
LPMT,2017-11-08 02:00,-9.0359,38.7039,57.20,50.00,76.82,360.00,9.00,0.00,30.21,M,6.21,M,FEW,M,M,M,2000.00,M,M,M,M,M,M,M,M,M,M,57.20,LPMT 080200Z 36009KT 9999 FEW020 14/10 Q1023
LPMT,2017-11-08 03:00,-9.0359,38.7039,57.20,50.00,76.82,360.00,11.00,0.00,30.21,M,6.21,M,FEW,M,M,M,2000.00,M,M,M,M,M,M,M,M,M,M,57.20,LPMT 080300Z 36011KT 9999 FEW020 14/10 Q1023
LPMT,2017-11-08 04:00,-9.0359,38.7039,57.20,48.20,71.83,360.00,11.00,0.00,30.21,M,6.21,M,FEW,M,M,M,2000.00,M,M,M,M,M,M,M,M,M,M,57.20,LPMT 080400Z 36011KT 330V030 9999 FEW020 14/09 Q1023
LPMT,2017-11-08 05:00,-9.0359,38.7039,57.20,46.40,67.12,360.00,13.00,0.00,30.21,M,6.21,M,M,M,M,M,M,M,M,M,M,M,M,M,M,M,M,57.20,LPMT 080500Z 36013KT 330V030 CAVOK 14/08 Q1023
LPMT,2017-11-08 06:00,-9.0359,38.7039,55.40,44.60,66.91,10.00,14.00,0.00,30.21,M,6.21,M,M,M,M,M,M,M,M,M,M,M,M,M,M,M,M,55.40,LPMT 080600Z 01014KT CAVOK 13/07 Q1023
LPMT,2017-11-08 07:00,-9.0359,38.7039,55.40,44.60,66.91,360.00,13.00,0.00,30.21,M,6.21,M,M,M,M,M,M,M,M,M,M,M,M,M,M,M,M,55.40,LPMT 080700Z 36013KT CAVOK 13/07 Q1023
LPMT,2017-11-08 08:00,-9.0359,38.7039,55.40,44.60,66.91,10.00,12.00,0.00,30.24,M,6.21,M,FEW,M,M,M,2000.00,M,M,M,M,M,M,M,M,M,M,55.40,LPMT 080800Z 01012KT 9999 FEW020 13/07 Q1024
LPMT,2017-11-08 09:00,-9.0359,38.7039,57.20,44.60,62.69,20.00,10.00,0.00,30.27,M,6.21,M,FEW,M,M,M,2000.00,M,M,M,M,M,M,M,M,M,M,57.20,LPMT 080900Z 02010KT 9999 FEW020 14/07 Q1025
LPMT,2017-11-08 10:00,-9.0359,38.7039,59.00,46.40,62.92,20.00,11.00,0.00,30.27,M,6.21,M,M,M,M,M,M,M,M,M,M,M,M,M,M,M,M,59.00,LPMT 081000Z 02011KT CAVOK 15/08 Q1025
LPMT,2017-11-08 11:00,-9.0359,38.7039,60.80,44.60,55.12,20.00,13.00,0.00,30.27,M,6.21,M,M,M,M,M,M,M,M,M,M,M,M,M,M,M,M,60.80,LPMT 081100Z 02013KT CAVOK 16/07 Q1025
LPMT,2017-11-08 12:00,-9.0359,38.7039,62.60,42.80,48.28,20.00,13.00,0.00,30.24,M,6.21,M,M,M,M,M,M,M,M,M,M,M,M,M,M,M,M,62.60,LPMT 081200Z 02013KT CAVOK 17/06 Q1024
LPMT,2017-11-08 13:00,-9.0359,38.7039,64.40,44.60,48.55,20.00,12.00,0.00,30.24,M,6.21,M,M,M,M,M,M,M,M,M,M,M,M,M,M,M,M,64.40,LPMT 081300Z 02012KT CAVOK 18/07 Q1024
LPMT,2017-11-08 14:00,-9.0359,38.7039,66.20,44.60,45.60,10.00,12.00,0.00,30.21,M,6.21,M,M,M,M,M,M,M,M,M,M,M,M,M,M,M,M,66.20,LPMT 081400Z 01012KT CAVOK 19/07 Q1023
LPMT,2017-11-08 15:00,-9.0359,38.7039,66.20,46.40,48.83,360.00,10.00,0.00,30.21,M,6.21,M,M,M,M,M,M,M,M,M,M,M,M,M,M,M,M,66.20,LPMT 081500Z 36010KT CAVOK 19/08 Q1023
LPMT,2017-11-08 16:00,-9.0359,38.7039,64.40,44.60,48.55,360.00,12.00,0.00,30.21,M,6.21,M,M,M,M,M,M,M,M,M,M,M,M,M,M,M,M,64.40,LPMT 081600Z 36012KT CAVOK 18/07 Q1023
LPMT,2017-11-08 17:00,-9.0359,38.7039,62.60,44.60,51.72,350.00,11.00,0.00,30.21,M,6.21,M,M,M,M,M,M,M,M,M,M,M,M,M,M,M,M,62.60,LPMT 081700Z 35011KT CAVOK 17/07 Q1023
LPMT,2017-11-08 18:00,-9.0359,38.7039,59.00,46.40,62.92,350.00,13.00,0.00,30.24,M,6.21,M,M,M,M,M,M,M,M,M,M,M,M,M,M,M,M,59.00,LPMT 081800Z 35013KT CAVOK 15/08 Q1024
LPMT,2017-11-08 19:00,-9.0359,38.7039,57.20,46.40,67.12,360.00,10.00,0.00,30.24,M,6.21,M,M,M,M,M,M,M,M,M,M,M,M,M,M,M,M,57.20,LPMT 081900Z 36010KT CAVOK 14/08 Q1024
LPMT,2017-11-08 20:00,-9.0359,38.7039,57.20,46.40,67.12,360.00,11.00,0.00,30.24,M,6.21,M,M,M,M,M,M,M,M,M,M,M,M,M,M,M,M,57.20,LPMT 082000Z 36011KT CAVOK 14/08 Q1024
LPMT,2017-11-08 21:00,-9.0359,38.7039,57.20,44.60,62.69,20.00,14.00,0.00,30.27,M,6.21,M,M,M,M,M,M,M,M,M,M,M,M,M,M,M,M,57.20,LPMT 082100Z 02014KT CAVOK 14/07 Q1025
LPMT,2017-11-08 22:00,-9.0359,38.7039,55.40,46.40,71.64,30.00,10.00,0.00,30.27,M,6.21,M,M,M,M,M,M,M,M,M,M,M,M,M,M,M,M,55.40,LPMT 082200Z 03010KT CAVOK 13/08 Q1025
LPMT,2017-11-08 23:00,-9.0359,38.7039,57.20,44.60,62.69,20.00,11.00,0.00,30.27,M,6.21,M,M,M,M,M,M,M,M,M,M,M,M,M,M,M,M,57.20,LPMT 082300Z 02011KT CAVOK 14/07 Q1025
LPMT,2017-11-09 00:00,-9.0359,38.7039,57.20,42.80,58.52,20.00,12.00,0.00,30.27,M,6.21,M,M,M,M,M,M,M,M,M,M,M,M,M,M,M,M,57.20,LPMT 090000Z 02012KT CAVOK 14/06 Q1025
LPMT,2017-11-09 01:00,-9.0359,38.7039,55.40,44.60,66.91,20.00,10.00,0.00,30.27,M,6.21,M,M,M,M,M,M,M,M,M,M,M,M,M,M,M,M,55.40,LPMT 090100Z 02010KT CAVOK 13/07 Q1025
LPMT,2017-11-09 02:00,-9.0359,38.7039,53.60,44.60,71.45,20.00,9.00,0.00,30.27,M,6.21,M,M,M,M,M,M,M,M,M,M,M,M,M,M,M,M,53.60,LPMT 090200Z 02009KT CAVOK 12/07 Q1025
LPMT,2017-11-09 03:00,-9.0359,38.7039,53.60,42.80,66.70,30.00,9.00,0.00,30.30,M,6.21,M,M,M,M,M,M,M,M,M,M,M,M,M,M,M,M,53.60,LPMT 090300Z 03009KT CAVOK 12/06 Q1026
LPMT,2017-11-09 04:00,-9.0359,38.7039,53.60,44.60,71.45,40.00,9.00,0.00,30.30,M,6.21,M,M,M,M,M,M,M,M,M,M,M,M,M,M,M,M,53.60,LPMT 090400Z 04009KT CAVOK 12/07 Q1026
LPMT,2017-11-09 05:00,-9.0359,38.7039,51.80,42.80,71.26,30.00,12.00,0.00,30.30,M,6.21,M,M,M,M,M,M,M,M,M,M,M,M,M,M,M,M,51.80,LPMT 090500Z 03012KT CAVOK 11/06 Q1026
LPMT,2017-11-09 06:00,-9.0359,38.7039,53.60,41.00,62.23,30.00,12.00,0.00,30.30,M,6.21,M,M,M,M,M,M,M,M,M,M,M,M,M,M,M,M,53.60,LPMT 090600Z 03012KT CAVOK 12/05 Q1026
LPMT,2017-11-09 07:00,-9.0359,38.7039,51.80,39.20,61.99,20.00,14.00,0.00,30.33,M,6.21,M,M,M,M,M,M,M,M,M,M,M,M,M,M,M,M,51.80,LPMT 090700Z 02014KT CAVOK 11/04 Q1027
LPMT,2017-11-09 08:00,-9.0359,38.7039,51.80,39.20,61.99,30.00,13.00,0.00,30.36,M,6.21,M,M,M,M,M,M,M,M,M,M,M,M,M,M,M,M,51.80,LPMT 090800Z 03013KT CAVOK 11/04 Q1028
LPMT,2017-11-09 09:00,-9.0359,38.7039,53.60,39.20,58.02,30.00,14.00,0.00,30.36,M,6.21,M,M,M,M,M,M,M,M,M,M,M,M,M,M,M,M,53.60,LPMT 090900Z 03014KT CAVOK 12/04 Q1028
LPMT,2017-11-09 10:00,-9.0359,38.7039,55.40,41.00,58.27,30.00,13.00,0.00,30.36,M,6.21,M,M,M,M,M,M,M,M,M,M,M,M,M,M,M,M,55.40,LPMT 091000Z 03013KT CAVOK 13/05 Q1028
LPMT,2017-11-09 11:00,-9.0359,38.7039,57.20,39.20,50.91,30.00,12.00,0.00,30.36,M,6.21,M,M,M,M,M,M,M,M,M,M,M,M,M,M,M,M,57.20,LPMT 091100Z 03012KT CAVOK 14/04 Q1028
LPMT,2017-11-09 12:00,-9.0359,38.7039,59.00,37.40,44.47,30.00,12.00,0.00,30.36,M,6.21,M,M,M,M,M,M,M,M,M,M,M,M,M,M,M,M,59.00,LPMT 091200Z 03012KT CAVOK 15/03 Q1028
LPMT,2017-11-09 13:00,-9.0359,38.7039,60.80,37.40,41.71,30.00,13.00,0.00,30.33,M,6.21,M,M,M,M,M,M,M,M,M,M,M,M,M,M,M,M,60.80,LPMT 091300Z 03013KT CAVOK 16/03 Q1027
LPMT,2017-11-09 14:00,-9.0359,38.7039,62.60,37.40,39.14,20.00,13.00,0.00,30.30,M,6.21,M,M,M,M,M,M,M,M,M,M,M,M,M,M,M,M,62.60,LPMT 091400Z 02013KT CAVOK 17/03 Q1026
LPMT,2017-11-09 15:00,-9.0359,38.7039,64.40,33.80,31.85,30.00,13.00,0.00,30.30,M,6.21,M,M,M,M,M,M,M,M,M,M,M,M,M,M,M,M,64.40,LPMT 091500Z 03013KT 360V060 CAVOK 18/01 Q1026
LPMT,2017-11-09 16:00,-9.0359,38.7039,64.40,35.60,34.22,30.00,8.00,0.00,30.30,M,6.21,M,M,M,M,M,M,M,M,M,M,M,M,M,M,M,M,64.40,LPMT 091600Z 03008KT CAVOK 18/02 Q1026
LPMT,2017-11-09 17:00,-9.0359,38.7039,60.80,42.80,51.45,350.00,9.00,0.00,30.30,M,6.21,M,M,M,M,M,M,M,M,M,M,M,M,M,M,M,M,60.80,LPMT 091700Z 35009KT CAVOK 16/06 Q1026
LPMT,2017-11-09 18:00,-9.0359,38.7039,59.00,41.00,51.18,360.00,10.00,0.00,30.33,M,6.21,M,M,M,M,M,M,M,M,M,M,M,M,M,M,M,M,59.00,LPMT 091800Z 36010KT CAVOK 15/05 Q1027
LPMT,2017-11-09 19:00,-9.0359,38.7039,57.20,42.80,58.52,360.00,9.00,0.00,30.33,M,6.21,M,M,M,M,M,M,M,M,M,M,M,M,M,M,M,M,57.20,LPMT 091900Z 36009KT CAVOK 14/06 Q1027
LPMT,2017-11-09 20:00,-9.0359,38.7039,57.20,42.80,58.52,20.00,11.00,0.00,30.36,M,6.21,M,M,M,M,M,M,M,M,M,M,M,M,M,M,M,M,57.20,LPMT 092000Z 02011KT CAVOK 14/06 Q1028
LPMT,2017-11-09 21:00,-9.0359,38.7039,55.40,44.60,66.91,30.00,10.00,0.00,30.36,M,6.21,M,M,M,M,M,M,M,M,M,M,M,M,M,M,M,M,55.40,LPMT 092100Z 03010KT CAVOK 13/07 Q1028
LPMT,2017-11-09 22:00,-9.0359,38.7039,53.60,46.40,76.50,30.00,7.00,0.00,30.39,M,6.21,M,M,M,M,M,M,M,M,M,M,M,M,M,M,M,M,53.60,LPMT 092200Z 03007KT CAVOK 12/08 Q1029
LPMT,2017-11-09 23:00,-9.0359,38.7039,51.80,44.60,76.34,20.00,6.00,0.00,30.39,M,6.21,M,M,M,M,M,M,M,M,M,M,M,M,M,M,M,M,51.80,LPMT 092300Z 02006KT CAVOK 11/07 Q1029
LPMT,2017-11-10 00:00,-9.0359,38.7039,53.60,46.40,76.50,30.00,8.00,0.00,30.39,M,6.21,M,M,M,M,M,M,M,M,M,M,M,M,M,M,M,M,53.60,LPMT 100000Z 03008KT CAVOK 12/08 Q1029
LPMT,2017-11-10 01:00,-9.0359,38.7039,50.00,46.40,87.37,20.00,6.00,0.00,30.39,M,6.21,M,M,M,M,M,M,M,M,M,M,M,M,M,M,M,M,47.21,LPMT 100100Z 02006KT CAVOK 10/08 Q1029
LPMT,2017-11-10 02:00,-9.0359,38.7039,48.20,44.60,87.28,40.00,6.00,0.00,30.39,M,6.21,M,M,M,M,M,M,M,M,M,M,M,M,M,M,M,M,45.04,LPMT 100200Z 04006KT CAVOK 09/07 Q1029
LPMT,2017-11-10 03:00,-9.0359,38.7039,44.60,42.80,93.35,60.00,3.00,0.00,30.39,M,6.21,M,M,M,M,M,M,M,M,M,M,M,M,M,M,M,M,43.09,LPMT 100300Z 06003KT CAVOK 07/06 Q1029
LPMT,2017-11-10 04:00,-9.0359,38.7039,46.40,42.80,87.19,30.00,8.00,0.00,30.39,M,6.21,M,M,M,M,M,M,M,M,M,M,M,M,M,M,M,M,41.85,LPMT 100400Z 03008KT CAVOK 08/06 Q1029
LPMT,2017-11-10 05:00,-9.0359,38.7039,48.20,44.60,87.28,20.00,8.00,0.00,30.39,M,6.21,M,M,M,M,M,M,M,M,M,M,M,M,M,M,M,M,44.07,LPMT 100500Z 02008KT CAVOK 09/07 Q1029
LPMT,2017-11-10 06:00,-9.0359,38.7039,46.40,44.60,93.40,10.00,6.00,0.00,30.39,M,6.21,M,M,M,M,M,M,M,M,M,M,M,M,M,M,M,M,42.87,LPMT 100600Z 01006KT CAVOK 08/07 Q1029
LPMT,2017-11-10 07:00,-9.0359,38.7039,46.40,42.80,87.19,60.00,6.00,0.00,30.42,M,6.21,M,M,M,M,M,M,M,M,M,M,M,M,M,M,M,M,42.87,LPMT 100700Z 06006KT CAVOK 08/06 Q1030
LPMT,2017-11-10 08:00,-9.0359,38.7039,46.40,41.00,81.34,60.00,3.00,0.00,30.42,M,6.21,M,M,M,M,M,M,M,M,M,M,M,M,M,M,M,M,45.15,LPMT 100800Z 06003KT 030V090 CAVOK 08/05 Q1030
LPMT,2017-11-10 09:00,-9.0359,38.7039,51.80,42.80,71.26,40.00,7.00,0.00,30.45,M,6.21,M,M,M,M,M,M,M,M,M,M,M,M,M,M,M,M,51.80,LPMT 100900Z 04007KT CAVOK 11/06 Q1031
LPMT,2017-11-10 10:00,-9.0359,38.7039,55.40,39.20,54.34,30.00,7.00,0.00,30.45,M,6.21,M,M,M,M,M,M,M,M,M,M,M,M,M,M,M,M,55.40,LPMT 101000Z 03007KT CAVOK 13/04 Q1031
LPMT,2017-11-10 11:00,-9.0359,38.7039,57.20,42.80,58.52,20.00,5.00,0.00,30.47,M,6.21,M,M,M,M,M,M,M,M,M,M,M,M,M,M,M,M,57.20,LPMT 101100Z 02005KT 330V060 CAVOK 14/06 Q1032
LPMT,2017-11-10 13:00,-9.0359,38.7039,66.20,44.60,45.60,20.00,5.00,0.00,30.42,M,6.21,M,M,M,M,M,M,M,M,M,M,M,M,M,M,M,M,66.20,LPMT 101300Z 02005KT 340V050 CAVOK 19/07 Q1030
LPMT,2017-11-10 14:00,-9.0359,38.7039,68.00,44.60,42.85,50.00,9.00,0.00,30.39,M,6.21,M,M,M,M,M,M,M,M,M,M,M,M,M,M,M,M,68.00,LPMT 101400Z 05009KT CAVOK 20/07 Q1029
LPMT,2017-11-10 15:00,-9.0359,38.7039,69.80,46.40,43.13,360.00,5.00,0.00,30.36,M,6.21,M,M,M,M,M,M,M,M,M,M,M,M,M,M,M,M,69.80,LPMT 101500Z 36005KT 260V030 CAVOK 21/08 Q1028
LPMT,2017-11-10 16:00,-9.0359,38.7039,69.80,44.60,40.29,10.00,5.00,0.00,30.36,M,6.21,M,M,M,M,M,M,M,M,M,M,M,M,M,M,M,M,69.80,LPMT 101600Z 01005KT 330V030 CAVOK 21/07 Q1028
LPMT,2017-11-10 17:00,-9.0359,38.7039,66.20,46.40,48.83,10.00,6.00,0.00,30.36,M,6.21,M,M,M,M,M,M,M,M,M,M,M,M,M,M,M,M,66.20,LPMT 101700Z 01006KT CAVOK 19/08 Q1028
LPMT,2017-11-10 18:00,-9.0359,38.7039,62.60,48.20,59.26,340.00,7.00,0.00,30.36,M,6.21,M,M,M,M,M,M,M,M,M,M,M,M,M,M,M,M,62.60,LPMT 101800Z 34007KT CAVOK 17/09 Q1028
LPMT,2017-11-10 19:00,-9.0359,38.7039,60.80,50.00,67.54,330.00,6.00,0.00,30.39,M,6.21,M,M,M,M,M,M,M,M,M,M,M,M,M,M,M,M,60.80,LPMT 101900Z 33006KT CAVOK 16/10 Q1029
LPMT,2017-11-10 20:00,-9.0359,38.7039,59.00,50.00,72.01,360.00,6.00,0.00,30.39,M,6.21,M,M,M,M,M,M,M,M,M,M,M,M,M,M,M,M,59.00,LPMT 102000Z 36006KT CAVOK 15/10 Q1029
LPMT,2017-11-10 21:00,-9.0359,38.7039,57.20,48.20,71.83,M,2.00,0.00,30.42,M,6.21,M,M,M,M,M,M,M,M,M,M,M,M,M,M,M,M,57.20,LPMT 102100Z VRB02KT CAVOK 14/09 Q1030
LPMT,2017-11-10 22:00,-9.0359,38.7039,55.40,50.00,81.99,M,2.00,0.00,30.42,M,6.21,M,M,M,M,M,M,M,M,M,M,M,M,M,M,M,M,55.40,LPMT 102200Z VRB02KT CAVOK 13/10 Q1030
LPMT,2017-11-10 23:00,-9.0359,38.7039,50.00,48.20,93.50,M,1.00,0.00,30.42,M,6.21,M,M,M,M,M,M,M,M,M,M,M,M,M,M,M,M,50.00,LPMT 102300Z VRB01KT CAVOK 10/09 Q1030
LPMT,2017-11-11 00:00,-9.0359,38.7039,51.80,50.00,93.55,M,2.00,0.00,30.42,M,6.21,M,M,M,M,M,M,M,M,M,M,M,M,M,M,M,M,51.80,LPMT 110000Z VRB02KT CAVOK 11/10 Q1030
LPMT,2017-11-11 01:00,-9.0359,38.7039,50.00,50.00,100.00,M,1.00,0.00,30.39,M,6.21,M,M,M,M,M,M,M,M,M,M,M,M,M,M,M,M,50.00,LPMT 110100Z VRB01KT CAVOK 10/10 Q1029
LPMT,2017-11-11 02:00,-9.0359,38.7039,48.20,48.20,100.00,90.00,2.00,0.00,30.39,M,6.21,M,M,M,M,M,M,M,M,M,M,M,M,M,M,M,M,48.20,LPMT 110200Z 09002KT CAVOK 09/09 Q1029
LPMT,2017-11-11 03:00,-9.0359,38.7039,48.20,46.40,93.45,110.00,3.00,0.00,30.39,M,6.21,M,M,M,M,M,M,M,M,M,M,M,M,M,M,M,M,47.21,LPMT 110300Z 11003KT 040V130 CAVOK 09/08 Q1029
LPMT,2017-11-11 04:00,-9.0359,38.7039,46.40,44.60,93.40,M,2.00,0.00,30.36,M,6.21,M,M,M,M,M,M,M,M,M,M,M,M,M,M,M,M,46.40,LPMT 110400Z VRB02KT CAVOK 08/07 Q1028
LPMT,2017-11-11 05:00,-9.0359,38.7039,44.60,44.60,100.00,M,2.00,0.00,30.36,M,6.21,M,M,M,M,M,M,M,M,M,M,M,M,M,M,M,M,44.60,LPMT 110500Z VRB02KT CAVOK 07/07 Q1028
LPMT,2017-11-11 06:00,-9.0359,38.7039,44.60,44.60,100.00,90.00,3.00,0.00,30.36,M,6.21,M,M,M,M,M,M,M,M,M,M,M,M,M,M,M,M,43.09,LPMT 110600Z 09003KT CAVOK 07/07 Q1028
LPMT,2017-11-11 07:00,-9.0359,38.7039,44.60,42.80,93.35,70.00,2.00,0.00,30.36,M,6.21,M,M,M,M,M,M,M,M,M,M,M,M,M,M,M,M,44.60,LPMT 110700Z 07002KT CAVOK 07/06 Q1028
LPMT,2017-11-11 08:00,-9.0359,38.7039,46.40,44.60,93.40,110.00,3.00,0.00,30.39,M,6.21,M,M,M,M,M,M,M,M,M,M,M,M,M,M,M,M,45.15,LPMT 110800Z 11003KT CAVOK 08/07 Q1029
LPMT,2017-11-11 09:00,-9.0359,38.7039,51.80,50.00,93.55,60.00,3.00,0.00,30.39,M,6.21,M,M,M,M,M,M,M,M,M,M,M,M,M,M,M,M,51.80,LPMT 110900Z 06003KT CAVOK 11/10 Q1029
LPMT,2017-11-11 10:00,-9.0359,38.7039,57.20,51.80,82.12,30.00,3.00,0.00,30.39,M,6.21,M,M,M,M,M,M,M,M,M,M,M,M,M,M,M,M,57.20,LPMT 111000Z 03003KT 360V060 CAVOK 14/11 Q1029
LPMT,2017-11-11 11:00,-9.0359,38.7039,60.80,50.00,67.54,30.00,4.00,0.00,30.39,M,6.21,M,M,M,M,M,M,M,M,M,M,M,M,M,M,M,M,60.80,LPMT 111100Z 03004KT 350V090 CAVOK 16/10 Q1029
LPMT,2017-11-11 12:00,-9.0359,38.7039,64.40,51.80,63.60,M,2.00,0.00,30.36,M,6.21,M,M,M,M,M,M,M,M,M,M,M,M,M,M,M,M,64.40,LPMT 111200Z VRB02KT CAVOK 18/11 Q1028
LPMT,2017-11-11 13:00,-9.0359,38.7039,64.40,51.80,63.60,160.00,4.00,0.00,30.33,M,6.21,M,M,M,M,M,M,M,M,M,M,M,M,M,M,M,M,64.40,LPMT 111300Z 16004KT 140V200 CAVOK 18/11 Q1027
LPMT,2017-11-11 14:00,-9.0359,38.7039,66.20,51.80,59.74,270.00,3.00,0.00,30.30,M,6.21,M,M,M,M,M,M,M,M,M,M,M,M,M,M,M,M,66.20,LPMT 111400Z 27003KT 230V320 CAVOK 19/11 Q1026
LPMT,2017-11-11 15:00,-9.0359,38.7039,68.00,51.80,56.13,260.00,3.00,0.00,30.30,M,6.21,M,M,M,M,M,M,M,M,M,M,M,M,M,M,M,M,68.00,LPMT 111500Z 26003KT 200V310 CAVOK 20/11 Q1026
LPMT,2017-11-11 16:00,-9.0359,38.7039,68.00,51.80,56.13,280.00,4.00,0.00,30.30,M,6.21,M,M,M,M,M,M,M,M,M,M,M,M,M,M,M,M,68.00,LPMT 111600Z 28004KT CAVOK 20/11 Q1026
LPMT,2017-11-11 17:00,-9.0359,38.7039,66.20,53.60,63.82,M,2.00,0.00,30.30,M,6.21,M,M,M,M,M,M,M,M,M,M,M,M,M,M,M,M,66.20,LPMT 111700Z VRB02KT CAVOK 19/12 Q1026
LPMT,2017-11-11 18:00,-9.0359,38.7039,60.80,53.60,77.14,330.00,6.00,0.00,30.30,M,6.21,M,M,M,M,M,M,M,M,M,M,M,M,M,M,M,M,60.80,LPMT 111800Z 33006KT CAVOK 16/12 Q1026
LPMT,2017-11-11 19:00,-9.0359,38.7039,59.00,51.80,76.98,320.00,5.00,0.00,30.30,M,6.21,M,M,M,M,M,M,M,M,M,M,M,M,M,M,M,M,59.00,LPMT 111900Z 32005KT CAVOK 15/11 Q1026
LPMT,2017-11-11 20:00,-9.0359,38.7039,57.20,51.80,82.12,340.00,4.00,0.00,30.30,M,6.21,M,M,M,M,M,M,M,M,M,M,M,M,M,M,M,M,57.20,LPMT 112000Z 34004KT CAVOK 14/11 Q1026
LPMT,2017-11-11 21:00,-9.0359,38.7039,55.40,50.00,81.99,350.00,4.00,0.00,30.30,M,6.21,M,M,M,M,M,M,M,M,M,M,M,M,M,M,M,M,55.40,LPMT 112100Z 35004KT CAVOK 13/10 Q1026
LPMT,2017-11-11 22:00,-9.0359,38.7039,55.40,50.00,81.99,330.00,4.00,0.00,30.30,M,6.21,M,M,M,M,M,M,M,M,M,M,M,M,M,M,M,M,55.40,LPMT 112200Z 33004KT CAVOK 13/10 Q1026
LPMT,2017-11-11 23:00,-9.0359,38.7039,51.80,48.20,87.47,350.00,3.00,0.00,30.30,M,6.21,M,M,M,M,M,M,M,M,M,M,M,M,M,M,M,M,51.80,LPMT 112300Z 35003KT CAVOK 11/09 Q1026
LPMT,2017-11-12 00:00,-9.0359,38.7039,50.00,46.40,87.37,350.00,4.00,0.00,30.30,M,6.21,M,M,M,M,M,M,M,M,M,M,M,M,M,M,M,M,48.44,LPMT 120000Z 35004KT CAVOK 10/08 Q1026
LPMT,2017-11-12 01:00,-9.0359,38.7039,53.60,48.20,81.87,340.00,4.00,0.00,30.27,M,6.21,M,M,M,M,M,M,M,M,M,M,M,M,M,M,M,M,53.60,LPMT 120100Z 34004KT CAVOK 12/09 Q1025
LPMT,2017-11-12 02:00,-9.0359,38.7039,53.60,48.20,81.87,350.00,4.00,0.00,30.27,M,6.21,M,M,M,M,M,M,M,M,M,M,M,M,M,M,M,M,53.60,LPMT 120200Z 35004KT CAVOK 12/09 Q1025
LPMT,2017-11-12 03:00,-9.0359,38.7039,53.60,50.00,87.56,340.00,5.00,0.00,30.27,M,6.21,M,M,M,M,M,M,M,M,M,M,M,M,M,M,M,M,53.60,LPMT 120300Z 34005KT CAVOK 12/10 Q1025
LPMT,2017-11-12 04:00,-9.0359,38.7039,53.60,50.00,87.56,330.00,4.00,0.00,30.24,M,6.21,M,M,M,M,M,M,M,M,M,M,M,M,M,M,M,M,53.60,LPMT 120400Z 33004KT CAVOK 12/10 Q1024
LPMT,2017-11-12 05:00,-9.0359,38.7039,44.60,42.80,93.35,310.00,3.00,0.00,30.24,M,6.21,M,M,M,M,M,M,M,M,M,M,M,M,M,M,M,M,43.09,LPMT 120500Z 31003KT CAVOK 07/06 Q1024
LPMT,2017-11-12 06:00,-9.0359,38.7039,53.60,51.80,93.60,330.00,4.00,0.00,30.24,M,6.21,M,M,M,M,M,M,M,M,M,M,M,M,M,M,M,M,53.60,LPMT 120600Z 33004KT CAVOK 12/11 Q1024
LPMT,2017-11-12 07:00,-9.0359,38.7039,48.20,46.40,93.45,100.00,3.00,0.00,30.24,M,6.21,M,NSC,M,M,M,M,M,M,M,MIFG,M,M,M,M,M,M,47.21,LPMT 120700Z 10003KT 050V120 9999 MIFG NSC 09/08 Q1024
LPMT,2017-11-12 08:00,-9.0359,38.7039,48.20,46.40,93.45,110.00,3.00,0.00,30.27,M,6.21,M,FEW,M,M,M,1500.00,M,M,M,MIFG,M,M,M,M,M,M,47.21,LPMT 120800Z 11003KT 060V130 9999 MIFG FEW015 09/08 Q1025
LPMT,2017-11-12 09:00,-9.0359,38.7039,57.20,53.60,87.74,M,1.00,0.00,30.27,M,6.21,M,FEW,M,M,M,1500.00,M,M,M,M,M,M,M,M,M,M,57.20,LPMT 120900Z VRB01KT 9999 FEW015 14/12 Q1025
LPMT,2017-11-12 10:00,-9.0359,38.7039,59.00,51.80,76.98,20.00,5.00,0.00,30.27,M,6.21,M,FEW,M,M,M,1800.00,M,M,M,M,M,M,M,M,M,M,59.00,LPMT 121000Z 02005KT 340V040 9999 FEW018 15/11 Q1025
LPMT,2017-11-12 11:00,-9.0359,38.7039,62.60,51.80,67.75,360.00,7.00,0.00,30.27,M,6.21,M,FEW,M,M,M,2000.00,M,M,M,M,M,M,M,M,M,M,62.60,LPMT 121100Z 36007KT 340V040 9999 FEW020 17/11 Q1025
LPMT,2017-11-12 12:00,-9.0359,38.7039,64.40,51.80,63.60,10.00,7.00,0.00,30.24,M,6.21,M,FEW,M,M,M,2000.00,M,M,M,M,M,M,M,M,M,M,64.40,LPMT 121200Z 01007KT 9999 FEW020 18/11 Q1024
LPMT,2017-11-12 13:00,-9.0359,38.7039,66.20,53.60,63.82,350.00,8.00,0.00,30.21,M,6.21,M,FEW,M,M,M,2500.00,M,M,M,M,M,M,M,M,M,M,66.20,LPMT 121300Z 35008KT 9999 FEW025 19/12 Q1023
LPMT,2017-11-12 14:00,-9.0359,38.7039,66.20,51.80,59.74,340.00,11.00,0.00,30.21,M,6.21,M,M,M,M,M,M,M,M,M,M,M,M,M,M,M,M,66.20,LPMT 121400Z 34011KT CAVOK 19/11 Q1023
LPMT,2017-11-12 15:00,-9.0359,38.7039,66.20,51.80,59.74,340.00,10.00,0.00,30.18,M,6.21,M,M,M,M,M,M,M,M,M,M,M,M,M,M,M,M,66.20,LPMT 121500Z 34010KT CAVOK 19/11 Q1022
LPMT,2017-11-12 16:00,-9.0359,38.7039,62.60,51.80,67.75,340.00,12.00,0.00,30.18,M,6.21,M,M,M,M,M,M,M,M,M,M,M,M,M,M,M,M,62.60,LPMT 121600Z 34012KT CAVOK 17/11 Q1022
LPMT,2017-11-12 17:00,-9.0359,38.7039,60.80,51.80,72.20,330.00,8.00,0.00,30.21,M,6.21,M,M,M,M,M,M,M,M,M,M,M,M,M,M,M,M,60.80,LPMT 121700Z 33008KT CAVOK 16/11 Q1023
LPMT,2017-11-12 18:00,-9.0359,38.7039,59.00,50.00,72.01,330.00,6.00,0.00,30.21,M,6.21,M,M,M,M,M,M,M,M,M,M,M,M,M,M,M,M,59.00,LPMT 121800Z 33006KT 300V010 CAVOK 15/10 Q1023
LPMT,2017-11-12 19:00,-9.0359,38.7039,59.00,50.00,72.01,350.00,8.00,0.00,30.21,M,6.21,M,M,M,M,M,M,M,M,M,M,M,M,M,M,M,M,59.00,LPMT 121900Z 35008KT CAVOK 15/10 Q1023
LPMT,2017-11-12 20:00,-9.0359,38.7039,57.20,51.80,82.12,330.00,7.00,0.00,30.21,M,6.21,M,M,M,M,M,M,M,M,M,M,M,M,M,M,M,M,57.20,LPMT 122000Z 33007KT 300V360 CAVOK 14/11 Q1023
LPMT,2017-11-12 21:00,-9.0359,38.7039,57.20,51.80,82.12,340.00,5.00,0.00,30.21,M,6.21,M,M,M,M,M,M,M,M,M,M,M,M,M,M,M,M,57.20,LPMT 122100Z 34005KT 280V030 CAVOK 14/11 Q1023
LPMT,2017-11-12 22:00,-9.0359,38.7039,57.20,51.80,82.12,360.00,7.00,0.00,30.21,M,6.21,M,M,M,M,M,M,M,M,M,M,M,M,M,M,M,M,57.20,LPMT 122200Z 36007KT 320V030 CAVOK 14/11 Q1023
LPMT,2017-11-12 23:00,-9.0359,38.7039,59.00,53.60,82.25,360.00,8.00,0.00,30.21,M,6.21,M,M,M,M,M,M,M,M,M,M,M,M,M,M,M,M,59.00,LPMT 122300Z 36008KT CAVOK 15/12 Q1023
LPMT,2017-11-13 00:00,-9.0359,38.7039,59.00,53.60,82.25,350.00,10.00,0.00,30.21,M,6.21,M,FEW,M,M,M,1500.00,M,M,M,M,M,M,M,M,M,M,59.00,LPMT 130000Z 35010KT 9999 FEW015 15/12 Q1023
LPMT,2017-11-13 01:00,-9.0359,38.7039,59.00,53.60,82.25,350.00,9.00,0.00,30.21,M,6.21,M,FEW,M,M,M,1500.00,M,M,M,M,M,M,M,M,M,M,59.00,LPMT 130100Z 35009KT 9999 FEW015 15/12 Q1023
LPMT,2017-11-13 02:00,-9.0359,38.7039,59.00,53.60,82.25,350.00,9.00,0.00,30.18,M,6.21,M,FEW,M,M,M,1500.00,M,M,M,M,M,M,M,M,M,M,59.00,LPMT 130200Z 35009KT 320V020 9999 FEW015 15/12 Q1022
LPMT,2017-11-13 03:00,-9.0359,38.7039,59.00,55.40,87.83,360.00,10.00,0.00,30.18,M,6.21,M,FEW,M,M,M,1500.00,M,M,M,M,M,M,M,M,M,M,59.00,LPMT 130300Z 36010KT 9999 FEW015 15/13 Q1022
LPMT,2017-11-13 04:00,-9.0359,38.7039,59.00,55.40,87.83,360.00,7.00,0.00,30.15,M,6.21,M,FEW,M,M,M,1500.00,M,M,M,M,M,M,M,M,M,M,59.00,LPMT 130400Z 36007KT 9999 FEW015 15/13 Q1021
LPMT,2017-11-13 05:00,-9.0359,38.7039,59.00,53.60,82.25,360.00,9.00,0.00,30.15,M,6.21,M,FEW,M,M,M,1500.00,M,M,M,M,M,M,M,M,M,M,59.00,LPMT 130500Z 36009KT 9999 FEW015 15/12 Q1021
LPMT,2017-11-13 06:00,-9.0359,38.7039,57.20,53.60,87.74,340.00,4.00,0.00,30.15,M,6.21,M,FEW,M,M,M,1800.00,M,M,M,M,M,M,M,M,M,M,57.20,LPMT 130600Z 34004KT 9999 FEW018 14/12 Q1021
LPMT,2017-11-13 07:00,-9.0359,38.7039,57.20,53.60,87.74,10.00,6.00,0.00,30.15,M,6.21,M,FEW,M,M,M,2000.00,M,M,M,M,M,M,M,M,M,M,57.20,LPMT 130700Z 01006KT 9999 FEW020 14/12 Q1021
LPMT,2017-11-13 08:00,-9.0359,38.7039,57.20,51.80,82.12,360.00,6.00,0.00,30.18,M,6.21,M,FEW,M,M,M,2000.00,M,M,M,M,M,M,M,M,M,M,57.20,LPMT 130800Z 36006KT 9999 FEW020 14/11 Q1022
LPMT,2017-11-13 09:00,-9.0359,38.7039,59.00,51.80,76.98,350.00,6.00,0.00,30.18,M,6.21,M,M,M,M,M,M,M,M,M,M,M,M,M,M,M,M,59.00,LPMT 130900Z 35006KT 310V020 CAVOK 15/11 Q1022
LPMT,2017-11-13 10:00,-9.0359,38.7039,60.80,53.60,77.14,20.00,7.00,0.00,30.18,M,6.21,M,M,M,M,M,M,M,M,M,M,M,M,M,M,M,M,60.80,LPMT 131000Z 02007KT CAVOK 16/12 Q1022
LPMT,2017-11-13 11:00,-9.0359,38.7039,64.40,53.60,67.95,10.00,8.00,0.00,30.18,M,6.21,M,FEW,M,M,M,2000.00,M,M,M,M,M,M,M,M,M,M,64.40,LPMT 131100Z 01008KT 330V040 9999 FEW020 18/12 Q1022
LPMT,2017-11-13 12:00,-9.0359,38.7039,64.40,51.80,63.60,10.00,8.00,0.00,30.15,M,6.21,M,FEW,M,M,M,2000.00,M,M,M,M,M,M,M,M,M,M,64.40,LPMT 131200Z 01008KT 340V040 9999 FEW020 18/11 Q1021
LPMT,2017-11-13 13:00,-9.0359,38.7039,66.20,50.00,55.88,20.00,7.00,0.00,30.12,M,6.21,M,M,M,M,M,M,M,M,M,M,M,M,M,M,M,M,66.20,LPMT 131300Z 02007KT CAVOK 19/10 Q1020
LPMT,2017-11-13 14:00,-9.0359,38.7039,69.80,50.00,49.37,20.00,8.00,0.00,30.09,M,6.21,M,M,M,M,M,M,M,M,M,M,M,M,M,M,M,M,69.80,LPMT 131400Z 02008KT CAVOK 21/10 Q1019
LPMT,2017-11-13 15:00,-9.0359,38.7039,69.80,50.00,49.37,360.00,6.00,0.00,30.06,M,6.21,M,M,M,M,M,M,M,M,M,M,M,M,M,M,M,M,69.80,LPMT 131500Z 36006KT 330V030 CAVOK 21/10 Q1018
LPMT,2017-11-13 16:00,-9.0359,38.7039,68.00,53.60,59.97,330.00,6.00,0.00,30.06,M,6.21,M,M,M,M,M,M,M,M,M,M,M,M,M,M,M,M,68.00,LPMT 131600Z 33006KT CAVOK 20/12 Q1018
LPMT,2017-11-13 17:00,-9.0359,38.7039,64.40,50.00,59.50,330.00,7.00,0.00,30.06,M,6.21,M,M,M,M,M,M,M,M,M,M,M,M,M,M,M,M,64.40,LPMT 131700Z 33007KT CAVOK 18/10 Q1018
LPMT,2017-11-13 18:00,-9.0359,38.7039,60.80,50.00,67.54,330.00,5.00,0.00,30.06,M,6.21,M,M,M,M,M,M,M,M,M,M,M,M,M,M,M,M,60.80,LPMT 131800Z 33005KT CAVOK 16/10 Q1018
LPMT,2017-11-13 19:00,-9.0359,38.7039,59.00,50.00,72.01,350.00,8.00,0.00,30.06,M,6.21,M,M,M,M,M,M,M,M,M,M,M,M,M,M,M,M,59.00,LPMT 131900Z 35008KT CAVOK 15/10 Q1018
LPMT,2017-11-13 20:00,-9.0359,38.7039,57.20,50.00,76.82,350.00,6.00,0.00,30.09,M,6.21,M,M,M,M,M,M,M,M,M,M,M,M,M,M,M,M,57.20,LPMT 132000Z 35006KT CAVOK 14/10 Q1019
LPMT,2017-11-13 21:00,-9.0359,38.7039,55.40,50.00,81.99,340.00,4.00,0.00,30.09,M,6.21,M,M,M,M,M,M,M,M,M,M,M,M,M,M,M,M,55.40,LPMT 132100Z 34004KT CAVOK 13/10 Q1019
LPMT,2017-11-13 22:00,-9.0359,38.7039,55.40,50.00,81.99,360.00,4.00,0.00,30.09,M,6.21,M,M,M,M,M,M,M,M,M,M,M,M,M,M,M,M,55.40,LPMT 132200Z 36004KT CAVOK 13/10 Q1019
LPMT,2017-11-13 23:00,-9.0359,38.7039,50.00,48.20,93.50,M,1.00,0.00,30.09,M,6.21,M,M,M,M,M,M,M,M,M,M,M,M,M,M,M,M,50.00,LPMT 132300Z VRB01KT CAVOK 10/09 Q1019
LPMT,2017-11-14 00:00,-9.0359,38.7039,51.80,50.00,93.55,30.00,6.00,0.00,30.09,M,6.21,M,M,M,M,M,M,M,M,M,M,M,M,M,M,M,M,51.80,LPMT 140000Z 03006KT CAVOK 11/10 Q1019
LPMT,2017-11-14 01:00,-9.0359,38.7039,53.60,48.20,81.87,20.00,9.00,0.00,30.09,M,6.21,M,M,M,M,M,M,M,M,M,M,M,M,M,M,M,M,53.60,LPMT 140100Z 02009KT CAVOK 12/09 Q1019
LPMT,2017-11-14 02:00,-9.0359,38.7039,53.60,42.80,66.70,30.00,7.00,0.00,30.09,M,6.21,M,M,M,M,M,M,M,M,M,M,M,M,M,M,M,M,53.60,LPMT 140200Z 03007KT CAVOK 12/06 Q1019
LPMT,2017-11-14 03:00,-9.0359,38.7039,51.80,41.00,66.48,20.00,5.00,0.00,30.09,M,6.21,M,M,M,M,M,M,M,M,M,M,M,M,M,M,M,M,51.80,LPMT 140300Z 02005KT CAVOK 11/05 Q1019
LPMT,2017-11-14 04:00,-9.0359,38.7039,51.80,39.20,61.99,30.00,7.00,0.00,30.09,M,6.21,M,M,M,M,M,M,M,M,M,M,M,M,M,M,M,M,51.80,LPMT 140400Z 03007KT CAVOK 11/04 Q1019
LPMT,2017-11-14 05:00,-9.0359,38.7039,51.80,39.20,61.99,30.00,9.00,0.00,30.09,M,6.21,M,M,M,M,M,M,M,M,M,M,M,M,M,M,M,M,51.80,LPMT 140500Z 03009KT CAVOK 11/04 Q1019
LPMT,2017-11-14 06:00,-9.0359,38.7039,48.20,39.20,70.88,30.00,8.00,0.00,30.09,M,6.21,M,M,M,M,M,M,M,M,M,M,M,M,M,M,M,M,44.07,LPMT 140600Z 03008KT CAVOK 09/04 Q1019
LPMT,2017-11-14 07:00,-9.0359,38.7039,48.20,39.20,70.88,30.00,9.00,0.00,30.09,M,6.21,M,M,M,M,M,M,M,M,M,M,M,M,M,M,M,M,43.66,LPMT 140700Z 03009KT CAVOK 09/04 Q1019
LPMT,2017-11-14 08:00,-9.0359,38.7039,48.20,39.20,70.88,40.00,9.00,0.00,30.12,M,6.21,M,M,M,M,M,M,M,M,M,M,M,M,M,M,M,M,43.66,LPMT 140800Z 04009KT CAVOK 09/04 Q1020
LPMT,2017-11-14 09:00,-9.0359,38.7039,50.00,39.20,66.27,30.00,11.00,0.00,30.12,M,6.21,M,M,M,M,M,M,M,M,M,M,M,M,M,M,M,M,45.21,LPMT 140900Z 03011KT CAVOK 10/04 Q1020
LPMT,2017-11-14 10:00,-9.0359,38.7039,51.80,37.40,57.77,40.00,10.00,0.00,30.12,M,6.21,M,M,M,M,M,M,M,M,M,M,M,M,M,M,M,M,51.80,LPMT 141000Z 04010KT CAVOK 11/03 Q1020
LPMT,2017-11-14 11:00,-9.0359,38.7039,55.40,39.20,54.34,40.00,9.00,0.00,30.12,M,6.21,M,M,M,M,M,M,M,M,M,M,M,M,M,M,M,M,55.40,LPMT 141100Z 04009KT CAVOK 13/04 Q1020
LPMT,2017-11-14 12:00,-9.0359,38.7039,59.00,41.00,51.18,30.00,7.00,0.00,30.09,M,6.21,M,M,M,M,M,M,M,M,M,M,M,M,M,M,M,M,59.00,LPMT 141200Z 03007KT 360V060 CAVOK 15/05 Q1019
LPMT,2017-11-14 13:00,-9.0359,38.7039,60.80,42.80,51.45,360.00,4.00,0.00,30.09,M,6.21,M,M,M,M,M,M,M,M,M,M,M,M,M,M,M,M,60.80,LPMT 141300Z 36004KT 330V030 CAVOK 16/06 Q1019
LPMT,2017-11-14 14:00,-9.0359,38.7039,62.60,41.00,45.04,360.00,7.00,0.00,30.06,M,6.21,M,M,M,M,M,M,M,M,M,M,M,M,M,M,M,M,62.60,LPMT 141400Z 36007KT CAVOK 17/05 Q1018
LPMT,2017-11-14 15:00,-9.0359,38.7039,64.40,41.00,42.28,10.00,7.00,0.00,30.03,M,6.21,M,M,M,M,M,M,M,M,M,M,M,M,M,M,M,M,64.40,LPMT 141500Z 01007KT CAVOK 18/05 Q1017
LPMT,2017-11-14 16:00,-9.0359,38.7039,64.40,39.20,39.43,10.00,6.00,0.00,30.03,M,6.21,M,M,M,M,M,M,M,M,M,M,M,M,M,M,M,M,64.40,LPMT 141600Z 01006KT CAVOK 18/04 Q1017
LPMT,2017-11-14 17:00,-9.0359,38.7039,60.80,41.00,48.00,10.00,5.00,0.00,30.03,M,6.21,M,M,M,M,M,M,M,M,M,M,M,M,M,M,M,M,60.80,LPMT 141700Z 01005KT CAVOK 16/05 Q1017
LPMT,2017-11-14 18:00,-9.0359,38.7039,57.20,42.80,58.52,10.00,5.00,0.00,30.03,M,6.21,M,M,M,M,M,M,M,M,M,M,M,M,M,M,M,M,57.20,LPMT 141800Z 01005KT CAVOK 14/06 Q1017
LPMT,2017-11-14 19:00,-9.0359,38.7039,55.40,41.00,58.27,10.00,5.00,0.00,30.06,M,6.21,M,M,M,M,M,M,M,M,M,M,M,M,M,M,M,M,55.40,LPMT 141900Z 01005KT CAVOK 13/05 Q1018
LPMT,2017-11-14 20:00,-9.0359,38.7039,55.40,44.60,66.91,360.00,5.00,0.00,30.06,M,6.21,M,M,M,M,M,M,M,M,M,M,M,M,M,M,M,M,55.40,LPMT 142000Z 36005KT CAVOK 13/07 Q1018
LPMT,2017-11-14 21:00,-9.0359,38.7039,50.00,44.60,81.61,150.00,3.00,0.00,30.06,M,6.21,M,M,M,M,M,M,M,M,M,M,M,M,M,M,M,M,49.27,LPMT 142100Z 15003KT CAVOK 10/07 Q1018
LPMT,2017-11-14 22:00,-9.0359,38.7039,46.40,44.60,93.40,160.00,2.00,0.00,30.06,M,6.21,M,M,M,M,M,M,M,M,M,M,M,M,M,M,M,M,46.40,LPMT 142200Z 16002KT CAVOK 08/07 Q1018
LPMT,2017-11-14 23:00,-9.0359,38.7039,44.60,42.80,93.35,130.00,2.00,0.00,30.06,M,6.21,M,M,M,M,M,M,M,M,M,M,M,M,M,M,M,M,44.60,LPMT 142300Z 13002KT CAVOK 07/06 Q1018
LPMT,2017-11-15 00:00,-9.0359,38.7039,46.40,44.60,93.40,80.00,3.00,0.00,30.06,M,6.21,M,M,M,M,M,M,M,M,M,M,M,M,M,M,M,M,45.15,LPMT 150000Z 08003KT CAVOK 08/07 Q1018
LPMT,2017-11-15 01:00,-9.0359,38.7039,44.60,41.00,87.09,50.00,4.00,0.00,30.06,M,6.21,M,M,M,M,M,M,M,M,M,M,M,M,M,M,M,M,42.13,LPMT 150100Z 05004KT CAVOK 07/05 Q1018
LPMT,2017-11-15 02:00,-9.0359,38.7039,46.40,42.80,87.19,30.00,6.00,0.00,30.06,M,6.21,M,M,M,M,M,M,M,M,M,M,M,M,M,M,M,M,42.87,LPMT 150200Z 03006KT CAVOK 08/06 Q1018
LPMT,2017-11-15 03:00,-9.0359,38.7039,46.40,42.80,87.19,30.00,6.00,0.00,30.06,M,6.21,M,M,M,M,M,M,M,M,M,M,M,M,M,M,M,M,42.87,LPMT 150300Z 03006KT CAVOK 08/06 Q1018
LPMT,2017-11-15 04:00,-9.0359,38.7039,46.40,41.00,81.34,40.00,7.00,0.00,30.06,M,6.21,M,M,M,M,M,M,M,M,M,M,M,M,M,M,M,M,42.33,LPMT 150400Z 04007KT CAVOK 08/05 Q1018
LPMT,2017-11-15 05:00,-9.0359,38.7039,46.40,39.20,75.84,60.00,5.00,0.00,30.06,M,6.21,M,M,M,M,M,M,M,M,M,M,M,M,M,M,M,M,43.50,LPMT 150500Z 06005KT CAVOK 08/04 Q1018
LPMT,2017-11-15 06:00,-9.0359,38.7039,44.60,39.20,81.20,40.00,5.00,0.00,30.09,M,6.21,M,M,M,M,M,M,M,M,M,M,M,M,M,M,M,M,41.36,LPMT 150600Z 04005KT CAVOK 07/04 Q1019
LPMT,2017-11-15 07:00,-9.0359,38.7039,44.60,39.20,81.20,40.00,6.00,0.00,30.09,M,6.21,M,M,M,M,M,M,M,M,M,M,M,M,M,M,M,M,40.71,LPMT 150700Z 04006KT CAVOK 07/04 Q1019
LPMT,2017-11-15 08:00,-9.0359,38.7039,42.80,37.40,81.07,40.00,6.00,0.00,30.12,M,6.21,M,M,M,M,M,M,M,M,M,M,M,M,M,M,M,M,38.54,LPMT 150800Z 04006KT CAVOK 06/03 Q1020
LPMT,2017-11-15 09:00,-9.0359,38.7039,48.20,39.20,70.88,30.00,8.00,0.00,30.12,M,6.21,M,M,M,M,M,M,M,M,M,M,M,M,M,M,M,M,44.07,LPMT 150900Z 03008KT CAVOK 09/04 Q1020
LPMT,2017-11-15 10:00,-9.0359,38.7039,51.80,41.00,66.48,30.00,8.00,0.00,30.12,M,6.21,M,M,M,M,M,M,M,M,M,M,M,M,M,M,M,M,51.80,LPMT 151000Z 03008KT CAVOK 11/05 Q1020
LPMT,2017-11-15 11:00,-9.0359,38.7039,55.40,41.00,58.27,30.00,6.00,0.00,30.12,M,6.21,M,M,M,M,M,M,M,M,M,M,M,M,M,M,M,M,55.40,LPMT 151100Z 03006KT CAVOK 13/05 Q1020
LPMT,2017-11-15 12:00,-9.0359,38.7039,59.00,42.80,54.86,20.00,5.00,0.00,30.09,M,6.21,M,M,M,M,M,M,M,M,M,M,M,M,M,M,M,M,59.00,LPMT 151200Z 02005KT 350V050 CAVOK 15/06 Q1019
LPMT,2017-11-15 13:00,-9.0359,38.7039,60.80,42.80,51.45,350.00,7.00,0.00,30.09,M,6.21,M,M,M,M,M,M,M,M,M,M,M,M,M,M,M,M,60.80,LPMT 151300Z 35007KT 330V030 CAVOK 16/06 Q1019
LPMT,2017-11-15 14:00,-9.0359,38.7039,64.40,41.00,42.28,360.00,6.00,0.00,30.06,M,6.21,M,M,M,M,M,M,M,M,M,M,M,M,M,M,M,M,64.40,LPMT 151400Z 36006KT CAVOK 18/05 Q1018
LPMT,2017-11-15 15:00,-9.0359,38.7039,64.40,41.00,42.28,360.00,7.00,0.00,30.06,M,6.21,M,M,M,M,M,M,M,M,M,M,M,M,M,M,M,M,64.40,LPMT 151500Z 36007KT CAVOK 18/05 Q1018
LPMT,2017-11-15 22:00,-9.0359,38.7039,46.40,44.60,93.40,130.00,2.00,0.00,30.09,M,6.21,M,M,M,M,M,M,M,M,M,M,M,M,M,M,M,M,46.40,LPMT 152200Z 13002KT CAVOK 08/07 Q1019
LPMT,2017-11-15 23:00,-9.0359,38.7039,46.40,44.60,93.40,160.00,2.00,0.00,30.09,M,6.21,M,M,M,M,M,M,M,M,M,M,M,M,M,M,M,M,46.40,LPMT 152300Z 16002KT CAVOK 08/07 Q1019
LPMT,2017-11-16 00:00,-9.0359,38.7039,44.60,44.60,100.00,100.00,3.00,0.00,30.09,M,6.21,M,M,M,M,M,M,M,M,M,M,M,M,M,M,M,M,43.09,LPMT 160000Z 10003KT CAVOK 07/07 Q1019
LPMT,2017-11-16 01:00,-9.0359,38.7039,44.60,44.60,100.00,110.00,3.00,0.00,30.09,M,6.21,M,M,M,M,M,M,M,M,M,M,M,M,M,M,M,M,43.09,LPMT 160100Z 11003KT CAVOK 07/07 Q1019
LPMT,2017-11-16 02:00,-9.0359,38.7039,42.80,41.00,93.30,100.00,2.00,0.00,30.09,M,6.21,M,M,M,M,M,M,M,M,M,M,M,M,M,M,M,M,42.80,LPMT 160200Z 10002KT CAVOK 06/05 Q1019
LPMT,2017-11-16 03:00,-9.0359,38.7039,42.80,41.00,93.30,100.00,2.00,0.00,30.09,M,6.21,M,NSC,M,M,M,M,M,M,M,MIFG,M,M,M,M,M,M,42.80,LPMT 160300Z 10002KT 9999 MIFG NSC 06/05 Q1019
LPMT,2017-11-16 05:00,-9.0359,38.7039,41.00,39.20,93.24,80.00,2.00,0.00,30.09,M,6.21,M,NSC,M,M,M,M,M,M,M,MIFG,M,M,M,M,M,M,41.00,LPMT 160500Z 08002KT 9999 MIFG NSC 05/04 Q1019
LPMT,2017-11-16 06:00,-9.0359,38.7039,41.00,39.20,93.24,100.00,4.00,0.00,30.09,M,6.21,M,NSC,M,M,M,M,M,M,M,MIFG,M,M,M,M,M,M,37.93,LPMT 160600Z 10004KT 9999 MIFG NSC 05/04 Q1019
LPMT,2017-11-16 07:00,-9.0359,38.7039,41.00,39.20,93.24,70.00,3.00,0.00,30.09,M,6.21,M,NSC,M,M,M,M,M,M,M,MIFG,M,M,M,M,M,M,38.98,LPMT 160700Z 07003KT 9999 MIFG NSC 05/04 Q1019
LPMT,2017-11-16 08:00,-9.0359,38.7039,41.00,39.20,93.24,80.00,3.00,0.00,30.12,M,6.21,M,M,M,M,M,M,M,M,M,M,M,M,M,M,M,M,38.98,LPMT 160800Z 08003KT CAVOK 05/04 Q1020
LPMT,2017-11-16 09:00,-9.0359,38.7039,48.20,42.80,81.47,50.00,3.00,0.00,30.15,M,6.21,M,M,M,M,M,M,M,M,M,M,M,M,M,M,M,M,47.21,LPMT 160900Z 05003KT CAVOK 09/06 Q1021
LPMT,2017-11-16 10:00,-9.0359,38.7039,51.80,41.00,66.48,20.00,5.00,0.00,30.15,M,6.21,M,M,M,M,M,M,M,M,M,M,M,M,M,M,M,M,51.80,LPMT 161000Z 02005KT 350V050 CAVOK 11/05 Q1021
LPMT,2017-11-16 11:00,-9.0359,38.7039,57.20,42.80,58.52,M,2.00,0.00,30.15,M,6.21,M,M,M,M,M,M,M,M,M,M,M,M,M,M,M,M,57.20,LPMT 161100Z VRB02KT CAVOK 14/06 Q1021
LPMT,2017-11-16 12:00,-9.0359,38.7039,59.00,42.80,54.86,30.00,3.00,0.00,30.15,M,6.21,M,M,M,M,M,M,M,M,M,M,M,M,M,M,M,M,59.00,LPMT 161200Z 03003KT 330V060 CAVOK 15/06 Q1021
LPMT,2017-11-16 13:00,-9.0359,38.7039,64.40,42.80,45.32,M,2.00,0.00,30.12,M,6.21,M,M,M,M,M,M,M,M,M,M,M,M,M,M,M,M,64.40,LPMT 161300Z VRB02KT CAVOK 18/06 Q1020
LPMT,2017-11-16 14:00,-9.0359,38.7039,66.20,37.40,34.51,M,2.00,0.00,30.09,M,6.21,M,M,M,M,M,M,M,M,M,M,M,M,M,M,M,M,66.20,LPMT 161400Z VRB02KT CAVOK 19/03 Q1019
LPMT,2017-11-16 16:00,-9.0359,38.7039,64.40,46.40,51.98,270.00,6.00,0.00,30.06,M,6.21,M,M,M,M,M,M,M,M,M,M,M,M,M,M,M,M,64.40,LPMT 161600Z 27006KT CAVOK 18/08 Q1018
LPMT,2017-11-16 17:00,-9.0359,38.7039,62.60,48.20,59.26,270.00,5.00,0.00,30.09,M,6.21,M,M,M,M,M,M,M,M,M,M,M,M,M,M,M,M,62.60,LPMT 161700Z 27005KT CAVOK 17/09 Q1019
LPMT,2017-11-16 18:00,-9.0359,38.7039,59.00,50.00,72.01,270.00,5.00,0.00,30.09,M,6.21,M,M,M,M,M,M,M,M,M,M,M,M,M,M,M,M,59.00,LPMT 161800Z 27005KT CAVOK 15/10 Q1019
LPMT,2017-11-16 19:00,-9.0359,38.7039,59.00,46.40,62.92,330.00,6.00,0.00,30.09,M,6.21,M,M,M,M,M,M,M,M,M,M,M,M,M,M,M,M,59.00,LPMT 161900Z 33006KT CAVOK 15/08 Q1019
LPMT,2017-11-16 20:00,-9.0359,38.7039,57.20,46.40,67.12,330.00,3.00,0.00,30.12,M,6.21,M,M,M,M,M,M,M,M,M,M,M,M,M,M,M,M,57.20,LPMT 162000Z 33003KT CAVOK 14/08 Q1020
LPMT,2017-11-16 21:00,-9.0359,38.7039,53.60,46.40,76.50,M,1.00,0.00,30.12,M,6.21,M,M,M,M,M,M,M,M,M,M,M,M,M,M,M,M,53.60,LPMT 162100Z VRB01KT CAVOK 12/08 Q1020
LPMT,2017-11-16 22:00,-9.0359,38.7039,48.20,44.60,87.28,M,1.00,0.00,30.12,M,6.21,M,M,M,M,M,M,M,M,M,M,M,M,M,M,M,M,48.20,LPMT 162200Z VRB01KT CAVOK 09/07 Q1020
LPMT,2017-11-16 23:00,-9.0359,38.7039,46.40,44.60,93.40,M,1.00,0.00,30.12,M,6.21,M,M,M,M,M,M,M,M,M,M,M,M,M,M,M,M,46.40,LPMT 162300Z VRB01KT CAVOK 08/07 Q1020
LPMT,2017-11-17 00:00,-9.0359,38.7039,44.60,41.00,87.09,100.00,4.00,0.00,30.12,M,6.21,M,M,M,M,M,M,M,M,M,M,M,M,M,M,M,M,42.13,LPMT 170000Z 10004KT CAVOK 07/05 Q1020
LPMT,2017-11-17 01:00,-9.0359,38.7039,44.60,42.80,93.35,100.00,3.00,0.00,30.12,M,6.21,M,M,M,M,M,M,M,M,M,M,M,M,M,M,M,M,43.09,LPMT 170100Z 10003KT CAVOK 07/06 Q1020
LPMT,2017-11-17 02:00,-9.0359,38.7039,44.60,41.00,87.09,110.00,2.00,0.00,30.12,M,6.21,M,M,M,M,M,M,M,M,M,M,M,M,M,M,M,M,44.60,LPMT 170200Z 11002KT CAVOK 07/05 Q1020
LPMT,2017-11-17 03:00,-9.0359,38.7039,42.80,39.20,86.99,90.00,3.00,0.00,30.12,M,6.21,M,M,M,M,M,M,M,M,M,M,M,M,M,M,M,M,41.03,LPMT 170300Z 09003KT CAVOK 06/04 Q1020
LPMT,2017-11-17 04:00,-9.0359,38.7039,42.80,41.00,93.30,80.00,4.00,0.00,30.12,M,6.21,M,M,M,M,M,M,M,M,M,M,M,M,M,M,M,M,40.03,LPMT 170400Z 08004KT CAVOK 06/05 Q1020
LPMT,2017-11-17 05:00,-9.0359,38.7039,39.20,37.40,93.19,70.00,2.00,0.00,30.09,M,6.21,M,M,M,M,M,M,M,M,M,M,M,M,M,M,M,M,39.20,LPMT 170500Z 07002KT CAVOK 04/03 Q1019
LPMT,2017-11-17 06:00,-9.0359,38.7039,42.80,41.00,93.30,60.00,3.00,0.00,30.09,M,6.21,M,M,M,M,M,M,M,M,M,M,M,M,M,M,M,M,41.03,LPMT 170600Z 06003KT CAVOK 06/05 Q1019
LPMT,2017-11-17 07:00,-9.0359,38.7039,44.60,42.80,93.35,50.00,3.00,0.00,30.12,M,6.21,M,M,M,M,M,M,M,M,M,M,M,M,M,M,M,M,43.09,LPMT 170700Z 05003KT CAVOK 07/06 Q1020
LPMT,2017-11-17 08:00,-9.0359,38.7039,41.00,39.20,93.24,80.00,2.00,0.00,30.12,M,6.21,M,M,M,M,M,M,M,M,M,M,M,M,M,M,M,M,41.00,LPMT 170800Z 08002KT CAVOK 05/04 Q1020
LPMT,2017-11-17 09:00,-9.0359,38.7039,46.40,42.80,87.19,60.00,3.00,0.00,30.15,M,6.21,M,M,M,M,M,M,M,M,M,M,M,M,M,M,M,M,45.15,LPMT 170900Z 06003KT 020V080 CAVOK 08/06 Q1021
LPMT,2017-11-17 10:00,-9.0359,38.7039,51.80,42.80,71.26,40.00,4.00,0.00,30.15,M,6.21,M,M,M,M,M,M,M,M,M,M,M,M,M,M,M,M,51.80,LPMT 171000Z 04004KT 010V070 CAVOK 11/06 Q1021
LPMT,2017-11-17 11:00,-9.0359,38.7039,53.60,44.60,71.45,360.00,5.00,0.00,30.15,M,6.21,M,M,M,M,M,M,M,M,M,M,M,M,M,M,M,M,53.60,LPMT 171100Z 36005KT 330V030 CAVOK 12/07 Q1021
LPMT,2017-11-17 12:00,-9.0359,38.7039,59.00,42.80,54.86,20.00,4.00,0.00,30.12,M,6.21,M,M,M,M,M,M,M,M,M,M,M,M,M,M,M,M,59.00,LPMT 171200Z 02004KT 350V080 CAVOK 15/06 Q1020
LPMT,2017-11-17 13:00,-9.0359,38.7039,64.40,42.80,45.32,40.00,5.00,0.00,30.12,M,6.21,M,M,M,M,M,M,M,M,M,M,M,M,M,M,M,M,64.40,LPMT 171300Z 04005KT CAVOK 18/06 Q1020
LPMT,2017-11-17 14:00,-9.0359,38.7039,66.20,42.80,42.57,30.00,6.00,0.00,30.09,M,6.21,M,M,M,M,M,M,M,M,M,M,M,M,M,M,M,M,66.20,LPMT 171400Z 03006KT 360V060 CAVOK 19/06 Q1019
LPMT,2017-11-17 15:00,-9.0359,38.7039,68.00,41.00,37.32,50.00,4.00,0.00,30.06,M,6.21,M,M,M,M,M,M,M,M,M,M,M,M,M,M,M,M,68.00,LPMT 171500Z 05004KT 010V090 CAVOK 20/05 Q1018
LPMT,2017-11-17 16:00,-9.0359,38.7039,66.20,46.40,48.83,280.00,3.00,0.00,30.06,M,6.21,M,M,M,M,M,M,M,M,M,M,M,M,M,M,M,M,66.20,LPMT 171600Z 28003KT 240V320 CAVOK 19/08 Q1018
LPMT,2017-11-17 17:00,-9.0359,38.7039,62.60,50.00,63.38,270.00,4.00,0.00,30.06,M,6.21,M,M,M,M,M,M,M,M,M,M,M,M,M,M,M,M,62.60,LPMT 171700Z 27004KT CAVOK 17/10 Q1018
LPMT,2017-11-17 18:00,-9.0359,38.7039,59.00,50.00,72.01,280.00,5.00,0.00,30.06,M,6.21,M,M,M,M,M,M,M,M,M,M,M,M,M,M,M,M,59.00,LPMT 171800Z 28005KT CAVOK 15/10 Q1018
LPMT,2017-11-17 19:00,-9.0359,38.7039,59.00,51.80,76.98,320.00,6.00,0.00,30.09,M,6.21,M,M,M,M,M,M,M,M,M,M,M,M,M,M,M,M,59.00,LPMT 171900Z 32006KT CAVOK 15/11 Q1019
LPMT,2017-11-17 20:00,-9.0359,38.7039,57.20,48.20,71.83,320.00,4.00,0.00,30.09,M,6.21,M,M,M,M,M,M,M,M,M,M,M,M,M,M,M,M,57.20,LPMT 172000Z 32004KT CAVOK 14/09 Q1019
LPMT,2017-11-17 21:00,-9.0359,38.7039,50.00,46.40,87.37,110.00,1.00,0.00,30.09,M,6.21,M,M,M,M,M,M,M,M,M,M,M,M,M,M,M,M,50.00,LPMT 172100Z 11001KT CAVOK 10/08 Q1019
LPMT,2017-11-17 22:00,-9.0359,38.7039,48.20,46.40,93.45,140.00,2.00,0.00,30.09,M,6.21,M,M,M,M,M,M,M,M,M,M,M,M,M,M,M,M,48.20,LPMT 172200Z 14002KT CAVOK 09/08 Q1019
LPMT,2017-11-17 23:00,-9.0359,38.7039,48.20,48.20,100.00,170.00,3.00,0.00,30.09,M,6.21,M,M,M,M,M,M,M,M,M,M,M,M,M,M,M,M,47.21,LPMT 172300Z 17003KT CAVOK 09/09 Q1019
LPMT,2017-11-18 00:00,-9.0359,38.7039,46.40,44.60,93.40,110.00,2.00,0.00,30.09,M,6.21,M,M,M,M,M,M,M,M,M,M,M,M,M,M,M,M,46.40,LPMT 180000Z 11002KT CAVOK 08/07 Q1019
LPMT,2017-11-18 01:00,-9.0359,38.7039,44.60,44.60,100.00,110.00,2.00,0.00,30.09,M,6.21,M,M,M,M,M,M,M,M,M,M,M,M,M,M,M,M,44.60,LPMT 180100Z 11002KT CAVOK 07/07 Q1019
LPMT,2017-11-18 02:00,-9.0359,38.7039,44.60,44.60,100.00,80.00,3.00,0.00,30.09,M,6.21,M,M,M,M,M,M,M,M,M,M,M,M,M,M,M,M,43.09,LPMT 180200Z 08003KT CAVOK 07/07 Q1019
LPMT,2017-11-18 03:00,-9.0359,38.7039,42.80,42.80,100.00,80.00,2.00,0.00,30.09,M,6.21,M,M,M,M,M,M,M,M,M,M,M,M,M,M,M,M,42.80,LPMT 180300Z 08002KT CAVOK 06/06 Q1019
LPMT,2017-11-18 04:00,-9.0359,38.7039,42.80,41.00,93.30,100.00,3.00,0.00,30.06,M,6.21,M,M,M,M,M,M,M,M,M,M,M,M,M,M,M,M,41.03,LPMT 180400Z 10003KT CAVOK 06/05 Q1018
LPMT,2017-11-18 05:00,-9.0359,38.7039,42.80,42.80,100.00,50.00,2.00,0.00,30.06,M,6.21,M,M,M,M,M,M,M,M,M,M,M,M,M,M,M,M,42.80,LPMT 180500Z 05002KT CAVOK 06/06 Q1018
LPMT,2017-11-18 06:00,-9.0359,38.7039,41.00,41.00,100.00,120.00,1.00,0.00,30.09,M,6.21,M,M,M,M,M,M,M,M,M,M,M,M,M,M,M,M,41.00,LPMT 180600Z 12001KT CAVOK 05/05 Q1019
LPMT,2017-11-18 07:00,-9.0359,38.7039,39.20,39.20,100.00,90.00,3.00,0.00,30.09,M,4.97,M,NSC,M,M,M,M,M,M,M,M,M,M,M,M,M,M,36.92,LPMT 180700Z 09003KT 8000 NSC 04/04 Q1019
LPMT,2017-11-18 08:00,-9.0359,38.7039,41.00,41.00,100.00,50.00,3.00,0.00,30.09,M,4.97,M,NSC,M,M,M,M,M,M,M,M,M,M,M,M,M,M,38.98,LPMT 180800Z 05003KT 8000 NSC 05/05 Q1019
LPMT,2017-11-18 09:00,-9.0359,38.7039,48.20,46.40,93.45,70.00,2.00,0.00,30.12,M,4.35,M,NSC,M,M,M,M,M,M,M,M,M,M,M,M,M,M,48.20,LPMT 180900Z 07002KT 7000 NSC 09/08 Q1020
LPMT,2017-11-18 10:00,-9.0359,38.7039,51.80,46.40,81.74,20.00,3.00,0.00,30.12,M,4.35,M,NSC,M,M,M,M,M,M,M,M,M,M,M,M,M,M,51.80,LPMT 181000Z 02003KT 340V050 7000 NSC 11/08 Q1020
LPMT,2017-11-18 11:00,-9.0359,38.7039,55.40,44.60,66.91,30.00,4.00,0.00,30.12,M,4.97,M,NSC,M,M,M,M,M,M,M,M,M,M,M,M,M,M,55.40,LPMT 181100Z 03004KT 8000 NSC 13/07 Q1020
LPMT,2017-11-18 12:00,-9.0359,38.7039,60.80,44.60,55.12,50.00,3.00,0.00,30.09,M,5.59,M,NSC,M,M,M,M,M,M,M,M,M,M,M,M,M,M,60.80,LPMT 181200Z 05003KT 340V130 9000 NSC 16/07 Q1019
LPMT,2017-11-18 13:00,-9.0359,38.7039,62.60,44.60,51.72,20.00,4.00,0.00,30.09,M,6.21,M,M,M,M,M,M,M,M,M,M,M,M,M,M,M,M,62.60,LPMT 181300Z 02004KT 340V050 CAVOK 17/07 Q1019
LPMT,2017-11-18 14:00,-9.0359,38.7039,66.20,46.40,48.83,20.00,4.00,0.00,30.06,M,6.21,M,M,M,M,M,M,M,M,M,M,M,M,M,M,M,M,66.20,LPMT 181400Z 02004KT 330V060 CAVOK 19/08 Q1018
LPMT,2017-11-18 15:00,-9.0359,38.7039,68.00,44.60,42.85,30.00,3.00,0.00,30.06,M,6.21,M,M,M,M,M,M,M,M,M,M,M,M,M,M,M,M,68.00,LPMT 181500Z 03003KT 320V080 CAVOK 20/07 Q1018
LPMT,2017-11-18 16:00,-9.0359,38.7039,64.40,50.00,59.50,280.00,4.00,0.00,30.06,M,6.21,M,M,M,M,M,M,M,M,M,M,M,M,M,M,M,M,64.40,LPMT 181600Z 28004KT CAVOK 18/10 Q1018
LPMT,2017-11-18 17:00,-9.0359,38.7039,62.60,48.20,59.26,270.00,5.00,0.00,30.06,M,6.21,M,M,M,M,M,M,M,M,M,M,M,M,M,M,M,M,62.60,LPMT 181700Z 27005KT CAVOK 17/09 Q1018
LPMT,2017-11-18 18:00,-9.0359,38.7039,59.00,50.00,72.01,260.00,5.00,0.00,30.06,M,6.21,M,M,M,M,M,M,M,M,M,M,M,M,M,M,M,M,59.00,LPMT 181800Z 26005KT CAVOK 15/10 Q1018
LPMT,2017-11-18 19:00,-9.0359,38.7039,53.60,48.20,81.87,260.00,3.00,0.00,30.06,M,6.21,M,M,M,M,M,M,M,M,M,M,M,M,M,M,M,M,53.60,LPMT 181900Z 26003KT CAVOK 12/09 Q1018
LPMT,2017-11-18 20:00,-9.0359,38.7039,48.20,46.40,93.45,M,1.00,0.00,30.06,M,6.21,M,M,M,M,M,M,M,M,M,M,M,M,M,M,M,M,48.20,LPMT 182000Z VRB01KT CAVOK 09/08 Q1018
LPMT,2017-11-18 21:00,-9.0359,38.7039,50.00,48.20,93.50,M,2.00,0.00,30.09,M,6.21,M,M,M,M,M,M,M,M,M,M,M,M,M,M,M,M,50.00,LPMT 182100Z VRB02KT CAVOK 10/09 Q1019
LPMT,2017-11-18 22:00,-9.0359,38.7039,46.40,44.60,93.40,M,1.00,0.00,30.09,M,6.21,M,M,M,M,M,M,M,M,M,M,M,M,M,M,M,M,46.40,LPMT 182200Z VRB01KT CAVOK 08/07 Q1019
LPMT,2017-11-18 23:00,-9.0359,38.7039,46.40,44.60,93.40,130.00,2.00,0.00,30.09,M,6.21,M,M,M,M,M,M,M,M,M,M,M,M,M,M,M,M,46.40,LPMT 182300Z 13002KT CAVOK 08/07 Q1019
LPMT,2017-11-19 00:00,-9.0359,38.7039,46.40,44.60,93.40,110.00,2.00,0.00,30.09,M,6.21,M,M,M,M,M,M,M,M,M,M,M,M,M,M,M,M,46.40,LPMT 190000Z 11002KT CAVOK 08/07 Q1019
LPMT,2017-11-19 01:00,-9.0359,38.7039,42.80,42.80,100.00,M,1.00,0.00,30.09,M,6.21,M,M,M,M,M,M,M,M,M,M,M,M,M,M,M,M,42.80,LPMT 190100Z VRB01KT CAVOK 06/06 Q1019
LPMT,2017-11-19 02:00,-9.0359,38.7039,44.60,42.80,93.35,110.00,2.00,0.00,30.09,M,6.21,M,M,M,M,M,M,M,M,M,M,M,M,M,M,M,M,44.60,LPMT 190200Z 11002KT CAVOK 07/06 Q1019
LPMT,2017-11-19 03:00,-9.0359,38.7039,44.60,42.80,93.35,80.00,4.00,0.00,30.09,M,6.21,M,M,M,M,M,M,M,M,M,M,M,M,M,M,M,M,42.13,LPMT 190300Z 08004KT CAVOK 07/06 Q1019
LPMT,2017-11-19 04:00,-9.0359,38.7039,42.80,42.80,100.00,70.00,1.00,0.00,30.06,M,6.21,M,M,M,M,M,M,M,M,M,M,M,M,M,M,M,M,42.80,LPMT 190400Z 07001KT CAVOK 06/06 Q1018
LPMT,2017-11-19 05:00,-9.0359,38.7039,46.40,44.60,93.40,M,2.00,0.00,30.09,M,6.21,M,M,M,M,M,M,M,M,M,M,M,M,M,M,M,M,46.40,LPMT 190500Z VRB02KT CAVOK 08/07 Q1019
LPMT,2017-11-19 06:00,-9.0359,38.7039,48.20,44.60,87.28,50.00,6.00,0.00,30.09,M,6.21,M,M,M,M,M,M,M,M,M,M,M,M,M,M,M,M,45.04,LPMT 190600Z 05006KT CAVOK 09/07 Q1019
LPMT,2017-11-19 07:00,-9.0359,38.7039,46.40,42.80,87.19,50.00,5.00,0.00,30.09,M,5.59,M,NSC,M,M,M,M,M,M,M,M,M,M,M,M,M,M,43.50,LPMT 190700Z 05005KT 9000 NSC 08/06 Q1019
LPMT,2017-11-19 08:00,-9.0359,38.7039,48.20,44.60,87.28,50.00,5.00,0.00,30.12,M,6.21,M,M,M,M,M,M,M,M,M,M,M,M,M,M,M,M,45.63,LPMT 190800Z 05005KT CAVOK 09/07 Q1020
LPMT,2017-11-19 09:00,-9.0359,38.7039,51.80,44.60,76.34,30.00,7.00,0.00,30.15,M,6.21,M,M,M,M,M,M,M,M,M,M,M,M,M,M,M,M,51.80,LPMT 190900Z 03007KT CAVOK 11/07 Q1021
LPMT,2017-11-19 10:00,-9.0359,38.7039,57.20,44.60,62.69,30.00,8.00,0.00,30.15,M,6.21,M,M,M,M,M,M,M,M,M,M,M,M,M,M,M,M,57.20,LPMT 191000Z 03008KT CAVOK 14/07 Q1021
LPMT,2017-11-19 11:00,-9.0359,38.7039,59.00,44.60,58.77,30.00,9.00,0.00,30.15,M,6.21,M,M,M,M,M,M,M,M,M,M,M,M,M,M,M,M,59.00,LPMT 191100Z 03009KT CAVOK 15/07 Q1021
LPMT,2017-11-19 12:00,-9.0359,38.7039,60.80,44.60,55.12,20.00,7.00,0.00,30.15,M,6.21,M,M,M,M,M,M,M,M,M,M,M,M,M,M,M,M,60.80,LPMT 191200Z 02007KT CAVOK 16/07 Q1021
LPMT,2017-11-19 13:00,-9.0359,38.7039,62.60,44.60,51.72,10.00,5.00,0.00,30.12,M,6.21,M,M,M,M,M,M,M,M,M,M,M,M,M,M,M,M,62.60,LPMT 191300Z 01005KT CAVOK 17/07 Q1020
LPMT,2017-11-19 14:00,-9.0359,38.7039,66.20,44.60,45.60,10.00,4.00,0.00,30.09,M,6.21,M,M,M,M,M,M,M,M,M,M,M,M,M,M,M,M,66.20,LPMT 191400Z 01004KT 330V040 CAVOK 19/07 Q1019
LPMT,2017-11-19 15:00,-9.0359,38.7039,68.00,44.60,42.85,30.00,4.00,0.00,30.09,M,6.21,M,M,M,M,M,M,M,M,M,M,M,M,M,M,M,M,68.00,LPMT 191500Z 03004KT 330V060 CAVOK 20/07 Q1019
LPMT,2017-11-19 16:00,-9.0359,38.7039,68.00,44.60,42.85,330.00,3.00,0.00,30.09,M,6.21,M,M,M,M,M,M,M,M,M,M,M,M,M,M,M,M,68.00,LPMT 191600Z 33003KT 300V360 CAVOK 20/07 Q1019
LPMT,2017-11-19 17:00,-9.0359,38.7039,62.60,48.20,59.26,300.00,2.00,0.00,30.09,M,6.21,M,M,M,M,M,M,M,M,M,M,M,M,M,M,M,M,62.60,LPMT 191700Z 30002KT CAVOK 17/09 Q1019
LPMT,2017-11-19 18:00,-9.0359,38.7039,53.60,44.60,71.45,310.00,4.00,0.00,30.09,M,6.21,M,M,M,M,M,M,M,M,M,M,M,M,M,M,M,M,53.60,LPMT 191800Z 31004KT CAVOK 12/07 Q1019
LPMT,2017-11-19 19:00,-9.0359,38.7039,51.80,44.60,76.34,230.00,2.00,0.00,30.12,M,6.21,M,M,M,M,M,M,M,M,M,M,M,M,M,M,M,M,51.80,LPMT 191900Z 23002KT CAVOK 11/07 Q1020
LPMT,2017-11-19 20:00,-9.0359,38.7039,50.00,44.60,81.61,140.00,2.00,0.00,30.12,M,6.21,M,M,M,M,M,M,M,M,M,M,M,M,M,M,M,M,50.00,LPMT 192000Z 14002KT CAVOK 10/07 Q1020
LPMT,2017-11-19 21:00,-9.0359,38.7039,48.20,46.40,93.45,100.00,3.00,0.00,30.12,M,6.21,M,M,M,M,M,M,M,M,M,M,M,M,M,M,M,M,47.21,LPMT 192100Z 10003KT CAVOK 09/08 Q1020
LPMT,2017-11-19 22:00,-9.0359,38.7039,46.40,44.60,93.40,80.00,2.00,0.00,30.15,M,6.21,M,M,M,M,M,M,M,M,M,M,M,M,M,M,M,M,46.40,LPMT 192200Z 08002KT CAVOK 08/07 Q1021
LPMT,2017-11-19 23:00,-9.0359,38.7039,44.60,42.80,93.35,40.00,2.00,0.00,30.15,M,6.21,M,M,M,M,M,M,M,M,M,M,M,M,M,M,M,M,44.60,LPMT 192300Z 04002KT CAVOK 07/06 Q1021
LPMT,2017-11-20 00:00,-9.0359,38.7039,50.00,44.60,81.61,20.00,6.00,0.00,30.15,M,6.21,M,M,M,M,M,M,M,M,M,M,M,M,M,M,M,M,47.21,LPMT 200000Z 02006KT CAVOK 10/07 Q1021
LPMT,2017-11-20 01:00,-9.0359,38.7039,46.40,44.60,93.40,M,2.00,0.00,30.15,M,6.21,M,M,M,M,M,M,M,M,M,M,M,M,M,M,M,M,46.40,LPMT 200100Z VRB02KT CAVOK 08/07 Q1021
LPMT,2017-11-20 02:00,-9.0359,38.7039,48.20,42.80,81.47,70.00,3.00,0.00,30.15,M,6.21,M,M,M,M,M,M,M,M,M,M,M,M,M,M,M,M,47.21,LPMT 200200Z 07003KT CAVOK 09/06 Q1021
LPMT,2017-11-20 03:00,-9.0359,38.7039,50.00,44.60,81.61,30.00,7.00,0.00,30.12,M,6.21,M,M,M,M,M,M,M,M,M,M,M,M,M,M,M,M,46.72,LPMT 200300Z 03007KT CAVOK 10/07 Q1020
LPMT,2017-11-20 04:00,-9.0359,38.7039,48.20,44.60,87.28,30.00,7.00,0.00,30.15,M,6.21,M,M,M,M,M,M,M,M,M,M,M,M,M,M,M,M,44.53,LPMT 200400Z 03007KT CAVOK 09/07 Q1021
LPMT,2017-11-20 05:00,-9.0359,38.7039,48.20,44.60,87.28,30.00,8.00,0.00,30.15,M,6.21,M,M,M,M,M,M,M,M,M,M,M,M,M,M,M,M,44.07,LPMT 200500Z 03008KT CAVOK 09/07 Q1021
LPMT,2017-11-20 06:00,-9.0359,38.7039,46.40,42.80,87.19,40.00,6.00,0.00,30.15,M,6.21,M,M,M,M,M,M,M,M,M,M,M,M,M,M,M,M,42.87,LPMT 200600Z 04006KT CAVOK 08/06 Q1021
LPMT,2017-11-20 07:00,-9.0359,38.7039,46.40,41.00,81.34,50.00,6.00,0.00,30.18,M,6.21,M,M,M,M,M,M,M,M,M,M,M,M,M,M,M,M,42.87,LPMT 200700Z 05006KT CAVOK 08/05 Q1022
LPMT,2017-11-20 08:00,-9.0359,38.7039,44.60,41.00,87.09,40.00,4.00,0.00,30.18,M,6.21,M,M,M,M,M,M,M,M,M,M,M,M,M,M,M,M,42.13,LPMT 200800Z 04004KT CAVOK 07/05 Q1022
LPMT,2017-11-20 09:00,-9.0359,38.7039,51.80,42.80,71.26,30.00,10.00,0.00,30.18,M,6.21,M,M,M,M,M,M,M,M,M,M,M,M,M,M,M,M,51.80,LPMT 200900Z 03010KT CAVOK 11/06 Q1022
LPMT,2017-11-20 10:00,-9.0359,38.7039,53.60,42.80,66.70,20.00,10.00,0.00,30.21,M,6.21,M,M,M,M,M,M,M,M,M,M,M,M,M,M,M,M,53.60,LPMT 201000Z 02010KT CAVOK 12/06 Q1023
LPMT,2017-11-20 11:00,-9.0359,38.7039,57.20,42.80,58.52,60.00,4.00,0.00,30.21,M,6.21,M,M,M,M,M,M,M,M,M,M,M,M,M,M,M,M,57.20,LPMT 201100Z 06004KT 020V090 CAVOK 14/06 Q1023
LPMT,2017-11-20 12:00,-9.0359,38.7039,60.80,44.60,55.12,30.00,5.00,0.00,30.18,M,6.21,M,M,M,M,M,M,M,M,M,M,M,M,M,M,M,M,60.80,LPMT 201200Z 03005KT 350V060 CAVOK 16/07 Q1022
LPMT,2017-11-20 13:00,-9.0359,38.7039,62.60,44.60,51.72,10.00,7.00,0.00,30.15,M,6.21,M,M,M,M,M,M,M,M,M,M,M,M,M,M,M,M,62.60,LPMT 201300Z 01007KT CAVOK 17/07 Q1021
LPMT,2017-11-20 14:00,-9.0359,38.7039,64.40,46.40,51.98,360.00,8.00,0.00,30.15,M,6.21,M,M,M,M,M,M,M,M,M,M,M,M,M,M,M,M,64.40,LPMT 201400Z 36008KT CAVOK 18/08 Q1021
LPMT,2017-11-20 15:00,-9.0359,38.7039,66.20,44.60,45.60,350.00,7.00,0.00,30.12,M,6.21,M,M,M,M,M,M,M,M,M,M,M,M,M,M,M,M,66.20,LPMT 201500Z 35007KT CAVOK 19/07 Q1020
LPMT,2017-11-20 16:00,-9.0359,38.7039,68.00,42.80,40.00,340.00,4.00,0.00,30.12,M,6.21,M,M,M,M,M,M,M,M,M,M,M,M,M,M,M,M,68.00,LPMT 201600Z 34004KT CAVOK 20/06 Q1020
LPMT,2017-11-20 17:00,-9.0359,38.7039,66.20,42.80,42.57,350.00,5.00,0.00,30.12,M,6.21,M,M,M,M,M,M,M,M,M,M,M,M,M,M,M,M,66.20,LPMT 201700Z 35005KT CAVOK 19/06 Q1020
LPMT,2017-11-20 18:00,-9.0359,38.7039,57.20,42.80,58.52,M,2.00,0.00,30.12,M,6.21,M,M,M,M,M,M,M,M,M,M,M,M,M,M,M,M,57.20,LPMT 201800Z VRB02KT CAVOK 14/06 Q1020
LPMT,2017-11-20 19:00,-9.0359,38.7039,51.80,42.80,71.26,240.00,3.00,0.00,30.15,M,6.21,M,M,M,M,M,M,M,M,M,M,M,M,M,M,M,M,51.80,LPMT 201900Z 24003KT CAVOK 11/06 Q1021
LPMT,2017-11-20 20:00,-9.0359,38.7039,51.80,46.40,81.74,140.00,2.00,0.00,30.15,M,6.21,M,M,M,M,M,M,M,M,M,M,M,M,M,M,M,M,51.80,LPMT 202000Z 14002KT CAVOK 11/08 Q1021
LPMT,2017-11-20 21:00,-9.0359,38.7039,48.20,46.40,93.45,110.00,2.00,0.00,30.15,M,6.21,M,M,M,M,M,M,M,M,M,M,M,M,M,M,M,M,48.20,LPMT 202100Z 11002KT CAVOK 09/08 Q1021
LPMT,2017-11-20 22:00,-9.0359,38.7039,44.60,42.80,93.35,100.00,3.00,0.00,30.15,M,6.21,M,M,M,M,M,M,M,M,M,M,M,M,M,M,M,M,43.09,LPMT 202200Z 10003KT CAVOK 07/06 Q1021
LPMT,2017-11-20 23:00,-9.0359,38.7039,44.60,42.80,93.35,110.00,3.00,0.00,30.15,M,6.21,M,M,M,M,M,M,M,M,M,M,M,M,M,M,M,M,43.09,LPMT 202300Z 11003KT CAVOK 07/06 Q1021
LPMT,2017-11-21 00:00,-9.0359,38.7039,42.80,41.00,93.30,110.00,2.00,0.00,30.15,M,6.21,M,M,M,M,M,M,M,M,M,M,M,M,M,M,M,M,42.80,LPMT 210000Z 11002KT CAVOK 06/05 Q1021
LPMT,2017-11-21 01:00,-9.0359,38.7039,44.60,41.00,87.09,M,2.00,0.00,30.15,M,6.21,M,M,M,M,M,M,M,M,M,M,M,M,M,M,M,M,44.60,LPMT 210100Z VRB02KT CAVOK 07/05 Q1021
LPMT,2017-11-21 02:00,-9.0359,38.7039,44.60,42.80,93.35,10.00,3.00,0.00,30.15,M,6.21,M,M,M,M,M,M,M,M,M,M,M,M,M,M,M,M,43.09,LPMT 210200Z 01003KT CAVOK 07/06 Q1021
LPMT,2017-11-21 03:00,-9.0359,38.7039,42.80,42.80,100.00,60.00,4.00,0.00,30.47,M,6.21,M,M,M,M,M,M,M,M,M,M,M,M,M,M,M,M,40.03,LPMT 210300Z 06004KT CAVOK 06/06 Q1032
LPMT,2017-11-21 04:00,-9.0359,38.7039,42.80,42.80,100.00,50.00,3.00,0.00,30.12,M,6.21,M,NSC,M,M,M,M,M,M,M,BCFG,M,M,M,M,M,M,41.03,LPMT 210400Z 05003KT 9999 2000W BCFG NSC 06/06 Q1020
LPMT,2017-11-21 05:00,-9.0359,38.7039,42.80,41.00,93.30,40.00,4.00,0.00,30.12,M,6.21,M,M,M,M,M,M,M,M,M,M,M,M,M,M,M,M,40.03,LPMT 210500Z 04004KT CAVOK 06/05 Q1020
LPMT,2017-11-21 06:00,-9.0359,38.7039,42.80,42.80,100.00,40.00,6.00,0.00,30.12,M,6.21,M,M,M,M,M,M,M,M,M,M,M,M,M,M,M,M,38.54,LPMT 210600Z 04006KT CAVOK 06/06 Q1020
LPMT,2017-11-21 07:00,-9.0359,38.7039,42.80,42.80,100.00,20.00,6.00,0.00,30.15,M,6.21,M,BKN,M,M,M,700.00,M,M,M,M,M,M,M,M,M,M,38.54,LPMT 210700Z 02006KT 9999 BKN007 06/06 Q1021
LPMT,2017-11-21 08:00,-9.0359,38.7039,42.80,41.00,93.30,20.00,5.00,0.00,30.15,M,6.21,M,FEW,M,M,M,800.00,M,M,M,M,M,M,M,M,M,M,39.22,LPMT 210800Z 02005KT 9999 FEW008 06/05 Q1021
LPMT,2017-11-21 09:00,-9.0359,38.7039,46.40,42.80,87.19,20.00,4.00,0.00,30.15,M,6.21,M,M,M,M,M,M,M,M,M,M,M,M,M,M,M,M,44.24,LPMT 210900Z 02004KT CAVOK 08/06 Q1021
LPMT,2017-11-21 10:00,-9.0359,38.7039,51.80,42.80,71.26,30.00,4.00,0.00,30.15,M,6.21,M,M,M,M,M,M,M,M,M,M,M,M,M,M,M,M,51.80,LPMT 211000Z 03004KT CAVOK 11/06 Q1021
LPMT,2017-11-21 11:00,-9.0359,38.7039,55.40,44.60,66.91,M,2.00,0.00,30.15,M,6.21,M,M,M,M,M,M,M,M,M,M,M,M,M,M,M,M,55.40,LPMT 211100Z VRB02KT CAVOK 13/07 Q1021
LPMT,2017-11-21 12:00,-9.0359,38.7039,59.00,46.40,62.92,30.00,3.00,0.00,30.12,M,6.21,M,FEW,M,M,M,1800.00,M,M,M,M,M,M,M,M,M,M,59.00,LPMT 211200Z 03003KT 350V080 9999 FEW018 15/08 Q1020
LPMT,2017-11-21 13:00,-9.0359,38.7039,64.40,48.20,55.63,M,3.00,0.00,30.09,M,6.21,M,FEW,M,M,M,2000.00,M,M,M,M,M,M,M,M,M,M,64.40,LPMT 211300Z VRB03KT 9999 FEW020 18/09 Q1019
LPMT,2017-11-21 14:00,-9.0359,38.7039,66.20,50.00,55.88,M,2.00,0.00,30.06,M,6.21,M,FEW,M,M,M,2000.00,M,M,M,M,M,M,M,M,M,M,66.20,LPMT 211400Z VRB02KT 9999 FEW020 19/10 Q1018
LPMT,2017-11-21 15:00,-9.0359,38.7039,68.00,51.80,56.13,230.00,6.00,0.00,30.06,M,6.21,M,FEW,M,M,M,2000.00,M,M,M,M,M,M,M,M,M,M,68.00,LPMT 211500Z 23006KT 200V260 9999 FEW020 20/11 Q1018
LPMT,2017-11-21 16:00,-9.0359,38.7039,68.00,55.40,64.04,200.00,8.00,0.00,30.06,M,6.21,M,FEW,M,M,M,2000.00,M,M,M,M,M,M,M,M,M,M,68.00,LPMT 211600Z 20008KT 9999 FEW020 20/13 Q1018
LPMT,2017-11-21 17:00,-9.0359,38.7039,66.20,55.40,68.15,220.00,6.00,0.00,30.06,M,6.21,M,FEW,M,M,M,2000.00,M,M,M,M,M,M,M,M,M,M,66.20,LPMT 211700Z 22006KT 190V250 9999 FEW020 19/13 Q1018
LPMT,2017-11-21 18:00,-9.0359,38.7039,62.60,57.20,82.50,210.00,5.00,0.00,30.06,M,6.21,M,FEW,M,M,M,2000.00,M,M,M,M,M,M,M,M,M,M,62.60,LPMT 211800Z 21005KT 9999 FEW020 17/14 Q1018
LPMT,2017-11-21 19:00,-9.0359,38.7039,60.80,57.20,87.92,180.00,4.00,0.00,30.06,M,6.21,M,FEW,M,M,M,2000.00,M,M,M,M,M,M,M,M,M,M,60.80,LPMT 211900Z 18004KT 150V210 9999 FEW020 16/14 Q1018
LPMT,2017-11-21 20:00,-9.0359,38.7039,59.00,57.20,93.74,190.00,4.00,0.00,30.03,M,6.21,M,FEW,M,M,M,1500.00,M,M,M,M,M,M,M,M,M,M,59.00,LPMT 212000Z 19004KT 9999 FEW015 15/14 Q1017
LPMT,2017-11-21 22:00,-9.0359,38.7039,55.40,55.40,100.00,180.00,4.00,0.00,30.03,M,6.21,M,FEW,M,M,M,1000.00,M,M,M,M,M,M,M,M,M,M,55.40,LPMT 212200Z 18004KT 9999 FEW010 13/13 Q1017
LPMT,2017-11-21 23:00,-9.0359,38.7039,51.80,50.00,93.55,100.00,3.00,0.00,30.03,M,4.97,M,FEW,M,M,M,1000.00,M,M,M,M,M,M,M,M,M,M,51.80,LPMT 212300Z 10003KT 8000 FEW010 11/10 Q1017
LPMT,2017-11-22 00:00,-9.0359,38.7039,50.00,50.00,100.00,110.00,4.00,0.00,30.00,M,3.11,M,FEW,M,M,M,1000.00,M,M,M,BR,M,M,M,M,M,M,48.44,LPMT 220000Z 11004KT 5000 BR FEW010 10/10 Q1016
LPMT,2017-11-22 01:00,-9.0359,38.7039,51.80,50.00,93.55,100.00,4.00,0.00,30.00,M,2.49,M,FEW,M,M,M,1000.00,M,M,M,BR,M,M,M,M,M,M,51.80,LPMT 220100Z 10004KT 4000 BR FEW010 11/10 Q1016
LPMT,2017-11-22 02:00,-9.0359,38.7039,51.80,50.00,93.55,110.00,4.00,0.00,30.00,M,1.86,M,FEW,M,M,M,1000.00,M,M,M,BR,M,M,M,M,M,M,51.80,LPMT 220200Z 11004KT 3000 BR FEW010 11/10 Q1016
LPMT,2017-11-22 03:00,-9.0359,38.7039,51.80,51.80,100.00,110.00,4.00,0.00,29.97,M,1.86,M,FEW,M,M,M,1000.00,M,M,M,BR,M,M,M,M,M,M,51.80,LPMT 220300Z 11004KT 3000 BR FEW010 11/11 Q1015
LPMT,2017-11-22 04:00,-9.0359,38.7039,46.40,46.40,100.00,M,2.00,0.00,29.97,M,1.86,M,FEW,M,M,M,1000.00,M,M,M,BR,M,M,M,M,M,M,46.40,LPMT 220400Z VRB02KT 3000 BR FEW010 08/08 Q1015
LPMT,2017-11-22 05:00,-9.0359,38.7039,46.40,46.40,100.00,60.00,4.00,0.00,29.97,M,2.49,M,FEW,M,M,M,1000.00,M,M,M,BR,M,M,M,M,M,M,44.24,LPMT 220500Z 06004KT 360V080 4000 BR FEW010 08/08 Q1015
LPMT,2017-11-22 06:00,-9.0359,38.7039,46.40,46.40,100.00,20.00,4.00,0.00,29.94,M,1.86,M,FEW,M,M,M,1000.00,M,M,M,BR,M,M,M,M,M,M,44.24,LPMT 220600Z 02004KT 3000 BR FEW010 08/08 Q1014
LPMT,2017-11-22 07:00,-9.0359,38.7039,46.40,46.40,100.00,30.00,5.00,0.00,29.94,M,3.11,M,FEW,M,M,M,1000.00,M,M,M,BR,M,M,M,M,M,M,43.50,LPMT 220700Z 03005KT 5000 BR FEW010 08/08 Q1014
LPMT,2017-11-22 08:00,-9.0359,38.7039,48.20,46.40,93.45,20.00,4.00,0.00,29.97,M,3.11,M,FEW,M,M,M,800.00,M,M,M,BR,M,M,M,M,M,M,46.34,LPMT 220800Z 02004KT 5000 BR FEW008 09/08 Q1015
LPMT,2017-11-22 09:00,-9.0359,38.7039,50.00,50.00,100.00,60.00,6.00,0.00,29.94,M,4.97,M,FEW,M,M,M,800.00,M,M,M,M,M,M,M,M,M,M,47.21,LPMT 220900Z 06006KT 8000 FEW008 10/10 Q1014
LPMT,2017-11-22 10:00,-9.0359,38.7039,51.80,50.00,93.55,10.00,6.00,0.00,29.97,M,4.97,M,NSC,M,M,M,M,M,M,M,M,M,M,M,M,M,M,51.80,LPMT 221000Z 01006KT 8000 NSC 11/10 Q1015
LPMT,2017-11-22 11:00,-9.0359,38.7039,55.40,51.80,87.65,20.00,5.00,0.00,29.94,M,4.97,M,NSC,M,M,M,M,M,M,M,M,M,M,M,M,M,M,55.40,LPMT 221100Z 02005KT 8000 NSC 13/11 Q1014
LPMT,2017-11-22 12:00,-9.0359,38.7039,57.20,51.80,82.12,360.00,7.00,0.00,29.94,M,5.59,M,NSC,M,M,M,M,M,M,M,M,M,M,M,M,M,M,57.20,LPMT 221200Z 36007KT 9000 NSC 14/11 Q1014
LPMT,2017-11-22 13:00,-9.0359,38.7039,57.20,51.80,82.12,360.00,7.00,0.00,29.91,M,5.59,M,NSC,M,M,M,M,M,M,M,M,M,M,M,M,M,M,57.20,LPMT 221300Z 36007KT 9000 NSC 14/11 Q1013
LPMT,2017-11-22 14:00,-9.0359,38.7039,60.80,53.60,77.14,20.00,4.00,0.00,29.88,M,6.21,M,M,M,M,M,M,M,M,M,M,M,M,M,M,M,M,60.80,LPMT 221400Z 02004KT CAVOK 16/12 Q1012
LPMT,2017-11-22 15:00,-9.0359,38.7039,68.00,55.40,64.04,M,4.00,0.00,29.85,M,6.21,M,M,M,M,M,M,M,M,M,M,M,M,M,M,M,M,68.00,LPMT 221500Z VRB04KT CAVOK 20/13 Q1011
LPMT,2017-11-22 16:00,-9.0359,38.7039,68.00,55.40,64.04,190.00,12.00,0.00,29.85,M,6.21,M,M,M,M,M,M,M,M,M,M,M,M,M,M,M,M,68.00,LPMT 221600Z 19012KT CAVOK 20/13 Q1011
LPMT,2017-11-22 17:00,-9.0359,38.7039,68.00,55.40,64.04,190.00,14.00,0.00,29.85,M,6.21,M,M,M,M,M,M,M,M,M,M,M,M,M,M,M,M,68.00,LPMT 221700Z 19014KT CAVOK 20/13 Q1011
LPMT,2017-11-22 18:00,-9.0359,38.7039,66.20,57.20,72.74,190.00,13.00,0.00,29.85,M,6.21,M,M,M,M,M,M,M,M,M,M,M,M,M,M,M,M,66.20,LPMT 221800Z 19013KT CAVOK 19/14 Q1011
LPMT,2017-11-22 19:00,-9.0359,38.7039,66.20,57.20,72.74,190.00,13.00,0.00,29.85,M,6.21,M,M,M,M,M,M,M,M,M,M,M,M,M,M,M,M,66.20,LPMT 221900Z 19013KT CAVOK 19/14 Q1011
LPMT,2017-11-22 20:00,-9.0359,38.7039,66.20,57.20,72.74,190.00,12.00,0.00,29.85,M,6.21,M,M,M,M,M,M,M,M,M,M,M,M,M,M,M,M,66.20,LPMT 222000Z 19012KT CAVOK 19/14 Q1011
LPMT,2017-11-22 21:00,-9.0359,38.7039,66.20,55.40,68.15,190.00,13.00,0.00,29.85,M,6.21,M,M,M,M,M,M,M,M,M,M,M,M,M,M,M,M,66.20,LPMT 222100Z 19013KT CAVOK 19/13 Q1011
LPMT,2017-11-22 22:00,-9.0359,38.7039,66.20,57.20,72.74,190.00,13.00,0.00,29.85,M,6.21,M,M,M,M,M,M,M,M,M,M,M,M,M,M,M,M,66.20,LPMT 222200Z 19013KT CAVOK 19/14 Q1011
LPMT,2017-11-22 23:00,-9.0359,38.7039,66.20,57.20,72.74,190.00,13.00,0.00,29.85,M,6.21,M,M,M,M,M,M,M,M,M,M,M,M,M,M,M,M,66.20,LPMT 222300Z 19013KT CAVOK 19/14 Q1011
LPMT,2017-11-23 00:00,-9.0359,38.7039,66.20,59.00,77.60,200.00,12.00,0.00,29.88,M,6.21,M,M,M,M,M,M,M,M,M,M,M,M,M,M,M,M,66.20,LPMT 230000Z 20012KT CAVOK 19/15 Q1012
LPMT,2017-11-23 01:00,-9.0359,38.7039,66.20,59.00,77.60,200.00,11.00,0.00,29.88,M,6.21,M,M,M,M,M,M,M,M,M,M,M,M,M,M,M,M,66.20,LPMT 230100Z 20011KT CAVOK 19/15 Q1012
LPMT,2017-11-23 02:00,-9.0359,38.7039,66.20,59.00,77.60,200.00,12.00,0.00,29.85,M,6.21,M,M,M,M,M,M,M,M,M,M,M,M,M,M,M,M,66.20,LPMT 230200Z 20012KT CAVOK 19/15 Q1011
LPMT,2017-11-23 03:00,-9.0359,38.7039,66.20,59.00,77.60,190.00,10.00,0.00,29.88,M,6.21,M,M,M,M,M,M,M,M,M,M,M,M,M,M,M,M,66.20,LPMT 230300Z 19010KT CAVOK 19/15 Q1012
LPMT,2017-11-23 04:00,-9.0359,38.7039,64.40,59.00,82.62,190.00,10.00,0.00,29.88,M,6.21,M,M,M,M,M,M,M,M,M,M,M,M,M,M,M,M,64.40,LPMT 230400Z 19010KT CAVOK 18/15 Q1012
LPMT,2017-11-23 05:00,-9.0359,38.7039,64.40,59.00,82.62,180.00,9.00,0.00,29.88,M,6.21,M,M,M,M,M,M,M,M,M,M,M,M,M,M,M,M,64.40,LPMT 230500Z 18009KT CAVOK 18/15 Q1012
LPMT,2017-11-23 06:00,-9.0359,38.7039,64.40,59.00,82.62,160.00,10.00,0.00,29.88,M,6.21,M,M,M,M,M,M,M,M,M,M,M,M,M,M,M,M,64.40,LPMT 230600Z 16010KT CAVOK 18/15 Q1012
LPMT,2017-11-23 07:00,-9.0359,38.7039,64.40,59.00,82.62,200.00,4.00,0.00,29.91,M,6.21,M,M,M,M,M,M,M,M,M,M,M,M,M,M,M,M,64.40,LPMT 230700Z 20004KT 160V260 CAVOK 18/15 Q1013
LPMT,2017-11-23 08:00,-9.0359,38.7039,64.40,57.20,77.45,170.00,11.00,0.00,29.91,M,6.21,M,M,M,M,M,M,M,M,M,M,M,M,M,M,M,M,64.40,LPMT 230800Z 17011KT CAVOK 18/14 Q1013
LPMT,2017-11-23 09:00,-9.0359,38.7039,66.20,57.20,72.74,190.00,6.00,0.00,29.94,M,6.21,M,M,M,M,M,M,M,M,M,M,M,M,M,M,M,M,66.20,LPMT 230900Z 19006KT 160V230 CAVOK 19/14 Q1014
LPMT,2017-11-23 10:00,-9.0359,38.7039,64.40,57.20,77.45,130.00,7.00,0.00,29.94,M,6.21,M,M,M,M,M,M,M,M,M,M,M,M,M,M,M,M,64.40,LPMT 231000Z 13007KT 100V160 CAVOK 18/14 Q1014
LPMT,2017-11-23 11:00,-9.0359,38.7039,69.80,57.20,64.26,180.00,13.00,0.00,29.97,M,6.21,M,FEW,M,M,M,2500.00,M,M,M,M,M,M,M,M,M,M,69.80,LPMT 231100Z 18013KT 9999 FEW025 21/14 Q1015
LPMT,2017-11-23 12:00,-9.0359,38.7039,71.60,57.20,60.44,170.00,19.00,0.00,29.94,M,6.21,M,FEW,M,M,M,2500.00,M,M,M,M,M,M,M,M,M,M,71.60,LPMT 231200Z 17019KT 9999 FEW025 22/14 Q1014
LPMT,2017-11-23 13:00,-9.0359,38.7039,71.60,57.20,60.44,180.00,18.00,0.00,29.94,M,6.21,28.00,SCT,M,M,M,2500.00,M,M,M,M,M,M,M,M,M,M,71.60,LPMT 231300Z 18018G28KT 9999 SCT025 22/14 Q1014
LPMT,2017-11-23 14:00,-9.0359,38.7039,69.80,57.20,64.26,170.00,20.00,0.00,29.91,M,6.21,M,SCT,M,M,M,2500.00,M,M,M,M,M,M,M,M,M,M,69.80,LPMT 231400Z 17020KT 9999 SCT025 21/14 Q1013
LPMT,2017-11-23 15:00,-9.0359,38.7039,64.40,60.80,88.09,160.00,18.00,0.00,29.91,M,4.97,M,SCT,BKN,M,M,1000.00,2000.00,M,M,M,M,M,M,M,M,M,64.40,LPMT 231500Z 16018KT 8000 SCT010 BKN020 18/16 Q1013 RERA
LPMT,2017-11-23 16:00,-9.0359,38.7039,64.40,62.60,93.88,170.00,10.00,0.00,29.91,M,3.11,M,BKN,BKN,M,M,1000.00,1500.00,M,M,-RA,M,M,M,M,M,M,64.40,LPMT 231600Z 17010KT 150V210 5000 -RA BKN010 BKN015 18/17 Q1013
LPMT,2017-11-23 17:00,-9.0359,38.7039,62.60,62.60,100.00,200.00,8.00,0.00,29.91,M,0.62,M,BKN,BKN,M,M,500.00,1200.00,M,M,+RA,M,M,M,M,M,M,62.60,LPMT 231700Z 20008KT 130V240 1000 +RA BKN005 BKN012 17/17 Q1013
LPMT,2017-11-23 18:00,-9.0359,38.7039,64.40,62.60,93.88,210.00,19.00,0.00,29.91,M,6.21,M,FEW,BKN,M,M,1000.00,1200.00,M,M,M,M,M,M,M,M,M,64.40,LPMT 231800Z 21019KT 9999 FEW010 BKN012 18/17 Q1013 RERA
LPMT,2017-11-23 19:00,-9.0359,38.7039,64.40,60.80,88.09,220.00,17.00,0.00,29.94,M,6.21,M,SCT,M,M,M,1500.00,M,M,M,M,M,M,M,M,M,M,64.40,LPMT 231900Z 22017KT 180V240 9999 SCT015 18/16 Q1014
LPMT,2017-11-23 20:00,-9.0359,38.7039,64.40,60.80,88.09,220.00,12.00,0.00,30.00,M,6.21,M,SCT,M,M,M,1200.00,M,M,M,M,M,M,M,M,M,M,64.40,LPMT 232000Z 22012KT 9999 SCT012 18/16 Q1016
LPMT,2017-11-23 21:00,-9.0359,38.7039,62.60,60.80,93.83,210.00,9.00,0.00,30.00,M,6.21,M,FEW,M,M,M,1200.00,M,M,M,M,M,M,M,M,M,M,62.60,LPMT 232100Z 21009KT 9999 FEW012 17/16 Q1016
LPMT,2017-11-23 22:00,-9.0359,38.7039,62.60,60.80,93.83,210.00,6.00,0.00,30.03,M,6.21,M,FEW,M,M,M,1200.00,M,M,M,M,M,M,M,M,M,M,62.60,LPMT 232200Z 21006KT 9999 FEW012 17/16 Q1017
LPMT,2017-11-23 23:00,-9.0359,38.7039,62.60,60.80,93.83,210.00,5.00,0.00,30.03,M,6.21,M,FEW,M,M,M,1200.00,M,M,M,M,M,M,M,M,M,M,62.60,LPMT 232300Z 21005KT 9999 FEW012 17/16 Q1017
LPMT,2017-11-24 00:00,-9.0359,38.7039,62.60,60.80,93.83,190.00,4.00,0.00,30.03,M,6.21,M,FEW,M,M,M,1200.00,M,M,M,M,M,M,M,M,M,M,62.60,LPMT 240000Z 19004KT 9999 FEW012 17/16 Q1017
LPMT,2017-11-24 01:00,-9.0359,38.7039,60.80,60.80,100.00,160.00,3.00,0.00,30.03,M,6.21,M,FEW,M,M,M,1200.00,M,M,M,M,M,M,M,M,M,M,60.80,LPMT 240100Z 16003KT 9999 FEW012 16/16 Q1017
LPMT,2017-11-24 02:00,-9.0359,38.7039,60.80,59.00,93.79,140.00,2.00,0.00,30.03,M,6.21,M,FEW,M,M,M,1000.00,M,M,M,M,M,M,M,M,M,M,60.80,LPMT 240200Z 14002KT 9999 FEW010 16/15 Q1017
LPMT,2017-11-24 03:00,-9.0359,38.7039,60.80,59.00,93.79,150.00,4.00,0.00,30.03,M,6.21,M,FEW,M,M,M,1000.00,M,M,M,M,M,M,M,M,M,M,60.80,LPMT 240300Z 15004KT 9999 FEW010 16/15 Q1017
LPMT,2017-11-24 04:00,-9.0359,38.7039,59.00,59.00,100.00,130.00,3.00,0.00,30.03,M,6.21,M,FEW,M,M,M,1200.00,M,M,M,M,M,M,M,M,M,M,59.00,LPMT 240400Z 13003KT 9999 FEW012 15/15 Q1017
LPMT,2017-11-24 05:00,-9.0359,38.7039,59.00,59.00,100.00,110.00,3.00,0.00,30.03,M,6.21,M,FEW,SCT,M,M,1400.00,4000.00,M,M,M,M,M,M,M,M,M,59.00,LPMT 240500Z 11003KT 9999 FEW014 SCT040 15/15 Q1017
LPMT,2017-11-24 06:00,-9.0359,38.7039,60.80,59.00,93.79,120.00,5.00,0.00,30.03,M,6.21,M,FEW,BKN,M,M,1400.00,3500.00,M,M,M,M,M,M,M,M,M,60.80,LPMT 240600Z 12005KT 9999 FEW014 BKN035 16/15 Q1017
LPMT,2017-11-24 07:00,-9.0359,38.7039,60.80,59.00,93.79,110.00,5.00,0.00,30.03,M,6.21,M,BKN,BKN,M,M,900.00,2000.00,M,M,M,M,M,M,M,M,M,60.80,LPMT 240700Z 11005KT 9999 BKN009 BKN020 16/15 Q1017
LPMT,2017-11-24 08:00,-9.0359,38.7039,60.80,59.00,93.79,100.00,3.00,0.00,30.03,M,3.73,M,SCT,BKN,M,M,900.00,1500.00,M,M,M,M,M,M,M,M,M,60.80,LPMT 240800Z 10003KT 6000 SCT009 BKN015 16/15 Q1017
LPMT,2017-11-24 09:00,-9.0359,38.7039,62.60,62.60,100.00,170.00,7.00,0.00,30.06,M,6.21,M,FEW,SCT,M,M,1000.00,1500.00,M,M,M,M,M,M,M,M,M,62.60,LPMT 240900Z 17007KT 9999 FEW010 SCT015 17/17 Q1018
LPMT,2017-11-24 10:00,-9.0359,38.7039,66.20,62.60,88.18,180.00,7.00,0.00,30.06,M,6.21,M,FEW,SCT,M,M,1200.00,1800.00,M,M,M,M,M,M,M,M,M,66.20,LPMT 241000Z 18007KT 9999 FEW012 SCT018 19/17 Q1018
LPMT,2017-11-24 11:00,-9.0359,38.7039,66.20,60.80,82.74,190.00,13.00,0.00,30.06,M,6.21,M,FEW,SCT,M,M,1200.00,1800.00,M,M,M,M,M,M,M,M,M,66.20,LPMT 241100Z 19013KT 9999 FEW012 SCT018 19/16 Q1018
LPMT,2017-11-24 12:00,-9.0359,38.7039,68.00,60.80,77.75,190.00,10.00,0.00,30.06,M,6.21,M,FEW,M,M,M,2000.00,M,M,M,M,M,M,M,M,M,M,68.00,LPMT 241200Z 19010KT 9999 FEW020 20/16 Q1018
LPMT,2017-11-24 13:00,-9.0359,38.7039,69.80,60.80,73.09,200.00,10.00,0.00,30.03,M,6.21,M,SCT,M,M,M,2000.00,M,M,M,M,M,M,M,M,M,M,69.80,LPMT 241300Z 20010KT 9999 SCT020 21/16 Q1017
LPMT,2017-11-24 14:00,-9.0359,38.7039,69.80,60.80,73.09,200.00,10.00,0.00,30.03,M,6.21,M,SCT,M,M,M,2000.00,M,M,M,M,M,M,M,M,M,M,69.80,LPMT 241400Z 20010KT 170V230 9999 SCT020 21/16 Q1017
LPMT,2017-11-24 15:00,-9.0359,38.7039,68.00,60.80,77.75,190.00,9.00,0.00,30.03,M,6.21,M,SCT,M,M,M,2200.00,M,M,M,M,M,M,M,M,M,M,68.00,LPMT 241500Z 19009KT 9999 SCT022 20/16 Q1017
LPMT,2017-11-24 16:00,-9.0359,38.7039,68.00,60.80,77.75,190.00,7.00,0.00,30.03,M,6.21,M,SCT,M,M,M,2000.00,M,M,M,M,M,M,M,M,M,M,68.00,LPMT 241600Z 19007KT 9999 SCT020 20/16 Q1017
LPMT,2017-11-24 17:00,-9.0359,38.7039,66.20,60.80,82.74,200.00,4.00,0.00,30.03,M,6.21,M,FEW,M,M,M,2000.00,M,M,M,M,M,M,M,M,M,M,66.20,LPMT 241700Z 20004KT 170V240 9999 FEW020 19/16 Q1017
LPMT,2017-11-24 18:00,-9.0359,38.7039,64.40,60.80,88.09,190.00,4.00,0.00,30.03,M,6.21,M,FEW,M,M,M,1500.00,M,M,M,M,M,M,M,M,M,M,64.40,LPMT 241800Z 19004KT 9999 FEW015 18/16 Q1017
LPMT,2017-11-24 19:00,-9.0359,38.7039,59.00,57.20,93.74,190.00,1.00,0.00,30.03,M,6.21,M,M,M,M,M,M,M,M,M,M,M,M,M,M,M,M,59.00,LPMT 241900Z 19001KT CAVOK 15/14 Q1017
LPMT,2017-11-24 20:00,-9.0359,38.7039,57.20,55.40,93.69,110.00,1.00,0.00,30.06,M,6.21,M,M,M,M,M,M,M,M,M,M,M,M,M,M,M,M,57.20,LPMT 242000Z 11001KT CAVOK 14/13 Q1018
LPMT,2017-11-24 21:00,-9.0359,38.7039,55.40,55.40,100.00,M,1.00,0.00,30.06,M,6.21,M,M,M,M,M,M,M,M,M,M,M,M,M,M,M,M,55.40,LPMT 242100Z VRB01KT CAVOK 13/13 Q1018
LPMT,2017-11-24 22:00,-9.0359,38.7039,53.60,53.60,100.00,120.00,2.00,0.00,30.06,M,6.21,M,M,M,M,M,M,M,M,M,M,M,M,M,M,M,M,53.60,LPMT 242200Z 12002KT CAVOK 12/12 Q1018
LPMT,2017-11-24 23:00,-9.0359,38.7039,53.60,53.60,100.00,M,2.00,0.00,30.06,M,4.97,M,NSC,M,M,M,M,M,M,M,M,M,M,M,M,M,M,53.60,LPMT 242300Z VRB02KT 8000 NSC 12/12 Q1018
LPMT,2017-11-25 00:00,-9.0359,38.7039,57.20,57.20,100.00,10.00,5.00,0.00,30.06,M,4.35,M,FEW,M,M,M,500.00,M,M,M,M,M,M,M,M,M,M,57.20,LPMT 250000Z 01005KT 7000 FEW005 14/14 Q1018
LPMT,2017-11-25 01:00,-9.0359,38.7039,57.20,57.20,100.00,20.00,4.00,0.00,30.06,M,4.97,M,FEW,M,M,M,500.00,M,M,M,M,M,M,M,M,M,M,57.20,LPMT 250100Z 02004KT 8000 FEW005 14/14 Q1018
LPMT,2017-11-25 02:00,-9.0359,38.7039,55.40,55.40,100.00,M,2.00,0.00,30.06,M,6.21,M,FEW,M,M,M,500.00,M,M,M,M,M,M,M,M,M,M,55.40,LPMT 250200Z VRB02KT 9999 FEW005 13/13 Q1018
LPMT,2017-11-25 03:00,-9.0359,38.7039,55.40,55.40,100.00,360.00,2.00,0.00,30.06,M,6.21,M,M,M,M,M,M,M,M,M,M,M,M,M,M,M,M,55.40,LPMT 250300Z 36002KT CAVOK 13/13 Q1018
LPMT,2017-11-25 04:00,-9.0359,38.7039,55.40,53.60,93.65,40.00,4.00,0.00,30.06,M,6.21,M,FEW,M,M,M,1500.00,M,M,M,M,M,M,M,M,M,M,55.40,LPMT 250400Z 04004KT 9999 FEW015 13/12 Q1018
LPMT,2017-11-25 06:00,-9.0359,38.7039,53.60,53.60,100.00,M,1.00,0.00,30.06,M,6.21,M,FEW,M,M,M,500.00,M,M,M,M,M,M,M,M,M,M,53.60,LPMT 250600Z VRB01KT 9999 FEW005 12/12 Q1018
LPMT,2017-11-25 09:00,-9.0359,38.7039,55.40,53.60,93.65,M,2.00,0.00,30.12,M,4.97,M,NSC,M,M,M,M,M,M,M,VCFG,M,M,M,M,M,M,55.40,LPMT 250900Z VRB02KT 8000 VCFG NSC 13/12 Q1020
LPMT,2017-11-25 10:00,-9.0359,38.7039,57.20,55.40,93.69,50.00,5.00,0.00,30.12,M,4.97,M,NSC,M,M,M,M,M,M,M,VCFG,M,M,M,M,M,M,57.20,LPMT 251000Z 05005KT 8000 VCFG NSC 14/13 Q1020
LPMT,2017-11-25 11:00,-9.0359,38.7039,57.20,55.40,93.69,20.00,7.00,0.00,30.15,M,5.59,M,NSC,M,M,M,M,M,M,M,BCFG,M,M,M,M,M,M,57.20,LPMT 251100Z 02007KT 9000 4000W BCFG NSC 14/13 Q1021
LPMT,2017-11-25 12:00,-9.0359,38.7039,59.00,55.40,87.83,130.00,3.00,0.00,30.15,M,5.59,M,NSC,M,M,M,M,M,M,M,M,M,M,M,M,M,M,59.00,LPMT 251200Z 13003KT 110V170 9000 NSC 15/13 Q1021
LPMT,2017-11-25 13:00,-9.0359,38.7039,60.80,55.40,82.37,340.00,4.00,0.00,30.15,M,5.59,M,NSC,M,M,M,M,M,M,M,M,M,M,M,M,M,M,60.80,LPMT 251300Z 34004KT 310V010 9000 NSC 16/13 Q1021
LPMT,2017-11-25 14:00,-9.0359,38.7039,60.80,55.40,82.37,30.00,4.00,0.00,30.12,M,5.59,M,FEW,M,M,M,3600.00,M,M,M,-RA,M,M,M,M,M,M,60.80,LPMT 251400Z 03004KT 9000 -RA FEW036 16/13 Q1020
LPMT,2017-11-25 15:00,-9.0359,38.7039,59.00,57.20,93.74,M,2.00,0.00,30.15,M,3.73,M,FEW,SCT,M,M,3300.00,4800.00,M,M,-RA,M,M,M,M,M,M,59.00,LPMT 251500Z VRB02KT 6000 -RA FEW033 SCT048 15/14 Q1021
LPMT,2017-11-25 16:00,-9.0359,38.7039,60.80,57.20,87.92,120.00,3.00,0.00,30.12,M,4.35,M,NSC,M,M,M,M,M,M,M,M,M,M,M,M,M,M,60.80,LPMT 251600Z 12003KT 7000 NSC 16/14 Q1020
LPMT,2017-11-25 17:00,-9.0359,38.7039,59.00,57.20,93.74,40.00,3.00,0.00,30.15,M,4.35,M,NSC,M,M,M,M,M,M,M,M,M,M,M,M,M,M,59.00,LPMT 251700Z 04003KT 7000 NSC 15/14 Q1021
LPMT,2017-11-25 18:00,-9.0359,38.7039,59.00,57.20,93.74,320.00,2.00,0.00,30.15,M,4.97,M,NSC,M,M,M,M,M,M,M,M,M,M,M,M,M,M,59.00,LPMT 251800Z 32002KT 8000 NSC 15/14 Q1021
LPMT,2017-11-25 19:00,-9.0359,38.7039,59.00,57.20,93.74,240.00,2.00,0.00,30.18,M,3.73,M,NSC,M,M,M,M,M,M,M,M,M,M,M,M,M,M,59.00,LPMT 251900Z 24002KT 6000 NSC 15/14 Q1022
LPMT,2017-11-25 20:00,-9.0359,38.7039,57.20,57.20,100.00,280.00,2.00,0.00,30.18,M,3.73,M,FEW,M,M,M,1200.00,M,M,M,M,M,M,M,M,M,M,57.20,LPMT 252000Z 28002KT 6000 FEW012 14/14 Q1022
LPMT,2017-11-25 21:00,-9.0359,38.7039,55.40,53.60,93.65,280.00,1.00,0.00,30.18,M,4.97,M,NSC,M,M,M,M,M,M,M,M,M,M,M,M,M,M,55.40,LPMT 252100Z 28001KT 8000 NSC 13/12 Q1022
LPMT,2017-11-25 22:00,-9.0359,38.7039,55.40,53.60,93.65,340.00,2.00,0.00,30.21,M,4.97,M,NSC,M,M,M,M,M,M,M,M,M,M,M,M,M,M,55.40,LPMT 252200Z 34002KT 8000 NSC 13/12 Q1023
LPMT,2017-11-25 23:00,-9.0359,38.7039,55.40,55.40,100.00,40.00,2.00,0.00,30.21,M,1.55,M,NSC,M,M,M,M,M,M,M,BR,M,M,M,M,M,M,55.40,LPMT 252300Z 04002KT 2500 BR NSC 13/13 Q1023
LPMT,2017-11-26 00:00,-9.0359,38.7039,57.20,57.20,100.00,20.00,6.00,0.00,30.24,M,0.93,M,SCT,M,M,M,200.00,M,M,M,BR,M,M,M,M,M,M,57.20,LPMT 260000Z 02006KT 1500 BR SCT002 14/14 Q1024
LPMT,2017-11-26 01:00,-9.0359,38.7039,57.20,57.20,100.00,20.00,6.00,0.00,30.24,M,0.31,M,VV ,M,M,M,400.00,M,M,M,FG,M,M,M,M,M,M,57.20,LPMT 260100Z 02006KT 0500 FG VV004 14/14 Q1024
LPMT,2017-11-26 02:00,-9.0359,38.7039,55.40,55.40,100.00,30.00,7.00,0.00,30.24,M,0.12,M,VV ,M,M,M,200.00,M,M,M,FG,M,M,M,M,M,M,55.40,LPMT 260200Z 03007KT 0200 FG VV002 13/13 Q1024
LPMT,2017-11-26 03:00,-9.0359,38.7039,55.40,53.60,93.65,40.00,8.00,0.00,30.24,M,0.12,M,VV ,M,M,M,100.00,M,M,M,FG,M,M,M,M,M,M,55.40,LPMT 260300Z 04008KT 0200 FG VV001 13/12 Q1024
LPMT,2017-11-26 04:00,-9.0359,38.7039,53.60,53.60,100.00,20.00,7.00,0.00,30.21,M,0.31,M,VV ,M,M,M,100.00,M,M,M,FG,M,M,M,M,M,M,53.60,LPMT 260400Z 02007KT 0500 FG VV001 12/12 Q1023
LPMT,2017-11-26 05:00,-9.0359,38.7039,53.60,53.60,100.00,20.00,10.00,0.00,30.24,M,1.86,M,NSC,M,M,M,M,M,M,M,BR,M,M,M,M,M,M,53.60,LPMT 260500Z 02010KT 3000 BR NSC 12/12 Q1024
LPMT,2017-11-26 06:00,-9.0359,38.7039,53.60,53.60,100.00,40.00,8.00,0.00,30.24,M,4.97,M,NSC,M,M,M,M,M,M,M,M,M,M,M,M,M,M,53.60,LPMT 260600Z 04008KT 8000 NSC 12/12 Q1024
LPMT,2017-11-26 07:00,-9.0359,38.7039,53.60,51.80,93.60,30.00,10.00,0.00,30.27,M,4.97,M,NSC,M,M,M,M,M,M,M,M,M,M,M,M,M,M,53.60,LPMT 260700Z 03010KT 8000 NSC 12/11 Q1025
LPMT,2017-11-26 08:00,-9.0359,38.7039,53.60,50.00,87.56,20.00,9.00,0.00,30.30,M,6.21,M,M,M,M,M,M,M,M,M,M,M,M,M,M,M,M,53.60,LPMT 260800Z 02009KT CAVOK 12/10 Q1026
LPMT,2017-11-26 09:00,-9.0359,38.7039,53.60,50.00,87.56,30.00,7.00,0.00,30.33,M,6.21,M,M,M,M,M,M,M,M,M,M,M,M,M,M,M,M,53.60,LPMT 260900Z 03007KT CAVOK 12/10 Q1027
LPMT,2017-11-26 10:00,-9.0359,38.7039,55.40,48.20,76.66,40.00,7.00,0.00,30.33,M,6.21,M,M,M,M,M,M,M,M,M,M,M,M,M,M,M,M,55.40,LPMT 261000Z 04007KT CAVOK 13/09 Q1027
LPMT,2017-11-26 11:00,-9.0359,38.7039,57.20,50.00,76.82,30.00,9.00,0.00,30.36,M,6.21,M,M,M,M,M,M,M,M,M,M,M,M,M,M,M,M,57.20,LPMT 261100Z 03009KT CAVOK 14/10 Q1028
LPMT,2017-11-26 12:00,-9.0359,38.7039,59.00,50.00,72.01,30.00,9.00,0.00,30.33,M,6.21,M,M,M,M,M,M,M,M,M,M,M,M,M,M,M,M,59.00,LPMT 261200Z 03009KT CAVOK 15/10 Q1027
LPMT,2017-11-26 13:00,-9.0359,38.7039,59.00,51.80,76.98,10.00,9.00,0.00,30.30,M,6.21,M,M,M,M,M,M,M,M,M,M,M,M,M,M,M,M,59.00,LPMT 261300Z 01009KT CAVOK 15/11 Q1026
LPMT,2017-11-26 14:00,-9.0359,38.7039,60.80,51.80,72.20,10.00,7.00,0.00,30.30,M,6.21,M,M,M,M,M,M,M,M,M,M,M,M,M,M,M,M,60.80,LPMT 261400Z 01007KT CAVOK 16/11 Q1026
LPMT,2017-11-26 15:00,-9.0359,38.7039,62.60,53.60,72.38,10.00,7.00,0.00,30.27,M,6.21,M,M,M,M,M,M,M,M,M,M,M,M,M,M,M,M,62.60,LPMT 261500Z 01007KT CAVOK 17/12 Q1025
LPMT,2017-11-26 16:00,-9.0359,38.7039,62.60,53.60,72.38,20.00,10.00,0.00,30.27,M,6.21,M,M,M,M,M,M,M,M,M,M,M,M,M,M,M,M,62.60,LPMT 261600Z 02010KT CAVOK 17/12 Q1025
LPMT,2017-11-26 17:00,-9.0359,38.7039,60.80,51.80,72.20,20.00,12.00,0.00,30.27,M,6.21,M,M,M,M,M,M,M,M,M,M,M,M,M,M,M,M,60.80,LPMT 261700Z 02012KT CAVOK 16/11 Q1025
LPMT,2017-11-26 18:00,-9.0359,38.7039,60.80,51.80,72.20,20.00,10.00,0.00,30.27,M,6.21,M,M,M,M,M,M,M,M,M,M,M,M,M,M,M,M,60.80,LPMT 261800Z 02010KT CAVOK 16/11 Q1025
LPMT,2017-11-26 19:00,-9.0359,38.7039,59.00,51.80,76.98,20.00,9.00,0.00,30.30,M,6.21,M,M,M,M,M,M,M,M,M,M,M,M,M,M,M,M,59.00,LPMT 261900Z 02009KT CAVOK 15/11 Q1026
LPMT,2017-11-26 20:00,-9.0359,38.7039,59.00,50.00,72.01,20.00,7.00,0.00,30.30,M,6.21,M,M,M,M,M,M,M,M,M,M,M,M,M,M,M,M,59.00,LPMT 262000Z 02007KT CAVOK 15/10 Q1026
LPMT,2017-11-26 21:00,-9.0359,38.7039,57.20,50.00,76.82,40.00,4.00,0.00,30.30,M,6.21,M,M,M,M,M,M,M,M,M,M,M,M,M,M,M,M,57.20,LPMT 262100Z 04004KT CAVOK 14/10 Q1026
LPMT,2017-11-26 22:00,-9.0359,38.7039,55.40,50.00,81.99,30.00,7.00,0.00,30.30,M,6.21,M,M,M,M,M,M,M,M,M,M,M,M,M,M,M,M,55.40,LPMT 262200Z 03007KT CAVOK 13/10 Q1026
LPMT,2017-11-26 23:00,-9.0359,38.7039,57.20,48.20,71.83,20.00,9.00,0.00,30.30,M,6.21,M,M,M,M,M,M,M,M,M,M,M,M,M,M,M,M,57.20,LPMT 262300Z 02009KT CAVOK 14/09 Q1026
LPMT,2017-11-27 00:00,-9.0359,38.7039,55.40,46.40,71.64,40.00,9.00,0.00,30.30,M,6.21,M,M,M,M,M,M,M,M,M,M,M,M,M,M,M,M,55.40,LPMT 270000Z 04009KT CAVOK 13/08 Q1026
LPMT,2017-11-27 01:00,-9.0359,38.7039,55.40,46.40,71.64,30.00,10.00,0.00,30.30,M,6.21,M,M,M,M,M,M,M,M,M,M,M,M,M,M,M,M,55.40,LPMT 270100Z 03010KT CAVOK 13/08 Q1026
LPMT,2017-11-27 02:00,-9.0359,38.7039,55.40,44.60,66.91,30.00,10.00,0.00,30.30,M,6.21,M,M,M,M,M,M,M,M,M,M,M,M,M,M,M,M,55.40,LPMT 270200Z 03010KT CAVOK 13/07 Q1026
LPMT,2017-11-27 04:00,-9.0359,38.7039,53.60,44.60,71.45,30.00,10.00,0.00,30.30,M,6.21,M,M,M,M,M,M,M,M,M,M,M,M,M,M,M,M,53.60,LPMT 270400Z 03010KT CAVOK 12/07 Q1026
LPMT,2017-11-27 05:00,-9.0359,38.7039,53.60,42.80,66.70,30.00,8.00,0.00,30.30,M,6.21,M,M,M,M,M,M,M,M,M,M,M,M,M,M,M,M,53.60,LPMT 270500Z 03008KT CAVOK 12/06 Q1026
LPMT,2017-11-27 06:00,-9.0359,38.7039,53.60,41.00,62.23,40.00,9.00,0.00,30.30,M,6.21,M,M,M,M,M,M,M,M,M,M,M,M,M,M,M,M,53.60,LPMT 270600Z 04009KT CAVOK 12/05 Q1026
LPMT,2017-11-27 07:00,-9.0359,38.7039,53.60,42.80,66.70,20.00,8.00,0.00,30.00,M,6.21,M,M,M,M,M,M,M,M,M,M,M,M,M,M,M,M,53.60,LPMT 270700Z 02008KT CAVOK 12/06 Q1016
LPMT,2017-11-27 08:00,-9.0359,38.7039,53.60,41.00,62.23,40.00,9.00,0.00,30.30,M,6.21,M,M,M,M,M,M,M,M,M,M,M,M,M,M,M,M,53.60,LPMT 270800Z 04009KT CAVOK 12/05 Q1026
LPMT,2017-11-27 09:00,-9.0359,38.7039,53.60,48.20,81.87,40.00,9.00,0.00,30.30,M,6.21,M,M,M,M,M,M,M,M,M,M,M,M,M,M,M,M,53.60,LPMT 270900Z 04009KT CAVOK 12/09 Q1026
LPMT,2017-11-27 10:00,-9.0359,38.7039,53.60,42.80,66.70,20.00,8.00,0.00,30.33,M,6.21,M,M,M,M,M,M,M,M,M,M,M,M,M,M,M,M,53.60,LPMT 271000Z 02008KT CAVOK 12/06 Q1027
LPMT,2017-11-27 11:00,-9.0359,38.7039,55.40,42.80,62.46,30.00,9.00,0.00,30.33,M,6.21,M,M,M,M,M,M,M,M,M,M,M,M,M,M,M,M,55.40,LPMT 271100Z 03009KT CAVOK 13/06 Q1027
LPMT,2017-11-27 12:00,-9.0359,38.7039,57.20,44.60,62.69,30.00,9.00,0.00,30.30,M,6.21,M,M,M,M,M,M,M,M,M,M,M,M,M,M,M,M,57.20,LPMT 271200Z 03009KT CAVOK 14/07 Q1026
LPMT,2017-11-27 13:00,-9.0359,38.7039,59.00,44.60,58.77,20.00,10.00,0.00,30.27,M,6.21,M,M,M,M,M,M,M,M,M,M,M,M,M,M,M,M,59.00,LPMT 271300Z 02010KT CAVOK 15/07 Q1025
LPMT,2017-11-27 14:00,-9.0359,38.7039,60.80,46.40,59.01,30.00,8.00,0.00,30.24,M,6.21,M,M,M,M,M,M,M,M,M,M,M,M,M,M,M,M,60.80,LPMT 271400Z 03008KT CAVOK 16/08 Q1024
LPMT,2017-11-27 15:00,-9.0359,38.7039,60.80,48.20,63.15,360.00,7.00,0.00,30.24,M,6.21,M,M,M,M,M,M,M,M,M,M,M,M,M,M,M,M,60.80,LPMT 271500Z 36007KT CAVOK 16/09 Q1024
LPMT,2017-11-27 16:00,-9.0359,38.7039,59.00,50.00,72.01,10.00,6.00,0.00,30.24,M,6.21,M,M,M,M,M,M,M,M,M,M,M,M,M,M,M,M,59.00,LPMT 271600Z 01006KT CAVOK 15/10 Q1024
LPMT,2017-11-27 17:00,-9.0359,38.7039,59.00,50.00,72.01,360.00,5.00,0.00,30.24,M,6.21,M,M,M,M,M,M,M,M,M,M,M,M,M,M,M,M,59.00,LPMT 271700Z 36005KT CAVOK 15/10 Q1024
LPMT,2017-11-27 18:00,-9.0359,38.7039,59.00,48.20,67.33,30.00,6.00,0.00,30.24,M,6.21,M,M,M,M,M,M,M,M,M,M,M,M,M,M,M,M,59.00,LPMT 271800Z 03006KT CAVOK 15/09 Q1024
LPMT,2017-11-27 19:00,-9.0359,38.7039,59.00,50.00,72.01,20.00,7.00,0.00,30.21,M,6.21,M,M,M,M,M,M,M,M,M,M,M,M,M,M,M,M,59.00,LPMT 271900Z 02007KT CAVOK 15/10 Q1023
LPMT,2017-11-27 20:00,-9.0359,38.7039,59.00,50.00,72.01,20.00,7.00,0.00,30.21,M,6.21,M,M,M,M,M,M,M,M,M,M,M,M,M,M,M,M,59.00,LPMT 272000Z 02007KT CAVOK 15/10 Q1023
LPMT,2017-11-27 21:00,-9.0359,38.7039,57.20,48.20,71.83,30.00,9.00,0.00,30.21,M,6.21,M,M,M,M,M,M,M,M,M,M,M,M,M,M,M,M,57.20,LPMT 272100Z 03009KT CAVOK 14/09 Q1023
LPMT,2017-11-27 22:00,-9.0359,38.7039,57.20,48.20,71.83,30.00,8.00,0.00,30.21,M,6.21,M,M,M,M,M,M,M,M,M,M,M,M,M,M,M,M,57.20,LPMT 272200Z 03008KT CAVOK 14/09 Q1023
LPMT,2017-11-27 23:00,-9.0359,38.7039,57.20,50.00,76.82,30.00,7.00,0.00,30.18,M,6.21,M,M,M,M,M,M,M,M,M,M,M,M,M,M,M,M,57.20,LPMT 272300Z 03007KT CAVOK 14/10 Q1022
LPMT,2017-11-28 00:00,-9.0359,38.7039,57.20,48.20,71.83,20.00,9.00,0.00,30.18,M,6.21,M,M,M,M,M,M,M,M,M,M,M,M,M,M,M,M,57.20,LPMT 280000Z 02009KT CAVOK 14/09 Q1022
LPMT,2017-11-28 01:00,-9.0359,38.7039,55.40,48.20,76.66,30.00,10.00,0.00,30.15,M,6.21,M,M,M,M,M,M,M,M,M,M,M,M,M,M,M,M,55.40,LPMT 280100Z 03010KT CAVOK 13/09 Q1021
LPMT,2017-11-28 02:00,-9.0359,38.7039,55.40,46.40,71.64,30.00,10.00,0.00,30.15,M,6.21,M,M,M,M,M,M,M,M,M,M,M,M,M,M,M,M,55.40,LPMT 280200Z 03010KT CAVOK 13/08 Q1021
LPMT,2017-11-28 03:00,-9.0359,38.7039,53.60,46.40,76.50,30.00,12.00,0.00,30.12,M,6.21,M,M,M,M,M,M,M,M,M,M,M,M,M,M,M,M,53.60,LPMT 280300Z 03012KT CAVOK 12/08 Q1020
LPMT,2017-11-28 04:00,-9.0359,38.7039,53.60,48.20,81.87,30.00,10.00,0.00,30.12,M,6.21,M,NSC,M,M,M,M,M,M,M,VCSH,M,M,M,M,M,M,53.60,LPMT 280400Z 03010KT 9999 VCSH NSC 12/09 Q1020
LPMT,2017-11-28 05:00,-9.0359,38.7039,51.80,50.00,93.55,30.00,5.00,0.00,30.09,M,6.21,M,FEW,M,M,M,4500.00,M,M,M,VCSH,M,M,M,M,M,M,51.80,LPMT 280500Z 03005KT 010V170 9999 VCSH FEW045 11/10 Q1019
LPMT,2017-11-28 06:00,-9.0359,38.7039,51.80,50.00,93.55,30.00,8.00,0.00,30.09,M,6.21,M,FEW,M,M,M,4500.00,M,M,M,VCSH,M,M,M,M,M,M,51.80,LPMT 280600Z 03008KT 9999 VCSH FEW045 11/10 Q1019
LPMT,2017-11-28 07:00,-9.0359,38.7039,51.80,50.00,93.55,40.00,6.00,0.00,30.09,M,6.21,M,FEW,M,M,M,4500.00,M,M,M,-RA,M,M,M,M,M,M,51.80,LPMT 280700Z 04006KT 9999 -RA FEW045 11/10 Q1019
LPMT,2017-11-28 09:00,-9.0359,38.7039,53.60,51.80,93.60,30.00,9.00,0.00,30.06,M,3.73,M,FEW,M,M,M,800.00,M,M,M,-RA,M,M,M,M,M,M,53.60,LPMT 280900Z 03009KT 6000 -RA FEW008 12/11 Q1018
LPMT,2017-11-28 10:00,-9.0359,38.7039,53.60,51.80,93.60,30.00,11.00,0.00,30.06,M,3.73,M,FEW,M,M,M,300.00,M,M,M,-RA,M,M,M,M,M,M,53.60,LPMT 281000Z 03011KT 6000 -RA FEW003 12/11 Q1018
LPMT,2017-11-28 11:00,-9.0359,38.7039,53.60,53.60,100.00,40.00,7.00,0.00,30.03,M,3.73,M,FEW,M,M,M,300.00,M,M,M,M,M,M,M,M,M,M,53.60,LPMT 281100Z 04007KT 6000 FEW003 12/12 Q1017
LPMT,2017-11-28 12:00,-9.0359,38.7039,55.40,53.60,93.65,20.00,9.00,0.00,30.00,M,6.21,M,FEW,M,M,M,300.00,M,M,M,M,M,M,M,M,M,M,55.40,LPMT 281200Z 02009KT 9999 FEW003 13/12 Q1016
LPMT,2017-11-28 13:00,-9.0359,38.7039,55.40,53.60,93.65,30.00,10.00,0.00,29.97,M,3.11,M,BKN,BKN,M,M,400.00,3000.00,M,M,-RADZ,M,M,M,M,M,M,55.40,LPMT 281300Z 03010KT 5000 -RADZ BKN004 BKN030 13/12 Q1015
LPMT,2017-11-28 14:00,-9.0359,38.7039,55.40,53.60,93.65,40.00,8.00,0.00,29.94,M,1.24,M,OVC,M,M,M,300.00,M,M,M,SHRA,M,M,M,M,M,M,55.40,LPMT 281400Z 04008KT 330V090 2000 SHRA OVC003 13/12 Q1014
LPMT,2017-11-28 15:00,-9.0359,38.7039,55.40,55.40,100.00,30.00,9.00,0.00,29.91,M,3.11,M,BKN,BKN,M,M,300.00,2000.00,M,M,-RA,M,M,M,M,M,M,55.40,LPMT 281500Z 03009KT 5000 -RA BKN003 BKN020 13/13 Q1013
LPMT,2017-11-28 16:00,-9.0359,38.7039,55.40,55.40,100.00,20.00,9.00,0.00,29.88,M,3.73,M,SCT,BKN,M,M,300.00,1500.00,M,M,M,M,M,M,M,M,M,55.40,LPMT 281600Z 02009KT 6000 SCT003 BKN015 13/13 Q1012
LPMT,2017-11-28 17:00,-9.0359,38.7039,55.40,55.40,100.00,20.00,10.00,0.00,29.88,M,3.73,M,BKN,SCT,M,M,300.00,1500.00,M,M,M,M,M,M,M,M,M,55.40,LPMT 281700Z 02010KT 6000 BKN003 SCT015 13/13 Q1012
LPMT,2017-11-28 18:00,-9.0359,38.7039,55.40,55.40,100.00,30.00,10.00,0.00,29.85,M,3.73,M,BKN,SCT,M,M,300.00,1500.00,M,M,-RA,M,M,M,M,M,M,55.40,LPMT 281800Z 03010KT 6000 -RA BKN003 SCT015 13/13 Q1011
LPMT,2017-11-28 19:00,-9.0359,38.7039,55.40,55.40,100.00,20.00,10.00,0.00,29.85,M,3.73,M,BKN,SCT,M,M,300.00,1200.00,M,M,-RA,M,M,M,M,M,M,55.40,LPMT 281900Z 02010KT 6000 -RA BKN003 SCT012 13/13 Q1011
LPMT,2017-11-28 20:00,-9.0359,38.7039,55.40,55.40,100.00,20.00,10.00,0.00,29.85,M,3.73,M,BKN,OVC,M,M,300.00,1000.00,M,M,-DZ,M,M,M,M,M,M,55.40,LPMT 282000Z 02010KT 6000 -DZ BKN003 OVC010 13/13 Q1011
LPMT,2017-11-28 21:00,-9.0359,38.7039,55.40,55.40,100.00,30.00,11.00,0.00,29.83,M,3.73,M,BKN,OVC,M,M,200.00,1000.00,M,M,-RA,M,M,M,M,M,M,55.40,LPMT 282100Z 03011KT 6000 -RA BKN002 OVC010 13/13 Q1010
LPMT,2017-11-28 22:00,-9.0359,38.7039,55.40,55.40,100.00,20.00,11.00,0.00,29.85,M,4.35,M,SCT,BKN,OVC,M,300.00,1500.00,2000.00,M,-RA,M,M,M,M,M,M,55.40,LPMT 282200Z 02011KT 7000 -RA SCT003 BKN015 OVC020 13/13 Q1011
LPMT,2017-11-28 23:00,-9.0359,38.7039,55.40,53.60,93.65,30.00,8.00,0.00,29.83,M,4.97,M,SCT,BKN,OVC,M,300.00,1500.00,2000.00,M,-RA,M,M,M,M,M,M,55.40,LPMT 282300Z 03008KT 8000 -RA SCT003 BKN015 OVC020 13/12 Q1010
LPMT,2017-11-29 00:00,-9.0359,38.7039,55.40,53.60,93.65,30.00,9.00,0.00,29.83,M,6.21,M,SCT,BKN,OVC,M,300.00,1500.00,2000.00,M,M,M,M,M,M,M,M,55.40,LPMT 290000Z 03009KT 9999 SCT003 BKN015 OVC020 13/12 Q1010
LPMT,2017-11-29 01:00,-9.0359,38.7039,55.40,53.60,93.65,30.00,10.00,0.00,29.80,M,6.21,M,BKN,OVC,M,M,500.00,1500.00,M,M,M,M,M,M,M,M,M,55.40,LPMT 290100Z 03010KT 9999 BKN005 OVC015 13/12 Q1009
LPMT,2017-11-29 02:00,-9.0359,38.7039,53.60,53.60,100.00,30.00,10.00,0.00,29.80,M,6.21,M,BKN,BKN,M,M,500.00,2000.00,M,M,M,M,M,M,M,M,M,53.60,LPMT 290200Z 03010KT 9999 BKN005 BKN020 12/12 Q1009
LPMT,2017-11-29 03:00,-9.0359,38.7039,55.40,51.80,87.65,20.00,9.00,0.00,29.80,M,6.21,M,SCT,BKN,M,M,700.00,1500.00,M,M,M,M,M,M,M,M,M,55.40,LPMT 290300Z 02009KT 9999 SCT007 BKN015 13/11 Q1009
LPMT,2017-11-29 04:00,-9.0359,38.7039,53.60,51.80,93.60,90.00,3.00,0.00,29.77,M,6.21,M,SCT,M,M,M,1500.00,M,M,M,M,M,M,M,M,M,M,53.60,LPMT 290400Z 09003KT 9999 SCT015 12/11 Q1008
LPMT,2017-11-29 05:00,-9.0359,38.7039,53.60,51.80,93.60,20.00,2.00,0.00,29.77,M,6.21,M,BKN,M,M,M,1500.00,M,M,M,M,M,M,M,M,M,M,53.60,LPMT 290500Z 02002KT 9999 BKN015 12/11 Q1008
LPMT,2017-11-29 06:00,-9.0359,38.7039,51.80,51.80,100.00,110.00,2.00,0.00,29.77,M,6.21,M,BKN,M,M,M,1500.00,M,M,M,M,M,M,M,M,M,M,51.80,LPMT 290600Z 11002KT 9999 BKN015 11/11 Q1008
LPMT,2017-11-29 07:00,-9.0359,38.7039,53.60,48.20,81.87,350.00,8.00,0.00,29.80,M,6.21,M,FEW,M,M,M,1500.00,M,M,M,M,M,M,M,M,M,M,53.60,LPMT 290700Z 35008KT 9999 FEW015 12/09 Q1009
LPMT,2017-11-29 08:00,-9.0359,38.7039,51.80,48.20,87.47,360.00,5.00,0.00,29.80,M,6.21,M,M,M,M,M,M,M,M,M,M,M,M,M,M,M,M,51.80,LPMT 290800Z 36005KT 330V030 CAVOK 11/09 Q1009
LPMT,2017-11-29 09:00,-9.0359,38.7039,55.40,48.20,76.66,350.00,12.00,0.00,29.83,M,6.21,M,M,M,M,M,M,M,M,M,M,M,M,M,M,M,M,55.40,LPMT 290900Z 35012KT CAVOK 13/09 Q1010
LPMT,2017-11-29 10:00,-9.0359,38.7039,55.40,48.20,76.66,10.00,12.00,0.00,29.85,M,6.21,M,FEW,M,M,M,2000.00,M,M,M,M,M,M,M,M,M,M,55.40,LPMT 291000Z 01012KT 330V030 9999 FEW020 13/09 Q1011
LPMT,2017-11-29 11:00,-9.0359,38.7039,57.20,48.20,71.83,360.00,9.00,0.00,29.85,M,6.21,M,FEW,M,M,M,2000.00,M,M,M,M,M,M,M,M,M,M,57.20,LPMT 291100Z 36009KT 330V030 9999 FEW020 14/09 Q1011
LPMT,2017-11-29 12:00,-9.0359,38.7039,57.20,44.60,62.69,340.00,13.00,0.00,29.83,M,6.21,M,FEW,M,M,M,2000.00,M,M,M,M,M,M,M,M,M,M,57.20,LPMT 291200Z 34013KT 9999 FEW020 14/07 Q1010
LPMT,2017-11-29 13:00,-9.0359,38.7039,59.00,42.80,54.86,350.00,13.00,0.00,29.83,M,6.21,M,FEW,M,M,M,2500.00,M,M,M,M,M,M,M,M,M,M,59.00,LPMT 291300Z 35013KT 320V020 9999 FEW025 15/06 Q1010
LPMT,2017-11-29 14:00,-9.0359,38.7039,59.00,42.80,54.86,360.00,12.00,0.00,29.83,M,6.21,M,M,M,M,M,M,M,M,M,M,M,M,M,M,M,M,59.00,LPMT 291400Z 36012KT CAVOK 15/06 Q1010
LPMT,2017-11-29 15:00,-9.0359,38.7039,59.00,44.60,58.77,360.00,9.00,0.00,29.83,M,6.21,M,M,M,M,M,M,M,M,M,M,M,M,M,M,M,M,59.00,LPMT 291500Z 36009KT 330V030 CAVOK 15/07 Q1010
LPMT,2017-11-29 16:00,-9.0359,38.7039,59.00,39.20,47.72,350.00,9.00,0.00,29.83,M,6.21,M,M,M,M,M,M,M,M,M,M,M,M,M,M,M,M,59.00,LPMT 291600Z 35009KT CAVOK 15/04 Q1010
LPMT,2017-11-29 17:00,-9.0359,38.7039,55.40,41.00,58.27,350.00,12.00,0.00,29.83,M,6.21,M,M,M,M,M,M,M,M,M,M,M,M,M,M,M,M,55.40,LPMT 291700Z 35012KT CAVOK 13/05 Q1010
LPMT,2017-11-29 18:00,-9.0359,38.7039,53.60,42.80,66.70,350.00,9.00,0.00,29.85,M,6.21,M,FEW,M,M,M,2000.00,M,M,M,M,M,M,M,M,M,M,53.60,LPMT 291800Z 35009KT 9999 FEW020 12/06 Q1011
LPMT,2017-11-29 19:00,-9.0359,38.7039,53.60,44.60,71.45,350.00,11.00,0.00,29.88,M,6.21,M,M,M,M,M,M,M,M,M,M,M,M,M,M,M,M,53.60,LPMT 291900Z 35011KT CAVOK 12/07 Q1012
LPMT,2017-11-29 20:00,-9.0359,38.7039,53.60,42.80,66.70,360.00,11.00,0.00,29.88,M,6.21,M,M,M,M,M,M,M,M,M,M,M,M,M,M,M,M,53.60,LPMT 292000Z 36011KT CAVOK 12/06 Q1012
LPMT,2017-11-29 21:00,-9.0359,38.7039,53.60,42.80,66.70,360.00,11.00,0.00,29.91,M,6.21,M,M,M,M,M,M,M,M,M,M,M,M,M,M,M,M,53.60,LPMT 292100Z 36011KT CAVOK 12/06 Q1013
LPMT,2017-11-29 22:00,-9.0359,38.7039,51.80,39.20,61.99,360.00,10.00,0.00,29.91,M,6.21,M,M,M,M,M,M,M,M,M,M,M,M,M,M,M,M,51.80,LPMT 292200Z 36010KT CAVOK 11/04 Q1013
LPMT,2017-11-29 23:00,-9.0359,38.7039,51.80,37.40,57.77,360.00,11.00,0.00,29.91,M,6.21,M,M,M,M,M,M,M,M,M,M,M,M,M,M,M,M,51.80,LPMT 292300Z 36011KT CAVOK 11/03 Q1013
LPMT,2017-11-30 00:00,-9.0359,38.7039,51.80,37.40,57.77,360.00,11.00,0.00,29.91,M,6.21,M,M,M,M,M,M,M,M,M,M,M,M,M,M,M,M,51.80,LPMT 300000Z 36011KT CAVOK 11/03 Q1013
LPMT,2017-11-30 01:00,-9.0359,38.7039,51.80,37.40,57.77,350.00,8.00,0.00,29.91,M,6.21,M,M,M,M,M,M,M,M,M,M,M,M,M,M,M,M,51.80,LPMT 300100Z 35008KT CAVOK 11/03 Q1013
LPMT,2017-11-30 02:00,-9.0359,38.7039,50.00,35.60,57.52,340.00,7.00,0.00,29.91,M,6.21,M,M,M,M,M,M,M,M,M,M,M,M,M,M,M,M,46.72,LPMT 300200Z 34007KT CAVOK 10/02 Q1013
LPMT,2017-11-30 03:00,-9.0359,38.7039,50.00,35.60,57.52,350.00,8.00,0.00,29.94,M,6.21,M,M,M,M,M,M,M,M,M,M,M,M,M,M,M,M,46.29,LPMT 300300Z 35008KT CAVOK 10/02 Q1014
LPMT,2017-11-30 04:00,-9.0359,38.7039,50.00,35.60,57.52,350.00,8.00,0.00,29.94,M,6.21,M,M,M,M,M,M,M,M,M,M,M,M,M,M,M,M,46.29,LPMT 300400Z 35008KT CAVOK 10/02 Q1014
LPMT,2017-11-30 05:00,-9.0359,38.7039,48.20,37.40,66.05,350.00,7.00,0.00,29.94,M,6.21,M,M,M,M,M,M,M,M,M,M,M,M,M,M,M,M,44.53,LPMT 300500Z 35007KT CAVOK 09/03 Q1014
LPMT,2017-11-30 06:00,-9.0359,38.7039,48.20,37.40,66.05,350.00,6.00,0.00,29.97,M,6.21,M,M,M,M,M,M,M,M,M,M,M,M,M,M,M,M,45.04,LPMT 300600Z 35006KT CAVOK 09/03 Q1015
LPMT,2017-11-30 07:00,-9.0359,38.7039,42.80,37.40,81.07,50.00,7.00,0.00,29.97,M,6.21,M,M,M,M,M,M,M,M,M,M,M,M,M,M,M,M,37.94,LPMT 300700Z 05007KT CAVOK 06/03 Q1015
LPMT,2017-11-30 08:00,-9.0359,38.7039,42.80,37.40,81.07,30.00,8.00,0.00,30.03,M,6.21,M,M,M,M,M,M,M,M,M,M,M,M,M,M,M,M,37.42,LPMT 300800Z 03008KT CAVOK 06/03 Q1017
LPMT,2017-11-30 09:00,-9.0359,38.7039,46.40,37.40,70.68,30.00,6.00,0.00,30.06,M,6.21,M,M,M,M,M,M,M,M,M,M,M,M,M,M,M,M,42.87,LPMT 300900Z 03006KT CAVOK 08/03 Q1018
LPMT,2017-11-30 10:00,-9.0359,38.7039,50.00,37.40,61.76,30.00,12.00,0.00,30.09,M,6.21,M,M,M,M,M,M,M,M,M,M,M,M,M,M,M,M,44.91,LPMT 301000Z 03012KT CAVOK 10/03 Q1019
LPMT,2017-11-30 11:00,-9.0359,38.7039,51.80,37.40,57.77,30.00,12.00,0.00,30.09,M,6.21,M,M,M,M,M,M,M,M,M,M,M,M,M,M,M,M,51.80,LPMT 301100Z 03012KT CAVOK 11/03 Q1019
LPMT,2017-11-30 12:00,-9.0359,38.7039,53.60,35.60,50.36,30.00,12.00,0.00,30.09,M,6.21,M,M,M,M,M,M,M,M,M,M,M,M,M,M,M,M,53.60,LPMT 301200Z 03012KT CAVOK 12/02 Q1019
LPMT,2017-11-30 13:00,-9.0359,38.7039,55.40,33.80,43.90,20.00,13.00,0.00,30.09,M,6.21,M,M,M,M,M,M,M,M,M,M,M,M,M,M,M,M,55.40,LPMT 301300Z 02013KT CAVOK 13/01 Q1019
LPMT,2017-11-30 14:00,-9.0359,38.7039,57.20,35.60,44.19,10.00,11.00,0.00,30.09,M,6.21,M,M,M,M,M,M,M,M,M,M,M,M,M,M,M,M,57.20,LPMT 301400Z 01011KT CAVOK 14/02 Q1019
LPMT,2017-11-30 15:00,-9.0359,38.7039,57.20,33.80,41.13,40.00,8.00,0.00,30.09,M,6.21,M,M,M,M,M,M,M,M,M,M,M,M,M,M,M,M,57.20,LPMT 301500Z 04008KT 010V070 CAVOK 14/01 Q1019
LPMT,2017-11-30 16:00,-9.0359,38.7039,57.20,33.80,41.13,40.00,7.00,0.00,30.12,M,6.21,M,M,M,M,M,M,M,M,M,M,M,M,M,M,M,M,57.20,LPMT 301600Z 04007KT CAVOK 14/01 Q1020
LPMT,2017-11-30 17:00,-9.0359,38.7039,55.40,37.40,50.64,360.00,7.00,0.00,30.12,M,6.21,M,M,M,M,M,M,M,M,M,M,M,M,M,M,M,M,55.40,LPMT 301700Z 36007KT CAVOK 13/03 Q1020
LPMT,2017-11-30 18:00,-9.0359,38.7039,53.60,37.40,54.07,350.00,7.00,0.00,30.15,M,6.21,M,M,M,M,M,M,M,M,M,M,M,M,M,M,M,M,53.60,LPMT 301800Z 35007KT CAVOK 12/03 Q1021
LPMT,2017-11-30 19:00,-9.0359,38.7039,50.00,39.20,66.27,350.00,6.00,0.00,30.18,M,6.21,M,M,M,M,M,M,M,M,M,M,M,M,M,M,M,M,47.21,LPMT 301900Z 35006KT CAVOK 10/04 Q1022 RMK RH64 BLU
LPMT,2017-11-30 20:00,-9.0359,38.7039,50.00,39.20,66.27,350.00,4.00,0.00,30.18,M,6.21,M,M,M,M,M,M,M,M,M,M,M,M,M,M,M,M,48.44,LPMT 302000Z 35004KT CAVOK 10/04 Q1022
LPMT,2017-11-30 21:00,-9.0359,38.7039,50.00,37.40,61.76,330.00,5.00,0.00,30.21,M,6.21,M,M,M,M,M,M,M,M,M,M,M,M,M,M,M,M,47.77,LPMT 302100Z 33005KT CAVOK 10/03 Q1023
LPMT,2017-11-30 22:00,-9.0359,38.7039,50.00,37.40,61.76,350.00,5.00,0.00,30.24,M,6.21,M,M,M,M,M,M,M,M,M,M,M,M,M,M,M,M,47.77,LPMT 302200Z 35005KT CAVOK 10/03 Q1024
LPMT,2017-11-30 23:00,-9.0359,38.7039,44.60,35.60,70.48,30.00,3.00,0.00,30.24,M,6.21,M,M,M,M,M,M,M,M,M,M,M,M,M,M,M,M,43.09,LPMT 302300Z 03003KT 360V070 CAVOK 07/02 Q1024
LPMT,2017-12-01 00:00,-9.0359,38.7039,46.40,37.40,70.68,40.00,3.00,0.00,30.24,M,6.21,M,M,M,M,M,M,M,M,M,M,M,M,M,M,M,M,45.15,LPMT 010000Z 04003KT CAVOK 08/03 Q1024
LPMT,2017-12-01 02:00,-9.0359,38.7039,42.80,37.40,81.07,120.00,2.00,0.00,30.24,M,6.21,M,M,M,M,M,M,M,M,M,M,M,M,M,M,M,M,42.80,LPMT 010200Z 12002KT CAVOK 06/03 Q1024
LPMT,2017-12-01 03:00,-9.0359,38.7039,39.20,35.60,86.79,M,2.00,0.00,30.24,M,6.21,M,M,M,M,M,M,M,M,M,M,M,M,M,M,M,M,39.20,LPMT 010300Z VRB02KT CAVOK 04/02 Q1024
LPMT,2017-12-01 04:00,-9.0359,38.7039,39.20,37.40,93.19,190.00,2.00,0.00,30.21,M,6.21,M,M,M,M,M,M,M,M,M,M,M,M,M,M,M,M,39.20,LPMT 010400Z 19002KT CAVOK 04/03 Q1023
LPMT,2017-12-01 05:00,-9.0359,38.7039,46.40,37.40,70.68,360.00,8.00,0.00,30.21,M,6.21,M,M,M,M,M,M,M,M,M,M,M,M,M,M,M,M,41.85,LPMT 010500Z 36008KT CAVOK 08/03 Q1023
LPMT,2017-12-01 06:00,-9.0359,38.7039,48.20,35.60,61.52,10.00,10.00,0.00,30.24,M,6.21,M,M,M,M,M,M,M,M,M,M,M,M,M,M,M,M,43.28,LPMT 010600Z 01010KT CAVOK 09/02 Q1024
LPMT,2017-12-01 07:00,-9.0359,38.7039,42.80,35.60,75.50,20.00,5.00,0.00,30.24,M,6.21,M,M,M,M,M,M,M,M,M,M,M,M,M,M,M,M,39.22,LPMT 010700Z 02005KT CAVOK 06/02 Q1024
LPMT,2017-12-01 08:00,-9.0359,38.7039,46.40,39.20,75.84,10.00,7.00,0.00,30.24,M,6.21,M,M,M,M,M,M,M,M,M,M,M,M,M,M,M,M,42.33,LPMT 010800Z 01007KT CAVOK 08/04 Q1024
LPMT,2017-12-01 09:00,-9.0359,38.7039,50.00,42.80,76.18,10.00,9.00,0.00,30.24,M,6.21,M,M,M,M,M,M,M,M,M,M,M,M,M,M,M,M,45.90,LPMT 010900Z 01009KT CAVOK 10/06 Q1024
LPMT,2017-12-01 10:00,-9.0359,38.7039,53.60,39.20,58.02,360.00,8.00,0.00,30.27,M,6.21,M,M,M,M,M,M,M,M,M,M,M,M,M,M,M,M,53.60,LPMT 011000Z 36008KT CAVOK 12/04 Q1025
LPMT,2017-12-01 11:00,-9.0359,38.7039,55.40,37.40,50.64,20.00,8.00,0.00,30.27,M,6.21,M,M,M,M,M,M,M,M,M,M,M,M,M,M,M,M,55.40,LPMT 011100Z 02008KT 350V050 CAVOK 13/03 Q1025
LPMT,2017-12-01 12:00,-9.0359,38.7039,57.20,39.20,50.91,30.00,11.00,0.00,30.27,M,6.21,M,M,M,M,M,M,M,M,M,M,M,M,M,M,M,M,57.20,LPMT 011200Z 03011KT CAVOK 14/04 Q1025
LPMT,2017-12-01 13:00,-9.0359,38.7039,57.20,42.80,58.52,10.00,12.00,0.00,30.24,M,6.21,M,FEW,M,M,M,2500.00,M,M,M,M,M,M,M,M,M,M,57.20,LPMT 011300Z 01012KT 330V040 9999 FEW025 14/06 Q1024
LPMT,2017-12-01 14:00,-9.0359,38.7039,59.00,44.60,58.77,360.00,11.00,0.00,30.21,M,6.21,M,SCT,M,M,M,2500.00,M,M,M,M,M,M,M,M,M,M,59.00,LPMT 011400Z 36011KT 330V030 9999 SCT025 15/07 Q1023
LPMT,2017-12-01 15:00,-9.0359,38.7039,59.00,44.60,58.77,10.00,11.00,0.00,30.21,M,6.21,M,SCT,M,M,M,2500.00,M,M,M,M,M,M,M,M,M,M,59.00,LPMT 011500Z 01011KT 330V030 9999 SCT025 15/07 Q1023
LPMT,2017-12-01 16:00,-9.0359,38.7039,59.00,44.60,58.77,350.00,7.00,0.00,30.18,M,6.21,M,SCT,M,M,M,2500.00,M,M,M,M,M,M,M,M,M,M,59.00,LPMT 011600Z 35007KT 300V020 9999 SCT025 15/07 Q1022
LPMT,2017-12-01 17:00,-9.0359,38.7039,57.20,46.40,67.12,350.00,11.00,0.00,30.21,M,6.21,M,SCT,M,M,M,2500.00,M,M,M,M,M,M,M,M,M,M,57.20,LPMT 011700Z 35011KT 9999 SCT025 14/08 Q1023
LPMT,2017-12-01 18:00,-9.0359,38.7039,55.40,44.60,66.91,360.00,14.00,0.00,30.21,M,6.21,M,SCT,M,M,M,2500.00,M,M,M,M,M,M,M,M,M,M,55.40,LPMT 011800Z 36014KT 9999 SCT025 13/07 Q1023
LPMT,2017-12-01 19:00,-9.0359,38.7039,53.60,46.40,76.50,350.00,8.00,0.00,30.24,M,6.21,M,FEW,M,M,M,2500.00,M,M,M,M,M,M,M,M,M,M,53.60,LPMT 011900Z 35008KT 9999 FEW025 12/08 Q1024
LPMT,2017-12-01 20:00,-9.0359,38.7039,53.60,46.40,76.50,350.00,10.00,0.00,30.24,M,6.21,M,FEW,M,M,M,2500.00,M,M,M,M,M,M,M,M,M,M,53.60,LPMT 012000Z 35010KT 9999 FEW025 12/08 Q1024
LPMT,2017-12-01 21:00,-9.0359,38.7039,53.60,44.60,71.45,350.00,10.00,0.00,30.24,M,6.21,M,FEW,M,M,M,2500.00,M,M,M,M,M,M,M,M,M,M,53.60,LPMT 012100Z 35010KT 9999 FEW025 12/07 Q1024
LPMT,2017-12-01 22:00,-9.0359,38.7039,53.60,42.80,66.70,10.00,8.00,0.00,30.24,M,6.21,M,M,M,M,M,M,M,M,M,M,M,M,M,M,M,M,53.60,LPMT 012200Z 01008KT CAVOK 12/06 Q1024
LPMT,2017-12-01 23:00,-9.0359,38.7039,50.00,44.60,81.61,20.00,7.00,0.00,30.24,M,6.21,M,M,M,M,M,M,M,M,M,M,M,M,M,M,M,M,46.72,LPMT 012300Z 02007KT CAVOK 10/07 Q1024
LPMT,2017-12-02 00:00,-9.0359,38.7039,51.80,42.80,71.26,20.00,10.00,0.00,30.24,M,6.21,M,M,M,M,M,M,M,M,M,M,M,M,M,M,M,M,51.80,LPMT 020000Z 02010KT CAVOK 11/06 Q1024
LPMT,2017-12-02 01:00,-9.0359,38.7039,48.20,42.80,81.47,30.00,8.00,0.00,30.27,M,6.21,M,M,M,M,M,M,M,M,M,M,M,M,M,M,M,M,44.07,LPMT 020100Z 03008KT CAVOK 09/06 Q1025
LPMT,2017-12-02 02:00,-9.0359,38.7039,46.40,42.80,87.19,20.00,8.00,0.00,30.27,M,6.21,M,M,M,M,M,M,M,M,M,M,M,M,M,M,M,M,41.85,LPMT 020200Z 02008KT CAVOK 08/06 Q1025
LPMT,2017-12-02 03:00,-9.0359,38.7039,46.40,42.80,87.19,30.00,8.00,0.00,30.27,M,6.21,M,M,M,M,M,M,M,M,M,M,M,M,M,M,M,M,41.85,LPMT 020300Z 03008KT CAVOK 08/06 Q1025
LPMT,2017-12-02 04:00,-9.0359,38.7039,46.40,41.00,81.34,30.00,6.00,0.00,30.27,M,6.21,M,M,M,M,M,M,M,M,M,M,M,M,M,M,M,M,42.87,LPMT 020400Z 03006KT 010V070 CAVOK 08/05 Q1025
LPMT,2017-12-02 05:00,-9.0359,38.7039,44.60,39.20,81.20,20.00,5.00,0.00,30.27,M,6.21,M,M,M,M,M,M,M,M,M,M,M,M,M,M,M,M,41.36,LPMT 020500Z 02005KT CAVOK 07/04 Q1025
LPMT,2017-12-02 06:00,-9.0359,38.7039,44.60,37.40,75.68,30.00,10.00,0.00,30.27,M,6.21,M,M,M,M,M,M,M,M,M,M,M,M,M,M,M,M,38.77,LPMT 020600Z 03010KT CAVOK 07/03 Q1025
LPMT,2017-12-02 07:00,-9.0359,38.7039,42.80,35.60,75.50,30.00,11.00,0.00,30.30,M,6.21,M,M,M,M,M,M,M,M,M,M,M,M,M,M,M,M,36.11,LPMT 020700Z 03011KT CAVOK 06/02 Q1026
LPMT,2017-12-02 08:00,-9.0359,38.7039,41.00,35.60,80.93,30.00,9.00,0.00,30.30,M,6.21,M,M,M,M,M,M,M,M,M,M,M,M,M,M,M,M,34.70,LPMT 020800Z 03009KT CAVOK 05/02 Q1026
LPMT,2017-12-02 09:00,-9.0359,38.7039,42.80,35.60,75.50,10.00,47.00,0.00,30.33,M,6.21,M,M,M,M,M,M,M,M,M,M,M,M,M,M,M,M,29.26,LPMT 020900Z 010047KT CAVOK 06/02 Q1027
LPMT,2017-12-02 10:00,-9.0359,38.7039,44.60,33.80,65.61,40.00,7.00,0.00,30.33,M,6.21,M,M,M,M,M,M,M,M,M,M,M,M,M,M,M,M,40.14,LPMT 021000Z 04007KT CAVOK 07/01 Q1027
LPMT,2017-12-02 11:00,-9.0359,38.7039,46.40,35.60,65.83,30.00,5.00,0.00,30.36,M,6.21,M,M,M,M,M,M,M,M,M,M,M,M,M,M,M,M,43.50,LPMT 021100Z 03005KT CAVOK 08/02 Q1028
LPMT,2017-12-02 12:00,-9.0359,38.7039,50.00,37.40,61.76,30.00,6.00,0.00,30.33,M,6.21,M,M,M,M,M,M,M,M,M,M,M,M,M,M,M,M,47.21,LPMT 021200Z 03006KT 360V070 CAVOK 10/03 Q1027
LPMT,2017-12-02 13:00,-9.0359,38.7039,51.80,35.60,53.81,10.00,6.00,0.00,30.30,M,6.21,M,M,M,M,M,M,M,M,M,M,M,M,M,M,M,M,51.80,LPMT 021300Z 01006KT 330V040 CAVOK 11/02 Q1026
LPMT,2017-12-02 14:00,-9.0359,38.7039,53.60,33.80,46.88,10.00,8.00,0.00,30.27,M,6.21,M,M,M,M,M,M,M,M,M,M,M,M,M,M,M,M,53.60,LPMT 021400Z 01008KT CAVOK 12/01 Q1025
LPMT,2017-12-02 15:00,-9.0359,38.7039,53.60,33.80,46.88,20.00,6.00,0.00,30.27,M,6.21,M,M,M,M,M,M,M,M,M,M,M,M,M,M,M,M,53.60,LPMT 021500Z 02006KT CAVOK 12/01 Q1025
LPMT,2017-12-02 16:00,-9.0359,38.7039,55.40,28.40,35.28,10.00,7.00,0.00,30.27,M,6.21,M,M,M,M,M,M,M,M,M,M,M,M,M,M,M,M,55.40,LPMT 021600Z 01007KT CAVOK 13/M02 Q1025
LPMT,2017-12-02 17:00,-9.0359,38.7039,51.80,30.20,43.32,30.00,4.00,0.00,30.27,M,6.21,M,M,M,M,M,M,M,M,M,M,M,M,M,M,M,M,51.80,LPMT 021700Z 03004KT CAVOK 11/M01 Q1025
LPMT,2017-12-02 18:00,-9.0359,38.7039,44.60,32.00,61.03,40.00,4.00,0.00,30.27,M,6.21,M,M,M,M,M,M,M,M,M,M,M,M,M,M,M,M,42.13,LPMT 021800Z 04004KT CAVOK 07/M00 Q1025
LPMT,2017-12-02 19:00,-9.0359,38.7039,42.80,32.00,65.38,60.00,5.00,0.00,30.30,M,6.21,M,M,M,M,M,M,M,M,M,M,M,M,M,M,M,M,39.22,LPMT 021900Z 06005KT CAVOK 06/00 Q1026
LPMT,2017-12-02 20:00,-9.0359,38.7039,46.40,37.40,70.68,360.00,5.00,0.00,30.30,M,6.21,M,M,M,M,M,M,M,M,M,M,M,M,M,M,M,M,43.50,LPMT 022000Z 36005KT CAVOK 08/03 Q1026
LPMT,2017-12-02 21:00,-9.0359,38.7039,44.60,39.20,81.20,20.00,5.00,0.00,30.30,M,6.21,M,M,M,M,M,M,M,M,M,M,M,M,M,M,M,M,41.36,LPMT 022100Z 02005KT CAVOK 07/04 Q1026
LPMT,2017-12-02 22:00,-9.0359,38.7039,41.00,37.40,86.89,20.00,7.00,0.00,30.30,M,6.21,M,M,M,M,M,M,M,M,M,M,M,M,M,M,M,M,35.75,LPMT 022200Z 02007KT CAVOK 05/03 Q1026
LPMT,2017-12-02 23:00,-9.0359,38.7039,41.00,35.60,80.93,30.00,6.00,0.00,30.33,M,6.21,M,M,M,M,M,M,M,M,M,M,M,M,M,M,M,M,36.37,LPMT 022300Z 03006KT CAVOK 05/02 Q1027
LPMT,2017-12-03 00:00,-9.0359,38.7039,39.20,35.60,86.79,M,2.00,0.00,30.33,M,6.21,M,M,M,M,M,M,M,M,M,M,M,M,M,M,M,M,39.20,LPMT 030000Z VRB02KT CAVOK 04/02 Q1027
LPMT,2017-12-03 01:00,-9.0359,38.7039,39.20,37.40,93.19,100.00,3.00,0.00,30.33,M,6.21,M,M,M,M,M,M,M,M,M,M,M,M,M,M,M,M,36.92,LPMT 030100Z 10003KT CAVOK 04/03 Q1027
LPMT,2017-12-03 02:00,-9.0359,38.7039,37.40,33.80,86.69,90.00,4.00,0.00,30.33,M,6.21,M,M,M,M,M,M,M,M,M,M,M,M,M,M,M,M,33.73,LPMT 030200Z 09004KT CAVOK 03/01 Q1027
LPMT,2017-12-03 03:00,-9.0359,38.7039,37.40,33.80,86.69,M,2.00,0.00,30.33,M,6.21,M,M,M,M,M,M,M,M,M,M,M,M,M,M,M,M,37.40,LPMT 030300Z VRB02KT CAVOK 03/01 Q1027
LPMT,2017-12-03 04:00,-9.0359,38.7039,37.40,33.80,86.69,70.00,3.00,0.00,30.33,M,6.21,M,M,M,M,M,M,M,M,M,M,M,M,M,M,M,M,34.86,LPMT 030400Z 07003KT 040V100 CAVOK 03/01 Q1027
LPMT,2017-12-03 05:00,-9.0359,38.7039,39.20,35.60,86.79,40.00,7.00,0.00,30.36,M,6.21,M,M,M,M,M,M,M,M,M,M,M,M,M,M,M,M,33.56,LPMT 030500Z 04007KT CAVOK 04/02 Q1028
LPMT,2017-12-03 06:00,-9.0359,38.7039,39.20,35.60,86.79,30.00,9.00,0.00,30.36,M,6.21,M,M,M,M,M,M,M,M,M,M,M,M,M,M,M,M,32.47,LPMT 030600Z 03009KT CAVOK 04/02 Q1028
LPMT,2017-12-03 07:00,-9.0359,38.7039,39.20,35.60,86.79,30.00,6.00,0.00,30.36,M,6.21,M,M,M,M,M,M,M,M,M,M,M,M,M,M,M,M,34.20,LPMT 030700Z 03006KT CAVOK 04/02 Q1028
LPMT,2017-12-03 08:00,-9.0359,38.7039,37.40,33.80,86.69,30.00,9.00,0.00,30.39,M,6.21,M,M,M,M,M,M,M,M,M,M,M,M,M,M,M,M,30.23,LPMT 030800Z 03009KT CAVOK 03/01 Q1029
LPMT,2017-12-03 09:00,-9.0359,38.7039,39.20,35.60,86.79,30.00,8.00,0.00,30.39,M,6.21,M,M,M,M,M,M,M,M,M,M,M,M,M,M,M,M,32.98,LPMT 030900Z 03008KT CAVOK 04/02 Q1029
LPMT,2017-12-03 10:00,-9.0359,38.7039,41.00,35.60,80.93,40.00,9.00,0.00,30.42,M,6.21,M,M,M,M,M,M,M,M,M,M,M,M,M,M,M,M,34.70,LPMT 031000Z 04009KT CAVOK 05/02 Q1030
LPMT,2017-12-03 11:00,-9.0359,38.7039,46.40,35.60,65.83,30.00,7.00,0.00,30.42,M,6.21,M,M,M,M,M,M,M,M,M,M,M,M,M,M,M,M,42.33,LPMT 031100Z 03007KT 360V070 CAVOK 08/02 Q1030
LPMT,2017-12-03 12:00,-9.0359,38.7039,51.80,39.20,61.99,30.00,8.00,0.00,30.39,M,6.21,M,M,M,M,M,M,M,M,M,M,M,M,M,M,M,M,51.80,LPMT 031200Z 03008KT 360V060 CAVOK 11/04 Q1029
LPMT,2017-12-03 13:00,-9.0359,38.7039,53.60,39.20,58.02,10.00,7.00,0.00,30.39,M,6.21,M,M,M,M,M,M,M,M,M,M,M,M,M,M,M,M,53.60,LPMT 031300Z 01007KT CAVOK 12/04 Q1029
LPMT,2017-12-03 14:00,-9.0359,38.7039,55.40,33.80,43.90,30.00,9.00,0.00,30.39,M,6.21,M,M,M,M,M,M,M,M,M,M,M,M,M,M,M,M,55.40,LPMT 031400Z 03009KT CAVOK 13/01 Q1029
LPMT,2017-12-03 15:00,-9.0359,38.7039,57.20,37.40,47.44,20.00,8.00,0.00,30.36,M,6.21,M,M,M,M,M,M,M,M,M,M,M,M,M,M,M,M,57.20,LPMT 031500Z 02008KT 350V050 CAVOK 14/03 Q1028
LPMT,2017-12-03 16:00,-9.0359,38.7039,57.20,32.00,38.26,80.00,7.00,0.00,30.36,M,6.21,M,M,M,M,M,M,M,M,M,M,M,M,M,M,M,M,57.20,LPMT 031600Z 08007KT CAVOK 14/00 Q1028
LPMT,2017-12-03 17:00,-9.0359,38.7039,55.40,35.60,47.16,40.00,7.00,0.00,30.36,M,6.21,M,M,M,M,M,M,M,M,M,M,M,M,M,M,M,M,55.40,LPMT 031700Z 04007KT CAVOK 13/02 Q1028
LPMT,2017-12-03 19:00,-9.0359,38.7039,48.20,39.20,70.88,30.00,7.00,0.00,30.39,M,6.21,M,M,M,M,M,M,M,M,M,M,M,M,M,M,M,M,44.53,LPMT 031900Z 03007KT CAVOK 09/04 Q1029
LPMT,2017-12-03 20:00,-9.0359,38.7039,46.40,33.80,61.28,50.00,5.00,0.00,30.42,M,6.21,M,M,M,M,M,M,M,M,M,M,M,M,M,M,M,M,43.50,LPMT 032000Z 05005KT CAVOK 08/01 Q1030
LPMT,2017-12-03 21:00,-9.0359,38.7039,42.80,32.00,65.38,20.00,6.00,0.00,30.42,M,6.21,M,M,M,M,M,M,M,M,M,M,M,M,M,M,M,M,38.54,LPMT 032100Z 02006KT CAVOK 06/00 Q1030
LPMT,2017-12-03 22:00,-9.0359,38.7039,41.00,35.60,80.93,40.00,4.00,0.00,30.42,M,6.21,M,M,M,M,M,M,M,M,M,M,M,M,M,M,M,M,37.93,LPMT 032200Z 04004KT CAVOK 05/02 Q1030
LPMT,2017-12-03 23:00,-9.0359,38.7039,41.00,33.80,75.33,100.00,3.00,0.00,30.45,M,6.21,M,M,M,M,M,M,M,M,M,M,M,M,M,M,M,M,38.98,LPMT 032300Z 10003KT CAVOK 05/01 Q1031
LPMT,2017-12-04 00:00,-9.0359,38.7039,39.20,33.80,80.79,30.00,8.00,0.00,30.45,M,6.21,M,M,M,M,M,M,M,M,M,M,M,M,M,M,M,M,32.98,LPMT 040000Z 03008KT CAVOK 04/01 Q1031
LPMT,2017-12-04 01:00,-9.0359,38.7039,41.00,33.80,75.33,20.00,7.00,0.00,30.45,M,6.21,M,M,M,M,M,M,M,M,M,M,M,M,M,M,M,M,35.75,LPMT 040100Z 02007KT CAVOK 05/01 Q1031
LPMT,2017-12-04 03:00,-9.0359,38.7039,39.20,35.60,86.79,30.00,9.00,0.00,30.45,M,6.21,M,M,M,M,M,M,M,M,M,M,M,M,M,M,M,M,32.47,LPMT 040300Z 03009KT CAVOK 04/02 Q1031
LPMT,2017-12-04 04:00,-9.0359,38.7039,41.00,35.60,80.93,30.00,9.00,0.00,30.45,M,6.21,M,M,M,M,M,M,M,M,M,M,M,M,M,M,M,M,34.70,LPMT 040400Z 03009KT CAVOK 05/02 Q1031
LPMT,2017-12-04 05:00,-9.0359,38.7039,39.20,33.80,80.79,40.00,7.00,0.00,30.45,M,6.21,M,M,M,M,M,M,M,M,M,M,M,M,M,M,M,M,33.56,LPMT 040500Z 04007KT CAVOK 04/01 Q1031
LPMT,2017-12-04 06:00,-9.0359,38.7039,35.60,32.00,86.59,50.00,5.00,0.00,30.45,M,6.21,M,M,M,M,M,M,M,M,M,M,M,M,M,M,M,M,30.67,LPMT 040600Z 05005KT CAVOK 02/00 Q1031
LPMT,2017-12-04 07:00,-9.0359,38.7039,39.20,33.80,80.79,40.00,9.00,0.00,30.47,M,6.21,M,M,M,M,M,M,M,M,M,M,M,M,M,M,M,M,32.47,LPMT 040700Z 04009KT CAVOK 04/01 Q1032
LPMT,2017-12-04 08:00,-9.0359,38.7039,37.40,33.80,86.69,40.00,9.00,0.00,30.47,M,6.21,M,M,M,M,M,M,M,M,M,M,M,M,M,M,M,M,30.23,LPMT 040800Z 04009KT CAVOK 03/01 Q1032
LPMT,2017-12-04 09:00,-9.0359,38.7039,37.40,33.80,86.69,50.00,8.00,0.00,30.50,M,6.21,M,M,M,M,M,M,M,M,M,M,M,M,M,M,M,M,30.76,LPMT 040900Z 05008KT CAVOK 03/01 Q1033
LPMT,2017-12-04 10:00,-9.0359,38.7039,41.00,32.00,70.08,40.00,10.00,0.00,30.53,M,6.21,M,M,M,M,M,M,M,M,M,M,M,M,M,M,M,M,34.25,LPMT 041000Z 04010KT CAVOK 05/00 Q1034
LPMT,2017-12-04 11:00,-9.0359,38.7039,44.60,33.80,65.61,40.00,9.00,0.00,30.53,M,6.21,M,M,M,M,M,M,M,M,M,M,M,M,M,M,M,M,39.18,LPMT 041100Z 04009KT CAVOK 07/01 Q1034
LPMT,2017-12-04 12:00,-9.0359,38.7039,50.00,35.60,57.52,10.00,6.00,0.00,30.50,M,6.21,M,M,M,M,M,M,M,M,M,M,M,M,M,M,M,M,47.21,LPMT 041200Z 01006KT 340V040 CAVOK 10/02 Q1033
LPMT,2017-12-04 13:00,-9.0359,38.7039,53.60,39.20,58.02,360.00,9.00,0.00,30.47,M,6.21,M,M,M,M,M,M,M,M,M,M,M,M,M,M,M,M,53.60,LPMT 041300Z 36009KT CAVOK 12/04 Q1032
LPMT,2017-12-04 14:00,-9.0359,38.7039,57.20,37.40,47.44,20.00,10.00,0.00,30.45,M,6.21,M,M,M,M,M,M,M,M,M,M,M,M,M,M,M,M,57.20,LPMT 041400Z 02010KT CAVOK 14/03 Q1031
LPMT,2017-12-04 15:00,-9.0359,38.7039,57.20,39.20,50.91,360.00,7.00,0.00,30.45,M,6.21,M,M,M,M,M,M,M,M,M,M,M,M,M,M,M,M,57.20,LPMT 041500Z 36007KT CAVOK 14/04 Q1031
LPMT,2017-12-04 16:00,-9.0359,38.7039,59.00,33.80,38.56,40.00,10.00,0.00,30.45,M,6.21,M,M,M,M,M,M,M,M,M,M,M,M,M,M,M,M,59.00,LPMT 041600Z 04010KT CAVOK 15/01 Q1031
LPMT,2017-12-04 17:00,-9.0359,38.7039,55.40,33.80,43.90,50.00,9.00,0.00,30.45,M,6.21,M,M,M,M,M,M,M,M,M,M,M,M,M,M,M,M,55.40,LPMT 041700Z 05009KT CAVOK 13/01 Q1031
LPMT,2017-12-04 18:00,-9.0359,38.7039,51.80,33.80,50.08,50.00,5.00,0.00,30.47,M,6.21,M,M,M,M,M,M,M,M,M,M,M,M,M,M,M,M,51.80,LPMT 041800Z 05005KT CAVOK 11/01 Q1032
LPMT,2017-12-04 19:00,-9.0359,38.7039,48.20,32.00,53.27,20.00,6.00,0.00,30.47,M,6.21,M,M,M,M,M,M,M,M,M,M,M,M,M,M,M,M,45.04,LPMT 041900Z 02006KT CAVOK 09/M00 Q1032
LPMT,2017-12-04 20:00,-9.0359,38.7039,46.40,39.20,75.84,20.00,7.00,0.00,30.50,M,6.21,M,M,M,M,M,M,M,M,M,M,M,M,M,M,M,M,42.33,LPMT 042000Z 02007KT CAVOK 08/04 Q1033
LPMT,2017-12-04 21:00,-9.0359,38.7039,44.60,39.20,81.20,30.00,7.00,0.00,30.50,M,6.21,M,M,M,M,M,M,M,M,M,M,M,M,M,M,M,M,40.14,LPMT 042100Z 03007KT CAVOK 07/04 Q1033
LPMT,2017-12-04 22:00,-9.0359,38.7039,44.60,37.40,75.68,30.00,9.00,0.00,30.50,M,6.21,M,M,M,M,M,M,M,M,M,M,M,M,M,M,M,M,39.18,LPMT 042200Z 03009KT CAVOK 07/03 Q1033
LPMT,2017-12-04 23:00,-9.0359,38.7039,42.80,33.80,70.28,40.00,5.00,0.00,30.50,M,6.21,M,M,M,M,M,M,M,M,M,M,M,M,M,M,M,M,39.22,LPMT 042300Z 04005KT CAVOK 06/01 Q1033
LPMT,2017-12-05 00:00,-9.0359,38.7039,39.20,35.60,86.79,M,2.00,0.00,30.50,M,6.21,M,M,M,M,M,M,M,M,M,M,M,M,M,M,M,M,39.20,LPMT 050000Z VRB02KT CAVOK 04/02 Q1033
LPMT,2017-12-05 01:00,-9.0359,38.7039,42.80,35.60,75.50,30.00,7.00,0.00,30.50,M,6.21,M,M,M,M,M,M,M,M,M,M,M,M,M,M,M,M,37.94,LPMT 050100Z 03007KT CAVOK 06/02 Q1033
LPMT,2017-12-05 02:00,-9.0359,38.7039,44.60,35.60,70.48,20.00,11.00,0.00,30.50,M,6.21,M,M,M,M,M,M,M,M,M,M,M,M,M,M,M,M,38.39,LPMT 050200Z 02011KT CAVOK 07/02 Q1033
LPMT,2017-12-05 03:00,-9.0359,38.7039,42.80,35.60,75.50,40.00,7.00,0.00,30.50,M,6.21,M,M,M,M,M,M,M,M,M,M,M,M,M,M,M,M,37.94,LPMT 050300Z 04007KT CAVOK 06/02 Q1033
LPMT,2017-12-05 04:00,-9.0359,38.7039,41.00,35.60,80.93,50.00,6.00,0.00,30.50,M,6.21,M,M,M,M,M,M,M,M,M,M,M,M,M,M,M,M,36.37,LPMT 050400Z 05006KT CAVOK 05/02 Q1033
LPMT,2017-12-05 05:00,-9.0359,38.7039,39.20,33.80,80.79,50.00,4.00,0.00,30.50,M,6.21,M,M,M,M,M,M,M,M,M,M,M,M,M,M,M,M,35.83,LPMT 050500Z 05004KT CAVOK 04/01 Q1033
LPMT,2017-12-05 06:00,-9.0359,38.7039,39.20,33.80,80.79,40.00,7.00,0.00,30.50,M,6.21,M,M,M,M,M,M,M,M,M,M,M,M,M,M,M,M,33.56,LPMT 050600Z 04007KT CAVOK 04/01 Q1033
LPMT,2017-12-05 07:00,-9.0359,38.7039,37.40,33.80,86.69,30.00,6.00,0.00,30.50,M,6.21,M,M,M,M,M,M,M,M,M,M,M,M,M,M,M,M,32.03,LPMT 050700Z 03006KT CAVOK 03/01 Q1033
LPMT,2017-12-05 08:00,-9.0359,38.7039,39.20,33.80,80.79,30.00,7.00,0.00,30.53,M,6.21,M,M,M,M,M,M,M,M,M,M,M,M,M,M,M,M,33.56,LPMT 050800Z 03007KT CAVOK 04/01 Q1034
LPMT,2017-12-05 09:00,-9.0359,38.7039,41.00,35.60,80.93,30.00,7.00,0.00,30.53,M,6.21,M,M,M,M,M,M,M,M,M,M,M,M,M,M,M,M,35.75,LPMT 050900Z 03007KT CAVOK 05/02 Q1034
LPMT,2017-12-05 10:00,-9.0359,38.7039,42.80,35.60,75.50,40.00,7.00,0.00,30.56,M,6.21,M,M,M,M,M,M,M,M,M,M,M,M,M,M,M,M,37.94,LPMT 051000Z 04007KT CAVOK 06/02 Q1035
LPMT,2017-12-05 11:00,-9.0359,38.7039,46.40,37.40,70.68,30.00,7.00,0.00,30.56,M,6.21,M,M,M,M,M,M,M,M,M,M,M,M,M,M,M,M,42.33,LPMT 051100Z 03007KT CAVOK 08/03 Q1035
LPMT,2017-12-05 12:00,-9.0359,38.7039,50.00,39.20,66.27,30.00,7.00,0.00,30.53,M,6.21,M,M,M,M,M,M,M,M,M,M,M,M,M,M,M,M,46.72,LPMT 051200Z 03007KT CAVOK 10/04 Q1034
LPMT,2017-12-05 13:00,-9.0359,38.7039,51.80,37.40,57.77,360.00,7.00,0.00,30.50,M,6.21,M,M,M,M,M,M,M,M,M,M,M,M,M,M,M,M,51.80,LPMT 051300Z 36007KT CAVOK 11/03 Q1033
LPMT,2017-12-05 14:00,-9.0359,38.7039,53.60,37.40,54.07,20.00,6.00,0.00,30.50,M,6.21,M,M,M,M,M,M,M,M,M,M,M,M,M,M,M,M,53.60,LPMT 051400Z 02006KT 330V040 CAVOK 12/03 Q1033
LPMT,2017-12-05 15:00,-9.0359,38.7039,55.40,39.20,54.34,30.00,6.00,0.00,30.47,M,6.21,M,M,M,M,M,M,M,M,M,M,M,M,M,M,M,M,55.40,LPMT 051500Z 03006KT CAVOK 13/04 Q1032
LPMT,2017-12-05 16:00,-9.0359,38.7039,55.40,39.20,54.34,10.00,6.00,0.00,30.47,M,6.21,M,M,M,M,M,M,M,M,M,M,M,M,M,M,M,M,55.40,LPMT 051600Z 01006KT CAVOK 13/04 Q1032
LPMT,2017-12-05 17:00,-9.0359,38.7039,53.60,41.00,62.23,340.00,5.00,0.00,30.47,M,6.21,M,M,M,M,M,M,M,M,M,M,M,M,M,M,M,M,53.60,LPMT 051700Z 34005KT CAVOK 12/05 Q1032
LPMT,2017-12-05 18:00,-9.0359,38.7039,50.00,41.00,71.07,350.00,5.00,0.00,30.47,M,6.21,M,M,M,M,M,M,M,M,M,M,M,M,M,M,M,M,47.77,LPMT 051800Z 35005KT CAVOK 10/05 Q1032
LPMT,2017-12-05 19:00,-9.0359,38.7039,48.20,41.00,76.01,360.00,4.00,0.00,30.50,M,6.21,M,M,M,M,M,M,M,M,M,M,M,M,M,M,M,M,46.34,LPMT 051900Z 36004KT CAVOK 09/05 Q1033
LPMT,2017-12-05 20:00,-9.0359,38.7039,44.60,42.80,93.35,130.00,3.00,0.00,30.50,M,6.21,M,M,M,M,M,M,M,M,M,M,M,M,M,M,M,M,43.09,LPMT 052000Z 13003KT 090V150 CAVOK 07/06 Q1033
LPMT,2017-12-05 21:00,-9.0359,38.7039,41.00,39.20,93.24,M,2.00,0.00,30.50,M,6.21,M,M,M,M,M,M,M,M,M,M,M,M,M,M,M,M,41.00,LPMT 052100Z VRB02KT CAVOK 05/04 Q1033
LPMT,2017-12-05 22:00,-9.0359,38.7039,42.80,39.20,86.99,30.00,4.00,0.00,30.50,M,6.21,M,M,M,M,M,M,M,M,M,M,M,M,M,M,M,M,40.03,LPMT 052200Z 03004KT CAVOK 06/04 Q1033
LPMT,2017-12-05 23:00,-9.0359,38.7039,41.00,39.20,93.24,30.00,5.00,0.00,30.50,M,6.21,M,M,M,M,M,M,M,M,M,M,M,M,M,M,M,M,37.08,LPMT 052300Z 03005KT CAVOK 05/04 Q1033
LPMT,2017-12-06 00:00,-9.0359,38.7039,39.20,37.40,93.19,30.00,6.00,0.00,30.50,M,6.21,M,M,M,M,M,M,M,M,M,M,M,M,M,M,M,M,34.20,LPMT 060000Z 03006KT CAVOK 04/03 Q1033
LPMT,2017-12-06 01:00,-9.0359,38.7039,39.20,37.40,93.19,40.00,7.00,0.00,30.50,M,6.21,M,M,M,M,M,M,M,M,M,M,M,M,M,M,M,M,33.56,LPMT 060100Z 04007KT CAVOK 04/03 Q1033
LPMT,2017-12-06 02:00,-9.0359,38.7039,39.20,37.40,93.19,40.00,5.00,0.00,30.50,M,6.21,M,M,M,M,M,M,M,M,M,M,M,M,M,M,M,M,34.95,LPMT 060200Z 04005KT CAVOK 04/03 Q1033
LPMT,2017-12-06 03:00,-9.0359,38.7039,39.20,37.40,93.19,40.00,6.00,0.00,30.50,M,6.21,M,M,M,M,M,M,M,M,M,M,M,M,M,M,M,M,34.20,LPMT 060300Z 04006KT CAVOK 04/03 Q1033
LPMT,2017-12-06 04:00,-9.0359,38.7039,39.20,37.40,93.19,40.00,7.00,0.00,30.50,M,6.21,M,M,M,M,M,M,M,M,M,M,M,M,M,M,M,M,33.56,LPMT 060400Z 04007KT CAVOK 04/03 Q1033
LPMT,2017-12-06 05:00,-9.0359,38.7039,37.40,35.60,93.14,50.00,6.00,0.00,30.47,M,6.21,M,M,M,M,M,M,M,M,M,M,M,M,M,M,M,M,32.03,LPMT 060500Z 05006KT CAVOK 03/02 Q1032
LPMT,2017-12-06 06:00,-9.0359,38.7039,37.40,35.60,93.14,50.00,7.00,0.00,30.47,M,6.21,M,M,M,M,M,M,M,M,M,M,M,M,M,M,M,M,31.36,LPMT 060600Z 05007KT CAVOK 03/02 Q1032
LPMT,2017-12-06 07:00,-9.0359,38.7039,35.60,33.80,93.08,70.00,4.00,0.00,30.50,M,6.21,M,M,M,M,M,M,M,M,M,M,M,M,M,M,M,M,31.62,LPMT 060700Z 07004KT CAVOK 02/01 Q1033
LPMT,2017-12-06 08:00,-9.0359,38.7039,35.60,33.80,93.08,60.00,4.00,0.00,30.50,M,6.21,M,M,M,M,M,M,M,M,M,M,M,M,M,M,M,M,31.62,LPMT 060800Z 06004KT CAVOK 02/01 Q1033
LPMT,2017-12-06 09:00,-9.0359,38.7039,39.20,35.60,86.79,40.00,6.00,0.00,30.50,M,6.21,M,M,M,M,M,M,M,M,M,M,M,M,M,M,M,M,34.20,LPMT 060900Z 04006KT CAVOK 04/02 Q1033
LPMT,2017-12-06 10:00,-9.0359,38.7039,42.80,37.40,81.07,40.00,7.00,0.00,30.50,M,6.21,M,M,M,M,M,M,M,M,M,M,M,M,M,M,M,M,37.94,LPMT 061000Z 04007KT CAVOK 06/03 Q1033
LPMT,2017-12-06 11:00,-9.0359,38.7039,46.40,37.40,70.68,40.00,5.00,0.00,30.50,M,6.21,M,M,M,M,M,M,M,M,M,M,M,M,M,M,M,M,43.50,LPMT 061100Z 04005KT CAVOK 08/03 Q1033
LPMT,2017-12-06 12:00,-9.0359,38.7039,48.20,39.20,70.88,30.00,5.00,0.00,30.50,M,6.21,M,M,M,M,M,M,M,M,M,M,M,M,M,M,M,M,45.63,LPMT 061200Z 03005KT 360V060 CAVOK 09/04 Q1033
LPMT,2017-12-06 13:00,-9.0359,38.7039,51.80,41.00,66.48,10.00,5.00,0.00,30.47,M,6.21,M,M,M,M,M,M,M,M,M,M,M,M,M,M,M,M,51.80,LPMT 061300Z 01005KT CAVOK 11/05 Q1032
LPMT,2017-12-06 14:00,-9.0359,38.7039,53.60,41.00,62.23,360.00,5.00,0.00,30.47,M,6.21,M,M,M,M,M,M,M,M,M,M,M,M,M,M,M,M,53.60,LPMT 061400Z 36005KT CAVOK 12/05 Q1032
LPMT,2017-12-06 15:00,-9.0359,38.7039,53.60,41.00,62.23,20.00,6.00,0.00,30.45,M,6.21,M,M,M,M,M,M,M,M,M,M,M,M,M,M,M,M,53.60,LPMT 061500Z 02006KT CAVOK 12/05 Q1031
LPMT,2017-12-06 16:00,-9.0359,38.7039,51.80,42.80,71.26,360.00,5.00,0.00,30.45,M,6.21,M,M,M,M,M,M,M,M,M,M,M,M,M,M,M,M,51.80,LPMT 061600Z 36005KT CAVOK 11/06 Q1031
LPMT,2017-12-06 17:00,-9.0359,38.7039,53.60,42.80,66.70,350.00,5.00,0.00,30.45,M,6.21,M,M,M,M,M,M,M,M,M,M,M,M,M,M,M,M,53.60,LPMT 061700Z 35005KT CAVOK 12/06 Q1031
LPMT,2017-12-06 18:00,-9.0359,38.7039,50.00,42.80,76.18,10.00,5.00,0.00,30.45,M,6.21,M,M,M,M,M,M,M,M,M,M,M,M,M,M,M,M,47.77,LPMT 061800Z 01005KT CAVOK 10/06 Q1031
LPMT,2017-12-06 19:00,-9.0359,38.7039,44.60,42.80,93.35,10.00,4.00,0.00,30.45,M,6.21,M,M,M,M,M,M,M,M,M,M,M,M,M,M,M,M,42.13,LPMT 061900Z 01004KT CAVOK 07/06 Q1031
LPMT,2017-12-06 20:00,-9.0359,38.7039,41.00,39.20,93.24,M,2.00,0.00,30.45,M,6.21,M,M,M,M,M,M,M,M,M,M,M,M,M,M,M,M,41.00,LPMT 062000Z VRB02KT CAVOK 05/04 Q1031
LPMT,2017-12-06 21:00,-9.0359,38.7039,41.00,39.20,93.24,120.00,2.00,0.00,30.45,M,6.21,M,M,M,M,M,M,M,M,M,M,M,M,M,M,M,M,41.00,LPMT 062100Z 12002KT CAVOK 05/04 Q1031
LPMT,2017-12-06 22:00,-9.0359,38.7039,41.00,39.20,93.24,130.00,2.00,0.00,30.47,M,6.21,M,M,M,M,M,M,M,M,M,M,M,M,M,M,M,M,41.00,LPMT 062200Z 13002KT CAVOK 05/04 Q1032
LPMT,2017-12-06 23:00,-9.0359,38.7039,41.00,39.20,93.24,110.00,3.00,0.00,30.47,M,6.21,M,M,M,M,M,M,M,M,M,M,M,M,M,M,M,M,38.98,LPMT 062300Z 11003KT CAVOK 05/04 Q1032
LPMT,2017-12-07 00:00,-9.0359,38.7039,42.80,41.00,93.30,100.00,2.00,0.00,30.47,M,6.21,M,M,M,M,M,M,M,M,M,M,M,M,M,M,M,M,42.80,LPMT 070000Z 10002KT CAVOK 06/05 Q1032
LPMT,2017-12-07 01:00,-9.0359,38.7039,41.00,39.20,93.24,40.00,2.00,0.00,30.45,M,6.21,M,M,M,M,M,M,M,M,M,M,M,M,M,M,M,M,41.00,LPMT 070100Z 04002KT CAVOK 05/04 Q1031
LPMT,2017-12-07 02:00,-9.0359,38.7039,41.00,39.20,93.24,20.00,5.00,0.00,30.45,M,6.21,M,M,M,M,M,M,M,M,M,M,M,M,M,M,M,M,37.08,LPMT 070200Z 02005KT CAVOK 05/04 Q1031
LPMT,2017-12-07 03:00,-9.0359,38.7039,41.00,39.20,93.24,30.00,4.00,0.00,30.45,M,6.21,M,M,M,M,M,M,M,M,M,M,M,M,M,M,M,M,37.93,LPMT 070300Z 03004KT CAVOK 05/04 Q1031
LPMT,2017-12-07 04:00,-9.0359,38.7039,37.40,35.60,93.14,50.00,3.00,0.00,30.45,M,6.21,M,M,M,M,M,M,M,M,M,M,M,M,M,M,M,M,34.86,LPMT 070400Z 05003KT CAVOK 03/02 Q1031
LPMT,2017-12-07 05:00,-9.0359,38.7039,35.60,33.80,93.08,40.00,4.00,0.00,30.45,M,6.21,M,M,M,M,M,M,M,M,M,M,M,M,M,M,M,M,31.62,LPMT 070500Z 04004KT CAVOK 02/01 Q1031
LPMT,2017-12-07 06:00,-9.0359,38.7039,39.20,37.40,93.19,90.00,4.00,0.00,30.45,M,6.21,M,M,M,M,M,M,M,M,M,M,M,M,M,M,M,M,35.83,LPMT 070600Z 09004KT CAVOK 04/03 Q1031
LPMT,2017-12-07 07:00,-9.0359,38.7039,37.40,35.60,93.14,80.00,4.00,0.00,30.45,M,6.21,M,M,M,M,M,M,M,M,M,M,M,M,M,M,M,M,33.73,LPMT 070700Z 08004KT CAVOK 03/02 Q1031
LPMT,2017-12-07 08:00,-9.0359,38.7039,35.60,33.80,93.08,60.00,3.00,0.00,30.45,M,4.97,M,NSC,M,M,M,M,M,M,M,M,M,M,M,M,M,M,32.80,LPMT 070800Z 06003KT 8000 NSC 02/01 Q1031
LPMT,2017-12-07 09:00,-9.0359,38.7039,41.00,39.20,93.24,60.00,3.00,0.00,30.47,M,5.59,M,NSC,M,M,M,M,M,M,M,M,M,M,M,M,M,M,38.98,LPMT 070900Z 06003KT 9000 NSC 05/04 Q1032
LPMT,2017-12-07 10:00,-9.0359,38.7039,44.60,39.20,81.20,40.00,4.00,0.00,30.50,M,6.21,M,M,M,M,M,M,M,M,M,M,M,M,M,M,M,M,42.13,LPMT 071000Z 04004KT CAVOK 07/04 Q1033
LPMT,2017-12-07 11:00,-9.0359,38.7039,46.40,37.40,70.68,50.00,6.00,0.00,30.50,M,6.21,M,M,M,M,M,M,M,M,M,M,M,M,M,M,M,M,42.87,LPMT 071100Z 05006KT CAVOK 08/03 Q1033
LPMT,2017-12-07 12:00,-9.0359,38.7039,51.80,39.20,61.99,20.00,6.00,0.00,30.47,M,6.21,M,M,M,M,M,M,M,M,M,M,M,M,M,M,M,M,51.80,LPMT 071200Z 02006KT 340V040 CAVOK 11/04 Q1032
LPMT,2017-12-07 13:00,-9.0359,38.7039,53.60,39.20,58.02,20.00,5.00,0.00,30.45,M,6.21,M,M,M,M,M,M,M,M,M,M,M,M,M,M,M,M,53.60,LPMT 071300Z 02005KT 350V080 CAVOK 12/04 Q1031
LPMT,2017-12-07 14:00,-9.0359,38.7039,53.60,39.20,58.02,340.00,4.00,0.00,30.45,M,6.21,M,M,M,M,M,M,M,M,M,M,M,M,M,M,M,M,53.60,LPMT 071400Z 34004KT 310V010 CAVOK 12/04 Q1031
LPMT,2017-12-07 15:00,-9.0359,38.7039,57.20,35.60,44.19,M,2.00,0.00,30.42,M,6.21,M,M,M,M,M,M,M,M,M,M,M,M,M,M,M,M,57.20,LPMT 071500Z VRB02KT CAVOK 14/02 Q1030
LPMT,2017-12-07 16:00,-9.0359,38.7039,55.40,39.20,54.34,170.00,2.00,0.00,30.42,M,6.21,M,M,M,M,M,M,M,M,M,M,M,M,M,M,M,M,55.40,LPMT 071600Z 17002KT CAVOK 13/04 Q1030
LPMT,2017-12-07 17:00,-9.0359,38.7039,51.80,44.60,76.34,300.00,3.00,0.00,30.42,M,6.21,M,M,M,M,M,M,M,M,M,M,M,M,M,M,M,M,51.80,LPMT 071700Z 30003KT CAVOK 11/07 Q1030
LPMT,2017-12-07 18:00,-9.0359,38.7039,46.40,41.00,81.34,270.00,2.00,0.00,30.45,M,6.21,M,M,M,M,M,M,M,M,M,M,M,M,M,M,M,M,46.40,LPMT 071800Z 27002KT CAVOK 08/05 Q1031
LPMT,2017-12-07 19:00,-9.0359,38.7039,44.60,39.20,81.20,M,2.00,0.00,30.45,M,6.21,M,M,M,M,M,M,M,M,M,M,M,M,M,M,M,M,44.60,LPMT 071900Z VRB02KT CAVOK 07/04 Q1031
LPMT,2017-12-07 20:00,-9.0359,38.7039,42.80,41.00,93.30,200.00,2.00,0.00,30.45,M,6.21,M,M,M,M,M,M,M,M,M,M,M,M,M,M,M,M,42.80,LPMT 072000Z 20002KT CAVOK 06/05 Q1031
LPMT,2017-12-07 21:00,-9.0359,38.7039,44.60,41.00,87.09,130.00,2.00,0.00,30.45,M,6.21,M,M,M,M,M,M,M,M,M,M,M,M,M,M,M,M,44.60,LPMT 072100Z 13002KT CAVOK 07/05 Q1031
LPMT,2017-12-07 22:00,-9.0359,38.7039,44.60,41.00,87.09,120.00,3.00,0.00,30.45,M,6.21,M,M,M,M,M,M,M,M,M,M,M,M,M,M,M,M,43.09,LPMT 072200Z 12003KT CAVOK 07/05 Q1031
LPMT,2017-12-07 23:00,-9.0359,38.7039,44.60,41.00,87.09,130.00,2.00,0.00,30.45,M,6.21,M,M,M,M,M,M,M,M,M,M,M,M,M,M,M,M,44.60,LPMT 072300Z 13002KT CAVOK 07/05 Q1031
LPMT,2017-12-08 00:00,-9.0359,38.7039,44.60,42.80,93.35,100.00,2.00,0.00,30.45,M,6.21,M,M,M,M,M,M,M,M,M,M,M,M,M,M,M,M,44.60,LPMT 080000Z 10002KT CAVOK 07/06 Q1031
LPMT,2017-12-08 01:00,-9.0359,38.7039,46.40,42.80,87.19,M,1.00,0.00,30.45,M,6.21,M,M,M,M,M,M,M,M,M,M,M,M,M,M,M,M,46.40,LPMT 080100Z VRB01KT CAVOK 08/06 Q1031
LPMT,2017-12-08 02:00,-9.0359,38.7039,44.60,42.80,93.35,120.00,2.00,0.00,30.42,M,6.21,M,M,M,M,M,M,M,M,M,M,M,M,M,M,M,M,44.60,LPMT 080200Z 12002KT CAVOK 07/06 Q1030
LPMT,2017-12-08 04:00,-9.0359,38.7039,42.80,41.00,93.30,70.00,4.00,0.00,30.42,M,6.21,M,M,M,M,M,M,M,M,M,M,M,M,M,M,M,M,40.03,LPMT 080400Z 07004KT CAVOK 06/05 Q1030
LPMT,2017-12-08 05:00,-9.0359,38.7039,42.80,41.00,93.30,90.00,2.00,0.00,30.42,M,5.59,M,NSC,M,M,M,M,M,M,M,M,M,M,M,M,M,M,42.80,LPMT 080500Z 09002KT 9000 NSC 06/05 Q1030
LPMT,2017-12-08 06:00,-9.0359,38.7039,44.60,42.80,93.35,110.00,4.00,0.00,30.42,M,5.59,M,NSC,M,M,M,M,M,M,M,M,M,M,M,M,M,M,42.13,LPMT 080600Z 11004KT 9000 NSC 07/06 Q1030
LPMT,2017-12-08 07:00,-9.0359,38.7039,48.20,44.60,87.28,100.00,2.00,0.00,30.42,M,5.59,M,BKN,M,M,M,4000.00,M,M,M,M,M,M,M,M,M,M,48.20,LPMT 080700Z 10002KT 9000 BKN040 09/07 Q1030
LPMT,2017-12-08 08:00,-9.0359,38.7039,48.20,44.60,87.28,70.00,2.00,0.00,30.42,M,3.11,M,BKN,BKN,M,M,2600.00,4000.00,M,M,BR,M,M,M,M,M,M,48.20,LPMT 080800Z 07002KT 5000 BR BKN026 BKN040 09/07 Q1030
LPMT,2017-12-08 09:00,-9.0359,38.7039,50.00,46.40,87.37,120.00,3.00,0.00,30.42,M,3.11,M,FEW,BKN,M,M,900.00,1300.00,M,M,BR,M,M,M,M,M,M,49.27,LPMT 080900Z 12003KT 090V150 5000 BR FEW009 BKN013 10/08 Q1030
LPMT,2017-12-08 10:00,-9.0359,38.7039,51.80,48.20,87.47,120.00,2.00,0.00,30.45,M,3.11,M,BKN,BKN,M,M,900.00,1200.00,M,M,-DZ BR,M,M,M,M,M,M,51.80,LPMT 081000Z 12002KT 5000 -DZ BR BKN009 BKN012 11/09 Q1031
LPMT,2017-12-08 11:00,-9.0359,38.7039,51.80,50.00,93.55,M,1.00,0.00,30.45,M,2.49,M,BKN,BKN,M,M,900.00,1500.00,M,M,-DZ BR,M,M,M,M,M,M,51.80,LPMT 081100Z VRB01KT 4000 -DZ BR BKN009 BKN015 11/10 Q1031
LPMT,2017-12-08 12:00,-9.0359,38.7039,53.60,53.60,100.00,M,1.00,0.00,30.42,M,1.24,M,BKN,BKN,M,M,900.00,2000.00,M,M,-DZ BR,M,M,M,M,M,M,53.60,LPMT 081200Z VRB01KT 2000 -DZ BR BKN009 BKN020 12/12 Q1030
LPMT,2017-12-08 13:00,-9.0359,38.7039,55.40,53.60,93.65,M,2.00,0.00,30.39,M,0.93,M,BKN,BKN,M,M,500.00,1500.00,M,M,-DZ BR,M,M,M,M,M,M,55.40,LPMT 081300Z VRB02KT 1500 -DZ BR BKN005 BKN015 13/12 Q1029
LPMT,2017-12-08 14:00,-9.0359,38.7039,59.00,57.20,93.74,M,2.00,0.00,30.36,M,0.93,M,SCT,BKN,M,M,800.00,1500.00,M,M,BR,M,M,M,M,M,M,59.00,LPMT 081400Z VRB02KT 1500 BR SCT008 BKN015 15/14 Q1028
LPMT,2017-12-08 15:00,-9.0359,38.7039,59.00,57.20,93.74,270.00,3.00,0.00,30.36,M,1.86,M,SCT,BKN,M,M,800.00,1500.00,M,M,BR,M,M,M,M,M,M,59.00,LPMT 081500Z 27003KT 250V310 3000 BR SCT008 BKN015 15/14 Q1028
LPMT,2017-12-08 16:00,-9.0359,38.7039,55.40,53.60,93.65,350.00,4.00,0.00,30.39,M,0.93,M,SCT,BKN,M,M,800.00,1500.00,M,M,BR,M,M,M,M,M,M,55.40,LPMT 081600Z 35004KT 1500 BR SCT008 BKN015 13/12 Q1029
LPMT,2017-12-08 17:00,-9.0359,38.7039,53.60,51.80,93.60,10.00,7.00,0.00,30.39,M,0.93,M,BKN,BKN,M,M,800.00,1500.00,M,M,BR,M,M,M,M,M,M,53.60,LPMT 081700Z 01007KT 1500 BR BKN008 BKN015 12/11 Q1029
LPMT,2017-12-08 18:00,-9.0359,38.7039,53.60,51.80,93.60,10.00,6.00,0.00,30.39,M,0.93,M,SCT,BKN,M,M,800.00,1500.00,M,M,BR,M,M,M,M,M,M,53.60,LPMT 081800Z 01006KT 1500 BR SCT008 BKN015 12/11 Q1029
LPMT,2017-12-08 19:00,-9.0359,38.7039,55.40,53.60,93.65,350.00,3.00,0.00,30.39,M,1.86,M,SCT,BKN,M,M,800.00,1800.00,M,M,BR,M,M,M,M,M,M,55.40,LPMT 081900Z 35003KT 3000 BR SCT008 BKN018 13/12 Q1029
LPMT,2017-12-08 20:00,-9.0359,38.7039,57.20,55.40,93.69,330.00,3.00,0.00,30.42,M,3.11,M,FEW,BKN,M,M,800.00,1800.00,M,M,BR,M,M,M,M,M,M,57.20,LPMT 082000Z 33003KT 5000 BR FEW008 BKN018 14/13 Q1030
LPMT,2017-12-08 21:00,-9.0359,38.7039,55.40,55.40,100.00,M,1.00,0.00,30.42,M,5.59,M,FEW,BKN,M,M,800.00,1800.00,M,M,M,M,M,M,M,M,M,55.40,LPMT 082100Z VRB01KT 9000 FEW008 BKN018 13/13 Q1030
LPMT,2017-12-08 22:00,-9.0359,38.7039,55.40,55.40,100.00,280.00,3.00,0.00,30.42,M,5.59,M,FEW,SCT,M,M,800.00,1500.00,M,M,M,M,M,M,M,M,M,55.40,LPMT 082200Z 28003KT 9000 FEW008 SCT015 13/13 Q1030
LPMT,2017-12-08 23:00,-9.0359,38.7039,57.20,55.40,93.69,270.00,3.00,0.00,30.42,M,6.21,M,FEW,SCT,M,M,800.00,1500.00,M,M,M,M,M,M,M,M,M,57.20,LPMT 082300Z 27003KT 250V320 9999 FEW008 SCT015 14/13 Q1030
LPMT,2017-12-09 00:00,-9.0359,38.7039,57.20,55.40,93.69,240.00,5.00,0.00,30.39,M,6.21,M,FEW,BKN,M,M,800.00,2000.00,M,M,M,M,M,M,M,M,M,57.20,LPMT 090000Z 24005KT 9999 FEW008 BKN020 14/13 Q1029
LPMT,2017-12-09 01:00,-9.0359,38.7039,57.20,55.40,93.69,240.00,4.00,0.00,30.39,M,6.21,M,FEW,BKN,M,M,800.00,2000.00,M,M,M,M,M,M,M,M,M,57.20,LPMT 090100Z 24004KT 9999 FEW008 BKN020 14/13 Q1029
LPMT,2017-12-09 02:00,-9.0359,38.7039,59.00,57.20,93.74,250.00,6.00,0.00,30.39,M,6.21,M,FEW,BKN,M,M,800.00,2000.00,M,M,M,M,M,M,M,M,M,59.00,LPMT 090200Z 25006KT 9999 FEW008 BKN020 15/14 Q1029
LPMT,2017-12-09 03:00,-9.0359,38.7039,59.00,57.20,93.74,270.00,5.00,0.00,30.39,M,6.21,M,FEW,BKN,M,M,800.00,2000.00,M,M,M,M,M,M,M,M,M,59.00,LPMT 090300Z 27005KT 9999 FEW008 BKN020 15/14 Q1029
LPMT,2017-12-09 04:00,-9.0359,38.7039,57.20,55.40,93.69,280.00,4.00,0.00,30.39,M,6.21,M,FEW,SCT,M,M,800.00,2500.00,M,M,M,M,M,M,M,M,M,57.20,LPMT 090400Z 28004KT 9999 FEW008 SCT025 14/13 Q1029
LPMT,2017-12-09 06:00,-9.0359,38.7039,55.40,55.40,100.00,300.00,4.00,0.00,30.36,M,6.21,M,FEW,SCT,M,M,800.00,3000.00,M,M,M,M,M,M,M,M,M,55.40,LPMT 090600Z 30004KT 9999 FEW008 SCT030 13/13 Q1028
LPMT,2017-12-09 07:00,-9.0359,38.7039,55.40,55.40,100.00,300.00,5.00,0.00,30.36,M,6.21,M,SCT,M,M,M,2500.00,M,M,M,M,M,M,M,M,M,M,55.40,LPMT 090700Z 30005KT 9999 SCT025 13/13 Q1028
LPMT,2017-12-09 08:00,-9.0359,38.7039,50.00,50.00,100.00,M,1.00,0.00,30.39,M,6.21,M,SCT,M,M,M,2500.00,M,M,M,M,M,M,M,M,M,M,50.00,LPMT 090800Z VRB01KT 9999 SCT025 10/10 Q1029
LPMT,2017-12-09 09:00,-9.0359,38.7039,59.00,55.40,87.83,290.00,4.00,0.00,30.39,M,6.21,M,SCT,M,M,M,2800.00,M,M,M,M,M,M,M,M,M,M,59.00,LPMT 090900Z 29004KT 9999 SCT028 15/13 Q1029
LPMT,2017-12-09 10:00,-9.0359,38.7039,59.00,55.40,87.83,280.00,4.00,0.00,30.39,M,6.21,M,SCT,M,M,M,3000.00,M,M,M,M,M,M,M,M,M,M,59.00,LPMT 091000Z 28004KT 9999 SCT030 15/13 Q1029
LPMT,2017-12-09 11:00,-9.0359,38.7039,62.60,57.20,82.50,280.00,5.00,0.00,30.39,M,6.21,M,SCT,M,M,M,3000.00,M,M,M,M,M,M,M,M,M,M,62.60,LPMT 091100Z 28005KT 9999 SCT030 17/14 Q1029
LPMT,2017-12-09 12:00,-9.0359,38.7039,64.40,57.20,77.45,260.00,6.00,0.00,30.39,M,6.21,M,SCT,M,M,M,3000.00,M,M,M,M,M,M,M,M,M,M,64.40,LPMT 091200Z 26006KT 9999 SCT030 18/14 Q1029
LPMT,2017-12-09 13:00,-9.0359,38.7039,64.40,55.40,72.56,280.00,4.00,0.00,30.39,M,6.21,M,FEW,SCT,M,M,2000.00,3500.00,M,M,M,M,M,M,M,M,M,64.40,LPMT 091300Z 28004KT 240V310 9999 FEW020 SCT035 18/13 Q1029
LPMT,2017-12-09 14:00,-9.0359,38.7039,64.40,55.40,72.56,310.00,5.00,0.00,30.36,M,6.21,M,FEW,SCT,M,M,2000.00,3500.00,M,M,M,M,M,M,M,M,M,64.40,LPMT 091400Z 31005KT 9999 FEW020 SCT035 18/13 Q1028
LPMT,2017-12-09 15:00,-9.0359,38.7039,64.40,57.20,77.45,310.00,6.00,0.00,30.33,M,6.21,M,FEW,SCT,M,M,2000.00,3500.00,M,M,M,M,M,M,M,M,M,64.40,LPMT 091500Z 31006KT 9999 FEW020 SCT035 18/14 Q1027
LPMT,2017-12-09 16:00,-9.0359,38.7039,64.40,55.40,72.56,300.00,6.00,0.00,30.33,M,6.21,M,FEW,SCT,M,M,2500.00,4000.00,M,M,M,M,M,M,M,M,M,64.40,LPMT 091600Z 30006KT 9999 FEW025 SCT040 18/13 Q1027
LPMT,2017-12-09 17:00,-9.0359,38.7039,60.80,55.40,82.37,300.00,5.00,0.00,30.33,M,6.21,M,FEW,SCT,M,M,2500.00,4000.00,M,M,M,M,M,M,M,M,M,60.80,LPMT 091700Z 30005KT 9999 FEW025 SCT040 16/13 Q1027
LPMT,2017-12-09 18:00,-9.0359,38.7039,59.00,55.40,87.83,300.00,5.00,0.00,30.33,M,6.21,M,FEW,M,M,M,3500.00,M,M,M,M,M,M,M,M,M,M,59.00,LPMT 091800Z 30005KT 9999 FEW035 15/13 Q1027
LPMT,2017-12-09 19:00,-9.0359,38.7039,57.20,55.40,93.69,270.00,4.00,0.00,30.33,M,6.21,M,SCT,M,M,M,3000.00,M,M,M,M,M,M,M,M,M,M,57.20,LPMT 091900Z 27004KT 9999 SCT030 14/13 Q1027
LPMT,2017-12-09 20:00,-9.0359,38.7039,57.20,55.40,93.69,240.00,4.00,0.00,30.33,M,6.21,M,SCT,M,M,M,3000.00,M,M,M,M,M,M,M,M,M,M,57.20,LPMT 092000Z 24004KT 9999 SCT030 14/13 Q1027
LPMT,2017-12-09 21:00,-9.0359,38.7039,57.20,55.40,93.69,250.00,5.00,0.00,30.36,M,6.21,M,SCT,M,M,M,3000.00,M,M,M,M,M,M,M,M,M,M,57.20,LPMT 092100Z 25005KT 9999 SCT030 14/13 Q1028
LPMT,2017-12-09 22:00,-9.0359,38.7039,57.20,55.40,93.69,230.00,4.00,0.00,30.36,M,6.21,M,SCT,M,M,M,3000.00,M,M,M,M,M,M,M,M,M,M,57.20,LPMT 092200Z 23004KT 9999 SCT030 14/13 Q1028
LPMT,2017-12-09 23:00,-9.0359,38.7039,57.20,57.20,100.00,230.00,4.00,0.00,30.33,M,6.21,M,FEW,M,M,M,3000.00,M,M,M,M,M,M,M,M,M,M,57.20,LPMT 092300Z 23004KT 9999 FEW030 14/14 Q1027
LPMT,2017-12-10 00:00,-9.0359,38.7039,55.40,55.40,100.00,250.00,3.00,0.00,30.33,M,6.21,M,SCT,M,M,M,4000.00,M,M,M,M,M,M,M,M,M,M,55.40,LPMT 100000Z 25003KT 9999 SCT040 13/13 Q1027
LPMT,2017-12-10 01:00,-9.0359,38.7039,57.20,57.20,100.00,240.00,5.00,0.00,30.30,M,6.21,M,FEW,SCT,M,M,1500.00,4000.00,M,M,M,M,M,M,M,M,M,57.20,LPMT 100100Z 24005KT 9999 FEW015 SCT040 14/14 Q1026
LPMT,2017-12-10 02:00,-9.0359,38.7039,57.20,55.40,93.69,230.00,4.00,0.00,30.27,M,6.21,M,FEW,SCT,M,M,1500.00,4000.00,M,M,M,M,M,M,M,M,M,57.20,LPMT 100200Z 23004KT 9999 FEW015 SCT040 14/13 Q1025
LPMT,2017-12-10 03:00,-9.0359,38.7039,55.40,53.60,93.65,220.00,3.00,0.00,30.27,M,6.21,M,FEW,SCT,M,M,1500.00,4000.00,M,M,M,M,M,M,M,M,M,55.40,LPMT 100300Z 22003KT 9999 FEW015 SCT040 13/12 Q1025
LPMT,2017-12-10 04:00,-9.0359,38.7039,55.40,55.40,100.00,210.00,5.00,0.00,30.24,M,6.21,M,FEW,SCT,M,M,1500.00,4500.00,M,M,M,M,M,M,M,M,M,55.40,LPMT 100400Z 21005KT 9999 FEW015 SCT045 13/13 Q1024
LPMT,2017-12-10 05:00,-9.0359,38.7039,57.20,57.20,100.00,230.00,4.00,0.00,30.21,M,6.21,M,FEW,SCT,M,M,1500.00,3500.00,M,M,M,M,M,M,M,M,M,57.20,LPMT 100500Z 23004KT 9999 FEW015 SCT035 14/14 Q1023
LPMT,2017-12-10 06:00,-9.0359,38.7039,57.20,57.20,100.00,250.00,3.00,0.00,30.21,M,6.21,M,SCT,SCT,M,M,1500.00,3500.00,M,M,M,M,M,M,M,M,M,57.20,LPMT 100600Z 25003KT 200V270 9999 SCT015 SCT035 14/14 Q1023
LPMT,2017-12-10 07:00,-9.0359,38.7039,59.00,57.20,93.74,270.00,6.00,0.00,30.21,M,6.21,M,SCT,SCT,M,M,1500.00,3500.00,M,M,M,M,M,M,M,M,M,59.00,LPMT 100700Z 27006KT 9999 SCT015 SCT035 15/14 Q1023
LPMT,2017-12-10 08:00,-9.0359,38.7039,59.00,57.20,93.74,260.00,9.00,0.00,30.18,M,6.21,M,SCT,SCT,M,M,1500.00,3500.00,M,M,M,M,M,M,M,M,M,59.00,LPMT 100800Z 26009KT 9999 SCT015 SCT035 15/14 Q1022
LPMT,2017-12-10 09:00,-9.0359,38.7039,59.00,57.20,93.74,250.00,8.00,0.00,30.15,M,6.21,M,SCT,BKN,M,M,1500.00,4500.00,M,M,M,M,M,M,M,M,M,59.00,LPMT 100900Z 25008KT 9999 SCT015 BKN045 15/14 Q1021
LPMT,2017-12-10 10:00,-9.0359,38.7039,60.80,59.00,93.79,260.00,11.00,0.00,30.15,M,6.21,M,SCT,SCT,M,M,1500.00,4500.00,M,M,M,M,M,M,M,M,M,60.80,LPMT 101000Z 26011KT 9999 SCT015 SCT045 16/15 Q1021
LPMT,2017-12-10 11:00,-9.0359,38.7039,60.80,57.20,87.92,250.00,10.00,0.00,30.15,M,6.21,M,SCT,M,M,M,1400.00,M,M,M,M,M,M,M,M,M,M,60.80,LPMT 101100Z 25010KT 9999 SCT014 16/14 Q1021
LPMT,2017-12-10 12:00,-9.0359,38.7039,62.60,59.00,88.00,240.00,11.00,0.00,30.12,M,6.21,M,FEW,BKN,M,M,1000.00,1500.00,M,M,M,M,M,M,M,M,M,62.60,LPMT 101200Z 24011KT 9999 FEW010 BKN015 17/15 Q1020
LPMT,2017-12-10 13:00,-9.0359,38.7039,62.60,59.00,88.00,230.00,13.00,0.00,30.06,M,6.21,24.00,BKN,M,M,M,1500.00,M,M,M,M,M,M,M,M,M,M,62.60,LPMT 101300Z 23013G24KT 9999 BKN015 17/15 Q1018
LPMT,2017-12-10 14:00,-9.0359,38.7039,62.60,57.20,82.50,240.00,14.00,0.00,30.00,M,6.21,M,FEW,BKN,M,M,1000.00,1600.00,M,M,M,M,M,M,M,M,M,62.60,LPMT 101400Z 24014KT 9999 FEW010 BKN016 17/14 Q1016
LPMT,2017-12-10 15:00,-9.0359,38.7039,62.60,57.20,82.50,240.00,12.00,0.00,29.97,M,6.21,M,FEW,BKN,M,M,1000.00,1600.00,M,M,M,M,M,M,M,M,M,62.60,LPMT 101500Z 24012KT 9999 FEW010 BKN016 17/14 Q1015
LPMT,2017-12-10 16:00,-9.0359,38.7039,60.80,57.20,87.92,230.00,15.00,0.00,29.91,M,6.21,27.00,FEW,BKN,M,M,1000.00,1500.00,M,M,M,M,M,M,M,M,M,60.80,LPMT 101600Z 23015G27KT 9999 FEW010 BKN015 16/14 Q1013
LPMT,2017-12-10 20:00,-9.0359,38.7039,62.60,57.20,82.50,230.00,18.00,0.00,29.74,M,6.21,M,SCT,M,M,M,1400.00,M,M,M,M,M,M,M,M,M,M,62.60,LPMT 102000Z 23018KT 9999 SCT014 17/14 Q1007
LPMT,2017-12-10 21:00,-9.0359,38.7039,62.60,57.20,82.50,230.00,18.00,0.00,29.68,M,6.21,29.00,SCT,M,M,M,1400.00,M,M,M,M,M,M,M,M,M,M,62.60,LPMT 102100Z 23018G29KT 9999 SCT014 17/14 Q1005
LPMT,2017-12-10 22:00,-9.0359,38.7039,60.80,59.00,93.79,230.00,20.00,0.00,29.62,M,4.35,32.00,SCT,BKN,M,M,1400.00,1800.00,M,M,RA,M,M,M,M,M,M,60.80,LPMT 102200Z 23020G32KT 7000 RA SCT014 BKN018 16/15 Q1003
LPMT,2017-12-10 23:00,-9.0359,38.7039,60.80,59.00,93.79,240.00,25.00,0.00,29.56,M,3.73,38.00,FEW,BKN,M,M,1000.00,1400.00,M,M,RA,M,M,M,M,M,M,60.80,LPMT 102300Z 24025G38KT 6000 RA FEW010 BKN014 16/15 Q1001
LPMT,2017-12-11 00:00,-9.0359,38.7039,60.80,59.00,93.79,230.00,23.00,0.00,29.47,M,2.49,36.00,BKN,BKN,M,M,900.00,1500.00,M,M,RA BR,M,M,M,M,M,M,60.80,LPMT 110000Z 23023G36KT 4000 RA BR BKN009 BKN015 16/15 Q0998
LPMT,2017-12-11 01:00,-9.0359,38.7039,57.20,51.80,82.12,270.00,20.00,0.00,29.50,M,6.21,31.00,FEW,BKN,M,M,900.00,2500.00,M,M,-RA,M,M,M,M,M,M,57.20,LPMT 110100Z 27020G31KT 9999 -RA FEW009 BKN025 14/11 Q0999
LPMT,2017-12-11 02:00,-9.0359,38.7039,55.40,50.00,81.99,310.00,17.00,0.00,29.53,M,4.35,30.00,SCT,BKN,M,M,1500.00,2500.00,M,M,-RA,M,M,M,M,M,M,55.40,LPMT 110200Z 31017G30KT 280V340 7000 -RA SCT015 BKN025 13/10 Q1000
LPMT,2017-12-11 03:00,-9.0359,38.7039,51.80,50.00,93.55,280.00,11.00,0.00,29.53,M,3.73,M,FEW,BKN,M,M,2000.00,4500.00,M,M,RA,M,M,M,M,M,M,51.80,LPMT 110300Z 28011KT 6000 RA FEW020 BKN045 11/10 Q1000
LPMT,2017-12-11 04:00,-9.0359,38.7039,53.60,48.20,81.87,270.00,12.00,0.00,29.53,M,6.21,M,SCT,M,M,M,4500.00,M,M,M,M,M,M,M,M,M,M,53.60,LPMT 110400Z 27012KT 240V300 9999 SCT045 12/09 Q1000
LPMT,2017-12-11 05:00,-9.0359,38.7039,51.80,44.60,76.34,300.00,12.00,0.00,29.53,M,6.21,M,FEW,M,M,M,4500.00,M,M,M,M,M,M,M,M,M,M,51.80,LPMT 110500Z 30012KT 280V340 9999 FEW045 11/07 Q1000
LPMT,2017-12-11 07:00,-9.0359,38.7039,53.60,42.80,66.70,300.00,12.00,0.00,29.56,M,6.21,M,FEW,M,M,M,4000.00,M,M,M,M,M,M,M,M,M,M,53.60,LPMT 110700Z 30012KT 9999 FEW040 12/06 Q1001
LPMT,2017-12-11 08:00,-9.0359,38.7039,53.60,42.80,66.70,330.00,11.00,0.00,29.62,M,6.21,M,FEW,SCT,FEW,M,1500.00,4000.00,4200.00,M,M,M,M,M,M,M,M,53.60,LPMT 110800Z 33011KT 300V360 9999 FEW015 SCT040 FEW042CB 12/06 Q1003
LPMT,2017-12-11 09:00,-9.0359,38.7039,51.80,46.40,81.74,320.00,4.00,0.00,29.62,M,6.21,M,FEW,SCT,FEW,M,1500.00,4000.00,4200.00,M,M,M,M,M,M,M,M,51.80,LPMT 110900Z 32004KT 280V350 9999 FEW015 SCT040 FEW042CB 11/08 Q1003
LPMT,2017-12-11 10:00,-9.0359,38.7039,53.60,44.60,71.45,300.00,6.00,0.00,29.65,M,6.21,M,SCT,FEW,M,M,3500.00,4000.00,M,M,VCSH,M,M,M,M,M,M,53.60,LPMT 111000Z 30006KT 9999 VCSH SCT035 FEW040TCU 12/07 Q1004
LPMT,2017-12-11 11:00,-9.0359,38.7039,55.40,46.40,71.64,290.00,9.00,0.00,29.65,M,6.21,19.00,SCT,FEW,M,M,3500.00,4000.00,M,M,VCSH,M,M,M,M,M,M,55.40,LPMT 111100Z 29009G19KT 250V320 9999 VCSH SCT035 FEW040CB 13/08 Q1004
LPMT,2017-12-11 12:00,-9.0359,38.7039,57.20,48.20,71.83,280.00,9.00,0.00,29.65,M,6.21,M,SCT,FEW,M,M,3500.00,4000.00,M,M,VCSH,M,M,M,M,M,M,57.20,LPMT 111200Z 28009KT 9999 VCSH SCT035 FEW040CB 14/09 Q1004
LPMT,2017-12-11 13:00,-9.0359,38.7039,55.40,46.40,71.64,270.00,11.00,0.00,29.62,M,6.21,M,FEW,M,M,M,3500.00,M,M,M,VCSH,M,M,M,M,M,M,55.40,LPMT 111300Z 27011KT 9999 VCSH FEW035 13/08 Q1003
LPMT,2017-12-11 14:00,-9.0359,38.7039,53.60,44.60,71.45,290.00,12.00,0.00,29.62,M,6.21,M,FEW,FEW,BKN,M,2500.00,3000.00,3600.00,M,VCSH,M,M,M,M,M,M,53.60,LPMT 111400Z 29012KT 9999 VCSH FEW025 FEW030CB BKN036 12/07 Q1003
LPMT,2017-12-11 15:00,-9.0359,38.7039,57.20,42.80,58.52,310.00,14.00,0.00,29.65,M,3.73,25.00,FEW,SCT,BKN,M,2500.00,3000.00,3600.00,M,SHRA,M,M,M,M,M,M,57.20,LPMT 111500Z 31014G25KT 6000 SHRA FEW025 SCT030CB BKN036 14/06 Q1004
LPMT,2017-12-11 17:00,-9.0359,38.7039,53.60,41.00,62.23,340.00,12.00,0.00,29.71,M,6.21,M,FEW,SCT,M,M,3000.00,4000.00,M,M,M,M,M,M,M,M,M,53.60,LPMT 111700Z 34012KT 9999 FEW030 SCT040 12/05 Q1006
LPMT,2017-12-11 18:00,-9.0359,38.7039,51.80,42.80,71.26,340.00,10.00,0.00,29.74,M,6.21,M,FEW,M,M,M,3000.00,M,M,M,M,M,M,M,M,M,M,51.80,LPMT 111800Z 34010KT 9999 FEW030 11/06 Q1007
LPMT,2017-12-11 19:00,-9.0359,38.7039,51.80,42.80,71.26,330.00,8.00,0.00,29.80,M,6.21,M,FEW,M,M,M,4000.00,M,M,M,M,M,M,M,M,M,M,51.80,LPMT 111900Z 33008KT 9999 FEW040 11/06 Q1009
LPMT,2017-12-11 20:00,-9.0359,38.7039,51.80,42.80,71.26,340.00,6.00,0.00,29.83,M,6.21,M,M,M,M,M,M,M,M,M,M,M,M,M,M,M,M,51.80,LPMT 112000Z 34006KT 310V010 CAVOK 11/06 Q1010
LPMT,2017-12-11 21:00,-9.0359,38.7039,51.80,41.00,66.48,330.00,6.00,0.00,29.85,M,6.21,M,M,M,M,M,M,M,M,M,M,M,M,M,M,M,M,51.80,LPMT 112100Z 33006KT CAVOK 11/05 Q1011
LPMT,2017-12-11 22:00,-9.0359,38.7039,51.80,41.00,66.48,350.00,6.00,0.00,29.88,M,6.21,M,M,M,M,M,M,M,M,M,M,M,M,M,M,M,M,51.80,LPMT 112200Z 35006KT 310V010 CAVOK 11/05 Q1012
LPMT,2017-12-11 23:00,-9.0359,38.7039,50.00,41.00,71.07,340.00,5.00,0.00,29.91,M,6.21,M,FEW,M,M,M,4200.00,M,M,M,M,M,M,M,M,M,M,47.77,LPMT 112300Z 34005KT 9999 FEW042 10/05 Q1013
LPMT,2017-12-12 00:00,-9.0359,38.7039,50.00,41.00,71.07,340.00,5.00,0.00,29.94,M,6.21,M,FEW,M,M,M,3600.00,M,M,M,M,M,M,M,M,M,M,47.77,LPMT 120000Z 34005KT 9999 FEW036 10/05 Q1014
LPMT,2017-12-12 01:00,-9.0359,38.7039,50.00,41.00,71.07,350.00,6.00,0.00,29.94,M,6.21,M,FEW,M,M,M,4000.00,M,M,M,M,M,M,M,M,M,M,47.21,LPMT 120100Z 35006KT 9999 FEW040 10/05 Q1014
LPMT,2017-12-12 02:00,-9.0359,38.7039,50.00,42.80,76.18,340.00,7.00,0.00,29.94,M,6.21,M,M,M,M,M,M,M,M,M,M,M,M,M,M,M,M,46.72,LPMT 120200Z 34007KT CAVOK 10/06 Q1014
LPMT,2017-12-12 03:00,-9.0359,38.7039,48.20,42.80,81.47,350.00,6.00,0.00,29.97,M,6.21,M,M,M,M,M,M,M,M,M,M,M,M,M,M,M,M,45.04,LPMT 120300Z 35006KT CAVOK 09/06 Q1015
LPMT,2017-12-12 04:00,-9.0359,38.7039,50.00,41.00,71.07,350.00,7.00,0.00,29.97,M,6.21,M,M,M,M,M,M,M,M,M,M,M,M,M,M,M,M,46.72,LPMT 120400Z 35007KT CAVOK 10/05 Q1015
LPMT,2017-12-12 05:00,-9.0359,38.7039,48.20,41.00,76.01,350.00,4.00,0.00,30.00,M,6.21,M,M,M,M,M,M,M,M,M,M,M,M,M,M,M,M,46.34,LPMT 120500Z 35004KT CAVOK 09/05 Q1016
LPMT,2017-12-12 06:00,-9.0359,38.7039,46.40,41.00,81.34,10.00,4.00,0.00,30.03,M,6.21,M,M,M,M,M,M,M,M,M,M,M,M,M,M,M,M,44.24,LPMT 120600Z 01004KT CAVOK 08/05 Q1017
LPMT,2017-12-12 07:00,-9.0359,38.7039,42.80,39.20,86.99,100.00,5.00,0.00,30.06,M,6.21,M,M,M,M,M,M,M,M,M,M,M,M,M,M,M,M,39.22,LPMT 120700Z 10005KT CAVOK 06/04 Q1018
LPMT,2017-12-12 08:00,-9.0359,38.7039,39.20,37.40,93.19,120.00,2.00,0.00,30.09,M,6.21,M,M,M,M,M,M,M,M,M,M,M,M,M,M,M,M,39.20,LPMT 120800Z 12002KT CAVOK 04/03 Q1019
LPMT,2017-12-12 09:00,-9.0359,38.7039,44.60,41.00,87.09,130.00,2.00,0.00,30.12,M,6.21,M,M,M,M,M,M,M,M,M,M,M,M,M,M,M,M,44.60,LPMT 120900Z 13002KT CAVOK 07/05 Q1020
LPMT,2017-12-12 10:00,-9.0359,38.7039,50.00,42.80,76.18,M,1.00,0.00,30.15,M,6.21,M,M,M,M,M,M,M,M,M,M,M,M,M,M,M,M,50.00,LPMT 121000Z VRB01KT CAVOK 10/06 Q1021
LPMT,2017-12-12 11:00,-9.0359,38.7039,53.60,42.80,66.70,330.00,3.00,0.00,30.15,M,6.21,M,M,M,M,M,M,M,M,M,M,M,M,M,M,M,M,53.60,LPMT 121100Z 33003KT 280V030 CAVOK 12/06 Q1021
LPMT,2017-12-12 12:00,-9.0359,38.7039,55.40,44.60,66.91,10.00,5.00,0.00,30.15,M,6.21,M,M,M,M,M,M,M,M,M,M,M,M,M,M,M,M,55.40,LPMT 121200Z 01005KT 330V040 CAVOK 13/07 Q1021
LPMT,2017-12-12 13:00,-9.0359,38.7039,57.20,44.60,62.69,40.00,6.00,0.00,30.15,M,6.21,M,FEW,M,M,M,3000.00,M,M,M,M,M,M,M,M,M,M,57.20,LPMT 121300Z 04006KT 010V070 9999 FEW030 14/07 Q1021
LPMT,2017-12-12 14:00,-9.0359,38.7039,59.00,44.60,58.77,360.00,4.00,0.00,30.15,M,6.21,M,FEW,M,M,M,3000.00,M,M,M,M,M,M,M,M,M,M,59.00,LPMT 121400Z 36004KT 310V050 9999 FEW030 15/07 Q1021
LPMT,2017-12-12 15:00,-9.0359,38.7039,60.80,42.80,51.45,360.00,8.00,0.00,30.15,M,6.21,M,FEW,M,M,M,3000.00,M,M,M,M,M,M,M,M,M,M,60.80,LPMT 121500Z 36008KT 9999 FEW030 16/06 Q1021
LPMT,2017-12-12 16:00,-9.0359,38.7039,57.20,42.80,58.52,360.00,8.00,0.00,30.18,M,6.21,M,SCT,M,M,M,3000.00,M,M,M,M,M,M,M,M,M,M,57.20,LPMT 121600Z 36008KT 9999 SCT030 14/06 Q1022
LPMT,2017-12-12 17:00,-9.0359,38.7039,55.40,44.60,66.91,350.00,5.00,0.00,30.18,M,6.21,M,FEW,M,M,M,3000.00,M,M,M,M,M,M,M,M,M,M,55.40,LPMT 121700Z 35005KT 9999 FEW030 13/07 Q1022
LPMT,2017-12-12 18:00,-9.0359,38.7039,53.60,44.60,71.45,340.00,5.00,0.00,30.21,M,6.21,M,FEW,M,M,M,2500.00,M,M,M,M,M,M,M,M,M,M,53.60,LPMT 121800Z 34005KT 9999 FEW025 12/07 Q1023
LPMT,2017-12-12 19:00,-9.0359,38.7039,53.60,44.60,71.45,330.00,5.00,0.00,30.24,M,6.21,M,M,M,M,M,M,M,M,M,M,M,M,M,M,M,M,53.60,LPMT 121900Z 33005KT CAVOK 12/07 Q1024
LPMT,2017-12-12 20:00,-9.0359,38.7039,51.80,44.60,76.34,330.00,5.00,0.00,30.24,M,6.21,M,M,M,M,M,M,M,M,M,M,M,M,M,M,M,M,51.80,LPMT 122000Z 33005KT CAVOK 11/07 Q1024
LPMT,2017-12-12 21:00,-9.0359,38.7039,51.80,44.60,76.34,340.00,4.00,0.00,30.27,M,6.21,M,M,M,M,M,M,M,M,M,M,M,M,M,M,M,M,51.80,LPMT 122100Z 34004KT CAVOK 11/07 Q1025
LPMT,2017-12-12 22:00,-9.0359,38.7039,48.20,44.60,87.28,350.00,5.00,0.00,30.27,M,6.21,M,M,M,M,M,M,M,M,M,M,M,M,M,M,M,M,45.63,LPMT 122200Z 35005KT CAVOK 09/07 Q1025
LPMT,2017-12-12 23:00,-9.0359,38.7039,48.20,46.40,93.45,360.00,4.00,0.00,30.30,M,6.21,M,M,M,M,M,M,M,M,M,M,M,M,M,M,M,M,46.34,LPMT 122300Z 36004KT CAVOK 09/08 Q1026
LPMT,2017-12-13 00:00,-9.0359,38.7039,46.40,44.60,93.40,360.00,4.00,0.00,30.30,M,6.21,M,M,M,M,M,M,M,M,M,M,M,M,M,M,M,M,44.24,LPMT 130000Z 36004KT CAVOK 08/07 Q1026
LPMT,2017-12-13 01:00,-9.0359,38.7039,48.20,44.60,87.28,M,1.00,0.00,30.30,M,6.21,M,M,M,M,M,M,M,M,M,M,M,M,M,M,M,M,48.20,LPMT 130100Z VRB01KT CAVOK 09/07 Q1026
LPMT,2017-12-13 02:00,-9.0359,38.7039,44.60,42.80,93.35,100.00,5.00,0.00,30.30,M,6.21,M,M,M,M,M,M,M,M,M,M,M,M,M,M,M,M,41.36,LPMT 130200Z 10005KT CAVOK 07/06 Q1026
LPMT,2017-12-13 03:00,-9.0359,38.7039,42.80,41.00,93.30,120.00,4.00,0.00,30.30,M,6.21,M,M,M,M,M,M,M,M,M,M,M,M,M,M,M,M,40.03,LPMT 130300Z 12004KT CAVOK 06/05 Q1026
LPMT,2017-12-13 04:00,-9.0359,38.7039,41.00,39.20,93.24,90.00,3.00,0.00,30.30,M,6.21,M,M,M,M,M,M,M,M,M,M,M,M,M,M,M,M,38.98,LPMT 130400Z 09003KT CAVOK 05/04 Q1026
LPMT,2017-12-13 05:00,-9.0359,38.7039,42.80,42.80,100.00,140.00,4.00,0.00,30.33,M,6.21,M,M,M,M,M,M,M,M,M,M,M,M,M,M,M,M,40.03,LPMT 130500Z 14004KT CAVOK 06/06 Q1027
LPMT,2017-12-13 06:00,-9.0359,38.7039,41.00,41.00,100.00,120.00,4.00,0.00,30.33,M,6.21,M,M,M,M,M,M,M,M,M,M,M,M,M,M,M,M,37.93,LPMT 130600Z 12004KT CAVOK 05/05 Q1027
LPMT,2017-12-13 07:00,-9.0359,38.7039,41.00,41.00,100.00,90.00,3.00,0.00,30.33,M,6.21,M,SCT,M,M,M,4000.00,M,M,M,M,M,M,M,M,M,M,38.98,LPMT 130700Z 09003KT 9999 SCT040 05/05 Q1027
LPMT,2017-12-13 08:00,-9.0359,38.7039,42.80,42.80,100.00,80.00,3.00,0.00,30.36,M,6.21,M,SCT,M,M,M,4000.00,M,M,M,M,M,M,M,M,M,M,41.03,LPMT 130800Z 08003KT 9999 SCT040 06/06 Q1028
LPMT,2017-12-13 09:00,-9.0359,38.7039,46.40,44.60,93.40,20.00,2.00,0.00,30.36,M,6.21,M,SCT,M,M,M,4000.00,M,M,M,M,M,M,M,M,M,M,46.40,LPMT 130900Z 02002KT 9999 SCT040 08/07 Q1028
LPMT,2017-12-13 10:00,-9.0359,38.7039,50.00,44.60,81.61,M,1.00,0.00,30.39,M,6.21,M,BKN,M,M,M,4500.00,M,M,M,M,M,M,M,M,M,M,50.00,LPMT 131000Z VRB01KT 9999 BKN045 10/07 Q1029
LPMT,2017-12-13 11:00,-9.0359,38.7039,55.40,46.40,71.64,M,1.00,0.00,30.39,M,6.21,M,FEW,M,M,M,4500.00,M,M,M,M,M,M,M,M,M,M,55.40,LPMT 131100Z VRB01KT 9999 FEW045 13/08 Q1029
LPMT,2017-12-13 12:00,-9.0359,38.7039,57.20,46.40,67.12,M,2.00,0.00,30.39,M,6.21,M,SCT,M,M,M,4200.00,M,M,M,M,M,M,M,M,M,M,57.20,LPMT 131200Z VRB02KT 9999 SCT042 14/08 Q1029
LPMT,2017-12-13 13:00,-9.0359,38.7039,57.20,50.00,76.82,M,2.00,0.00,30.36,M,6.21,M,FEW,BKN,M,M,3000.00,4200.00,M,M,M,M,M,M,M,M,M,57.20,LPMT 131300Z VRB02KT 9999 FEW030 BKN042 14/10 Q1028
LPMT,2017-12-13 15:00,-9.0359,38.7039,59.00,51.80,76.98,280.00,8.00,0.00,30.36,M,6.21,M,FEW,BKN,M,M,2200.00,2600.00,M,M,VCSH,M,M,M,M,M,M,59.00,LPMT 131500Z 28008KT 9999 VCSH FEW022 BKN026 15/11 Q1028
LPMT,2017-12-13 16:00,-9.0359,38.7039,55.40,51.80,87.65,250.00,7.00,0.00,30.36,M,6.21,M,SCT,BKN,M,M,2000.00,2600.00,M,M,VCSH,M,M,M,M,M,M,55.40,LPMT 131600Z 25007KT 9999 8000NW VCSH SCT020 BKN026 13/11 Q1028
LPMT,2017-12-13 17:00,-9.0359,38.7039,57.20,51.80,82.12,230.00,6.00,0.00,30.36,M,6.21,M,FEW,BKN,M,M,2000.00,2600.00,M,M,M,M,M,M,M,M,M,57.20,LPMT 131700Z 23006KT 9999 FEW020 BKN026 14/11 Q1028
LPMT,2017-12-13 18:00,-9.0359,38.7039,57.20,51.80,82.12,200.00,4.00,0.00,30.36,M,6.21,M,FEW,BKN,M,M,1600.00,2000.00,M,M,M,M,M,M,M,M,M,57.20,LPMT 131800Z 20004KT 9999 FEW016 BKN020 14/11 Q1028
LPMT,2017-12-13 19:00,-9.0359,38.7039,55.40,51.80,87.65,190.00,3.00,0.00,30.36,M,6.21,M,FEW,BKN,M,M,1300.00,1500.00,M,M,M,M,M,M,M,M,M,55.40,LPMT 131900Z 19003KT 170V230 9999 FEW013 BKN015 13/11 Q1028
LPMT,2017-12-13 20:00,-9.0359,38.7039,55.40,51.80,87.65,M,2.00,0.00,30.36,M,6.21,M,BKN,BKN,M,M,1000.00,1500.00,M,M,M,M,M,M,M,M,M,55.40,LPMT 132000Z VRB02KT 9999 BKN010 BKN015 13/11 Q1028
LPMT,2017-12-13 21:00,-9.0359,38.7039,57.20,53.60,87.74,170.00,3.00,0.00,30.36,M,6.21,M,BKN,BKN,M,M,900.00,1500.00,M,M,M,M,M,M,M,M,M,57.20,LPMT 132100Z 17003KT 9999 BKN009 BKN015 14/12 Q1028
LPMT,2017-12-13 22:00,-9.0359,38.7039,55.40,53.60,93.65,120.00,3.00,0.00,30.36,M,6.21,M,BKN,BKN,M,M,700.00,1500.00,M,M,M,M,M,M,M,M,M,55.40,LPMT 132200Z 12003KT 9999 BKN007 BKN015 13/12 Q1028
LPMT,2017-12-13 23:00,-9.0359,38.7039,55.40,53.60,93.65,110.00,3.00,0.00,30.36,M,6.21,M,BKN,BKN,M,M,900.00,1500.00,M,M,M,M,M,M,M,M,M,55.40,LPMT 132300Z 11003KT 9999 BKN009 BKN015 13/12 Q1028
LPMT,2017-12-14 00:00,-9.0359,38.7039,55.40,53.60,93.65,160.00,4.00,0.00,30.33,M,6.21,M,SCT,BKN,M,M,900.00,2200.00,M,M,M,M,M,M,M,M,M,55.40,LPMT 140000Z 16004KT 9999 SCT009 BKN022 13/12 Q1027
LPMT,2017-12-14 02:00,-9.0359,38.7039,55.40,53.60,93.65,170.00,3.00,0.00,30.30,M,6.21,M,FEW,SCT,BKN,M,900.00,1500.00,2000.00,M,M,M,M,M,M,M,M,55.40,LPMT 140200Z 17003KT 9999 FEW009 SCT015 BKN020 13/12 Q1026
LPMT,2017-12-14 03:00,-9.0359,38.7039,57.20,55.40,93.69,200.00,4.00,0.00,30.30,M,6.21,M,FEW,BKN,M,M,600.00,3300.00,M,M,M,M,M,M,M,M,M,57.20,LPMT 140300Z 20004KT 9999 FEW006 BKN033 14/13 Q1026
LPMT,2017-12-14 04:00,-9.0359,38.7039,57.20,57.20,100.00,210.00,3.00,0.00,30.30,M,6.21,M,FEW,SCT,M,M,900.00,1700.00,M,M,M,M,M,M,M,M,M,57.20,LPMT 140400Z 21003KT 9999 FEW009 SCT017 14/14 Q1026
LPMT,2017-12-14 05:00,-9.0359,38.7039,57.20,57.20,100.00,240.00,3.00,0.00,30.30,M,2.49,M,BKN,BKN,M,M,400.00,1500.00,M,M,BR,M,M,M,M,M,M,57.20,LPMT 140500Z 24003KT 4000 BR BKN004 BKN015 14/14 Q1026
LPMT,2017-12-14 06:00,-9.0359,38.7039,55.40,55.40,100.00,210.00,3.00,0.00,30.27,M,0.56,M,VV ,M,M,M,M,M,M,M,FG,M,M,M,M,M,M,55.40,LPMT 140600Z 21003KT 0900 FG VV/// 13/13 Q1025 RMK RH98 AMB
LPMT,2017-12-14 07:00,-9.0359,38.7039,57.20,57.20,100.00,230.00,5.00,0.00,30.27,M,6.21,M,FEW,BKN,M,M,300.00,2500.00,M,M,M,M,M,M,M,M,M,57.20,LPMT 140700Z 23005KT 9999 FEW003 BKN025 14/14 Q1025
LPMT,2017-12-14 08:00,-9.0359,38.7039,57.20,57.20,100.00,230.00,4.00,0.00,30.30,M,6.21,M,BKN,BKN,M,M,2100.00,3500.00,M,M,VCSH,M,M,M,M,M,M,57.20,LPMT 140800Z 23004KT 9999 3000W VCSH BKN021 BKN035 14/14 Q1026
LPMT,2017-12-14 09:00,-9.0359,38.7039,57.20,57.20,100.00,230.00,3.00,0.00,30.30,M,2.49,M,SCT,BKN,M,M,300.00,1500.00,M,M,BR,M,M,M,M,M,M,57.20,LPMT 140900Z 23003KT 4000 BR SCT003 BKN015 14/14 Q1026
LPMT,2017-12-14 10:00,-9.0359,38.7039,59.00,57.20,93.74,250.00,5.00,0.00,30.30,M,6.21,M,BKN,SCT,M,M,500.00,1500.00,M,M,M,M,M,M,M,M,M,59.00,LPMT 141000Z 25005KT 9999 BKN005 SCT015 15/14 Q1026
LPMT,2017-12-14 11:00,-9.0359,38.7039,59.00,59.00,100.00,250.00,6.00,0.00,30.27,M,6.21,M,FEW,BKN,BKN,M,500.00,1400.00,2000.00,M,VCSH,M,M,M,M,M,M,59.00,LPMT 141100Z 25006KT 220V280 9999 4000N VCSH FEW005 BKN014 BKN020 15/15 Q1025
LPMT,2017-12-14 12:00,-9.0359,38.7039,59.00,59.00,100.00,270.00,7.00,0.00,30.27,M,6.21,M,BKN,BKN,M,M,900.00,1800.00,M,M,VCSH,M,M,M,M,M,M,59.00,LPMT 141200Z 27007KT 9999 VCSH BKN009 BKN018 15/15 Q1025
LPMT,2017-12-14 13:00,-9.0359,38.7039,62.60,57.20,82.50,280.00,6.00,0.00,30.24,M,6.21,M,SCT,SCT,M,M,2500.00,4000.00,M,M,M,M,M,M,M,M,M,62.60,LPMT 141300Z 28006KT 9999 SCT025 SCT040 17/14 Q1024
LPMT,2017-12-14 14:00,-9.0359,38.7039,64.40,55.40,72.56,290.00,8.00,0.00,30.21,M,6.21,M,SCT,SCT,M,M,2500.00,4000.00,M,M,M,M,M,M,M,M,M,64.40,LPMT 141400Z 29008KT 9999 SCT025 SCT040 18/13 Q1023
LPMT,2017-12-14 15:00,-9.0359,38.7039,62.60,53.60,72.38,300.00,8.00,0.00,30.18,M,6.21,M,FEW,SCT,M,M,2500.00,3500.00,M,M,M,M,M,M,M,M,M,62.60,LPMT 141500Z 30008KT 9999 FEW025 SCT035 17/12 Q1022
LPMT,2017-12-14 16:00,-9.0359,38.7039,62.60,55.40,77.29,280.00,7.00,0.00,30.18,M,6.21,M,FEW,SCT,M,M,1800.00,3500.00,M,M,M,M,M,M,M,M,M,62.60,LPMT 141600Z 28007KT 250V310 9999 FEW018 SCT035 17/13 Q1022
LPMT,2017-12-14 17:00,-9.0359,38.7039,60.80,55.40,82.37,290.00,9.00,0.00,30.18,M,6.21,M,FEW,SCT,M,M,1800.00,2800.00,M,M,M,M,M,M,M,M,M,60.80,LPMT 141700Z 29009KT 260V320 9999 FEW018 SCT028 16/13 Q1022
LPMT,2017-12-14 18:00,-9.0359,38.7039,60.80,55.40,82.37,290.00,8.00,0.00,30.18,M,6.21,M,SCT,SCT,M,M,1800.00,3000.00,M,M,M,M,M,M,M,M,M,60.80,LPMT 141800Z 29008KT 9999 SCT018 SCT030 16/13 Q1022
LPMT,2017-12-14 19:00,-9.0359,38.7039,59.00,57.20,93.74,260.00,6.00,0.00,30.18,M,6.21,M,SCT,SCT,M,M,1800.00,3000.00,M,M,M,M,M,M,M,M,M,59.00,LPMT 141900Z 26006KT 9999 SCT018 SCT030 15/14 Q1022
LPMT,2017-12-14 20:00,-9.0359,38.7039,59.00,57.20,93.74,250.00,7.00,0.00,30.18,M,6.21,M,FEW,BKN,M,M,800.00,2000.00,M,M,VCSH,M,M,M,M,M,M,59.00,LPMT 142000Z 25007KT 9999 VCSH FEW008 BKN020 15/14 Q1022
LPMT,2017-12-14 21:00,-9.0359,38.7039,59.00,57.20,93.74,260.00,7.00,0.00,30.15,M,6.21,M,FEW,SCT,M,M,800.00,1500.00,M,M,VCSH,M,M,M,M,M,M,59.00,LPMT 142100Z 26007KT 9999 VCSH FEW008 SCT015 15/14 Q1021
LPMT,2017-12-14 22:00,-9.0359,38.7039,59.00,57.20,93.74,270.00,6.00,0.00,30.15,M,6.21,M,FEW,BKN,M,M,1000.00,1500.00,M,M,VCSH,M,M,M,M,M,M,59.00,LPMT 142200Z 27006KT 9999 VCSH FEW010 BKN015 15/14 Q1021
LPMT,2017-12-14 23:00,-9.0359,38.7039,59.00,57.20,93.74,260.00,6.00,0.00,30.12,M,6.21,M,FEW,BKN,M,M,1000.00,1500.00,M,M,VCSH,M,M,M,M,M,M,59.00,LPMT 142300Z 26006KT 9999 VCSH FEW010 BKN015 15/14 Q1020
LPMT,2017-12-15 00:00,-9.0359,38.7039,59.00,57.20,93.74,260.00,8.00,0.00,30.12,M,6.21,M,FEW,BKN,M,M,1000.00,1500.00,M,M,M,M,M,M,M,M,M,59.00,LPMT 150000Z 26008KT 9999 FEW010 BKN015 15/14 Q1020
LPMT,2017-12-15 01:00,-9.0359,38.7039,59.00,57.20,93.74,260.00,7.00,0.00,30.12,M,6.21,M,FEW,BKN,M,M,1000.00,1500.00,M,M,M,M,M,M,M,M,M,59.00,LPMT 150100Z 26007KT 9999 FEW010 BKN015 15/14 Q1020
LPMT,2017-12-15 02:00,-9.0359,38.7039,59.00,57.20,93.74,280.00,8.00,0.00,30.09,M,6.21,M,FEW,BKN,M,M,1000.00,1500.00,M,M,M,M,M,M,M,M,M,59.00,LPMT 150200Z 28008KT 9999 FEW010 BKN015 15/14 Q1019
LPMT,2017-12-15 03:00,-9.0359,38.7039,59.00,57.20,93.74,260.00,8.00,0.00,30.09,M,6.21,M,BKN,M,M,M,1500.00,M,M,M,M,M,M,M,M,M,M,59.00,LPMT 150300Z 26008KT 9999 BKN015 15/14 Q1019
LPMT,2017-12-15 04:00,-9.0359,38.7039,59.00,57.20,93.74,250.00,5.00,0.00,30.06,M,6.21,M,FEW,BKN,M,M,1000.00,1500.00,M,M,VCSH,M,M,M,M,M,M,59.00,LPMT 150400Z 25005KT 9999 VCSH FEW010 BKN015 15/14 Q1018
LPMT,2017-12-15 05:00,-9.0359,38.7039,59.00,57.20,93.74,260.00,5.00,0.00,30.03,M,6.21,M,FEW,BKN,M,M,1000.00,1500.00,M,M,M,M,M,M,M,M,M,59.00,LPMT 150500Z 26005KT 9999 FEW010 BKN015 15/14 Q1017
LPMT,2017-12-15 07:00,-9.0359,38.7039,59.00,59.00,100.00,260.00,8.00,0.00,30.03,M,6.21,M,SCT,BKN,M,M,1000.00,1500.00,M,M,VCSH,M,M,M,M,M,M,59.00,LPMT 150700Z 26008KT 9999 VCSH SCT010 BKN015 15/15 Q1017
LPMT,2017-12-15 08:00,-9.0359,38.7039,59.00,57.20,93.74,260.00,6.00,0.00,30.03,M,6.21,M,FEW,BKN,M,M,1000.00,1500.00,M,M,VCSH,M,M,M,M,M,M,59.00,LPMT 150800Z 26006KT 9999 VCSH FEW010 BKN015 15/14 Q1017
LPMT,2017-12-15 09:00,-9.0359,38.7039,59.00,57.20,93.74,240.00,5.00,0.00,30.03,M,6.21,M,FEW,BKN,M,M,800.00,1500.00,M,M,VCSH,M,M,M,M,M,M,59.00,LPMT 150900Z 24005KT 200V270 9999 VCSH FEW008 BKN015 15/14 Q1017
LPMT,2017-12-15 10:00,-9.0359,38.7039,60.80,59.00,93.79,240.00,5.00,0.00,30.03,M,6.21,M,FEW,SCT,M,M,1000.00,1300.00,M,M,M,M,M,M,M,M,M,60.80,LPMT 151000Z 24005KT 9999 FEW010 SCT013 16/15 Q1017
LPMT,2017-12-15 11:00,-9.0359,38.7039,62.60,57.20,82.50,260.00,6.00,0.00,30.03,M,6.21,M,SCT,SCT,M,M,1500.00,2000.00,M,M,M,M,M,M,M,M,M,62.60,LPMT 151100Z 26006KT 9999 SCT015 SCT020 17/14 Q1017
LPMT,2017-12-15 12:00,-9.0359,38.7039,62.60,57.20,82.50,270.00,7.00,0.00,30.00,M,6.21,M,BKN,SCT,M,M,1500.00,2000.00,M,M,M,M,M,M,M,M,M,62.60,LPMT 151200Z 27007KT 9999 BKN015 SCT020 17/14 Q1016
LPMT,2017-12-15 13:00,-9.0359,38.7039,60.80,59.00,93.79,240.00,7.00,0.00,29.97,M,6.21,M,BKN,SCT,M,M,1500.00,2000.00,M,M,M,M,M,M,M,M,M,60.80,LPMT 151300Z 24007KT 210V280 9999 BKN015 SCT020 16/15 Q1015
LPMT,2017-12-15 14:00,-9.0359,38.7039,60.80,59.00,93.79,270.00,8.00,0.00,29.97,M,6.21,M,BKN,SCT,M,M,1200.00,2000.00,M,M,M,M,M,M,M,M,M,60.80,LPMT 151400Z 27008KT 9999 BKN012 SCT020 16/15 Q1015
LPMT,2017-12-15 15:00,-9.0359,38.7039,57.20,53.60,87.74,360.00,10.00,0.00,29.97,M,6.21,M,SCT,BKN,M,M,1400.00,2000.00,M,M,M,M,M,M,M,M,M,57.20,LPMT 151500Z 36010KT 9999 SCT014 BKN020 14/12 Q1015
LPMT,2017-12-15 16:00,-9.0359,38.7039,57.20,48.20,71.83,360.00,9.00,0.00,29.97,M,6.21,M,FEW,M,M,M,2000.00,M,M,M,M,M,M,M,M,M,M,57.20,LPMT 151600Z 36009KT 320V040 9999 FEW020 14/09 Q1015
LPMT,2017-12-15 17:00,-9.0359,38.7039,57.20,48.20,71.83,360.00,10.00,0.00,30.00,M,6.21,M,FEW,M,M,M,2500.00,M,M,M,M,M,M,M,M,M,M,57.20,LPMT 151700Z 36010KT 9999 FEW025 14/09 Q1016
LPMT,2017-12-15 18:00,-9.0359,38.7039,55.40,48.20,76.66,360.00,8.00,0.00,30.03,M,6.21,M,FEW,M,M,M,2500.00,M,M,M,M,M,M,M,M,M,M,55.40,LPMT 151800Z 36008KT 9999 FEW025 13/09 Q1017
LPMT,2017-12-15 19:00,-9.0359,38.7039,55.40,44.60,66.91,360.00,9.00,0.00,30.03,M,6.21,M,M,M,M,M,M,M,M,M,M,M,M,M,M,M,M,55.40,LPMT 151900Z 36009KT CAVOK 13/07 Q1017
LPMT,2017-12-15 20:00,-9.0359,38.7039,53.60,42.80,66.70,360.00,8.00,0.00,30.06,M,6.21,M,M,M,M,M,M,M,M,M,M,M,M,M,M,M,M,53.60,LPMT 152000Z 36008KT CAVOK 12/06 Q1018
LPMT,2017-12-15 21:00,-9.0359,38.7039,53.60,44.60,71.45,350.00,9.00,0.00,30.06,M,6.21,M,M,M,M,M,M,M,M,M,M,M,M,M,M,M,M,53.60,LPMT 152100Z 35009KT CAVOK 12/07 Q1018
LPMT,2017-12-15 22:00,-9.0359,38.7039,51.80,44.60,76.34,350.00,7.00,0.00,30.09,M,6.21,M,M,M,M,M,M,M,M,M,M,M,M,M,M,M,M,51.80,LPMT 152200Z 35007KT CAVOK 11/07 Q1019
LPMT,2017-12-15 23:00,-9.0359,38.7039,51.80,42.80,71.26,350.00,9.00,0.00,30.09,M,6.21,M,M,M,M,M,M,M,M,M,M,M,M,M,M,M,M,51.80,LPMT 152300Z 35009KT CAVOK 11/06 Q1019
LPMT,2017-12-16 00:00,-9.0359,38.7039,51.80,41.00,66.48,350.00,8.00,0.00,30.09,M,6.21,M,M,M,M,M,M,M,M,M,M,M,M,M,M,M,M,51.80,LPMT 160000Z 35008KT CAVOK 11/05 Q1019
LPMT,2017-12-16 01:00,-9.0359,38.7039,50.00,39.20,66.27,360.00,8.00,0.00,30.12,M,6.21,M,M,M,M,M,M,M,M,M,M,M,M,M,M,M,M,46.29,LPMT 160100Z 36008KT CAVOK 10/04 Q1020
LPMT,2017-12-16 02:00,-9.0359,38.7039,50.00,39.20,66.27,360.00,11.00,0.00,30.12,M,6.21,M,M,M,M,M,M,M,M,M,M,M,M,M,M,M,M,45.21,LPMT 160200Z 36011KT CAVOK 10/04 Q1020
LPMT,2017-12-16 03:00,-9.0359,38.7039,51.80,39.20,61.99,360.00,8.00,0.00,30.12,M,6.21,M,M,M,M,M,M,M,M,M,M,M,M,M,M,M,M,51.80,LPMT 160300Z 36008KT 330V030 CAVOK 11/04 Q1020
LPMT,2017-12-16 04:00,-9.0359,38.7039,50.00,41.00,71.07,40.00,5.00,0.00,30.12,M,6.21,M,M,M,M,M,M,M,M,M,M,M,M,M,M,M,M,47.77,LPMT 160400Z 04005KT CAVOK 10/05 Q1020
LPMT,2017-12-16 05:00,-9.0359,38.7039,50.00,41.00,71.07,10.00,8.00,0.00,30.12,M,6.21,M,M,M,M,M,M,M,M,M,M,M,M,M,M,M,M,46.29,LPMT 160500Z 01008KT CAVOK 10/05 Q1020
LPMT,2017-12-16 06:00,-9.0359,38.7039,48.20,41.00,76.01,20.00,7.00,0.00,30.15,M,6.21,M,M,M,M,M,M,M,M,M,M,M,M,M,M,M,M,44.53,LPMT 160600Z 02007KT CAVOK 09/05 Q1021
LPMT,2017-12-16 07:00,-9.0359,38.7039,44.60,39.20,81.20,80.00,3.00,0.00,30.15,M,6.21,M,M,M,M,M,M,M,M,M,M,M,M,M,M,M,M,43.09,LPMT 160700Z 08003KT 030V120 CAVOK 07/04 Q1021
LPMT,2017-12-16 08:00,-9.0359,38.7039,44.60,39.20,81.20,10.00,6.00,0.00,30.18,M,6.21,M,M,M,M,M,M,M,M,M,M,M,M,M,M,M,M,40.71,LPMT 160800Z 01006KT CAVOK 07/04 Q1022
LPMT,2017-12-16 09:00,-9.0359,38.7039,48.20,41.00,76.01,60.00,3.00,0.00,30.21,M,6.21,M,M,M,M,M,M,M,M,M,M,M,M,M,M,M,M,47.21,LPMT 160900Z 06003KT 010V100 CAVOK 09/05 Q1023
LPMT,2017-12-16 10:00,-9.0359,38.7039,50.00,41.00,71.07,50.00,5.00,0.00,30.24,M,6.21,M,M,M,M,M,M,M,M,M,M,M,M,M,M,M,M,47.77,LPMT 161000Z 05005KT CAVOK 10/05 Q1024
LPMT,2017-12-16 11:00,-9.0359,38.7039,53.60,39.20,58.02,30.00,6.00,0.00,30.27,M,6.21,M,M,M,M,M,M,M,M,M,M,M,M,M,M,M,M,53.60,LPMT 161100Z 03006KT 360V070 CAVOK 12/04 Q1025
LPMT,2017-12-16 12:00,-9.0359,38.7039,55.40,41.00,58.27,40.00,9.00,0.00,30.24,M,6.21,M,M,M,M,M,M,M,M,M,M,M,M,M,M,M,M,55.40,LPMT 161200Z 04009KT CAVOK 13/05 Q1024
LPMT,2017-12-16 13:00,-9.0359,38.7039,57.20,41.00,54.60,30.00,11.00,0.00,30.24,M,6.21,M,M,M,M,M,M,M,M,M,M,M,M,M,M,M,M,57.20,LPMT 161300Z 03011KT CAVOK 14/05 Q1024
LPMT,2017-12-16 14:00,-9.0359,38.7039,57.20,37.40,47.44,10.00,13.00,0.00,30.21,M,6.21,M,FEW,M,M,M,3000.00,M,M,M,M,M,M,M,M,M,M,57.20,LPMT 161400Z 01013KT 9999 FEW030 14/03 Q1023
LPMT,2017-12-16 15:00,-9.0359,38.7039,57.20,39.20,50.91,20.00,12.00,0.00,30.21,M,6.21,M,FEW,M,M,M,3000.00,M,M,M,M,M,M,M,M,M,M,57.20,LPMT 161500Z 02012KT 9999 FEW030 14/04 Q1023
LPMT,2017-12-16 16:00,-9.0359,38.7039,57.20,39.20,50.91,20.00,10.00,0.00,30.24,M,6.21,M,M,M,M,M,M,M,M,M,M,M,M,M,M,M,M,57.20,LPMT 161600Z 02010KT CAVOK 14/04 Q1024
LPMT,2017-12-16 17:00,-9.0359,38.7039,55.40,39.20,54.34,360.00,8.00,0.00,30.24,M,6.21,M,M,M,M,M,M,M,M,M,M,M,M,M,M,M,M,55.40,LPMT 161700Z 36008KT CAVOK 13/04 Q1024
LPMT,2017-12-16 18:00,-9.0359,38.7039,53.60,39.20,58.02,360.00,7.00,0.00,30.27,M,6.21,M,M,M,M,M,M,M,M,M,M,M,M,M,M,M,M,53.60,LPMT 161800Z 36007KT CAVOK 12/04 Q1025
LPMT,2017-12-16 19:00,-9.0359,38.7039,51.80,41.00,66.48,350.00,8.00,0.00,30.27,M,6.21,M,M,M,M,M,M,M,M,M,M,M,M,M,M,M,M,51.80,LPMT 161900Z 35008KT CAVOK 11/05 Q1025
LPMT,2017-12-16 20:00,-9.0359,38.7039,50.00,42.80,76.18,360.00,6.00,0.00,30.30,M,6.21,M,M,M,M,M,M,M,M,M,M,M,M,M,M,M,M,47.21,LPMT 162000Z 36006KT CAVOK 10/06 Q1026
LPMT,2017-12-16 21:00,-9.0359,38.7039,48.20,41.00,76.01,20.00,8.00,0.00,30.30,M,6.21,M,M,M,M,M,M,M,M,M,M,M,M,M,M,M,M,44.07,LPMT 162100Z 02008KT CAVOK 09/05 Q1026
LPMT,2017-12-16 22:00,-9.0359,38.7039,50.00,41.00,71.07,10.00,10.00,0.00,30.33,M,6.21,M,M,M,M,M,M,M,M,M,M,M,M,M,M,M,M,45.54,LPMT 162200Z 01010KT CAVOK 10/05 Q1027
LPMT,2017-12-16 23:00,-9.0359,38.7039,46.40,41.00,81.34,30.00,8.00,0.00,30.36,M,6.21,M,M,M,M,M,M,M,M,M,M,M,M,M,M,M,M,41.85,LPMT 162300Z 03008KT CAVOK 08/05 Q1028
LPMT,2017-12-17 00:00,-9.0359,38.7039,46.40,41.00,81.34,20.00,6.00,0.00,30.36,M,6.21,M,M,M,M,M,M,M,M,M,M,M,M,M,M,M,M,42.87,LPMT 170000Z 02006KT CAVOK 08/05 Q1028
LPMT,2017-12-17 01:00,-9.0359,38.7039,42.80,39.20,86.99,30.00,5.00,0.00,30.36,M,6.21,M,M,M,M,M,M,M,M,M,M,M,M,M,M,M,M,39.22,LPMT 170100Z 03005KT CAVOK 06/04 Q1028
LPMT,2017-12-17 02:00,-9.0359,38.7039,44.60,41.00,87.09,30.00,8.00,0.00,30.36,M,6.21,M,M,M,M,M,M,M,M,M,M,M,M,M,M,M,M,39.63,LPMT 170200Z 03008KT CAVOK 07/05 Q1028
LPMT,2017-12-17 03:00,-9.0359,38.7039,42.80,41.00,93.30,40.00,8.00,0.00,30.36,M,6.21,M,M,M,M,M,M,M,M,M,M,M,M,M,M,M,M,37.42,LPMT 170300Z 04008KT CAVOK 06/05 Q1028
LPMT,2017-12-17 04:00,-9.0359,38.7039,42.80,39.20,86.99,40.00,8.00,0.00,30.39,M,6.21,M,M,M,M,M,M,M,M,M,M,M,M,M,M,M,M,37.42,LPMT 170400Z 04008KT CAVOK 06/04 Q1029
LPMT,2017-12-17 05:00,-9.0359,38.7039,42.80,37.40,81.07,30.00,9.00,0.00,30.39,M,6.21,M,M,M,M,M,M,M,M,M,M,M,M,M,M,M,M,36.94,LPMT 170500Z 03009KT CAVOK 06/03 Q1029
LPMT,2017-12-17 06:00,-9.0359,38.7039,41.00,39.20,93.24,10.00,6.00,0.00,30.39,M,6.21,M,M,M,M,M,M,M,M,M,M,M,M,M,M,M,M,36.37,LPMT 170600Z 01006KT CAVOK 05/04 Q1029
LPMT,2017-12-17 07:00,-9.0359,38.7039,41.00,37.40,86.89,40.00,5.00,0.00,30.39,M,6.21,M,M,M,M,M,M,M,M,M,M,M,M,M,M,M,M,37.08,LPMT 170700Z 04005KT CAVOK 05/03 Q1029
LPMT,2017-12-17 08:00,-9.0359,38.7039,39.20,35.60,86.79,40.00,4.00,0.00,30.42,M,6.21,M,M,M,M,M,M,M,M,M,M,M,M,M,M,M,M,35.83,LPMT 170800Z 04004KT 020V080 CAVOK 04/02 Q1030
LPMT,2017-12-17 09:00,-9.0359,38.7039,42.80,37.40,81.07,30.00,9.00,0.00,30.45,M,6.21,M,M,M,M,M,M,M,M,M,M,M,M,M,M,M,M,36.94,LPMT 170900Z 03009KT CAVOK 06/03 Q1031
LPMT,2017-12-17 10:00,-9.0359,38.7039,46.40,37.40,70.68,30.00,8.00,0.00,30.47,M,6.21,M,M,M,M,M,M,M,M,M,M,M,M,M,M,M,M,41.85,LPMT 171000Z 03008KT CAVOK 08/03 Q1032
LPMT,2017-12-17 11:00,-9.0359,38.7039,48.20,39.20,70.88,30.00,9.00,0.00,30.47,M,6.21,M,M,M,M,M,M,M,M,M,M,M,M,M,M,M,M,43.66,LPMT 171100Z 03009KT CAVOK 09/04 Q1032
LPMT,2017-12-17 12:00,-9.0359,38.7039,50.00,39.20,66.27,20.00,6.00,0.00,30.47,M,6.21,M,M,M,M,M,M,M,M,M,M,M,M,M,M,M,M,47.21,LPMT 171200Z 02006KT CAVOK 10/04 Q1032
LPMT,2017-12-17 13:00,-9.0359,38.7039,51.80,41.00,66.48,360.00,6.00,0.00,30.45,M,6.21,M,M,M,M,M,M,M,M,M,M,M,M,M,M,M,M,51.80,LPMT 171300Z 36006KT 330V030 CAVOK 11/05 Q1031
LPMT,2017-12-17 14:00,-9.0359,38.7039,51.80,41.00,66.48,360.00,7.00,0.00,30.42,M,6.21,M,M,M,M,M,M,M,M,M,M,M,M,M,M,M,M,51.80,LPMT 171400Z 36007KT CAVOK 11/05 Q1030
LPMT,2017-12-17 15:00,-9.0359,38.7039,55.40,41.00,58.27,360.00,6.00,0.00,30.42,M,6.21,M,M,M,M,M,M,M,M,M,M,M,M,M,M,M,M,55.40,LPMT 171500Z 36006KT CAVOK 13/05 Q1030
LPMT,2017-12-17 16:00,-9.0359,38.7039,55.40,41.00,58.27,30.00,8.00,0.00,30.42,M,6.21,M,M,M,M,M,M,M,M,M,M,M,M,M,M,M,M,55.40,LPMT 171600Z 03008KT CAVOK 13/05 Q1030
LPMT,2017-12-17 17:00,-9.0359,38.7039,53.60,39.20,58.02,30.00,5.00,0.00,30.45,M,6.21,M,M,M,M,M,M,M,M,M,M,M,M,M,M,M,M,53.60,LPMT 171700Z 03005KT CAVOK 12/04 Q1031
LPMT,2017-12-17 18:00,-9.0359,38.7039,48.20,39.20,70.88,30.00,6.00,0.00,30.45,M,6.21,M,M,M,M,M,M,M,M,M,M,M,M,M,M,M,M,45.04,LPMT 171800Z 03006KT CAVOK 09/04 Q1031
LPMT,2017-12-17 19:00,-9.0359,38.7039,48.20,41.00,76.01,30.00,6.00,0.00,30.45,M,6.21,M,M,M,M,M,M,M,M,M,M,M,M,M,M,M,M,45.04,LPMT 171900Z 03006KT CAVOK 09/05 Q1031
LPMT,2017-12-17 20:00,-9.0359,38.7039,48.20,41.00,76.01,10.00,6.00,0.00,30.47,M,6.21,M,M,M,M,M,M,M,M,M,M,M,M,M,M,M,M,45.04,LPMT 172000Z 01006KT CAVOK 09/05 Q1032
LPMT,2017-12-17 21:00,-9.0359,38.7039,44.60,39.20,81.20,350.00,5.00,0.00,30.47,M,6.21,M,M,M,M,M,M,M,M,M,M,M,M,M,M,M,M,41.36,LPMT 172100Z 35005KT CAVOK 07/04 Q1032
LPMT,2017-12-17 22:00,-9.0359,38.7039,41.00,39.20,93.24,40.00,6.00,0.00,30.47,M,6.21,M,M,M,M,M,M,M,M,M,M,M,M,M,M,M,M,36.37,LPMT 172200Z 04006KT CAVOK 05/04 Q1032
LPMT,2017-12-17 23:00,-9.0359,38.7039,41.00,39.20,93.24,30.00,5.00,0.00,30.50,M,6.21,M,M,M,M,M,M,M,M,M,M,M,M,M,M,M,M,37.08,LPMT 172300Z 03005KT CAVOK 05/04 Q1033
LPMT,2017-12-18 00:00,-9.0359,38.7039,39.20,37.40,93.19,40.00,5.00,0.00,30.50,M,6.21,M,M,M,M,M,M,M,M,M,M,M,M,M,M,M,M,34.95,LPMT 180000Z 04005KT CAVOK 04/03 Q1033
LPMT,2017-12-18 01:00,-9.0359,38.7039,42.80,37.40,81.07,30.00,9.00,0.00,30.50,M,6.21,M,M,M,M,M,M,M,M,M,M,M,M,M,M,M,M,36.94,LPMT 180100Z 03009KT CAVOK 06/03 Q1033
LPMT,2017-12-18 02:00,-9.0359,38.7039,42.80,39.20,86.99,20.00,7.00,0.00,30.50,M,6.21,M,M,M,M,M,M,M,M,M,M,M,M,M,M,M,M,37.94,LPMT 180200Z 02007KT CAVOK 06/04 Q1033
LPMT,2017-12-18 03:00,-9.0359,38.7039,42.80,39.20,86.99,30.00,8.00,0.00,30.50,M,6.21,M,M,M,M,M,M,M,M,M,M,M,M,M,M,M,M,37.42,LPMT 180300Z 03008KT CAVOK 06/04 Q1033
LPMT,2017-12-18 04:00,-9.0359,38.7039,41.00,39.20,93.24,40.00,8.00,0.00,30.50,M,6.21,M,M,M,M,M,M,M,M,M,M,M,M,M,M,M,M,35.20,LPMT 180400Z 04008KT CAVOK 05/04 Q1033
LPMT,2017-12-18 05:00,-9.0359,38.7039,39.20,37.40,93.19,40.00,3.00,0.00,30.47,M,6.21,M,M,M,M,M,M,M,M,M,M,M,M,M,M,M,M,36.92,LPMT 180500Z 04003KT CAVOK 04/03 Q1032
LPMT,2017-12-18 06:00,-9.0359,38.7039,37.40,35.60,93.14,40.00,6.00,0.00,30.50,M,6.21,M,M,M,M,M,M,M,M,M,M,M,M,M,M,M,M,32.03,LPMT 180600Z 04006KT CAVOK 03/02 Q1033
LPMT,2017-12-18 07:00,-9.0359,38.7039,41.00,35.60,80.93,30.00,7.00,0.00,30.50,M,6.21,M,M,M,M,M,M,M,M,M,M,M,M,M,M,M,M,35.75,LPMT 180700Z 03007KT CAVOK 05/02 Q1033
LPMT,2017-12-18 08:00,-9.0359,38.7039,39.20,35.60,86.79,50.00,6.00,0.00,30.50,M,6.21,M,M,M,M,M,M,M,M,M,M,M,M,M,M,M,M,34.20,LPMT 180800Z 05006KT CAVOK 04/02 Q1033
LPMT,2017-12-18 09:00,-9.0359,38.7039,41.00,37.40,86.89,20.00,6.00,0.00,30.50,M,6.21,M,M,M,M,M,M,M,M,M,M,M,M,M,M,M,M,36.37,LPMT 180900Z 02006KT CAVOK 05/03 Q1033
LPMT,2017-12-18 10:00,-9.0359,38.7039,44.60,37.40,75.68,20.00,8.00,0.00,30.53,M,6.21,M,M,M,M,M,M,M,M,M,M,M,M,M,M,M,M,39.63,LPMT 181000Z 02008KT CAVOK 07/03 Q1034
LPMT,2017-12-18 11:00,-9.0359,38.7039,46.40,37.40,70.68,20.00,11.00,0.00,30.53,M,6.21,M,M,M,M,M,M,M,M,M,M,M,M,M,M,M,M,40.66,LPMT 181100Z 02011KT CAVOK 08/03 Q1034
LPMT,2017-12-18 12:00,-9.0359,38.7039,50.00,39.20,66.27,20.00,8.00,0.00,30.50,M,6.21,M,M,M,M,M,M,M,M,M,M,M,M,M,M,M,M,46.29,LPMT 181200Z 02008KT CAVOK 10/04 Q1033
LPMT,2017-12-18 13:00,-9.0359,38.7039,51.80,39.20,61.99,360.00,7.00,0.00,30.47,M,6.21,M,M,M,M,M,M,M,M,M,M,M,M,M,M,M,M,51.80,LPMT 181300Z 36007KT 340V040 CAVOK 11/04 Q1032
LPMT,2017-12-18 14:00,-9.0359,38.7039,53.60,39.20,58.02,10.00,8.00,0.00,30.45,M,6.21,M,M,M,M,M,M,M,M,M,M,M,M,M,M,M,M,53.60,LPMT 181400Z 01008KT 340V040 CAVOK 12/04 Q1031
LPMT,2017-12-18 15:00,-9.0359,38.7039,55.40,37.40,50.64,20.00,9.00,0.00,30.45,M,6.21,M,M,M,M,M,M,M,M,M,M,M,M,M,M,M,M,55.40,LPMT 181500Z 02009KT CAVOK 13/03 Q1031
LPMT,2017-12-18 16:00,-9.0359,38.7039,55.40,37.40,50.64,50.00,7.00,0.00,30.45,M,6.21,M,M,M,M,M,M,M,M,M,M,M,M,M,M,M,M,55.40,LPMT 181600Z 05007KT CAVOK 13/03 Q1031
LPMT,2017-12-18 17:00,-9.0359,38.7039,53.60,42.80,66.70,30.00,3.00,0.00,30.42,M,6.21,M,M,M,M,M,M,M,M,M,M,M,M,M,M,M,M,53.60,LPMT 181700Z 03003KT CAVOK 12/06 Q1030
LPMT,2017-12-18 18:00,-9.0359,38.7039,46.40,41.00,81.34,20.00,4.00,0.00,30.42,M,6.21,M,M,M,M,M,M,M,M,M,M,M,M,M,M,M,M,44.24,LPMT 181800Z 02004KT CAVOK 08/05 Q1030
LPMT,2017-12-18 19:00,-9.0359,38.7039,46.40,37.40,70.68,330.00,4.00,0.00,30.42,M,6.21,M,M,M,M,M,M,M,M,M,M,M,M,M,M,M,M,44.24,LPMT 181900Z 33004KT CAVOK 08/03 Q1030
LPMT,2017-12-18 20:00,-9.0359,38.7039,50.00,37.40,61.76,330.00,4.00,0.00,30.45,M,6.21,M,M,M,M,M,M,M,M,M,M,M,M,M,M,M,M,48.44,LPMT 182000Z 33004KT CAVOK 10/03 Q1031
LPMT,2017-12-18 21:00,-9.0359,38.7039,41.00,35.60,80.93,M,1.00,0.00,30.45,M,6.21,M,M,M,M,M,M,M,M,M,M,M,M,M,M,M,M,41.00,LPMT 182100Z VRB01KT CAVOK 05/02 Q1031
LPMT,2017-12-18 22:00,-9.0359,38.7039,39.20,35.60,86.79,M,1.00,0.00,30.45,M,6.21,M,M,M,M,M,M,M,M,M,M,M,M,M,M,M,M,39.20,LPMT 182200Z VRB01KT CAVOK 04/02 Q1031
LPMT,2017-12-18 23:00,-9.0359,38.7039,41.00,39.20,93.24,M,2.00,0.00,30.45,M,6.21,M,M,M,M,M,M,M,M,M,M,M,M,M,M,M,M,41.00,LPMT 182300Z VRB02KT CAVOK 05/04 Q1031
LPMT,2017-12-19 00:00,-9.0359,38.7039,39.20,37.40,93.19,M,2.00,0.00,30.42,M,6.21,M,M,M,M,M,M,M,M,M,M,M,M,M,M,M,M,39.20,LPMT 190000Z VRB02KT CAVOK 04/03 Q1030
LPMT,2017-12-19 01:00,-9.0359,38.7039,39.20,39.20,100.00,150.00,4.00,0.00,30.39,M,6.21,M,M,M,M,M,M,M,M,M,M,M,M,M,M,M,M,35.83,LPMT 190100Z 15004KT CAVOK 04/04 Q1029
LPMT,2017-12-19 02:00,-9.0359,38.7039,39.20,37.40,93.19,100.00,2.00,0.00,30.39,M,6.21,M,M,M,M,M,M,M,M,M,M,M,M,M,M,M,M,39.20,LPMT 190200Z 10002KT CAVOK 04/03 Q1029
LPMT,2017-12-19 03:00,-9.0359,38.7039,39.20,37.40,93.19,100.00,2.00,0.00,30.39,M,6.21,M,M,M,M,M,M,M,M,M,M,M,M,M,M,M,M,39.20,LPMT 190300Z 10002KT CAVOK 04/03 Q1029
LPMT,2017-12-19 04:00,-9.0359,38.7039,39.20,37.40,93.19,140.00,2.00,0.00,30.39,M,6.21,M,M,M,M,M,M,M,M,M,M,M,M,M,M,M,M,39.20,LPMT 190400Z 14002KT CAVOK 04/03 Q1029
LPMT,2017-12-19 05:00,-9.0359,38.7039,37.40,35.60,93.14,M,1.00,0.00,30.36,M,6.21,M,M,M,M,M,M,M,M,M,M,M,M,M,M,M,M,37.40,LPMT 190500Z VRB01KT CAVOK 03/02 Q1028
LPMT,2017-12-19 06:00,-9.0359,38.7039,39.20,39.20,100.00,100.00,4.00,0.00,30.36,M,6.21,M,M,M,M,M,M,M,M,M,M,M,M,M,M,M,M,35.83,LPMT 190600Z 10004KT CAVOK 04/04 Q1028
LPMT,2017-12-19 07:00,-9.0359,38.7039,39.20,37.40,93.19,M,2.00,0.00,30.36,M,6.21,M,M,M,M,M,M,M,M,M,M,M,M,M,M,M,M,39.20,LPMT 190700Z VRB02KT CAVOK 04/03 Q1028
LPMT,2017-12-19 08:00,-9.0359,38.7039,39.20,37.40,93.19,100.00,3.00,0.00,30.39,M,6.21,M,M,M,M,M,M,M,M,M,M,M,M,M,M,M,M,36.92,LPMT 190800Z 10003KT CAVOK 04/03 Q1029
LPMT,2017-12-19 09:00,-9.0359,38.7039,44.60,41.00,87.09,M,2.00,0.00,30.39,M,6.21,M,M,M,M,M,M,M,M,M,M,M,M,M,M,M,M,44.60,LPMT 190900Z VRB02KT CAVOK 07/05 Q1029
LPMT,2017-12-19 10:00,-9.0359,38.7039,48.20,41.00,76.01,20.00,3.00,0.00,30.42,M,6.21,M,M,M,M,M,M,M,M,M,M,M,M,M,M,M,M,47.21,LPMT 191000Z 02003KT 350V050 CAVOK 09/05 Q1030
LPMT,2017-12-19 11:00,-9.0359,38.7039,51.80,42.80,71.26,70.00,4.00,0.00,30.42,M,6.21,M,M,M,M,M,M,M,M,M,M,M,M,M,M,M,M,51.80,LPMT 191100Z 07004KT 040V100 CAVOK 11/06 Q1030
LPMT,2017-12-19 12:00,-9.0359,38.7039,57.20,46.40,67.12,50.00,4.00,0.00,30.39,M,6.21,M,M,M,M,M,M,M,M,M,M,M,M,M,M,M,M,57.20,LPMT 191200Z 05004KT 350V100 CAVOK 14/08 Q1029
LPMT,2017-12-19 13:00,-9.0359,38.7039,59.00,48.20,67.33,10.00,4.00,0.00,30.36,M,6.21,M,M,M,M,M,M,M,M,M,M,M,M,M,M,M,M,59.00,LPMT 191300Z 01004KT 350V050 CAVOK 15/09 Q1028
LPMT,2017-12-19 14:00,-9.0359,38.7039,62.60,48.20,59.26,60.00,7.00,0.00,30.36,M,6.21,M,M,M,M,M,M,M,M,M,M,M,M,M,M,M,M,62.60,LPMT 191400Z 06007KT CAVOK 17/09 Q1028
LPMT,2017-12-19 15:00,-9.0359,38.7039,62.60,48.20,59.26,20.00,8.00,0.00,30.33,M,6.21,M,M,M,M,M,M,M,M,M,M,M,M,M,M,M,M,62.60,LPMT 191500Z 02008KT CAVOK 17/09 Q1027
LPMT,2017-12-19 16:00,-9.0359,38.7039,64.40,48.20,55.63,40.00,6.00,0.00,30.36,M,6.21,M,M,M,M,M,M,M,M,M,M,M,M,M,M,M,M,64.40,LPMT 191600Z 04006KT CAVOK 18/09 Q1028
LPMT,2017-12-19 17:00,-9.0359,38.7039,59.00,48.20,67.33,10.00,6.00,0.00,30.36,M,6.21,M,M,M,M,M,M,M,M,M,M,M,M,M,M,M,M,59.00,LPMT 191700Z 01006KT CAVOK 15/09 Q1028
LPMT,2017-12-19 18:00,-9.0359,38.7039,55.40,48.20,76.66,40.00,5.00,0.00,30.36,M,6.21,M,M,M,M,M,M,M,M,M,M,M,M,M,M,M,M,55.40,LPMT 191800Z 04005KT CAVOK 13/09 Q1028
LPMT,2017-12-19 19:00,-9.0359,38.7039,51.80,48.20,87.47,30.00,6.00,0.00,30.39,M,6.21,M,M,M,M,M,M,M,M,M,M,M,M,M,M,M,M,51.80,LPMT 191900Z 03006KT CAVOK 11/09 Q1029
LPMT,2017-12-19 20:00,-9.0359,38.7039,48.20,46.40,93.45,M,1.00,0.00,30.39,M,6.21,M,M,M,M,M,M,M,M,M,M,M,M,M,M,M,M,48.20,LPMT 192000Z VRB01KT CAVOK 09/08 Q1029
LPMT,2017-12-19 21:00,-9.0359,38.7039,46.40,44.60,93.40,110.00,3.00,0.00,30.42,M,6.21,M,M,M,M,M,M,M,M,M,M,M,M,M,M,M,M,45.15,LPMT 192100Z 11003KT CAVOK 08/07 Q1030
LPMT,2017-12-19 22:00,-9.0359,38.7039,42.80,41.00,93.30,40.00,2.00,0.00,30.42,M,6.21,M,M,M,M,M,M,M,M,M,M,M,M,M,M,M,M,42.80,LPMT 192200Z 04002KT CAVOK 06/05 Q1030
LPMT,2017-12-19 23:00,-9.0359,38.7039,46.40,41.00,81.34,10.00,7.00,0.00,30.45,M,6.21,M,M,M,M,M,M,M,M,M,M,M,M,M,M,M,M,42.33,LPMT 192300Z 01007KT CAVOK 08/05 Q1031
LPMT,2017-12-20 00:00,-9.0359,38.7039,46.40,41.00,81.34,20.00,8.00,0.00,30.45,M,6.21,M,M,M,M,M,M,M,M,M,M,M,M,M,M,M,M,41.85,LPMT 200000Z 02008KT CAVOK 08/05 Q1031
LPMT,2017-12-20 01:00,-9.0359,38.7039,44.60,41.00,87.09,40.00,6.00,0.00,30.45,M,6.21,M,M,M,M,M,M,M,M,M,M,M,M,M,M,M,M,40.71,LPMT 200100Z 04006KT CAVOK 07/05 Q1031
LPMT,2017-12-20 02:00,-9.0359,38.7039,42.80,39.20,86.99,60.00,4.00,0.00,30.45,M,6.21,M,M,M,M,M,M,M,M,M,M,M,M,M,M,M,M,40.03,LPMT 200200Z 06004KT CAVOK 06/04 Q1031
LPMT,2017-12-20 03:00,-9.0359,38.7039,41.00,37.40,86.89,360.00,4.00,0.00,30.47,M,6.21,M,M,M,M,M,M,M,M,M,M,M,M,M,M,M,M,37.93,LPMT 200300Z 36004KT CAVOK 05/03 Q1032
LPMT,2017-12-20 04:00,-9.0359,38.7039,41.00,37.40,86.89,30.00,5.00,0.00,30.47,M,6.21,M,M,M,M,M,M,M,M,M,M,M,M,M,M,M,M,37.08,LPMT 200400Z 03005KT CAVOK 05/03 Q1032
LPMT,2017-12-20 05:00,-9.0359,38.7039,39.20,37.40,93.19,20.00,6.00,0.00,30.47,M,6.21,M,M,M,M,M,M,M,M,M,M,M,M,M,M,M,M,34.20,LPMT 200500Z 02006KT CAVOK 04/03 Q1032
LPMT,2017-12-20 06:00,-9.0359,38.7039,41.00,37.40,86.89,30.00,6.00,0.00,30.47,M,6.21,M,M,M,M,M,M,M,M,M,M,M,M,M,M,M,M,36.37,LPMT 200600Z 03006KT CAVOK 05/03 Q1032
LPMT,2017-12-20 07:00,-9.0359,38.7039,41.00,37.40,86.89,40.00,6.00,0.00,30.47,M,6.21,M,M,M,M,M,M,M,M,M,M,M,M,M,M,M,M,36.37,LPMT 200700Z 04006KT CAVOK 05/03 Q1032
LPMT,2017-12-20 08:00,-9.0359,38.7039,41.00,37.40,86.89,40.00,5.00,0.00,30.50,M,6.21,M,M,M,M,M,M,M,M,M,M,M,M,M,M,M,M,37.08,LPMT 200800Z 04005KT CAVOK 05/03 Q1033
LPMT,2017-12-20 09:00,-9.0359,38.7039,42.80,35.60,75.50,50.00,5.00,0.00,30.53,M,6.21,M,M,M,M,M,M,M,M,M,M,M,M,M,M,M,M,39.22,LPMT 200900Z 05005KT CAVOK 06/02 Q1034
LPMT,2017-12-20 10:00,-9.0359,38.7039,46.40,37.40,70.68,40.00,7.00,0.00,30.53,M,6.21,M,M,M,M,M,M,M,M,M,M,M,M,M,M,M,M,42.33,LPMT 201000Z 04007KT CAVOK 08/03 Q1034
LPMT,2017-12-20 11:00,-9.0359,38.7039,48.20,39.20,70.88,30.00,8.00,0.00,30.53,M,6.21,M,M,M,M,M,M,M,M,M,M,M,M,M,M,M,M,44.07,LPMT 201100Z 03008KT CAVOK 09/04 Q1034
LPMT,2017-12-20 12:00,-9.0359,38.7039,51.80,39.20,61.99,30.00,5.00,0.00,30.53,M,6.21,M,M,M,M,M,M,M,M,M,M,M,M,M,M,M,M,51.80,LPMT 201200Z 03005KT 350V060 CAVOK 11/04 Q1034
LPMT,2017-12-20 13:00,-9.0359,38.7039,55.40,42.80,62.46,M,1.00,0.00,30.50,M,6.21,M,M,M,M,M,M,M,M,M,M,M,M,M,M,M,M,55.40,LPMT 201300Z VRB01KT CAVOK 13/06 Q1033
LPMT,2017-12-20 14:00,-9.0359,38.7039,57.20,42.80,58.52,290.00,3.00,0.00,30.50,M,6.21,M,M,M,M,M,M,M,M,M,M,M,M,M,M,M,M,57.20,LPMT 201400Z 29003KT 260V320 CAVOK 14/06 Q1033
LPMT,2017-12-20 15:00,-9.0359,38.7039,57.20,42.80,58.52,10.00,3.00,0.00,30.47,M,6.21,M,M,M,M,M,M,M,M,M,M,M,M,M,M,M,M,57.20,LPMT 201500Z 01003KT 310V040 CAVOK 14/06 Q1032
LPMT,2017-12-20 16:00,-9.0359,38.7039,55.40,44.60,66.91,320.00,3.00,0.00,30.47,M,6.21,M,M,M,M,M,M,M,M,M,M,M,M,M,M,M,M,55.40,LPMT 201600Z 32003KT CAVOK 13/07 Q1032
LPMT,2017-12-20 17:00,-9.0359,38.7039,53.60,44.60,71.45,280.00,3.00,0.00,30.47,M,6.21,M,M,M,M,M,M,M,M,M,M,M,M,M,M,M,M,53.60,LPMT 201700Z 28003KT CAVOK 12/07 Q1032
LPMT,2017-12-20 18:00,-9.0359,38.7039,50.00,46.40,87.37,260.00,3.00,0.00,30.47,M,6.21,M,M,M,M,M,M,M,M,M,M,M,M,M,M,M,M,49.27,LPMT 201800Z 26003KT CAVOK 10/08 Q1032
LPMT,2017-12-20 19:00,-9.0359,38.7039,48.20,44.60,87.28,310.00,3.00,0.00,30.47,M,6.21,M,M,M,M,M,M,M,M,M,M,M,M,M,M,M,M,47.21,LPMT 201900Z 31003KT CAVOK 09/07 Q1032
LPMT,2017-12-20 20:00,-9.0359,38.7039,46.40,42.80,87.19,350.00,3.00,0.00,30.47,M,6.21,M,M,M,M,M,M,M,M,M,M,M,M,M,M,M,M,45.15,LPMT 202000Z 35003KT CAVOK 08/06 Q1032
LPMT,2017-12-20 21:00,-9.0359,38.7039,44.60,41.00,87.09,M,1.00,0.00,30.50,M,6.21,M,M,M,M,M,M,M,M,M,M,M,M,M,M,M,M,44.60,LPMT 202100Z VRB01KT CAVOK 07/05 Q1033
LPMT,2017-12-20 22:00,-9.0359,38.7039,41.00,41.00,100.00,M,1.00,0.00,30.47,M,6.21,M,M,M,M,M,M,M,M,M,M,M,M,M,M,M,M,41.00,LPMT 202200Z VRB01KT CAVOK 05/05 Q1032
LPMT,2017-12-20 23:00,-9.0359,38.7039,39.20,39.20,100.00,260.00,3.00,0.00,30.47,M,6.21,M,M,M,M,M,M,M,M,M,M,M,M,M,M,M,M,36.92,LPMT 202300Z 26003KT CAVOK 04/04 Q1032
LPMT,2017-12-21 00:00,-9.0359,38.7039,41.00,39.20,93.24,120.00,3.00,0.00,30.50,M,6.21,M,M,M,M,M,M,M,M,M,M,M,M,M,M,M,M,38.98,LPMT 210000Z 12003KT 020V150 CAVOK 05/04 Q1033
LPMT,2017-12-21 01:00,-9.0359,38.7039,41.00,41.00,100.00,M,2.00,0.00,30.47,M,6.21,M,M,M,M,M,M,M,M,M,M,M,M,M,M,M,M,41.00,LPMT 210100Z VRB02KT CAVOK 05/05 Q1032
LPMT,2017-12-21 02:00,-9.0359,38.7039,39.20,37.40,93.19,90.00,3.00,0.00,30.47,M,6.21,M,M,M,M,M,M,M,M,M,M,M,M,M,M,M,M,36.92,LPMT 210200Z 09003KT CAVOK 04/03 Q1032
LPMT,2017-12-21 03:00,-9.0359,38.7039,37.40,37.40,100.00,90.00,3.00,0.00,30.50,M,6.21,M,M,M,M,M,M,M,M,M,M,M,M,M,M,M,M,34.86,LPMT 210300Z 09003KT CAVOK 03/03 Q1033
LPMT,2017-12-21 04:00,-9.0359,38.7039,35.60,35.60,100.00,120.00,3.00,0.00,30.50,M,6.21,M,M,M,M,M,M,M,M,M,M,M,M,M,M,M,M,32.80,LPMT 210400Z 12003KT CAVOK 02/02 Q1033
LPMT,2017-12-21 05:00,-9.0359,38.7039,37.40,37.40,100.00,40.00,3.00,0.00,30.50,M,6.21,M,M,M,M,M,M,M,M,M,M,M,M,M,M,M,M,34.86,LPMT 210500Z 04003KT CAVOK 03/03 Q1033
LPMT,2017-12-21 06:00,-9.0359,38.7039,39.20,39.20,100.00,30.00,4.00,0.00,30.50,M,6.21,M,M,M,M,M,M,M,M,M,M,M,M,M,M,M,M,35.83,LPMT 210600Z 03004KT CAVOK 04/04 Q1033
LPMT,2017-12-21 07:00,-9.0359,38.7039,41.00,39.20,93.24,30.00,5.00,0.00,30.53,M,6.21,M,M,M,M,M,M,M,M,M,M,M,M,M,M,M,M,37.08,LPMT 210700Z 03005KT CAVOK 05/04 Q1034
LPMT,2017-12-21 08:00,-9.0359,38.7039,39.20,37.40,93.19,40.00,6.00,0.00,30.53,M,6.21,M,M,M,M,M,M,M,M,M,M,M,M,M,M,M,M,34.20,LPMT 210800Z 04006KT CAVOK 04/03 Q1034
LPMT,2017-12-21 09:00,-9.0359,38.7039,42.80,39.20,86.99,30.00,6.00,0.00,30.56,M,6.21,M,M,M,M,M,M,M,M,M,M,M,M,M,M,M,M,38.54,LPMT 210900Z 03006KT CAVOK 06/04 Q1035
LPMT,2017-12-21 10:00,-9.0359,38.7039,44.60,39.20,81.20,30.00,7.00,0.00,30.59,M,6.21,M,M,M,M,M,M,M,M,M,M,M,M,M,M,M,M,40.14,LPMT 211000Z 03007KT CAVOK 07/04 Q1036
LPMT,2017-12-21 11:00,-9.0359,38.7039,48.20,41.00,76.01,40.00,6.00,0.00,30.59,M,6.21,M,M,M,M,M,M,M,M,M,M,M,M,M,M,M,M,45.04,LPMT 211100Z 04006KT CAVOK 09/05 Q1036
LPMT,2017-12-21 12:00,-9.0359,38.7039,51.80,42.80,71.26,30.00,6.00,0.00,30.59,M,6.21,M,M,M,M,M,M,M,M,M,M,M,M,M,M,M,M,51.80,LPMT 211200Z 03006KT 350V060 CAVOK 11/06 Q1036
LPMT,2017-12-21 13:00,-9.0359,38.7039,55.40,42.80,62.46,360.00,6.00,0.00,30.56,M,6.21,M,M,M,M,M,M,M,M,M,M,M,M,M,M,M,M,55.40,LPMT 211300Z 36006KT 330V030 CAVOK 13/06 Q1035
LPMT,2017-12-21 14:00,-9.0359,38.7039,55.40,46.40,71.64,340.00,7.00,0.00,30.56,M,6.21,M,M,M,M,M,M,M,M,M,M,M,M,M,M,M,M,55.40,LPMT 211400Z 34007KT CAVOK 13/08 Q1035
LPMT,2017-12-21 15:00,-9.0359,38.7039,57.20,44.60,62.69,360.00,6.00,0.00,30.56,M,6.21,M,M,M,M,M,M,M,M,M,M,M,M,M,M,M,M,57.20,LPMT 211500Z 36006KT CAVOK 14/07 Q1035
LPMT,2017-12-21 16:00,-9.0359,38.7039,59.00,46.40,62.92,350.00,5.00,0.00,30.56,M,6.21,M,M,M,M,M,M,M,M,M,M,M,M,M,M,M,M,59.00,LPMT 211600Z 35005KT 320V020 CAVOK 15/08 Q1035
LPMT,2017-12-21 17:00,-9.0359,38.7039,57.20,46.40,67.12,350.00,5.00,0.00,30.56,M,6.21,M,M,M,M,M,M,M,M,M,M,M,M,M,M,M,M,57.20,LPMT 211700Z 35005KT CAVOK 14/08 Q1035
LPMT,2017-12-21 18:00,-9.0359,38.7039,53.60,46.40,76.50,360.00,4.00,0.00,30.59,M,6.21,M,M,M,M,M,M,M,M,M,M,M,M,M,M,M,M,53.60,LPMT 211800Z 36004KT CAVOK 12/08 Q1036
LPMT,2017-12-21 19:00,-9.0359,38.7039,48.20,44.60,87.28,20.00,3.00,0.00,30.59,M,6.21,M,M,M,M,M,M,M,M,M,M,M,M,M,M,M,M,47.21,LPMT 211900Z 02003KT CAVOK 09/07 Q1036
LPMT,2017-12-21 20:00,-9.0359,38.7039,44.60,42.80,93.35,140.00,2.00,0.00,30.62,M,6.21,M,M,M,M,M,M,M,M,M,M,M,M,M,M,M,M,44.60,LPMT 212000Z 14002KT CAVOK 07/06 Q1037
LPMT,2017-12-21 21:00,-9.0359,38.7039,46.40,44.60,93.40,140.00,2.00,0.00,30.62,M,6.21,M,M,M,M,M,M,M,M,M,M,M,M,M,M,M,M,46.40,LPMT 212100Z 14002KT CAVOK 08/07 Q1037
LPMT,2017-12-21 22:00,-9.0359,38.7039,44.60,44.60,100.00,120.00,1.00,0.00,30.62,M,6.21,M,M,M,M,M,M,M,M,M,M,M,M,M,M,M,M,44.60,LPMT 212200Z 12001KT CAVOK 07/07 Q1037
LPMT,2017-12-21 23:00,-9.0359,38.7039,41.00,39.20,93.24,350.00,2.00,0.00,30.62,M,6.21,M,M,M,M,M,M,M,M,M,M,M,M,M,M,M,M,41.00,LPMT 212300Z 35002KT CAVOK 05/04 Q1037
LPMT,2017-12-22 00:00,-9.0359,38.7039,41.00,41.00,100.00,10.00,5.00,0.00,30.62,M,6.21,M,M,M,M,M,M,M,M,M,M,M,M,M,M,M,M,37.08,LPMT 220000Z 01005KT CAVOK 05/05 Q1037
LPMT,2017-12-22 01:00,-9.0359,38.7039,44.60,42.80,93.35,40.00,4.00,0.00,30.62,M,6.21,M,M,M,M,M,M,M,M,M,M,M,M,M,M,M,M,42.13,LPMT 220100Z 04004KT CAVOK 07/06 Q1037
LPMT,2017-12-22 02:00,-9.0359,38.7039,41.00,39.20,93.24,20.00,6.00,0.00,30.62,M,6.21,M,M,M,M,M,M,M,M,M,M,M,M,M,M,M,M,36.37,LPMT 220200Z 02006KT CAVOK 05/04 Q1037
LPMT,2017-12-22 03:00,-9.0359,38.7039,42.80,42.80,100.00,40.00,4.00,0.00,30.62,M,6.21,M,M,M,M,M,M,M,M,M,M,M,M,M,M,M,M,40.03,LPMT 220300Z 04004KT CAVOK 06/06 Q1037
LPMT,2017-12-22 04:00,-9.0359,38.7039,39.20,37.40,93.19,M,1.00,0.00,30.62,M,6.21,M,M,M,M,M,M,M,M,M,M,M,M,M,M,M,M,39.20,LPMT 220400Z VRB01KT CAVOK 04/03 Q1037
LPMT,2017-12-22 05:00,-9.0359,38.7039,41.00,39.20,M,M,M,0.00,30.62,M,6.21,M,M,M,M,M,M,M,M,M,M,M,M,M,M,M,M,M,LPMT 220500Z VR01KT CAVOK 05/04 Q1037
LPMT,2017-12-22 06:00,-9.0359,38.7039,37.40,37.40,100.00,80.00,4.00,0.00,30.62,M,6.21,M,M,M,M,M,M,M,M,M,M,M,M,M,M,M,M,33.73,LPMT 220600Z 08004KT CAVOK 03/03 Q1037
LPMT,2017-12-22 07:00,-9.0359,38.7039,37.40,35.60,93.14,80.00,1.00,0.00,30.65,M,6.21,M,M,M,M,M,M,M,M,M,M,M,M,M,M,M,M,37.40,LPMT 220700Z 08001KT CAVOK 03/02 Q1038
LPMT,2017-12-22 08:00,-9.0359,38.7039,35.60,35.60,100.00,60.00,3.00,0.00,30.65,M,6.21,M,M,M,M,M,M,M,M,M,M,M,M,M,M,M,M,32.80,LPMT 220800Z 06003KT CAVOK 02/02 Q1038
LPMT,2017-12-22 09:00,-9.0359,38.7039,39.20,39.20,100.00,40.00,3.00,0.00,30.65,M,6.21,M,M,M,M,M,M,M,M,M,M,M,M,M,M,M,M,36.92,LPMT 220900Z 04003KT CAVOK 04/04 Q1038
LPMT,2017-12-22 10:00,-9.0359,38.7039,46.40,42.80,87.19,40.00,4.00,0.00,30.68,M,6.21,M,M,M,M,M,M,M,M,M,M,M,M,M,M,M,M,44.24,LPMT 221000Z 04004KT CAVOK 08/06 Q1039
LPMT,2017-12-22 11:00,-9.0359,38.7039,50.00,44.60,81.61,180.00,3.00,0.00,30.68,M,6.21,M,M,M,M,M,M,M,M,M,M,M,M,M,M,M,M,49.27,LPMT 221100Z 18003KT 140V220 CAVOK 10/07 Q1039
LPMT,2017-12-22 12:00,-9.0359,38.7039,53.60,44.60,71.45,270.00,3.00,0.00,30.65,M,6.21,M,M,M,M,M,M,M,M,M,M,M,M,M,M,M,M,53.60,LPMT 221200Z 27003KT 230V300 CAVOK 12/07 Q1038
LPMT,2017-12-22 13:00,-9.0359,38.7039,59.00,44.60,58.77,M,2.00,0.00,30.62,M,6.21,M,M,M,M,M,M,M,M,M,M,M,M,M,M,M,M,59.00,LPMT 221300Z VRB02KT CAVOK 15/07 Q1037
LPMT,2017-12-22 14:00,-9.0359,38.7039,59.00,46.40,62.92,270.00,3.00,0.00,30.59,M,6.21,M,M,M,M,M,M,M,M,M,M,M,M,M,M,M,M,59.00,LPMT 221400Z 27003KT 230V300 CAVOK 15/08 Q1036
LPMT,2017-12-22 15:00,-9.0359,38.7039,60.80,48.20,63.15,280.00,4.00,0.00,30.56,M,6.21,M,M,M,M,M,M,M,M,M,M,M,M,M,M,M,M,60.80,LPMT 221500Z 28004KT CAVOK 16/09 Q1035
LPMT,2017-12-22 16:00,-9.0359,38.7039,60.80,48.20,63.15,260.00,2.00,0.00,30.53,M,6.21,M,M,M,M,M,M,M,M,M,M,M,M,M,M,M,M,60.80,LPMT 221600Z 26002KT CAVOK 16/09 Q1034
LPMT,2017-12-22 17:00,-9.0359,38.7039,59.00,50.00,72.01,310.00,3.00,0.00,30.56,M,6.21,M,M,M,M,M,M,M,M,M,M,M,M,M,M,M,M,59.00,LPMT 221700Z 31003KT 280V340 CAVOK 15/10 Q1035
LPMT,2017-12-22 18:00,-9.0359,38.7039,57.20,46.40,67.12,330.00,6.00,0.00,30.53,M,6.21,M,M,M,M,M,M,M,M,M,M,M,M,M,M,M,M,57.20,LPMT 221800Z 33006KT CAVOK 14/08 Q1034
LPMT,2017-12-22 19:00,-9.0359,38.7039,53.60,46.40,76.50,330.00,4.00,0.00,30.56,M,6.21,M,M,M,M,M,M,M,M,M,M,M,M,M,M,M,M,53.60,LPMT 221900Z 33004KT CAVOK 12/08 Q1035
LPMT,2017-12-22 20:00,-9.0359,38.7039,53.60,46.40,76.50,340.00,6.00,0.00,30.56,M,6.21,M,M,M,M,M,M,M,M,M,M,M,M,M,M,M,M,53.60,LPMT 222000Z 34006KT CAVOK 12/08 Q1035
LPMT,2017-12-22 21:00,-9.0359,38.7039,53.60,50.00,87.56,340.00,6.00,0.00,30.53,M,6.21,M,M,M,M,M,M,M,M,M,M,M,M,M,M,M,M,53.60,LPMT 222100Z 34006KT CAVOK 12/10 Q1034
LPMT,2017-12-22 22:00,-9.0359,38.7039,51.80,48.20,87.47,330.00,5.00,0.00,30.53,M,6.21,M,M,M,M,M,M,M,M,M,M,M,M,M,M,M,M,51.80,LPMT 222200Z 33005KT CAVOK 11/09 Q1034
LPMT,2017-12-22 23:00,-9.0359,38.7039,51.80,50.00,93.55,320.00,7.00,0.00,30.53,M,6.21,M,M,M,M,M,M,M,M,M,M,M,M,M,M,M,M,51.80,LPMT 222300Z 32007KT CAVOK 11/10 Q1034
LPMT,2017-12-23 00:00,-9.0359,38.7039,53.60,50.00,87.56,320.00,7.00,0.00,30.50,M,6.21,M,M,M,M,M,M,M,M,M,M,M,M,M,M,M,M,53.60,LPMT 230000Z 32007KT CAVOK 12/10 Q1033
LPMT,2017-12-23 01:00,-9.0359,38.7039,51.80,48.20,87.47,310.00,3.00,0.00,30.50,M,6.21,M,M,M,M,M,M,M,M,M,M,M,M,M,M,M,M,51.80,LPMT 230100Z 31003KT 260V350 CAVOK 11/09 Q1033
LPMT,2017-12-23 02:00,-9.0359,38.7039,46.40,46.40,100.00,M,2.00,0.00,30.47,M,6.21,M,M,M,M,M,M,M,M,M,M,M,M,M,M,M,M,46.40,LPMT 230200Z VRB02KT CAVOK 08/08 Q1032
LPMT,2017-12-23 03:00,-9.0359,38.7039,42.80,42.80,100.00,120.00,3.00,0.00,30.47,M,6.21,M,NSC,M,M,M,M,M,M,M,MIFG,M,M,M,M,M,M,41.03,LPMT 230300Z 12003KT 9999 MIFG NSC 06/06 Q1032
LPMT,2017-12-23 04:00,-9.0359,38.7039,39.20,39.20,100.00,120.00,2.00,0.00,30.47,M,5.59,M,FEW,M,M,M,800.00,M,M,M,MIFG,M,M,M,M,M,M,39.20,LPMT 230400Z 12002KT 9000 MIFG FEW008 04/04 Q1032
LPMT,2017-12-23 05:00,-9.0359,38.7039,41.00,41.00,100.00,120.00,1.00,0.00,30.45,M,6.21,M,FEW,M,M,M,800.00,M,M,M,MIFG,M,M,M,M,M,M,41.00,LPMT 230500Z 12001KT 9999 MIFG FEW008 05/05 Q1031
LPMT,2017-12-23 06:00,-9.0359,38.7039,39.20,39.20,100.00,90.00,4.00,0.00,30.45,M,0.19,M,OVC,M,M,M,200.00,M,M,M,FG,M,M,M,M,M,M,35.83,LPMT 230600Z 09004KT 0300 FG OVC002 04/04 Q1031
LPMT,2017-12-23 08:00,-9.0359,38.7039,41.00,41.00,100.00,100.00,2.00,0.00,30.47,M,0.12,M,VV ,M,M,M,200.00,M,M,M,FG,M,M,M,M,M,M,41.00,LPMT 230800Z 10002KT 0200 FG VV002 05/05 Q1032
LPMT,2017-12-23 09:00,-9.0359,38.7039,42.80,42.80,100.00,30.00,4.00,0.00,30.47,M,0.06,M,VV ,M,M,M,200.00,M,M,M,FG,M,M,M,M,M,M,40.03,LPMT 230900Z 03004KT 0100 FG VV002 06/06 Q1032
LPMT,2017-12-23 10:00,-9.0359,38.7039,42.80,42.80,100.00,20.00,7.00,0.00,30.47,M,0.19,M,VV ,M,M,M,200.00,M,M,M,FG,M,M,M,M,M,M,37.94,LPMT 231000Z 02007KT 0300 FG VV002 06/06 Q1032
LPMT,2017-12-23 11:00,-9.0359,38.7039,44.60,44.60,100.00,30.00,9.00,0.00,30.47,M,2.49,M,FEW,SCT,M,M,100.00,400.00,M,M,BR,M,M,M,M,M,M,39.18,LPMT 231100Z 03009KT 4000 BR FEW001 SCT004 07/07 Q1032
LPMT,2017-12-23 12:00,-9.0359,38.7039,50.00,44.60,81.61,30.00,8.00,0.00,30.47,M,6.21,M,FEW,M,M,M,600.00,M,M,M,M,M,M,M,M,M,M,46.29,LPMT 231200Z 03008KT 9999 FEW006 10/07 Q1032
LPMT,2017-12-23 13:00,-9.0359,38.7039,51.80,46.40,81.74,10.00,6.00,0.00,30.45,M,6.21,M,M,M,M,M,M,M,M,M,M,M,M,M,M,M,M,51.80,LPMT 231300Z 01006KT CAVOK 11/08 Q1031
LPMT,2017-12-23 14:00,-9.0359,38.7039,55.40,46.40,71.64,360.00,7.00,0.00,30.42,M,6.21,M,M,M,M,M,M,M,M,M,M,M,M,M,M,M,M,55.40,LPMT 231400Z 36007KT CAVOK 13/08 Q1030
LPMT,2017-12-23 15:00,-9.0359,38.7039,55.40,46.40,71.64,360.00,8.00,0.00,30.42,M,6.21,M,M,M,M,M,M,M,M,M,M,M,M,M,M,M,M,55.40,LPMT 231500Z 36008KT CAVOK 13/08 Q1030
LPMT,2017-12-23 16:00,-9.0359,38.7039,57.20,48.20,71.83,350.00,7.00,0.00,30.39,M,6.21,M,M,M,M,M,M,M,M,M,M,M,M,M,M,M,M,57.20,LPMT 231600Z 35007KT CAVOK 14/09 Q1029
LPMT,2017-12-23 18:00,-9.0359,38.7039,51.80,48.20,87.47,10.00,5.00,0.00,30.39,M,6.21,M,M,M,M,M,M,M,M,M,M,M,M,M,M,M,M,51.80,LPMT 231800Z 01005KT CAVOK 11/09 Q1029
LPMT,2017-12-23 19:00,-9.0359,38.7039,48.20,46.40,93.45,M,2.00,0.00,30.42,M,6.21,M,M,M,M,M,M,M,M,M,M,M,M,M,M,M,M,48.20,LPMT 231900Z VRB02KT CAVOK 09/08 Q1030
LPMT,2017-12-23 20:00,-9.0359,38.7039,44.60,44.60,100.00,90.00,2.00,0.00,30.42,M,6.21,M,M,M,M,M,M,M,M,M,M,M,M,M,M,M,M,44.60,LPMT 232000Z 09002KT CAVOK 07/07 Q1030
LPMT,2017-12-23 21:00,-9.0359,38.7039,44.60,42.80,93.35,M,1.00,0.00,30.45,M,6.21,M,M,M,M,M,M,M,M,M,M,M,M,M,M,M,M,44.60,LPMT 232100Z VRB01KT CAVOK 07/06 Q1031
LPMT,2017-12-23 22:00,-9.0359,38.7039,42.80,41.00,93.30,50.00,5.00,0.00,30.45,M,6.21,M,M,M,M,M,M,M,M,M,M,M,M,M,M,M,M,39.22,LPMT 232200Z 05005KT CAVOK 06/05 Q1031
LPMT,2017-12-23 23:00,-9.0359,38.7039,44.60,44.60,100.00,10.00,5.00,0.00,30.45,M,6.21,M,M,M,M,M,M,M,M,M,M,M,M,M,M,M,M,41.36,LPMT 232300Z 01005KT CAVOK 07/07 Q1031
LPMT,2017-12-24 00:00,-9.0359,38.7039,44.60,42.80,93.35,40.00,4.00,0.00,30.45,M,6.21,M,M,M,M,M,M,M,M,M,M,M,M,M,M,M,M,42.13,LPMT 240000Z 04004KT CAVOK 07/06 Q1031
LPMT,2017-12-24 01:00,-9.0359,38.7039,44.60,42.80,93.35,30.00,7.00,0.00,30.45,M,6.21,M,M,M,M,M,M,M,M,M,M,M,M,M,M,M,M,40.14,LPMT 240100Z 03007KT CAVOK 07/06 Q1031
LPMT,2017-12-24 02:00,-9.0359,38.7039,42.80,41.00,93.30,30.00,7.00,0.00,30.42,M,6.21,M,M,M,M,M,M,M,M,M,M,M,M,M,M,M,M,37.94,LPMT 240200Z 03007KT CAVOK 06/05 Q1030
LPMT,2017-12-24 03:00,-9.0359,38.7039,42.80,41.00,93.30,40.00,7.00,0.00,30.42,M,6.21,M,M,M,M,M,M,M,M,M,M,M,M,M,M,M,M,37.94,LPMT 240300Z 04007KT CAVOK 06/05 Q1030
LPMT,2017-12-24 04:00,-9.0359,38.7039,42.80,41.00,93.30,30.00,6.00,0.00,30.42,M,6.21,M,M,M,M,M,M,M,M,M,M,M,M,M,M,M,M,38.54,LPMT 240400Z 03006KT CAVOK 06/05 Q1030
LPMT,2017-12-24 05:00,-9.0359,38.7039,42.80,42.80,100.00,50.00,5.00,0.00,30.42,M,6.21,M,SCT,SCT,M,M,2500.00,4500.00,M,M,M,M,M,M,M,M,M,39.22,LPMT 240500Z 05005KT 9999 SCT025 SCT045 06/06 Q1030
LPMT,2017-12-24 06:00,-9.0359,38.7039,42.80,41.00,93.30,40.00,5.00,0.00,30.42,M,6.21,M,SCT,BKN,M,M,900.00,2800.00,M,M,M,M,M,M,M,M,M,39.22,LPMT 240600Z 04005KT 9999 SCT009 BKN028 06/05 Q1030
LPMT,2017-12-24 07:00,-9.0359,38.7039,44.60,42.80,93.35,30.00,6.00,0.00,30.42,M,6.21,M,BKN,SCT,M,M,3500.00,4500.00,M,M,M,M,M,M,M,M,M,40.71,LPMT 240700Z 03006KT 9999 BKN035 SCT045 07/06 Q1030
LPMT,2017-12-24 08:00,-9.0359,38.7039,44.60,42.80,93.35,40.00,7.00,0.00,30.42,M,6.21,M,BKN,M,M,M,4500.00,M,M,M,M,M,M,M,M,M,M,40.14,LPMT 240800Z 04007KT 9999 BKN045 07/06 Q1030
LPMT,2017-12-24 09:00,-9.0359,38.7039,44.60,44.60,100.00,30.00,8.00,0.00,30.42,M,6.21,M,BKN,M,M,M,4500.00,M,M,M,M,M,M,M,M,M,M,39.63,LPMT 240900Z 03008KT 9999 BKN045 07/07 Q1030
LPMT,2017-12-24 10:00,-9.0359,38.7039,46.40,44.60,93.40,30.00,8.00,0.00,30.45,M,6.21,M,BKN,M,M,M,4500.00,M,M,M,M,M,M,M,M,M,M,41.85,LPMT 241000Z 03008KT 9999 BKN045 08/07 Q1031
LPMT,2017-12-24 11:00,-9.0359,38.7039,48.20,44.60,87.28,30.00,9.00,0.00,30.45,M,6.21,M,BKN,M,M,M,4500.00,M,M,M,M,M,M,M,M,M,M,43.66,LPMT 241100Z 03009KT 9999 BKN045 09/07 Q1031
LPMT,2017-12-24 12:00,-9.0359,38.7039,51.80,46.40,81.74,30.00,9.00,0.00,30.42,M,6.21,M,BKN,M,M,M,4500.00,M,M,M,M,M,M,M,M,M,M,51.80,LPMT 241200Z 03009KT 9999 BKN045 11/08 Q1030
LPMT,2017-12-24 13:00,-9.0359,38.7039,55.40,48.20,76.66,20.00,6.00,0.00,30.39,M,6.21,M,BKN,M,M,M,4500.00,M,M,M,M,M,M,M,M,M,M,55.40,LPMT 241300Z 02006KT 9999 BKN045 13/09 Q1029
LPMT,2017-12-24 14:00,-9.0359,38.7039,55.40,50.00,81.99,10.00,6.00,0.00,30.36,M,6.21,M,FEW,BKN,M,M,3000.00,4000.00,M,M,M,M,M,M,M,M,M,55.40,LPMT 241400Z 01006KT 9999 FEW030 BKN040 13/10 Q1028
LPMT,2017-12-24 15:00,-9.0359,38.7039,59.00,48.20,67.33,100.00,5.00,0.00,30.33,M,6.21,M,FEW,SCT,M,M,3000.00,4000.00,M,M,M,M,M,M,M,M,M,59.00,LPMT 241500Z 10005KT 9999 FEW030 SCT040 15/09 Q1027
LPMT,2017-12-24 16:00,-9.0359,38.7039,55.40,50.00,81.99,10.00,4.00,0.00,30.33,M,6.21,M,FEW,M,M,M,2500.00,M,M,M,M,M,M,M,M,M,M,55.40,LPMT 241600Z 01004KT 9999 FEW025 13/10 Q1027
LPMT,2017-12-24 17:00,-9.0359,38.7039,55.40,50.00,81.99,350.00,4.00,0.00,30.33,M,6.21,M,FEW,M,M,M,2500.00,M,M,M,M,M,M,M,M,M,M,55.40,LPMT 241700Z 35004KT 9999 FEW025 13/10 Q1027
LPMT,2017-12-24 18:00,-9.0359,38.7039,53.60,50.00,87.56,10.00,5.00,0.00,30.33,M,6.21,M,FEW,SCT,M,M,2500.00,4000.00,M,M,M,M,M,M,M,M,M,53.60,LPMT 241800Z 01005KT 9999 FEW025 SCT040 12/10 Q1027
LPMT,2017-12-24 20:00,-9.0359,38.7039,53.60,50.00,87.56,70.00,4.00,0.00,30.33,M,6.21,M,BKN,M,M,M,4000.00,M,M,M,M,M,M,M,M,M,M,53.60,LPMT 242000Z 07004KT 9999 BKN040 12/10 Q1027
LPMT,2017-12-24 21:00,-9.0359,38.7039,53.60,50.00,87.56,100.00,5.00,0.00,30.33,M,6.21,M,BKN,M,M,M,4000.00,M,M,M,M,M,M,M,M,M,M,53.60,LPMT 242100Z 10005KT 9999 BKN040 12/10 Q1027
LPMT,2017-12-24 22:00,-9.0359,38.7039,50.00,50.00,100.00,50.00,2.00,0.00,30.30,M,6.21,M,FEW,M,M,M,4000.00,M,M,M,M,M,M,M,M,M,M,50.00,LPMT 242200Z 05002KT 9999 FEW040 10/10 Q1026
LPMT,2017-12-24 23:00,-9.0359,38.7039,51.80,50.00,93.55,30.00,4.00,0.00,30.30,M,6.21,M,FEW,M,M,M,4500.00,M,M,M,M,M,M,M,M,M,M,51.80,LPMT 242300Z 03004KT 9999 FEW045 11/10 Q1026
LPMT,2017-12-25 00:00,-9.0359,38.7039,50.00,50.00,100.00,30.00,4.00,0.00,30.30,M,6.21,M,FEW,M,M,M,4500.00,M,M,M,M,M,M,M,M,M,M,48.44,LPMT 250000Z 03004KT 9999 FEW045 10/10 Q1026
LPMT,2017-12-25 01:00,-9.0359,38.7039,48.20,48.20,100.00,40.00,2.00,0.00,30.27,M,6.21,M,FEW,M,M,M,4500.00,M,M,M,M,M,M,M,M,M,M,48.20,LPMT 250100Z 04002KT 9999 FEW045 09/09 Q1025
LPMT,2017-12-25 02:00,-9.0359,38.7039,46.40,46.40,100.00,60.00,4.00,0.00,30.27,M,6.21,M,FEW,M,M,M,4500.00,M,M,M,M,M,M,M,M,M,M,44.24,LPMT 250200Z 06004KT 9999 FEW045 08/08 Q1025
LPMT,2017-12-25 03:00,-9.0359,38.7039,46.40,46.40,100.00,50.00,4.00,0.00,30.24,M,6.21,M,FEW,M,M,M,4500.00,M,M,M,M,M,M,M,M,M,M,44.24,LPMT 250300Z 05004KT 9999 FEW045 08/08 Q1024
LPMT,2017-12-25 04:00,-9.0359,38.7039,48.20,48.20,100.00,30.00,4.00,0.00,30.24,M,6.21,M,FEW,M,M,M,3500.00,M,M,M,M,M,M,M,M,M,M,46.34,LPMT 250400Z 03004KT 010V070 9999 FEW035 09/09 Q1024
LPMT,2017-12-25 05:00,-9.0359,38.7039,46.40,46.40,100.00,20.00,3.00,0.00,30.24,M,6.21,M,FEW,M,M,M,2200.00,M,M,M,M,M,M,M,M,M,M,45.15,LPMT 250500Z 02003KT 9999 FEW022 08/08 Q1024
LPMT,2017-12-25 06:00,-9.0359,38.7039,46.40,46.40,100.00,30.00,5.00,0.00,30.24,M,6.21,M,FEW,M,M,M,2200.00,M,M,M,M,M,M,M,M,M,M,43.50,LPMT 250600Z 03005KT 9999 FEW022 08/08 Q1024
LPMT,2017-12-25 07:00,-9.0359,38.7039,48.20,48.20,100.00,10.00,3.00,0.00,30.24,M,6.21,M,FEW,M,M,M,600.00,M,M,M,M,M,M,M,M,M,M,47.21,LPMT 250700Z 01003KT 9999 FEW006 09/09 Q1024
LPMT,2017-12-25 08:00,-9.0359,38.7039,44.60,44.60,100.00,10.00,3.00,0.00,30.24,M,4.35,M,SCT,M,M,M,600.00,M,M,M,M,M,M,M,M,M,M,43.09,LPMT 250800Z 01003KT 7000 SCT006 07/07 Q1024
LPMT,2017-12-25 09:00,-9.0359,38.7039,48.20,48.20,100.00,60.00,3.00,0.00,30.24,M,2.49,M,SCT,M,M,M,300.00,M,M,M,BR,M,M,M,M,M,M,47.21,LPMT 250900Z 06003KT 030V090 4000 BR SCT003 09/09 Q1024
LPMT,2017-12-25 10:00,-9.0359,38.7039,51.80,51.80,100.00,100.00,3.00,0.00,30.24,M,3.11,M,FEW,M,M,M,2000.00,M,M,M,BR,M,M,M,M,M,M,51.80,LPMT 251000Z 10003KT 070V150 5000 BR FEW020 11/11 Q1024
LPMT,2017-12-25 11:00,-9.0359,38.7039,51.80,50.00,93.55,M,2.00,0.00,30.24,M,3.11,M,FEW,M,M,M,400.00,M,M,M,BR,M,M,M,M,M,M,51.80,LPMT 251100Z VRB02KT 5000 2500S BR FEW004 11/10 Q1024
LPMT,2017-12-25 12:00,-9.0359,38.7039,53.60,51.80,93.60,310.00,3.00,0.00,30.24,M,3.11,M,FEW,SCT,M,M,300.00,4000.00,M,M,PRFG,M,M,M,M,M,M,53.60,LPMT 251200Z 31003KT 270V020 5000 0500NW PRFG FEW003 SCT040 12/11 Q1024
LPMT,2017-12-25 13:00,-9.0359,38.7039,55.40,51.80,87.65,M,2.00,0.00,30.21,M,4.97,M,FEW,BKN,M,M,2000.00,4000.00,M,M,VCFG,M,M,M,M,M,M,55.40,LPMT 251300Z VRB02KT 8000 3000N VCFG FEW020 BKN040 13/11 Q1023
LPMT,2017-12-25 14:00,-9.0359,38.7039,57.20,51.80,82.12,250.00,4.00,0.00,30.18,M,6.21,M,BKN,SCT,M,M,2500.00,4000.00,M,M,M,M,M,M,M,M,M,57.20,LPMT 251400Z 25004KT 230V290 9999 BKN025 SCT040 14/11 Q1022
LPMT,2017-12-25 15:00,-9.0359,38.7039,59.00,51.80,76.98,240.00,8.00,0.00,30.18,M,6.21,M,SCT,SCT,M,M,2500.00,4000.00,M,M,M,M,M,M,M,M,M,59.00,LPMT 251500Z 24008KT 9999 SCT025 SCT040 15/11 Q1022
LPMT,2017-12-25 16:00,-9.0359,38.7039,60.80,53.60,77.14,220.00,7.00,0.00,30.18,M,6.21,M,SCT,M,M,M,2000.00,M,M,M,M,M,M,M,M,M,M,60.80,LPMT 251600Z 22007KT 9999 SCT020 16/12 Q1022
LPMT,2017-12-25 17:00,-9.0359,38.7039,59.00,53.60,82.25,230.00,8.00,0.00,30.18,M,6.21,M,FEW,M,M,M,2000.00,M,M,M,M,M,M,M,M,M,M,59.00,LPMT 251700Z 23008KT 9999 FEW020 15/12 Q1022
LPMT,2017-12-25 18:00,-9.0359,38.7039,57.20,53.60,87.74,230.00,8.00,0.00,30.15,M,6.21,M,FEW,M,M,M,2500.00,M,M,M,M,M,M,M,M,M,M,57.20,LPMT 251800Z 23008KT 9999 FEW025 14/12 Q1021
LPMT,2017-12-25 19:00,-9.0359,38.7039,59.00,53.60,82.25,220.00,8.00,0.00,30.18,M,6.21,M,FEW,BKN,M,M,2500.00,4000.00,M,M,-RA,M,M,M,M,M,M,59.00,LPMT 251900Z 22008KT 9999 -RA FEW025 BKN040 15/12 Q1022
LPMT,2017-12-25 20:00,-9.0359,38.7039,55.40,51.80,87.65,340.00,8.00,0.00,30.18,M,6.21,M,FEW,BKN,M,M,2000.00,4000.00,M,M,M,M,M,M,M,M,M,55.40,LPMT 252000Z 34008KT 9999 FEW020 BKN040 13/11 Q1022 RERA
LPMT,2017-12-25 21:00,-9.0359,38.7039,53.60,51.80,93.60,20.00,3.00,0.00,30.21,M,6.21,M,FEW,SCT,M,M,3000.00,4500.00,M,M,M,M,M,M,M,M,M,53.60,LPMT 252100Z 02003KT 350V080 9999 FEW030 SCT045 12/11 Q1023
LPMT,2017-12-25 22:00,-9.0359,38.7039,53.60,51.80,93.60,M,2.00,0.00,30.21,M,6.21,M,FEW,SCT,M,M,2500.00,4500.00,M,M,M,M,M,M,M,M,M,53.60,LPMT 252200Z VRB02KT 9999 FEW025 SCT045 12/11 Q1023
LPMT,2017-12-25 23:00,-9.0359,38.7039,50.00,50.00,100.00,230.00,3.00,0.00,30.24,M,6.21,M,FEW,M,M,M,2500.00,M,M,M,M,M,M,M,M,M,M,49.27,LPMT 252300Z 23003KT 9999 FEW025 10/10 Q1024
LPMT,2017-12-26 00:00,-9.0359,38.7039,51.80,50.00,93.55,240.00,4.00,0.00,30.24,M,6.21,M,FEW,M,M,M,1500.00,M,M,M,M,M,M,M,M,M,M,51.80,LPMT 260000Z 24004KT 9999 FEW015 11/10 Q1024
LPMT,2017-12-26 01:00,-9.0359,38.7039,51.80,51.80,100.00,260.00,4.00,0.00,30.24,M,6.21,M,FEW,M,M,M,2500.00,M,M,M,M,M,M,M,M,M,M,51.80,LPMT 260100Z 26004KT 9999 FEW025 11/11 Q1024
LPMT,2017-12-26 02:00,-9.0359,38.7039,50.00,50.00,100.00,260.00,3.00,0.00,30.24,M,6.21,M,FEW,M,M,M,2000.00,M,M,M,M,M,M,M,M,M,M,49.27,LPMT 260200Z 26003KT 9999 FEW020 10/10 Q1024
LPMT,2017-12-26 03:00,-9.0359,38.7039,50.00,50.00,100.00,280.00,4.00,0.00,30.27,M,6.21,M,FEW,M,M,M,2000.00,M,M,M,M,M,M,M,M,M,M,48.44,LPMT 260300Z 28004KT 9999 FEW020 10/10 Q1025
LPMT,2017-12-26 04:00,-9.0359,38.7039,46.40,46.40,100.00,290.00,3.00,0.00,30.24,M,6.21,M,FEW,M,M,M,2000.00,M,M,M,M,M,M,M,M,M,M,45.15,LPMT 260400Z 29003KT 9999 FEW020 08/08 Q1024
LPMT,2017-12-26 05:00,-9.0359,38.7039,46.40,44.60,93.40,M,2.00,0.00,30.24,M,6.21,M,FEW,M,M,M,2000.00,M,M,M,M,M,M,M,M,M,M,46.40,LPMT 260500Z VRB02KT 9999 FEW020 08/07 Q1024
LPMT,2017-12-26 06:00,-9.0359,38.7039,42.80,42.80,100.00,200.00,3.00,0.00,30.24,M,6.21,M,FEW,M,M,M,2000.00,M,M,M,M,M,M,M,M,M,M,41.03,LPMT 260600Z 20003KT 9999 FEW020 06/06 Q1024
LPMT,2017-12-26 07:00,-9.0359,38.7039,42.80,42.80,100.00,M,1.00,0.00,30.24,M,6.21,M,FEW,M,M,M,2000.00,M,M,M,MIFG,M,M,M,M,M,M,42.80,LPMT 260700Z VRB01KT 9999 MIFG FEW020 06/06 Q1024
LPMT,2017-12-26 08:00,-9.0359,38.7039,41.00,41.00,100.00,200.00,2.00,0.00,30.24,M,6.21,M,FEW,M,M,M,2000.00,M,M,M,MIFG,M,M,M,M,M,M,41.00,LPMT 260800Z 20002KT 9999 MIFG FEW020 05/05 Q1024
LPMT,2017-12-26 09:00,-9.0359,38.7039,44.60,44.60,100.00,170.00,2.00,0.00,30.27,M,6.21,M,FEW,M,M,M,2000.00,M,M,M,M,M,M,M,M,M,M,44.60,LPMT 260900Z 17002KT 9999 FEW020 07/07 Q1025
LPMT,2017-12-26 11:00,-9.0359,38.7039,53.60,51.80,93.60,190.00,3.00,0.00,30.27,M,6.21,M,FEW,M,M,M,2000.00,M,M,M,M,M,M,M,M,M,M,53.60,LPMT 261100Z 19003KT 9999 FEW020 12/11 Q1025
LPMT,2017-12-26 12:00,-9.0359,38.7039,57.20,51.80,82.12,260.00,3.00,0.00,30.27,M,6.21,M,FEW,M,M,M,2000.00,M,M,M,M,M,M,M,M,M,M,57.20,LPMT 261200Z 26003KT 9999 FEW020 14/11 Q1025
LPMT,2017-12-26 13:00,-9.0359,38.7039,57.20,48.20,71.83,260.00,6.00,0.00,30.21,M,6.21,M,FEW,M,M,M,2500.00,M,M,M,M,M,M,M,M,M,M,57.20,LPMT 261300Z 26006KT 9999 FEW025 14/09 Q1023
LPMT,2017-12-26 14:00,-9.0359,38.7039,59.00,50.00,72.01,260.00,9.00,0.00,30.21,M,6.21,M,FEW,M,M,M,3000.00,M,M,M,M,M,M,M,M,M,M,59.00,LPMT 261400Z 26009KT 9999 FEW030 15/10 Q1023
LPMT,2017-12-26 15:00,-9.0359,38.7039,59.00,48.20,67.33,260.00,10.00,0.00,30.18,M,6.21,M,FEW,M,M,M,3000.00,M,M,M,M,M,M,M,M,M,M,59.00,LPMT 261500Z 26010KT 9999 FEW030 15/09 Q1022
LPMT,2017-12-26 16:00,-9.0359,38.7039,57.20,50.00,76.82,260.00,14.00,0.00,30.15,M,6.21,M,SCT,BKN,M,M,2500.00,4000.00,M,M,M,M,M,M,M,M,M,57.20,LPMT 261600Z 26014KT 9999 SCT025 BKN040 14/10 Q1021
LPMT,2017-12-26 17:00,-9.0359,38.7039,57.20,50.00,76.82,230.00,10.00,0.00,30.12,M,6.21,M,FEW,BKN,M,M,2500.00,3600.00,M,M,M,M,M,M,M,M,M,57.20,LPMT 261700Z 23010KT 9999 FEW025 BKN036 14/10 Q1020
LPMT,2017-12-26 18:00,-9.0359,38.7039,59.00,51.80,76.98,250.00,11.00,0.00,30.12,M,6.21,M,SCT,BKN,M,M,2500.00,3500.00,M,M,M,M,M,M,M,M,M,59.00,LPMT 261800Z 25011KT 9999 SCT025 BKN035 15/11 Q1020
LPMT,2017-12-26 19:00,-9.0359,38.7039,59.00,50.00,72.01,250.00,14.00,0.00,30.09,M,6.21,M,FEW,BKN,M,M,2500.00,3500.00,M,M,M,M,M,M,M,M,M,59.00,LPMT 261900Z 25014KT 9999 FEW025 BKN035 15/10 Q1019
LPMT,2017-12-26 20:00,-9.0359,38.7039,59.00,51.80,76.98,260.00,17.00,0.00,30.09,M,6.21,M,FEW,SCT,M,M,2300.00,3500.00,M,M,M,M,M,M,M,M,M,59.00,LPMT 262000Z 26017KT 9999 FEW023 SCT035 15/11 Q1019
LPMT,2017-12-26 21:00,-9.0359,38.7039,59.00,51.80,76.98,250.00,14.00,0.00,30.09,M,6.21,M,FEW,BKN,M,M,2300.00,3000.00,M,M,M,M,M,M,M,M,M,59.00,LPMT 262100Z 25014KT 9999 FEW023 BKN030 15/11 Q1019
LPMT,2017-12-26 22:00,-9.0359,38.7039,59.00,53.60,82.25,260.00,15.00,0.00,30.06,M,6.21,26.00,BKN,M,M,M,2300.00,M,M,M,M,M,M,M,M,M,M,59.00,LPMT 262200Z 26015G26KT 9999 BKN023 15/12 Q1018
LPMT,2017-12-26 23:00,-9.0359,38.7039,59.00,53.60,82.25,260.00,17.00,0.00,30.06,M,6.21,M,FEW,BKN,M,M,1700.00,2300.00,M,M,M,M,M,M,M,M,M,59.00,LPMT 262300Z 26017KT 9999 FEW017 BKN023 15/12 Q1018
LPMT,2017-12-27 01:00,-9.0359,38.7039,60.80,55.40,82.37,260.00,20.00,0.00,30.00,M,6.21,31.00,BKN,BKN,M,M,1500.00,2300.00,M,M,M,M,M,M,M,M,M,60.80,LPMT 270100Z 26020G31KT 9999 BKN015 BKN023 16/13 Q1016
LPMT,2017-12-27 02:00,-9.0359,38.7039,59.00,57.20,93.74,260.00,14.00,0.00,30.00,M,1.86,M,SCT,BKN,M,M,800.00,1400.00,M,M,RADZ BR,M,M,M,M,M,M,59.00,LPMT 270200Z 26014KT 3000 RADZ BR SCT008 BKN014 15/14 Q1016
LPMT,2017-12-27 03:00,-9.0359,38.7039,59.00,55.40,87.83,290.00,13.00,0.00,30.03,M,4.97,24.00,BKN,BKN,M,M,1400.00,2300.00,M,M,M,M,M,M,M,M,M,59.00,LPMT 270300Z 29013G24KT 270V340 8000 BKN014 BKN023 15/13 Q1017
LPMT,2017-12-27 04:00,-9.0359,38.7039,59.00,53.60,82.25,300.00,12.00,0.00,30.03,M,6.21,M,FEW,SCT,M,M,1700.00,2500.00,M,M,M,M,M,M,M,M,M,59.00,LPMT 270400Z 30012KT 270V330 9999 FEW017 SCT025 15/12 Q1017
LPMT,2017-12-27 05:00,-9.0359,38.7039,59.00,53.60,82.25,300.00,12.00,0.00,30.00,M,6.21,M,FEW,BKN,M,M,2300.00,4500.00,M,M,M,M,M,M,M,M,M,59.00,LPMT 270500Z 30012KT 9999 FEW023 BKN045 15/12 Q1016
LPMT,2017-12-27 06:00,-9.0359,38.7039,57.20,51.80,82.12,340.00,8.00,0.00,30.03,M,6.21,M,FEW,SCT,BKN,M,2300.00,3500.00,4500.00,M,M,M,M,M,M,M,M,57.20,LPMT 270600Z 34008KT 9999 FEW023 SCT035 BKN045 14/11 Q1017
LPMT,2017-12-27 07:00,-9.0359,38.7039,55.40,51.80,87.65,310.00,8.00,0.00,30.03,M,6.21,M,FEW,BKN,M,M,3500.00,4500.00,M,M,M,M,M,M,M,M,M,55.40,LPMT 270700Z 31008KT 9999 FEW035 BKN045 13/11 Q1017
LPMT,2017-12-27 08:00,-9.0359,38.7039,55.40,51.80,87.65,310.00,6.00,0.00,30.06,M,6.21,M,FEW,SCT,M,M,2300.00,3500.00,M,M,M,M,M,M,M,M,M,55.40,LPMT 270800Z 31006KT 9999 FEW023 SCT035 13/11 Q1018
LPMT,2017-12-27 09:00,-9.0359,38.7039,57.20,51.80,82.12,310.00,7.00,0.00,30.09,M,6.21,M,BKN,M,M,M,4500.00,M,M,M,M,M,M,M,M,M,M,57.20,LPMT 270900Z 31007KT 9999 BKN045 14/11 Q1019
LPMT,2017-12-27 10:00,-9.0359,38.7039,59.00,51.80,76.98,280.00,8.00,0.00,30.09,M,6.21,M,SCT,BKN,M,M,2500.00,4500.00,M,M,M,M,M,M,M,M,M,59.00,LPMT 271000Z 28008KT 260V320 9999 SCT025 BKN045 15/11 Q1019
LPMT,2017-12-27 11:00,-9.0359,38.7039,59.00,53.60,82.25,290.00,8.00,0.00,30.12,M,6.21,M,SCT,BKN,M,M,2500.00,4500.00,M,M,M,M,M,M,M,M,M,59.00,LPMT 271100Z 29008KT 260V330 9999 SCT025 BKN045 15/12 Q1020
LPMT,2017-12-27 12:00,-9.0359,38.7039,60.80,51.80,72.20,300.00,9.00,0.00,30.12,M,6.21,M,FEW,BKN,M,M,2500.00,4000.00,M,M,VCSH,M,M,M,M,M,M,60.80,LPMT 271200Z 30009KT 270V340 9999 VCSH FEW025 BKN040 16/11 Q1020
LPMT,2017-12-27 13:00,-9.0359,38.7039,57.20,53.60,87.74,310.00,6.00,0.00,30.09,M,6.21,M,SCT,SCT,M,M,2000.00,4000.00,M,M,VCSH,M,M,M,M,M,M,57.20,LPMT 271300Z 31006KT 280V340 9999 VCSH SCT020 SCT040 14/12 Q1019
LPMT,2017-12-27 14:00,-9.0359,38.7039,57.20,53.60,87.74,320.00,9.00,0.00,30.09,M,6.21,M,FEW,BKN,M,M,2000.00,3500.00,M,M,VCSH,M,M,M,M,M,M,57.20,LPMT 271400Z 32009KT 300V360 9999 VCSH FEW020 BKN035 14/12 Q1019
LPMT,2017-12-27 15:00,-9.0359,38.7039,59.00,51.80,76.98,310.00,8.00,0.00,30.09,M,6.21,M,FEW,SCT,M,M,1800.00,3500.00,M,M,M,M,M,M,M,M,M,59.00,LPMT 271500Z 31008KT 9999 FEW018 SCT035 15/11 Q1019
LPMT,2017-12-27 16:00,-9.0359,38.7039,59.00,50.00,72.01,300.00,9.00,0.00,30.09,M,6.21,M,SCT,SCT,M,M,2200.00,3500.00,M,M,M,M,M,M,M,M,M,59.00,LPMT 271600Z 30009KT 9999 SCT022 SCT035 15/10 Q1019
LPMT,2017-12-27 17:00,-9.0359,38.7039,59.00,51.80,76.98,290.00,7.00,0.00,30.09,M,6.21,M,SCT,M,M,M,2200.00,M,M,M,M,M,M,M,M,M,M,59.00,LPMT 271700Z 29007KT 9999 SCT022 15/11 Q1019
LPMT,2017-12-27 18:00,-9.0359,38.7039,57.20,51.80,82.12,270.00,5.00,0.00,30.09,M,6.21,M,SCT,SCT,M,M,2000.00,3500.00,M,M,M,M,M,M,M,M,M,57.20,LPMT 271800Z 27005KT 9999 SCT020 SCT035 14/11 Q1019
LPMT,2017-12-27 19:00,-9.0359,38.7039,57.20,53.60,87.74,270.00,6.00,0.00,30.12,M,6.21,M,FEW,SCT,M,M,2000.00,3500.00,M,M,M,M,M,M,M,M,M,57.20,LPMT 271900Z 27006KT 9999 FEW020 SCT035 14/12 Q1020
LPMT,2017-12-27 20:00,-9.0359,38.7039,57.20,53.60,87.74,250.00,6.00,0.00,30.09,M,6.21,M,FEW,BKN,M,M,1800.00,2800.00,M,M,M,M,M,M,M,M,M,57.20,LPMT 272000Z 25006KT 9999 FEW018 BKN028 14/12 Q1019
LPMT,2017-12-27 21:00,-9.0359,38.7039,57.20,55.40,93.69,240.00,7.00,0.00,30.09,M,5.59,M,SCT,BKN,M,M,1400.00,2500.00,M,M,-RA,M,M,M,M,M,M,57.20,LPMT 272100Z 24007KT 9000 -RA SCT014 BKN025 14/13 Q1019
LPMT,2017-12-27 22:00,-9.0359,38.7039,59.00,57.20,93.74,260.00,10.00,0.00,30.09,M,3.73,M,SCT,BKN,M,M,800.00,1400.00,M,M,-DZRA,M,M,M,M,M,M,59.00,LPMT 272200Z 26010KT 6000 -DZRA SCT008 BKN014 15/14 Q1019
LPMT,2017-12-27 23:00,-9.0359,38.7039,59.00,57.20,93.74,260.00,9.00,0.00,30.09,M,4.35,M,SCT,BKN,M,M,800.00,1500.00,M,M,-DZRA,M,M,M,M,M,M,59.00,LPMT 272300Z 26009KT 7000 -DZRA SCT008 BKN015 15/14 Q1019
LPMT,2017-12-28 00:00,-9.0359,38.7039,59.00,57.20,93.74,290.00,10.00,0.00,30.09,M,6.21,M,SCT,BKN,M,M,800.00,1500.00,M,M,VCSH,M,M,M,M,M,M,59.00,LPMT 280000Z 29010KT 9999 VCSH SCT008 BKN015 15/14 Q1019
LPMT,2017-12-28 01:00,-9.0359,38.7039,60.80,55.40,82.37,290.00,11.00,0.00,30.09,M,6.21,M,SCT,BKN,M,M,800.00,1500.00,M,M,VCSH,M,M,M,M,M,M,60.80,LPMT 280100Z 29011KT 9999 VCSH SCT008 BKN015 16/13 Q1019
LPMT,2017-12-28 02:00,-9.0359,38.7039,59.00,57.20,93.74,290.00,9.00,0.00,30.06,M,6.21,M,SCT,BKN,M,M,800.00,1500.00,M,M,M,M,M,M,M,M,M,59.00,LPMT 280200Z 29009KT 9999 SCT008 BKN015 15/14 Q1018
LPMT,2017-12-28 03:00,-9.0359,38.7039,59.00,55.40,87.83,290.00,11.00,0.00,30.09,M,6.21,M,SCT,BKN,M,M,800.00,1500.00,M,M,M,M,M,M,M,M,M,59.00,LPMT 280300Z 29011KT 9999 SCT008 BKN015 15/13 Q1019
LPMT,2017-12-28 04:00,-9.0359,38.7039,59.00,55.40,87.83,280.00,9.00,0.00,30.09,M,6.21,M,SCT,BKN,M,M,800.00,1500.00,M,M,M,M,M,M,M,M,M,59.00,LPMT 280400Z 28009KT 9999 SCT008 BKN015 15/13 Q1019
LPMT,2017-12-28 05:00,-9.0359,38.7039,59.00,55.40,87.83,270.00,8.00,0.00,30.06,M,5.59,M,SCT,BKN,M,M,800.00,1500.00,M,M,-DZ,M,M,M,M,M,M,59.00,LPMT 280500Z 27008KT 9000 -DZ SCT008 BKN015 15/13 Q1018
LPMT,2017-12-28 06:00,-9.0359,38.7039,57.20,57.20,100.00,250.00,6.00,0.00,30.06,M,6.21,M,SCT,BKN,M,M,800.00,1500.00,M,M,M,M,M,M,M,M,M,57.20,LPMT 280600Z 25006KT 9999 SCT008 BKN015 14/14 Q1018
LPMT,2017-12-28 07:00,-9.0359,38.7039,59.00,57.20,93.74,290.00,8.00,0.00,30.09,M,6.21,M,SCT,BKN,M,M,600.00,1400.00,M,M,M,M,M,M,M,M,M,59.00,LPMT 280700Z 29008KT 9999 SCT006 BKN014 15/14 Q1019
LPMT,2017-12-28 08:00,-9.0359,38.7039,57.20,57.20,100.00,250.00,6.00,0.00,30.09,M,6.21,M,SCT,BKN,M,M,800.00,1400.00,M,M,VCSH,M,M,M,M,M,M,57.20,LPMT 280800Z 25006KT 9999 VCSH SCT008 BKN014 14/14 Q1019
LPMT,2017-12-28 09:00,-9.0359,38.7039,57.20,57.20,100.00,250.00,7.00,0.00,30.09,M,4.97,M,SCT,BKN,M,M,800.00,1000.00,M,M,-DZ,M,M,M,M,M,M,57.20,LPMT 280900Z 25007KT 8000 -DZ SCT008 BKN010 14/14 Q1019
LPMT,2017-12-28 10:00,-9.0359,38.7039,59.00,59.00,100.00,270.00,7.00,0.00,30.12,M,4.35,M,SCT,BKN,M,M,800.00,1000.00,M,M,VCSH,M,M,M,M,M,M,59.00,LPMT 281000Z 27007KT 7000 VCSH SCT008 BKN010 15/15 Q1020
LPMT,2017-12-28 11:00,-9.0359,38.7039,60.80,57.20,87.92,280.00,9.00,0.00,30.12,M,4.97,M,SCT,BKN,M,M,900.00,1200.00,M,M,VCSH,M,M,M,M,M,M,60.80,LPMT 281100Z 28009KT 8000 VCSH SCT009 BKN012 16/14 Q1020
LPMT,2017-12-28 12:00,-9.0359,38.7039,62.60,57.20,82.50,290.00,11.00,0.00,30.15,M,6.21,M,FEW,BKN,M,M,1200.00,1800.00,M,M,VCSH,M,M,M,M,M,M,62.60,LPMT 281200Z 29011KT 260V320 9999 VCSH FEW012 BKN018 17/14 Q1021
LPMT,2017-12-28 13:00,-9.0359,38.7039,62.60,55.40,77.29,300.00,10.00,0.00,30.12,M,6.21,M,FEW,BKN,M,M,1600.00,2000.00,M,M,M,M,M,M,M,M,M,62.60,LPMT 281300Z 30010KT 9999 FEW016 BKN020 17/13 Q1020
LPMT,2017-12-28 14:00,-9.0359,38.7039,64.40,57.20,77.45,300.00,11.00,0.00,30.12,M,6.21,M,FEW,BKN,M,M,1600.00,2000.00,M,M,M,M,M,M,M,M,M,64.40,LPMT 281400Z 30011KT 9999 FEW016 BKN020 18/14 Q1020
LPMT,2017-12-28 15:00,-9.0359,38.7039,62.60,55.40,77.29,300.00,12.00,0.00,30.12,M,6.21,M,FEW,SCT,BKN,M,1600.00,2500.00,4500.00,M,M,M,M,M,M,M,M,62.60,LPMT 281500Z 30012KT 9999 FEW016 SCT025 BKN045 17/13 Q1020
LPMT,2017-12-28 16:00,-9.0359,38.7039,60.80,55.40,82.37,300.00,9.00,0.00,30.12,M,6.21,M,FEW,SCT,BKN,M,2000.00,3000.00,4500.00,M,M,M,M,M,M,M,M,60.80,LPMT 281600Z 30009KT 9999 FEW020 SCT030 BKN045 16/13 Q1020
LPMT,2017-12-28 17:00,-9.0359,38.7039,60.80,55.40,82.37,290.00,8.00,0.00,30.12,M,6.21,M,FEW,SCT,BKN,M,2000.00,3500.00,4500.00,M,M,M,M,M,M,M,M,60.80,LPMT 281700Z 29008KT 260V320 9999 FEW020 SCT035 BKN045 16/13 Q1020
LPMT,2017-12-28 18:00,-9.0359,38.7039,60.80,55.40,82.37,280.00,7.00,0.00,30.15,M,6.21,M,FEW,SCT,BKN,M,1500.00,3000.00,4000.00,M,M,M,M,M,M,M,M,60.80,LPMT 281800Z 28007KT 9999 FEW015 SCT030 BKN040 16/13 Q1021
LPMT,2017-12-28 19:00,-9.0359,38.7039,60.80,55.40,82.37,280.00,5.00,0.00,30.15,M,6.21,M,FEW,SCT,BKN,M,1500.00,3000.00,4000.00,M,M,M,M,M,M,M,M,60.80,LPMT 281900Z 28005KT 9999 FEW015 SCT030 BKN040 16/13 Q1021
LPMT,2017-12-28 20:00,-9.0359,38.7039,59.00,55.40,87.83,270.00,6.00,0.00,30.18,M,6.21,M,FEW,SCT,BKN,M,1500.00,3000.00,4000.00,M,M,M,M,M,M,M,M,59.00,LPMT 282000Z 27006KT 9999 FEW015 SCT030 BKN040 15/13 Q1022
LPMT,2017-12-28 21:00,-9.0359,38.7039,59.00,55.40,87.83,270.00,7.00,0.00,30.18,M,6.21,M,FEW,SCT,BKN,M,1500.00,3000.00,4000.00,M,M,M,M,M,M,M,M,59.00,LPMT 282100Z 27007KT 9999 FEW015 SCT030 BKN040 15/13 Q1022
LPMT,2017-12-28 22:00,-9.0359,38.7039,59.00,57.20,93.74,260.00,5.00,0.00,30.21,M,6.21,M,FEW,SCT,BKN,M,1500.00,3000.00,4000.00,M,M,M,M,M,M,M,M,59.00,LPMT 282200Z 26005KT 9999 FEW015 SCT030 BKN040 15/14 Q1023
LPMT,2017-12-28 23:00,-9.0359,38.7039,59.00,55.40,87.83,280.00,7.00,0.00,30.21,M,6.21,M,FEW,SCT,BKN,M,1500.00,3000.00,4000.00,M,-DZ,M,M,M,M,M,M,59.00,LPMT 282300Z 28007KT 9999 -DZ FEW015 SCT030 BKN040 15/13 Q1023
LPMT,2017-12-29 00:00,-9.0359,38.7039,59.00,57.20,93.74,270.00,5.00,0.00,30.21,M,6.21,M,FEW,SCT,BKN,M,1500.00,3000.00,4000.00,M,M,M,M,M,M,M,M,59.00,LPMT 290000Z 27005KT 9999 FEW015 SCT030 BKN040 15/14 Q1023
LPMT,2017-12-29 01:00,-9.0359,38.7039,59.00,57.20,93.74,260.00,4.00,0.00,30.21,M,6.21,M,SCT,SCT,BKN,M,1500.00,2500.00,4000.00,M,M,M,M,M,M,M,M,59.00,LPMT 290100Z 26004KT 9999 SCT015 SCT025 BKN040 15/14 Q1023
LPMT,2017-12-29 02:00,-9.0359,38.7039,57.20,57.20,100.00,250.00,3.00,0.00,30.21,M,6.21,M,FEW,SCT,BKN,M,1500.00,2500.00,4500.00,M,M,M,M,M,M,M,M,57.20,LPMT 290200Z 25003KT 220V290 9999 FEW015 SCT025 BKN045 14/14 Q1023
LPMT,2017-12-29 03:00,-9.0359,38.7039,59.00,57.20,93.74,270.00,4.00,0.00,30.21,M,6.21,M,SCT,SCT,BKN,M,1500.00,2500.00,4500.00,M,M,M,M,M,M,M,M,59.00,LPMT 290300Z 27004KT 9999 SCT015 SCT025 BKN045 15/14 Q1023
LPMT,2017-12-29 04:00,-9.0359,38.7039,59.00,57.20,93.74,270.00,3.00,0.00,30.21,M,6.21,M,SCT,BKN,M,M,1500.00,4500.00,M,M,M,M,M,M,M,M,M,59.00,LPMT 290400Z 27003KT 9999 SCT015 BKN045 15/14 Q1023
LPMT,2017-12-29 05:00,-9.0359,38.7039,59.00,57.20,93.74,M,2.00,0.00,30.21,M,6.21,M,SCT,BKN,M,M,1500.00,4500.00,M,M,M,M,M,M,M,M,M,59.00,LPMT 290500Z VRB02KT 9999 SCT015 BKN045 15/14 Q1023
LPMT,2017-12-29 06:00,-9.0359,38.7039,59.00,57.20,93.74,230.00,5.00,0.00,30.21,M,6.21,M,SCT,BKN,M,M,1500.00,4500.00,M,M,M,M,M,M,M,M,M,59.00,LPMT 290600Z 23005KT 9999 SCT015 BKN045 15/14 Q1023
LPMT,2017-12-29 07:00,-9.0359,38.7039,57.20,55.40,93.69,220.00,4.00,0.00,30.21,M,6.21,M,SCT,BKN,M,M,1500.00,4500.00,M,M,M,M,M,M,M,M,M,57.20,LPMT 290700Z 22004KT 9999 SCT015 BKN045 14/13 Q1023
LPMT,2017-12-29 08:00,-9.0359,38.7039,57.20,55.40,93.69,230.00,2.00,0.00,30.24,M,6.21,M,SCT,BKN,M,M,1500.00,4500.00,M,M,M,M,M,M,M,M,M,57.20,LPMT 290800Z 23002KT 9999 SCT015 BKN045 14/13 Q1024
LPMT,2017-12-29 09:00,-9.0359,38.7039,57.20,57.20,100.00,220.00,4.00,0.00,30.30,M,6.21,M,SCT,BKN,M,M,1500.00,4500.00,M,M,M,M,M,M,M,M,M,57.20,LPMT 290900Z 22004KT 9999 SCT015 BKN045 14/14 Q1026
LPMT,2017-12-29 10:00,-9.0359,38.7039,59.00,57.20,93.74,240.00,6.00,0.00,30.30,M,6.21,M,SCT,BKN,M,M,1700.00,4500.00,M,M,M,M,M,M,M,M,M,59.00,LPMT 291000Z 24006KT 9999 SCT017 BKN045 15/14 Q1026
LPMT,2017-12-29 11:00,-9.0359,38.7039,60.80,57.20,87.92,250.00,6.00,0.00,30.33,M,6.21,M,FEW,SCT,M,M,1700.00,4500.00,M,M,M,M,M,M,M,M,M,60.80,LPMT 291100Z 25006KT 220V280 9999 FEW017 SCT045 16/14 Q1027
LPMT,2017-12-29 12:00,-9.0359,38.7039,62.60,59.00,88.00,220.00,5.00,0.00,30.30,M,6.21,M,BKN,SCT,M,M,1800.00,4500.00,M,M,M,M,M,M,M,M,M,62.60,LPMT 291200Z 22005KT 190V250 9999 BKN018 SCT045 17/15 Q1026
LPMT,2017-12-29 13:00,-9.0359,38.7039,62.60,59.00,88.00,230.00,4.00,0.00,30.30,M,6.21,M,FEW,BKN,M,M,2000.00,4500.00,M,M,M,M,M,M,M,M,M,62.60,LPMT 291300Z 23004KT 170V280 9999 FEW020 BKN045 17/15 Q1026
LPMT,2017-12-29 14:00,-9.0359,38.7039,60.80,59.00,93.79,260.00,7.00,0.00,30.30,M,6.21,M,SCT,BKN,M,M,1800.00,4500.00,M,M,VCSH,M,M,M,M,M,M,60.80,LPMT 291400Z 26007KT 9999 VCSH SCT018 BKN045 16/15 Q1026
LPMT,2017-12-29 15:00,-9.0359,38.7039,62.60,59.00,88.00,250.00,6.00,0.00,30.27,M,6.21,M,FEW,SCT,M,M,2000.00,4000.00,M,M,M,M,M,M,M,M,M,62.60,LPMT 291500Z 25006KT 9999 FEW020 SCT040 17/15 Q1025
LPMT,2017-12-29 16:00,-9.0359,38.7039,62.60,59.00,88.00,260.00,5.00,0.00,30.30,M,6.21,M,FEW,SCT,M,M,2000.00,4000.00,M,M,M,M,M,M,M,M,M,62.60,LPMT 291600Z 26005KT 9999 FEW020 SCT040 17/15 Q1026
LPMT,2017-12-29 17:00,-9.0359,38.7039,60.80,59.00,93.79,260.00,6.00,0.00,30.30,M,6.21,M,FEW,SCT,M,M,1800.00,4500.00,M,M,M,M,M,M,M,M,M,60.80,LPMT 291700Z 26006KT 9999 FEW018 SCT045 16/15 Q1026
LPMT,2017-12-29 18:00,-9.0359,38.7039,59.00,57.20,93.74,250.00,4.00,0.00,30.30,M,6.21,M,FEW,M,M,M,1800.00,M,M,M,M,M,M,M,M,M,M,59.00,LPMT 291800Z 25004KT 9999 FEW018 15/14 Q1026
LPMT,2017-12-29 19:00,-9.0359,38.7039,59.00,57.20,93.74,220.00,4.00,0.00,30.33,M,6.21,M,FEW,M,M,M,1800.00,M,M,M,M,M,M,M,M,M,M,59.00,LPMT 291900Z 22004KT 9999 FEW018 15/14 Q1027
LPMT,2017-12-29 20:00,-9.0359,38.7039,59.00,57.20,93.74,210.00,4.00,0.00,30.36,M,6.21,M,FEW,M,M,M,1000.00,M,M,M,M,M,M,M,M,M,M,59.00,LPMT 292000Z 21004KT 9999 FEW010 15/14 Q1028
LPMT,2017-12-29 21:00,-9.0359,38.7039,57.20,57.20,100.00,260.00,3.00,0.00,30.36,M,4.35,M,FEW,BKN,M,M,1000.00,4500.00,M,M,M,M,M,M,M,M,M,57.20,LPMT 292100Z 26003KT 7000 FEW010 BKN045 14/14 Q1028
LPMT,2017-12-29 22:00,-9.0359,38.7039,57.20,57.20,100.00,230.00,3.00,0.00,30.39,M,0.43,M,SCT,M,M,M,1200.00,M,M,M,FG,M,M,M,M,M,M,57.20,LPMT 292200Z 23003KT 0700 FG SCT012 14/14 Q1029
LPMT,2017-12-29 23:00,-9.0359,38.7039,57.20,57.20,100.00,190.00,3.00,0.00,30.39,M,3.11,M,FEW,BKN,M,M,1200.00,3500.00,M,M,BR,M,M,M,M,M,M,57.20,LPMT 292300Z 19003KT 5000 BR FEW012 BKN035 14/14 Q1029
LPMT,2017-12-30 00:00,-9.0359,38.7039,53.60,53.60,100.00,M,1.00,0.00,30.36,M,0.93,M,FEW,M,M,M,1200.00,M,M,M,MIFG BR,M,M,M,M,M,M,53.60,LPMT 300000Z VRB01KT 1500 MIFG BR FEW012 12/12 Q1028
LPMT,2017-12-30 01:00,-9.0359,38.7039,55.40,55.40,100.00,240.00,4.00,0.00,30.36,M,0.31,M,SCT,SCT,M,M,700.00,3500.00,M,M,FG,M,M,M,M,M,M,55.40,LPMT 300100Z 24004KT 0500 FG SCT007 SCT035 13/13 Q1028
LPMT,2017-12-30 03:00,-9.0359,38.7039,57.20,57.20,100.00,M,1.00,0.00,30.36,M,0.31,M,VV ,M,M,M,200.00,M,M,M,FG,M,M,M,M,M,M,57.20,LPMT 300300Z VRB01KT 0500 FG VV002 14/14 Q1028
LPMT,2017-12-30 04:00,-9.0359,38.7039,57.20,57.20,100.00,M,1.00,0.00,30.36,M,0.31,M,VV ,M,M,M,200.00,M,M,M,FG,M,M,M,M,M,M,57.20,LPMT 300400Z VRB01KT 0500 FG VV002 14/14 Q1028
LPMT,2017-12-30 05:00,-9.0359,38.7039,55.40,55.40,100.00,M,1.00,0.00,30.33,M,0.31,M,VV ,M,M,M,200.00,M,M,M,FG,M,M,M,M,M,M,55.40,LPMT 300500Z VRB01KT 0500 FG VV002 13/13 Q1027
LPMT,2017-12-30 06:00,-9.0359,38.7039,55.40,55.40,100.00,M,1.00,0.00,30.36,M,0.31,M,VV ,M,M,M,200.00,M,M,M,FG,M,M,M,M,M,M,55.40,LPMT 300600Z VRB01KT 0500 FG VV002 13/13 Q1028
LPMT,2017-12-30 07:00,-9.0359,38.7039,55.40,55.40,100.00,M,1.00,0.00,30.36,M,0.31,M,VV ,M,M,M,200.00,M,M,M,FG,M,M,M,M,M,M,55.40,LPMT 300700Z VRB01KT 0500 FG VV002 13/13 Q1028
LPMT,2017-12-30 08:00,-9.0359,38.7039,55.40,55.40,100.00,M,1.00,0.00,30.39,M,0.43,M,BKN,M,M,M,500.00,M,M,M,FG,M,M,M,M,M,M,55.40,LPMT 300800Z VRB01KT 0700 FG BKN005 13/13 Q1029
LPMT,2017-12-30 09:00,-9.0359,38.7039,55.40,55.40,100.00,M,1.00,0.00,30.39,M,0.31,M,BKN,M,M,M,500.00,M,M,M,FG,M,M,M,M,M,M,55.40,LPMT 300900Z VRB01KT 0500 FG BKN005 13/13 Q1029
LPMT,2017-12-30 10:00,-9.0359,38.7039,57.20,57.20,100.00,M,1.00,0.00,30.39,M,0.31,M,OVC,M,M,M,200.00,M,M,M,FG,M,M,M,M,M,M,57.20,LPMT 301000Z VRB01KT 0500 FG OVC002 14/14 Q1029
LPMT,2017-12-30 11:00,-9.0359,38.7039,57.20,57.20,100.00,M,2.00,0.00,30.39,M,1.24,M,OVC,M,M,M,200.00,M,M,M,BR,M,M,M,M,M,M,57.20,LPMT 301100Z VRB02KT 2000 BR OVC002 14/14 Q1029
LPMT,2017-12-30 12:00,-9.0359,38.7039,59.00,59.00,100.00,M,2.00,0.00,30.39,M,2.49,M,SCT,SCT,BKN,M,400.00,2200.00,4500.00,M,BR,M,M,M,M,M,M,59.00,LPMT 301200Z VRB02KT 4000 BR SCT004 SCT022 BKN045 15/15 Q1029
LPMT,2017-12-30 13:00,-9.0359,38.7039,60.80,59.00,93.79,M,1.00,0.00,30.36,M,4.35,M,FEW,SCT,BKN,M,600.00,2200.00,4500.00,M,M,M,M,M,M,M,M,60.80,LPMT 301300Z VRB01KT 7000 FEW006 SCT022 BKN045 16/15 Q1028
LPMT,2017-12-30 14:00,-9.0359,38.7039,60.80,57.20,87.92,280.00,4.00,0.00,30.33,M,6.21,M,FEW,SCT,BKN,M,600.00,2200.00,4500.00,M,M,M,M,M,M,M,M,60.80,LPMT 301400Z 28004KT 170V310 9999 FEW006 SCT022 BKN045 16/14 Q1027
LPMT,2017-12-30 15:00,-9.0359,38.7039,60.80,57.20,87.92,260.00,6.00,0.00,30.33,M,6.21,M,FEW,SCT,BKN,M,600.00,2200.00,4500.00,M,M,M,M,M,M,M,M,60.80,LPMT 301500Z 26006KT 9999 FEW006 SCT022 BKN045 16/14 Q1027
LPMT,2017-12-30 16:00,-9.0359,38.7039,59.00,57.20,93.74,270.00,5.00,0.00,30.33,M,6.21,M,SCT,BKN,M,M,2200.00,4500.00,M,M,M,M,M,M,M,M,M,59.00,LPMT 301600Z 27005KT 9999 SCT022 BKN045 15/14 Q1027
LPMT,2017-12-30 17:00,-9.0359,38.7039,59.00,57.20,93.74,260.00,5.00,0.00,30.33,M,6.21,M,SCT,BKN,M,M,2200.00,4500.00,M,M,M,M,M,M,M,M,M,59.00,LPMT 301700Z 26005KT 9999 SCT022 BKN045 15/14 Q1027
LPMT,2017-12-30 18:00,-9.0359,38.7039,59.00,57.20,93.74,260.00,4.00,0.00,30.33,M,6.21,M,SCT,BKN,M,M,2200.00,4500.00,M,M,M,M,M,M,M,M,M,59.00,LPMT 301800Z 26004KT 9999 SCT022 BKN045 15/14 Q1027
LPMT,2017-12-30 19:00,-9.0359,38.7039,57.20,57.20,100.00,270.00,4.00,0.00,30.33,M,6.21,M,FEW,SCT,M,M,2200.00,4500.00,M,M,M,M,M,M,M,M,M,57.20,LPMT 301900Z 27004KT 9999 FEW022 SCT045 14/14 Q1027
LPMT,2017-12-30 20:00,-9.0359,38.7039,55.40,55.40,100.00,M,2.00,0.00,30.33,M,6.21,M,FEW,SCT,M,M,2200.00,4500.00,M,M,M,M,M,M,M,M,M,55.40,LPMT 302000Z VRB02KT 9999 FEW022 SCT045 13/13 Q1027
LPMT,2017-12-30 21:00,-9.0359,38.7039,55.40,55.40,100.00,150.00,3.00,0.00,30.33,M,4.35,M,FEW,BKN,M,M,2200.00,4000.00,M,M,M,M,M,M,M,M,M,55.40,LPMT 302100Z 15003KT 7000 FEW022 BKN040 13/13 Q1027
LPMT,2017-12-30 22:00,-9.0359,38.7039,53.60,53.60,100.00,130.00,1.00,0.00,30.33,M,4.35,M,FEW,BKN,M,M,2200.00,4000.00,M,M,M,M,M,M,M,M,M,53.60,LPMT 302200Z 13001KT 7000 FEW022 BKN040 12/12 Q1027
LPMT,2017-12-30 23:00,-9.0359,38.7039,55.40,55.40,100.00,200.00,2.00,0.00,30.33,M,4.35,M,FEW,BKN,M,M,2200.00,4000.00,M,M,M,M,M,M,M,M,M,55.40,LPMT 302300Z 20002KT 7000 FEW022 BKN040 13/13 Q1027
LPMT,2017-12-31 00:00,-9.0359,38.7039,55.40,53.60,93.65,120.00,3.00,0.00,30.33,M,6.21,M,FEW,SCT,M,M,2000.00,4000.00,M,M,M,M,M,M,M,M,M,55.40,LPMT 310000Z 12003KT 9999 FEW020 SCT040 13/12 Q1027
LPMT,2017-12-31 01:00,-9.0359,38.7039,53.60,53.60,100.00,140.00,2.00,0.00,30.30,M,6.21,M,FEW,BKN,M,M,2000.00,4000.00,M,M,M,M,M,M,M,M,M,53.60,LPMT 310100Z 14002KT 9999 FEW020 BKN040 12/12 Q1026
LPMT,2017-12-31 03:00,-9.0359,38.7039,57.20,53.60,87.74,170.00,5.00,0.00,30.27,M,6.21,M,FEW,SCT,BKN,M,800.00,2000.00,4000.00,M,M,M,M,M,M,M,M,57.20,LPMT 310300Z 17005KT 9999 FEW008 SCT020 BKN040 14/12 Q1025
LPMT,2017-12-31 04:00,-9.0359,38.7039,57.20,53.60,87.74,230.00,3.00,0.00,30.27,M,6.21,M,FEW,SCT,BKN,M,800.00,2000.00,4000.00,M,M,M,M,M,M,M,M,57.20,LPMT 310400Z 23003KT 9999 FEW008 SCT020 BKN040 14/12 Q1025
LPMT,2017-12-31 05:00,-9.0359,38.7039,57.20,55.40,93.69,200.00,3.00,0.00,30.27,M,6.21,M,FEW,SCT,OVC,M,800.00,2000.00,4000.00,M,M,M,M,M,M,M,M,57.20,LPMT 310500Z 20003KT 160V230 9999 FEW008 SCT020 OVC040 14/13 Q1025
LPMT,2017-12-31 06:00,-9.0359,38.7039,57.20,53.60,87.74,190.00,6.00,0.00,30.27,M,6.21,M,FEW,SCT,OVC,M,800.00,2000.00,4000.00,M,M,M,M,M,M,M,M,57.20,LPMT 310600Z 19006KT 9999 FEW008 SCT020 OVC040 14/12 Q1025
LPMT,2017-12-31 07:00,-9.0359,38.7039,M,M,M,280.00,3.00,0.00,M,M,6.21,M,FEW,SCT,OVC,M,800.00,2000.00,4000.00,M,-RA,M,M,M,M,M,M,M,LPMT 310700Z 28003KT 240V050 9999 -RA FEW008 SCT020 OVC040
LPMT,2017-12-31 08:00,-9.0359,38.7039,57.20,55.40,93.69,200.00,4.00,0.00,30.27,M,6.21,M,FEW,SCT,OVC,M,800.00,2000.00,4000.00,M,M,M,M,M,M,M,M,57.20,LPMT 310800Z 20004KT 9999 FEW008 SCT020 OVC040 14/13 Q1025
LPMT,2017-12-31 09:00,-9.0359,38.7039,59.00,53.60,82.25,220.00,5.00,0.00,30.27,M,6.21,M,FEW,SCT,BKN,M,800.00,2000.00,4000.00,M,M,M,M,M,M,M,M,59.00,LPMT 310900Z 22005KT 190V250 9999 FEW008 SCT020 BKN040 15/12 Q1025
LPMT,2017-12-31 10:00,-9.0359,38.7039,59.00,53.60,82.25,230.00,7.00,0.00,30.30,M,6.21,M,FEW,SCT,M,M,2000.00,4500.00,M,M,M,M,M,M,M,M,M,59.00,LPMT 311000Z 23007KT 9999 FEW020 SCT045 15/12 Q1026
LPMT,2017-12-31 11:00,-9.0359,38.7039,62.60,55.40,77.29,230.00,12.00,0.00,30.30,M,6.21,M,FEW,M,M,M,3000.00,M,M,M,M,M,M,M,M,M,M,62.60,LPMT 311100Z 23012KT 9999 FEW030 17/13 Q1026
LPMT,2017-12-31 12:00,-9.0359,38.7039,62.60,55.40,77.29,230.00,13.00,0.00,30.30,M,6.21,M,BKN,M,M,M,3000.00,M,M,M,M,M,M,M,M,M,M,62.60,LPMT 311200Z 23013KT 9999 BKN030 17/13 Q1026
LPMT,2017-12-31 13:00,-9.0359,38.7039,59.00,57.20,93.74,270.00,10.00,0.00,30.30,M,4.35,M,SCT,BKN,M,M,700.00,1500.00,M,M,-DZ,M,M,M,M,M,M,59.00,LPMT 311300Z 27010KT 7000 -DZ SCT007 BKN015 15/14 Q1026
LPMT,2017-12-31 14:00,-9.0359,38.7039,59.00,57.20,93.74,310.00,9.00,0.00,30.30,M,6.21,M,FEW,M,M,M,2500.00,M,M,M,M,M,M,M,M,M,M,59.00,LPMT 311400Z 31009KT 260V360 9999 FEW025 15/14 Q1026
LPMT,2017-12-31 15:00,-9.0359,38.7039,62.60,50.00,63.38,310.00,10.00,0.00,30.33,M,6.21,M,SCT,M,M,M,3000.00,M,M,M,M,M,M,M,M,M,M,62.60,LPMT 311500Z 31010KT 9999 SCT030 17/10 Q1027
LPMT,2017-12-31 16:00,-9.0359,38.7039,60.80,51.80,72.20,310.00,7.00,0.00,30.36,M,6.21,M,FEW,M,M,M,3000.00,M,M,M,M,M,M,M,M,M,M,60.80,LPMT 311600Z 31007KT 280V350 9999 FEW030 16/11 Q1028
LPMT,2017-12-31 17:00,-9.0359,38.7039,60.80,51.80,72.20,330.00,7.00,0.00,30.39,M,6.21,M,FEW,M,M,M,3000.00,M,M,M,M,M,M,M,M,M,M,60.80,LPMT 311700Z 33007KT 300V010 9999 FEW030 16/11 Q1029
LPMT,2017-12-31 18:00,-9.0359,38.7039,59.00,50.00,72.01,340.00,5.00,0.00,30.42,M,6.21,M,FEW,M,M,M,3000.00,M,M,M,M,M,M,M,M,M,M,59.00,LPMT 311800Z 34005KT 290V360 9999 FEW030 15/10 Q1030
LPMT,2017-12-31 19:00,-9.0359,38.7039,57.20,50.00,76.82,330.00,9.00,0.00,30.45,M,6.21,M,FEW,M,M,M,3000.00,M,M,M,M,M,M,M,M,M,M,57.20,LPMT 311900Z 33009KT 9999 FEW030 14/10 Q1031
LPMT,2017-12-31 20:00,-9.0359,38.7039,57.20,48.20,71.83,340.00,6.00,0.00,30.47,M,6.21,M,FEW,M,M,M,3000.00,M,M,M,M,M,M,M,M,M,M,57.20,LPMT 312000Z 34006KT 9999 FEW030 14/09 Q1032
LPMT,2017-12-31 21:00,-9.0359,38.7039,55.40,50.00,81.99,M,2.00,0.00,30.53,M,6.21,M,FEW,M,M,M,3500.00,M,M,M,M,M,M,M,M,M,M,55.40,LPMT 312100Z VRB02KT 9999 FEW035 13/10 Q1034
LPMT,2017-12-31 22:00,-9.0359,38.7039,50.00,48.20,93.50,M,1.00,0.00,30.53,M,6.21,M,FEW,M,M,M,4000.00,M,M,M,M,M,M,M,M,M,M,50.00,LPMT 312200Z VRB01KT 9999 FEW040 10/09 Q1034
LPMT,2017-12-31 23:00,-9.0359,38.7039,48.20,46.40,93.45,10.00,4.00,0.00,30.53,M,6.21,M,SCT,M,M,M,4000.00,M,M,M,M,M,M,M,M,M,M,46.34,LPMT 312300Z 01004KT 9999 SCT040 09/08 Q1034
LPMT,2018-01-01 00:00,-9.0359,38.7039,48.20,46.40,93.45,20.00,5.00,0.00,30.53,M,6.21,M,SCT,M,M,M,4000.00,M,M,M,M,M,M,M,M,M,M,45.63,LPMT 010000Z 02005KT 9999 SCT040 09/08 Q1034
LPMT,2018-01-01 01:00,-9.0359,38.7039,46.40,46.40,100.00,160.00,2.00,0.00,30.53,M,6.21,M,M,M,M,M,M,M,M,M,M,M,M,M,M,M,M,46.40,LPMT 010100Z 16002KT CAVOK 08/08 Q1034
LPMT,2018-01-01 02:00,-9.0359,38.7039,44.60,44.60,100.00,140.00,2.00,0.00,30.50,M,6.21,M,M,M,M,M,M,M,M,M,M,M,M,M,M,M,M,44.60,LPMT 010200Z 14002KT CAVOK 07/07 Q1033
LPMT,2018-01-01 03:00,-9.0359,38.7039,44.60,44.60,100.00,240.00,4.00,0.00,30.53,M,3.11,M,NSC,M,M,M,M,M,M,M,BR,M,M,M,M,M,M,42.13,LPMT 010300Z 24004KT 5000 BR NSC 07/07 Q1034
LPMT,2018-01-01 04:00,-9.0359,38.7039,48.20,48.20,100.00,250.00,4.00,0.00,30.53,M,4.35,M,NSC,M,M,M,M,M,M,M,M,M,M,M,M,M,M,46.34,LPMT 010400Z 25004KT 7000 NSC 09/09 Q1034
LPMT,2018-01-01 05:00,-9.0359,38.7039,44.60,44.60,100.00,190.00,3.00,0.00,30.53,M,3.11,M,NSC,M,M,M,M,M,M,M,BR,M,M,M,M,M,M,43.09,LPMT 010500Z 19003KT 5000 BR NSC 07/07 Q1034
LPMT,2018-01-01 06:00,-9.0359,38.7039,46.40,46.40,100.00,150.00,2.00,0.00,30.53,M,4.97,M,NSC,M,M,M,M,M,M,M,M,M,M,M,M,M,M,46.40,LPMT 010600Z 15002KT 8000 NSC 08/08 Q1034
LPMT,2018-01-01 07:00,-9.0359,38.7039,44.60,44.60,100.00,130.00,4.00,0.00,30.53,M,4.97,M,NSC,M,M,M,M,M,M,M,M,M,M,M,M,M,M,42.13,LPMT 010700Z 13004KT 8000 NSC 07/07 Q1034
LPMT,2018-01-01 09:00,-9.0359,38.7039,46.40,44.60,93.40,140.00,4.00,0.00,30.56,M,6.21,M,M,M,M,M,M,M,M,M,M,M,M,M,M,M,M,44.24,LPMT 010900Z 14004KT CAVOK 08/07 Q1035
LPMT,2018-01-01 10:00,-9.0359,38.7039,50.00,48.20,93.50,M,2.00,0.00,30.59,M,6.21,M,M,M,M,M,M,M,M,M,M,M,M,M,M,M,M,50.00,LPMT 011000Z VRB02KT CAVOK 10/09 Q1036
LPMT,2018-01-01 11:00,-9.0359,38.7039,55.40,50.00,81.99,130.00,3.00,0.00,30.62,M,M,M,FEW,M,M,M,2000.00,M,M,M,M,M,M,M,M,M,M,55.40,LPMT 011100Z 13003KT 060V170 FEW020 13/10 Q1037
LPMT,2018-01-01 12:00,-9.0359,38.7039,57.20,51.80,82.12,130.00,3.00,0.00,30.59,M,6.21,M,FEW,SCT,M,M,2000.00,3200.00,M,M,M,M,M,M,M,M,M,57.20,LPMT 011200Z 13003KT 090V160 9999 FEW020 SCT032 14/11 Q1036
LPMT,2018-01-01 13:00,-9.0359,38.7039,59.00,51.80,76.98,M,2.00,0.00,30.56,M,6.21,M,SCT,M,M,M,3500.00,M,M,M,M,M,M,M,M,M,M,59.00,LPMT 011300Z VRB02KT 9999 SCT035 15/11 Q1035
LPMT,2018-01-01 14:00,-9.0359,38.7039,60.80,51.80,72.20,230.00,4.00,0.00,30.53,M,6.21,M,SCT,M,M,M,3500.00,M,M,M,M,M,M,M,M,M,M,60.80,LPMT 011400Z 23004KT 9999 SCT035 16/11 Q1034
LPMT,2018-01-01 15:00,-9.0359,38.7039,60.80,51.80,72.20,260.00,5.00,0.00,30.53,M,6.21,M,BKN,M,M,M,3500.00,M,M,M,M,M,M,M,M,M,M,60.80,LPMT 011500Z 26005KT 220V280 9999 BKN035 16/11 Q1034
LPMT,2018-01-01 16:00,-9.0359,38.7039,59.00,51.80,76.98,260.00,3.00,0.00,30.56,M,6.21,M,SCT,M,M,M,3500.00,M,M,M,M,M,M,M,M,M,M,59.00,LPMT 011600Z 26003KT 230V310 9999 SCT035 15/11 Q1035
LPMT,2018-01-01 17:00,-9.0359,38.7039,59.00,50.00,72.01,320.00,4.00,0.00,30.56,M,6.21,M,FEW,M,M,M,3500.00,M,M,M,M,M,M,M,M,M,M,59.00,LPMT 011700Z 32004KT 9999 FEW035 15/10 Q1035
LPMT,2018-01-01 18:00,-9.0359,38.7039,55.40,50.00,81.99,320.00,3.00,0.00,30.56,M,6.21,M,FEW,M,M,M,3500.00,M,M,M,M,M,M,M,M,M,M,55.40,LPMT 011800Z 32003KT 9999 FEW035 13/10 Q1035
LPMT,2018-01-01 19:00,-9.0359,38.7039,57.20,50.00,76.82,300.00,4.00,0.00,30.59,M,6.21,M,SCT,M,M,M,3600.00,M,M,M,M,M,M,M,M,M,M,57.20,LPMT 011900Z 30004KT 9999 SCT036 14/10 Q1036
LPMT,2018-01-01 20:00,-9.0359,38.7039,51.80,48.20,87.47,310.00,3.00,0.00,30.59,M,6.21,M,BKN,M,M,M,3700.00,M,M,M,M,M,M,M,M,M,M,51.80,LPMT 012000Z 31003KT 9999 BKN037 11/09 Q1036
LPMT,2018-01-01 21:00,-9.0359,38.7039,51.80,48.20,87.47,250.00,2.00,0.00,30.59,M,6.21,M,SCT,M,M,M,3500.00,M,M,M,M,M,M,M,M,M,M,51.80,LPMT 012100Z 25002KT 9999 SCT035 11/09 Q1036
LPMT,2018-01-01 22:00,-9.0359,38.7039,51.80,48.20,87.47,M,1.00,0.00,30.59,M,6.21,M,SCT,M,M,M,3500.00,M,M,M,M,M,M,M,M,M,M,51.80,LPMT 012200Z VRB01KT 9999 SCT035 11/09 Q1036
LPMT,2018-01-01 23:00,-9.0359,38.7039,48.20,46.40,93.45,140.00,3.00,0.00,30.59,M,6.21,M,FEW,M,M,M,3500.00,M,M,M,M,M,M,M,M,M,M,47.21,LPMT 012300Z 14003KT 9999 FEW035 09/08 Q1036
