#DEBUG: Format Typ    -> comma
#DEBUG: Time Period   -> 2017-08-30 00:00:00+00:00 2018-01-02 00:00:00+00:00
#DEBUG: Time Zone     -> Etc/UTC
#DEBUG: Data Contact   -> daryl herzmann akrherz@iastate.edu 515-294-5978
#DEBUG: Entries Found -> -1
station,valid,lon,lat,tmpf,dwpf,relh,drct,sknt,p01i,alti,mslp,vsby,gust,skyc1,skyc2,skyc3,skyc4,skyl1,skyl2,skyl3,skyl4,wxcodes,ice_accretion_1hr,ice_accretion_3hr,ice_accretion_6hr,peak_wind_gust,peak_wind_drct,peak_wind_time,feel,metar
LPOV,2017-08-30 00:00,-8.6459,40.9159,62.60,62.60,100.00,10.00,3.00,0.00,29.97,M,0.50,M,FEW,BKN,M,M,100.00,300.00,M,M,FG,M,M,M,M,M,M,62.60,LPOV 300000Z 01003KT 330V050 0800 FG FEW001 BKN003 17/17 Q1015
LPOV,2017-08-30 01:00,-8.6459,40.9159,62.60,60.80,93.83,M,2.00,0.00,29.97,M,0.12,M,BKN,M,M,M,100.00,M,M,M,FG,M,M,M,M,M,M,62.60,LPOV 300100Z VRB02KT 0200 FG BKN001 17/16 Q1015
LPOV,2017-08-30 02:00,-8.6459,40.9159,60.80,60.80,100.00,140.00,4.00,0.00,29.94,M,0.31,M,BKN,M,M,M,200.00,M,M,M,FG,M,M,M,M,M,M,60.80,LPOV 300200Z 14004KT 110V170 0500 FG BKN002 16/16 Q1014
LPOV,2017-08-30 03:00,-8.6459,40.9159,64.40,62.60,93.88,170.00,6.00,0.00,29.94,M,0.56,M,BKN,M,M,M,200.00,M,M,M,FG,M,M,M,M,M,M,64.40,LPOV 300300Z 17006KT 130V200 0900 FG BKN002 18/17 Q1014
LPOV,2017-08-30 04:00,-8.6459,40.9159,64.40,62.60,93.88,160.00,4.00,0.00,29.97,M,0.75,M,BKN,M,M,M,200.00,M,M,M,BR,M,M,M,M,M,M,64.40,LPOV 300400Z 16004KT 1200 BR BKN002 18/17 Q1015
LPOV,2017-08-30 05:00,-8.6459,40.9159,62.60,62.60,100.00,160.00,7.00,0.00,29.94,M,0.75,M,BKN,M,M,M,200.00,M,M,M,BR PRFG,M,M,M,M,M,M,62.60,LPOV 300500Z 16007KT 1200 BR PRFG BKN002 17/17 Q1014
LPOV,2017-08-30 06:00,-8.6459,40.9159,62.60,62.60,100.00,160.00,5.00,0.00,29.97,M,0.75,M,BKN,BKN,M,M,200.00,400.00,M,M,BR PRFG,M,M,M,M,M,M,62.60,LPOV 300600Z 16005KT 1200 BR PRFG BKN002 BKN004 17/17 Q1015
LPOV,2017-08-30 07:00,-8.6459,40.9159,62.60,62.60,100.00,200.00,3.00,0.00,30.00,M,0.19,M,OVC,M,M,M,100.00,M,M,M,FG,M,M,M,M,M,M,62.60,LPOV 300700Z 20003KT 150V250 0300 FG OVC001 17/17 Q1016
LPOV,2017-08-30 08:00,-8.6459,40.9159,64.40,64.40,100.00,170.00,6.00,0.00,30.00,M,0.50,M,OVC,M,M,M,100.00,M,M,M,FG,M,M,M,M,M,M,64.40,LPOV 300800Z 17006KT 0800 FG OVC001 18/18 Q1016
LPOV,2017-08-30 09:00,-8.6459,40.9159,64.40,64.40,100.00,180.00,6.00,0.00,30.00,M,0.50,M,OVC,M,M,M,100.00,M,M,M,DZ FG,M,M,M,M,M,M,64.40,LPOV 300900Z 18006KT 150V210 0800 DZ FG OVC001 18/18 Q1016
LPOV,2017-08-30 10:00,-8.6459,40.9159,64.40,64.40,100.00,190.00,6.00,0.00,30.03,M,0.50,M,BKN,BKN,M,M,100.00,400.00,M,M,-DZ FG,M,M,M,M,M,M,64.40,LPOV 301000Z 19006KT 0800 -DZ FG BKN001 BKN004 18/18 Q1017 REDZ
LPOV,2017-08-30 11:00,-8.6459,40.9159,64.40,64.40,100.00,170.00,5.00,0.00,30.03,M,0.43,M,OVC,M,M,M,100.00,M,M,M,-DZ FG,M,M,M,M,M,M,64.40,LPOV 301100Z 17005KT 0700 -DZ FG OVC001 18/18 Q1017
LPOV,2017-08-30 12:00,-8.6459,40.9159,64.40,64.40,100.00,230.00,4.00,0.00,30.03,M,1.86,M,SCT,BKN,M,M,100.00,200.00,M,M,BR,M,M,M,M,M,M,64.40,LPOV 301200Z 23004KT 3000 BR SCT001 BKN002 18/18 Q1017
LPOV,2017-08-30 13:00,-8.6459,40.9159,64.40,64.40,100.00,310.00,4.00,0.00,30.03,M,2.49,M,SCT,BKN,M,M,600.00,1200.00,M,M,BR,M,M,M,M,M,M,64.40,LPOV 301300Z 31004KT 4000 BR SCT006 BKN012 18/18 Q1017
LPOV,2017-08-30 14:00,-8.6459,40.9159,64.40,64.40,100.00,360.00,4.00,0.00,30.03,M,5.59,M,BKN,BKN,M,M,600.00,1200.00,M,M,M,M,M,M,M,M,M,64.40,LPOV 301400Z 36004KT 9000 BKN006 BKN012 18/18 Q1017
LPOV,2017-08-30 15:00,-8.6459,40.9159,64.40,64.40,100.00,30.00,4.00,0.00,30.03,M,6.21,M,SCT,BKN,M,M,600.00,1200.00,M,M,M,M,M,M,M,M,M,64.40,LPOV 301500Z 03004KT 9999 SCT006 BKN012 18/18 Q1017
LPOV,2017-08-30 16:00,-8.6459,40.9159,68.00,64.40,88.26,350.00,7.00,0.00,30.03,M,6.21,M,SCT,M,M,M,2000.00,M,M,M,M,M,M,M,M,M,M,68.00,LPOV 301600Z 35007KT 320V020 9999 SCT020 20/18 Q1017
LPOV,2017-08-30 17:00,-8.6459,40.9159,68.00,62.60,82.86,350.00,8.00,0.00,30.03,M,6.21,M,FEW,M,M,M,2000.00,M,M,M,M,M,M,M,M,M,M,68.00,LPOV 301700Z 35008KT 320V040 9999 FEW020 20/17 Q1017
LPOV,2017-08-30 18:00,-8.6459,40.9159,66.20,62.60,88.18,360.00,7.00,0.00,30.03,M,6.21,M,FEW,M,M,M,2000.00,M,M,M,M,M,M,M,M,M,M,66.20,LPOV 301800Z 36007KT 330V040 9999 FEW020 19/17 Q1017
LPOV,2017-08-30 19:00,-8.6459,40.9159,64.40,60.80,88.09,10.00,6.00,0.00,30.03,M,6.21,M,FEW,M,M,M,2000.00,M,M,M,M,M,M,M,M,M,M,64.40,LPOV 301900Z 01006KT 330V040 9999 FEW020 18/16 Q1017
LPOV,2017-08-30 20:00,-8.6459,40.9159,62.60,60.80,93.83,20.00,4.00,0.00,30.03,M,6.21,M,FEW,M,M,M,2000.00,M,M,M,M,M,M,M,M,M,M,62.60,LPOV 302000Z 02004KT 350V050 9999 FEW020 17/16 Q1017
LPOV,2017-08-30 21:00,-8.6459,40.9159,60.80,59.00,93.79,100.00,3.00,0.00,30.06,M,6.21,M,FEW,M,M,M,1500.00,M,M,M,M,M,M,M,M,M,M,60.80,LPOV 302100Z 10003KT 9999 FEW015 16/15 Q1018
LPOV,2017-08-30 22:00,-8.6459,40.9159,59.00,59.00,100.00,M,2.00,0.00,30.06,M,6.21,M,SCT,M,M,M,1500.00,M,M,M,M,M,M,M,M,M,M,59.00,LPOV 302200Z VRB02KT 9999 SCT015 15/15 Q1018
LPOV,2017-08-30 23:00,-8.6459,40.9159,60.80,59.00,93.79,110.00,3.00,0.00,30.06,M,6.21,M,FEW,SCT,M,M,500.00,1500.00,M,M,M,M,M,M,M,M,M,60.80,LPOV 302300Z 11003KT 9999 FEW005 SCT015 16/15 Q1018
LPOV,2017-08-31 00:00,-8.6459,40.9159,60.80,59.00,93.79,M,2.00,0.00,30.03,M,6.21,M,FEW,SCT,M,M,500.00,1500.00,M,M,M,M,M,M,M,M,M,60.80,LPOV 310000Z VRB02KT 9999 FEW005 SCT015 16/15 Q1017
LPOV,2017-08-31 01:00,-8.6459,40.9159,60.80,59.00,93.79,60.00,4.00,0.00,30.03,M,6.21,M,BKN,M,M,M,800.00,M,M,M,M,M,M,M,M,M,M,60.80,LPOV 310100Z 06004KT 9999 BKN008 16/15 Q1017
LPOV,2017-08-31 02:00,-8.6459,40.9159,59.00,59.00,100.00,M,2.00,0.00,30.03,M,2.49,M,FEW,BKN,M,M,200.00,800.00,M,M,BR,M,M,M,M,M,M,59.00,LPOV 310200Z VRB02KT 4000 BR FEW002 BKN008 15/15 Q1017
LPOV,2017-08-31 03:00,-8.6459,40.9159,57.20,57.20,100.00,M,2.00,0.00,30.03,M,0.31,M,VV ,M,M,M,M,M,M,M,FG,M,M,M,M,M,M,57.20,LPOV 310300Z VRB02KT 0500 FG VV/// 14/14 Q1017
LPOV,2017-08-31 06:00,-8.6459,40.9159,55.40,53.60,93.65,90.00,3.00,0.00,30.03,M,6.21,M,FEW,M,M,M,100.00,M,M,M,MIFG,M,M,M,M,M,M,55.40,LPOV 310600Z 09003KT 9999 MIFG FEW001 13/12 Q1017
LPOV,2017-08-31 07:00,-8.6459,40.9159,55.40,53.60,93.65,M,2.00,0.00,30.06,M,6.21,M,FEW,M,M,M,100.00,M,M,M,MIFG,M,M,M,M,M,M,55.40,LPOV 310700Z VRB02KT 9999 MIFG FEW001 13/12 Q1018
LPOV,2017-08-31 08:00,-8.6459,40.9159,60.80,60.80,100.00,10.00,5.00,0.00,30.06,M,6.21,M,FEW,M,M,M,400.00,M,M,M,M,M,M,M,M,M,M,60.80,LPOV 310800Z 01005KT 340V040 9999 FEW004 16/16 Q1018
LPOV,2017-08-31 09:00,-8.6459,40.9159,64.40,60.80,88.09,20.00,5.00,0.00,30.06,M,6.21,M,M,M,M,M,M,M,M,M,M,M,M,M,M,M,M,64.40,LPOV 310900Z 02005KT 350V060 CAVOK 18/16 Q1018
LPOV,2017-08-31 10:00,-8.6459,40.9159,68.00,60.80,77.75,360.00,6.00,0.00,30.09,M,6.21,M,M,M,M,M,M,M,M,M,M,M,M,M,M,M,M,68.00,LPOV 311000Z 36006KT 310V050 CAVOK 20/16 Q1019
LPOV,2017-08-31 11:00,-8.6459,40.9159,69.80,60.80,73.09,360.00,8.00,0.00,30.09,M,6.21,M,M,M,M,M,M,M,M,M,M,M,M,M,M,M,M,69.80,LPOV 311100Z 36008KT 330V030 CAVOK 21/16 Q1019
LPOV,2017-08-31 12:00,-8.6459,40.9159,71.60,59.00,64.48,360.00,10.00,0.00,30.09,M,6.21,M,FEW,M,M,M,1800.00,M,M,M,M,M,M,M,M,M,M,71.60,LPOV 311200Z 36010KT 9999 FEW018 22/15 Q1019
LPOV,2017-08-31 13:00,-8.6459,40.9159,71.60,59.00,64.48,350.00,11.00,0.00,30.06,M,6.21,M,FEW,M,M,M,1800.00,M,M,M,M,M,M,M,M,M,M,71.60,LPOV 311300Z 35011KT 320V040 9999 FEW018 22/15 Q1018
LPOV,2017-08-31 14:00,-8.6459,40.9159,71.60,59.00,64.48,360.00,15.00,0.00,30.06,M,6.21,M,FEW,M,M,M,1800.00,M,M,M,M,M,M,M,M,M,M,71.60,LPOV 311400Z 36015KT 330V030 9999 FEW018 22/15 Q1018
LPOV,2017-08-31 15:00,-8.6459,40.9159,71.60,59.00,64.48,360.00,16.00,0.00,30.03,M,6.21,26.00,FEW,M,M,M,1800.00,M,M,M,M,M,M,M,M,M,M,71.60,LPOV 311500Z 36016G26KT 9999 FEW018 22/15 Q1017
LPOV,2017-08-31 16:00,-8.6459,40.9159,71.60,59.00,64.48,360.00,16.00,0.00,30.03,M,6.21,26.00,FEW,M,M,M,1800.00,M,M,M,M,M,M,M,M,M,M,71.60,LPOV 311600Z 36016G26KT 9999 FEW018 22/15 Q1017
LPOV,2017-08-31 17:00,-8.6459,40.9159,69.80,57.20,64.26,360.00,16.00,0.00,30.03,M,6.21,M,M,M,M,M,M,M,M,M,M,M,M,M,M,M,M,69.80,LPOV 311700Z 36016KT CAVOK 21/14 Q1017
LPOV,2017-08-31 18:00,-8.6459,40.9159,68.00,57.20,68.35,360.00,16.00,0.00,30.03,M,6.21,28.00,M,M,M,M,M,M,M,M,M,M,M,M,M,M,M,68.00,LPOV 311800Z 36016G28KT CAVOK 20/14 Q1017
LPOV,2017-08-31 21:00,-8.6459,40.9159,62.60,57.20,82.50,10.00,9.00,0.00,30.06,M,6.21,M,M,M,M,M,M,M,M,M,M,M,M,M,M,M,M,62.60,LPOV 312100Z 01009KT CAVOK 17/14 Q1018
LPOV,2017-08-31 22:00,-8.6459,40.9159,60.80,57.20,87.92,10.00,8.00,0.00,30.06,M,6.21,M,M,M,M,M,M,M,M,M,M,M,M,M,M,M,M,60.80,LPOV 312200Z 01008KT CAVOK 16/14 Q1018
LPOV,2017-08-31 23:00,-8.6459,40.9159,59.00,57.20,93.74,20.00,7.00,0.00,30.06,M,6.21,M,M,M,M,M,M,M,M,M,M,M,M,M,M,M,M,59.00,LPOV 312300Z 02007KT CAVOK 15/14 Q1018
LPOV,2017-09-01 00:00,-8.6459,40.9159,59.00,57.20,93.74,20.00,6.00,0.00,30.06,M,6.21,M,M,M,M,M,M,M,M,M,M,M,M,M,M,M,M,59.00,LPOV 010000Z 02006KT CAVOK 15/14 Q1018
LPOV,2017-09-01 01:00,-8.6459,40.9159,59.00,55.40,87.83,10.00,8.00,0.00,30.06,M,6.21,M,M,M,M,M,M,M,M,M,M,M,M,M,M,M,M,59.00,LPOV 010100Z 01008KT CAVOK 15/13 Q1018
LPOV,2017-09-01 02:00,-8.6459,40.9159,59.00,55.40,87.83,10.00,8.00,0.00,30.06,M,6.21,M,M,M,M,M,M,M,M,M,M,M,M,M,M,M,M,59.00,LPOV 010200Z 01008KT CAVOK 15/13 Q1018
LPOV,2017-09-01 03:00,-8.6459,40.9159,59.00,55.40,87.83,10.00,9.00,0.00,30.06,M,6.21,M,M,M,M,M,M,M,M,M,M,M,M,M,M,M,M,59.00,LPOV 010300Z 01009KT CAVOK 15/13 Q1018
LPOV,2017-09-01 04:00,-8.6459,40.9159,57.20,55.40,93.69,20.00,5.00,0.00,30.06,M,6.21,M,M,M,M,M,M,M,M,M,M,M,M,M,M,M,M,57.20,LPOV 010400Z 02005KT CAVOK 14/13 Q1018
LPOV,2017-09-01 05:00,-8.6459,40.9159,57.20,57.20,100.00,360.00,8.00,0.00,30.06,M,6.21,M,M,M,M,M,M,M,M,M,M,M,M,M,M,M,M,57.20,LPOV 010500Z 36008KT CAVOK 14/14 Q1018
LPOV,2017-09-01 06:00,-8.6459,40.9159,57.20,55.40,93.69,360.00,10.00,0.00,30.06,M,6.21,M,M,M,M,M,M,M,M,M,M,M,M,M,M,M,M,57.20,LPOV 010600Z 36010KT CAVOK 14/13 Q1018
LPOV,2017-09-01 07:00,-8.6459,40.9159,59.00,53.60,82.25,10.00,10.00,0.00,30.09,M,6.21,M,M,M,M,M,M,M,M,M,M,M,M,M,M,M,M,59.00,LPOV 010700Z 01010KT CAVOK 15/12 Q1019
LPOV,2017-09-01 08:00,-8.6459,40.9159,62.60,53.60,72.38,10.00,10.00,0.00,30.09,M,6.21,M,M,M,M,M,M,M,M,M,M,M,M,M,M,M,M,62.60,LPOV 010800Z 01010KT CAVOK 17/12 Q1019
LPOV,2017-09-01 09:00,-8.6459,40.9159,66.20,53.60,63.82,360.00,10.00,0.00,30.12,M,6.21,M,M,M,M,M,M,M,M,M,M,M,M,M,M,M,M,66.20,LPOV 010900Z 36010KT CAVOK 19/12 Q1020
LPOV,2017-09-01 10:00,-8.6459,40.9159,68.00,53.60,59.97,360.00,11.00,0.00,30.12,M,6.21,M,M,M,M,M,M,M,M,M,M,M,M,M,M,M,M,68.00,LPOV 011000Z 36011KT CAVOK 20/12 Q1020
LPOV,2017-09-01 11:00,-8.6459,40.9159,69.80,53.60,56.38,360.00,14.00,0.00,30.09,M,6.21,M,M,M,M,M,M,M,M,M,M,M,M,M,M,M,M,69.80,LPOV 011100Z 36014KT 330V030 CAVOK 21/12 Q1019
LPOV,2017-09-01 12:00,-8.6459,40.9159,69.80,55.40,60.21,360.00,14.00,0.00,30.09,M,6.21,M,M,M,M,M,M,M,M,M,M,M,M,M,M,M,M,69.80,LPOV 011200Z 36014KT CAVOK 21/13 Q1019
LPOV,2017-09-01 13:00,-8.6459,40.9159,71.60,53.60,53.03,360.00,17.00,0.00,30.09,M,6.21,M,M,M,M,M,M,M,M,M,M,M,M,M,M,M,M,71.60,LPOV 011300Z 36017KT CAVOK 22/12 Q1019
LPOV,2017-09-01 14:00,-8.6459,40.9159,69.80,55.40,60.21,360.00,17.00,0.00,30.09,M,6.21,27.00,M,M,M,M,M,M,M,M,M,M,M,M,M,M,M,69.80,LPOV 011400Z 36017G27KT CAVOK 21/13 Q1019
LPOV,2017-09-01 15:00,-8.6459,40.9159,69.80,55.40,60.21,360.00,19.00,0.00,30.06,M,6.21,30.00,M,M,M,M,M,M,M,M,M,M,M,M,M,M,M,69.80,LPOV 011500Z 36019G30KT CAVOK 21/13 Q1018
LPOV,2017-09-01 16:00,-8.6459,40.9159,68.00,57.20,68.35,360.00,18.00,0.00,30.06,M,6.21,28.00,M,M,M,M,M,M,M,M,M,M,M,M,M,M,M,68.00,LPOV 011600Z 36018G28KT 330V040 CAVOK 20/14 Q1018
LPOV,2017-09-01 17:00,-8.6459,40.9159,66.20,55.40,68.15,360.00,19.00,0.00,30.06,M,6.21,33.00,M,M,M,M,M,M,M,M,M,M,M,M,M,M,M,66.20,LPOV 011700Z 36019G33KT CAVOK 19/13 Q1018
LPOV,2017-09-01 18:00,-8.6459,40.9159,64.40,55.40,72.56,360.00,17.00,0.00,30.06,M,6.21,27.00,M,M,M,M,M,M,M,M,M,M,M,M,M,M,M,64.40,LPOV 011800Z 36017G27KT CAVOK 18/13 Q1018
LPOV,2017-09-01 19:00,-8.6459,40.9159,62.60,55.40,77.29,360.00,15.00,0.00,30.06,M,6.21,M,M,M,M,M,M,M,M,M,M,M,M,M,M,M,M,62.60,LPOV 011900Z 36015KT CAVOK 17/13 Q1018
LPOV,2017-09-01 20:00,-8.6459,40.9159,60.80,55.40,82.37,10.00,10.00,0.00,30.09,M,6.21,M,M,M,M,M,M,M,M,M,M,M,M,M,M,M,M,60.80,LPOV 012000Z 01010KT CAVOK 16/13 Q1019
LPOV,2017-09-01 21:00,-8.6459,40.9159,60.80,55.40,82.37,360.00,10.00,0.00,30.09,M,6.21,M,M,M,M,M,M,M,M,M,M,M,M,M,M,M,M,60.80,LPOV 012100Z 36010KT CAVOK 16/13 Q1019
LPOV,2017-09-01 22:00,-8.6459,40.9159,59.00,55.40,87.83,360.00,10.00,0.00,30.09,M,6.21,M,M,M,M,M,M,M,M,M,M,M,M,M,M,M,M,59.00,LPOV 012200Z 36010KT CAVOK 15/13 Q1019
LPOV,2017-09-01 23:00,-8.6459,40.9159,60.80,55.40,82.37,360.00,8.00,0.00,30.12,M,6.21,M,M,M,M,M,M,M,M,M,M,M,M,M,M,M,M,60.80,LPOV 012300Z 36008KT CAVOK 16/13 Q1020
LPOV,2017-09-02 00:00,-8.6459,40.9159,59.00,53.60,82.25,360.00,9.00,0.00,30.12,M,6.21,M,M,M,M,M,M,M,M,M,M,M,M,M,M,M,M,59.00,LPOV 020000Z 36009KT CAVOK 15/12 Q1020
LPOV,2017-09-02 01:00,-8.6459,40.9159,57.20,51.80,82.12,10.00,5.00,0.00,30.09,M,6.21,M,M,M,M,M,M,M,M,M,M,M,M,M,M,M,M,57.20,LPOV 020100Z 01005KT CAVOK 14/11 Q1019
LPOV,2017-09-02 02:00,-8.6459,40.9159,57.20,53.60,87.74,330.00,3.00,0.00,30.09,M,6.21,M,M,M,M,M,M,M,M,M,M,M,M,M,M,M,M,57.20,LPOV 020200Z 33003KT CAVOK 14/12 Q1019
LPOV,2017-09-02 03:00,-8.6459,40.9159,55.40,51.80,87.65,M,1.00,0.00,30.09,M,6.21,M,M,M,M,M,M,M,M,M,M,M,M,M,M,M,M,55.40,LPOV 020300Z VRB01KT CAVOK 13/11 Q1019
LPOV,2017-09-02 04:00,-8.6459,40.9159,55.40,51.80,87.65,M,1.00,0.00,30.09,M,6.21,M,M,M,M,M,M,M,M,M,M,M,M,M,M,M,M,55.40,LPOV 020400Z VRB01KT CAVOK 13/11 Q1019
LPOV,2017-09-02 05:00,-8.6459,40.9159,50.00,48.20,93.50,60.00,4.00,0.00,30.09,M,6.21,M,M,M,M,M,M,M,M,M,M,M,M,M,M,M,M,48.44,LPOV 020500Z 06004KT CAVOK 10/09 Q1019
LPOV,2017-09-02 06:00,-8.6459,40.9159,50.00,48.20,93.50,170.00,3.00,0.00,30.12,M,6.21,M,M,M,M,M,M,M,M,M,M,M,M,M,M,M,M,49.27,LPOV 020600Z 17003KT CAVOK 10/09 Q1020
LPOV,2017-09-02 07:00,-8.6459,40.9159,51.80,48.20,87.47,M,1.00,0.00,30.12,M,6.21,M,M,M,M,M,M,M,M,M,M,M,M,M,M,M,M,51.80,LPOV 020700Z VRB01KT CAVOK 11/09 Q1020 RMK RH91 CLD5 FEW250 BLU
LPOV,2017-09-02 08:00,-8.6459,40.9159,60.80,53.60,77.14,M,1.00,0.00,30.12,M,6.21,M,M,M,M,M,M,M,M,M,M,M,M,M,M,M,M,60.80,LPOV 020800Z VRB01KT CAVOK 16/12 Q1020
LPOV,2017-09-02 09:00,-8.6459,40.9159,73.40,51.80,46.71,50.00,4.00,0.00,30.15,M,6.21,M,M,M,M,M,M,M,M,M,M,M,M,M,M,M,M,73.40,LPOV 020900Z 05004KT 360V090 CAVOK 23/11 Q1021
LPOV,2017-09-02 10:00,-8.6459,40.9159,77.00,51.80,41.42,40.00,7.00,0.00,30.15,M,6.21,M,M,M,M,M,M,M,M,M,M,M,M,M,M,M,M,77.00,LPOV 021000Z 04007KT CAVOK 25/11 Q1021
LPOV,2017-09-02 11:00,-8.6459,40.9159,80.60,50.00,34.41,40.00,7.00,0.00,30.15,M,6.21,M,M,M,M,M,M,M,M,M,M,M,M,M,M,M,M,80.60,LPOV 021100Z 04007KT 010V070 CAVOK 27/10 Q1021
LPOV,2017-09-02 12:00,-8.6459,40.9159,82.40,53.60,37.07,340.00,5.00,0.00,30.12,M,6.21,M,M,M,M,M,M,M,M,M,M,M,M,M,M,M,M,82.40,LPOV 021200Z 34005KT CAVOK 28/12 Q1020
LPOV,2017-09-02 13:00,-8.6459,40.9159,77.00,51.80,41.42,320.00,9.00,0.00,30.12,M,6.21,M,M,M,M,M,M,M,M,M,M,M,M,M,M,M,M,77.00,LPOV 021300Z 32009KT CAVOK 25/11 Q1020
LPOV,2017-09-02 14:00,-8.6459,40.9159,73.40,51.80,46.71,350.00,12.00,0.00,30.12,M,6.21,M,M,M,M,M,M,M,M,M,M,M,M,M,M,M,M,73.40,LPOV 021400Z 35012KT CAVOK 23/11 Q1020
LPOV,2017-09-02 15:00,-8.6459,40.9159,73.40,51.80,46.71,350.00,15.00,0.00,30.12,M,6.21,M,M,M,M,M,M,M,M,M,M,M,M,M,M,M,M,73.40,LPOV 021500Z 35015KT CAVOK 23/11 Q1020
LPOV,2017-09-02 16:00,-8.6459,40.9159,73.40,48.20,40.85,350.00,14.00,0.00,30.09,M,6.21,M,M,M,M,M,M,M,M,M,M,M,M,M,M,M,M,72.36,LPOV 021600Z 35014KT CAVOK 23/09 Q1019
LPOV,2017-09-02 17:00,-8.6459,40.9159,69.80,50.00,49.37,360.00,14.00,0.00,30.09,M,6.21,M,M,M,M,M,M,M,M,M,M,M,M,M,M,M,M,69.80,LPOV 021700Z 36014KT CAVOK 21/10 Q1019
LPOV,2017-09-02 19:00,-8.6459,40.9159,66.20,50.00,55.88,350.00,10.00,0.00,30.09,M,6.21,M,M,M,M,M,M,M,M,M,M,M,M,M,M,M,M,66.20,LPOV 021900Z 35010KT CAVOK 19/10 Q1019
LPOV,2017-09-02 20:00,-8.6459,40.9159,64.40,51.80,63.60,360.00,8.00,0.00,30.09,M,6.21,M,M,M,M,M,M,M,M,M,M,M,M,M,M,M,M,64.40,LPOV 022000Z 36008KT CAVOK 18/11 Q1019
LPOV,2017-09-02 21:00,-8.6459,40.9159,60.80,50.00,67.54,340.00,7.00,0.00,30.09,M,6.21,M,M,M,M,M,M,M,M,M,M,M,M,M,M,M,M,60.80,LPOV 022100Z 34007KT CAVOK 16/10 Q1019
LPOV,2017-09-02 22:00,-8.6459,40.9159,59.00,53.60,82.25,350.00,4.00,0.00,30.09,M,6.21,M,M,M,M,M,M,M,M,M,M,M,M,M,M,M,M,59.00,LPOV 022200Z 35004KT CAVOK 15/12 Q1019
LPOV,2017-09-02 23:00,-8.6459,40.9159,57.20,53.60,87.74,350.00,3.00,0.00,30.09,M,6.21,M,M,M,M,M,M,M,M,M,M,M,M,M,M,M,M,57.20,LPOV 022300Z 35003KT CAVOK 14/12 Q1019
LPOV,2017-09-03 00:00,-8.6459,40.9159,57.20,53.60,87.74,330.00,3.00,0.00,30.09,M,6.21,M,M,M,M,M,M,M,M,M,M,M,M,M,M,M,M,57.20,LPOV 030000Z 33003KT CAVOK 14/12 Q1019
LPOV,2017-09-03 01:00,-8.6459,40.9159,55.40,53.60,93.65,M,1.00,0.00,30.09,M,6.21,M,M,M,M,M,M,M,M,M,M,M,M,M,M,M,M,55.40,LPOV 030100Z VRB01KT CAVOK 13/12 Q1019
LPOV,2017-09-03 03:00,-8.6459,40.9159,55.40,53.60,93.65,M,2.00,0.00,30.06,M,6.21,M,M,M,M,M,M,M,M,M,M,M,M,M,M,M,M,55.40,LPOV 030300Z VRB02KT CAVOK 13/12 Q1018
LPOV,2017-09-03 04:00,-8.6459,40.9159,53.60,51.80,93.60,M,2.00,0.00,30.06,M,6.21,M,M,M,M,M,M,M,M,M,M,M,M,M,M,M,M,53.60,LPOV 030400Z VRB02KT CAVOK 12/11 Q1018
LPOV,2017-09-03 05:00,-8.6459,40.9159,51.80,51.80,100.00,M,2.00,0.00,30.06,M,6.21,M,M,M,M,M,M,M,M,M,M,M,M,M,M,M,M,51.80,LPOV 030500Z VRB02KT CAVOK 11/11 Q1018
LPOV,2017-09-03 07:00,-8.6459,40.9159,51.80,51.80,100.00,170.00,3.00,0.00,30.03,M,6.21,M,FEW,M,M,M,400.00,M,M,M,M,M,M,M,M,M,M,51.80,LPOV 030700Z 17003KT 9999 FEW004 11/11 Q1017
LPOV,2017-09-03 08:00,-8.6459,40.9159,57.20,55.40,93.69,180.00,5.00,0.00,30.06,M,4.35,M,FEW,BKN,M,M,100.00,400.00,M,M,M,M,M,M,M,M,M,57.20,LPOV 030800Z 18005KT 7000 FEW001 BKN004 14/13 Q1018
LPOV,2017-09-03 09:00,-8.6459,40.9159,59.00,57.20,93.74,190.00,3.00,0.00,30.06,M,4.97,M,FEW,SCT,M,M,100.00,400.00,M,M,M,M,M,M,M,M,M,59.00,LPOV 030900Z 19003KT 8000 FEW001 SCT004 15/14 Q1018 BLU
LPOV,2017-09-03 10:00,-8.6459,40.9159,60.80,57.20,87.92,170.00,4.00,0.00,30.06,M,6.21,M,FEW,M,M,M,400.00,M,M,M,M,M,M,M,M,M,M,60.80,LPOV 031000Z 17004KT 9999 FEW004 16/14 Q1018
LPOV,2017-09-03 11:00,-8.6459,40.9159,64.40,59.00,82.62,280.00,8.00,0.00,30.06,M,6.21,M,FEW,M,M,M,400.00,M,M,M,M,M,M,M,M,M,M,64.40,LPOV 031100Z 28008KT 9999 FEW004 18/15 Q1018
LPOV,2017-09-03 12:00,-8.6459,40.9159,66.20,59.00,77.60,300.00,5.00,0.00,30.06,M,6.21,M,FEW,M,M,M,400.00,M,M,M,M,M,M,M,M,M,M,66.20,LPOV 031200Z 30005KT 250V330 9999 FEW004 19/15 Q1018
LPOV,2017-09-03 13:00,-8.6459,40.9159,68.00,59.00,72.92,300.00,6.00,0.00,30.06,M,6.21,M,FEW,M,M,M,400.00,M,M,M,M,M,M,M,M,M,M,68.00,LPOV 031300Z 30006KT 260V360 9999 FEW004 20/15 Q1018
LPOV,2017-09-03 14:00,-8.6459,40.9159,68.00,59.00,72.92,300.00,6.00,0.00,30.06,M,6.21,M,FEW,M,M,M,400.00,M,M,M,M,M,M,M,M,M,M,68.00,LPOV 031400Z 30006KT 9999 FEW004 20/15 Q1018
LPOV,2017-09-03 15:00,-8.6459,40.9159,69.80,62.60,77.90,310.00,7.00,0.00,30.03,M,6.21,M,FEW,M,M,M,400.00,M,M,M,M,M,M,M,M,M,M,69.80,LPOV 031500Z 31007KT 9999 FEW004 21/17 Q1017
LPOV,2017-09-03 16:00,-8.6459,40.9159,69.80,62.60,77.90,300.00,6.00,0.00,30.03,M,6.21,M,FEW,M,M,M,400.00,M,M,M,M,M,M,M,M,M,M,69.80,LPOV 031600Z 30006KT 9999 FEW004 21/17 Q1017
LPOV,2017-09-03 17:00,-8.6459,40.9159,69.80,64.40,82.98,310.00,6.00,0.00,30.03,M,6.21,M,FEW,M,M,M,400.00,M,M,M,M,M,M,M,M,M,M,69.80,LPOV 031700Z 31006KT 9999 FEW004 21/18 Q1017
LPOV,2017-09-03 18:00,-8.6459,40.9159,69.80,64.40,82.98,300.00,5.00,0.00,30.03,M,6.21,M,FEW,SCT,M,M,400.00,1000.00,M,M,M,M,M,M,M,M,M,69.80,LPOV 031800Z 30005KT 280V340 9999 FEW004 SCT010 21/18 Q1017
LPOV,2017-09-03 19:00,-8.6459,40.9159,66.20,62.60,88.18,310.00,3.00,0.00,30.03,M,6.21,M,FEW,SCT,M,M,400.00,1000.00,M,M,M,M,M,M,M,M,M,66.20,LPOV 031900Z 31003KT 9999 FEW004 SCT010 19/17 Q1017
LPOV,2017-09-03 20:00,-8.6459,40.9159,66.20,62.60,88.18,M,2.00,0.00,30.03,M,6.21,M,SCT,SCT,M,M,400.00,1000.00,M,M,M,M,M,M,M,M,M,66.20,LPOV 032000Z VRB02KT 9999 SCT004 SCT010 19/17 Q1017
LPOV,2017-09-03 21:00,-8.6459,40.9159,66.20,64.40,93.92,M,2.00,0.00,30.03,M,4.35,M,BKN,M,M,M,400.00,M,M,M,-DZ,M,M,M,M,M,M,66.20,LPOV 032100Z VRB02KT 7000 -DZ BKN004 19/18 Q1017
LPOV,2017-09-03 22:00,-8.6459,40.9159,66.20,64.40,93.92,M,2.00,0.00,30.03,M,3.11,M,BKN,M,M,M,400.00,M,M,M,-DZ,M,M,M,M,M,M,66.20,LPOV 032200Z VRB02KT 5000 -DZ BKN004 19/18 Q1017
LPOV,2017-09-03 23:00,-8.6459,40.9159,66.20,64.40,93.92,190.00,4.00,0.00,30.03,M,4.35,M,SCT,BKN,M,M,400.00,1000.00,M,M,M,M,M,M,M,M,M,66.20,LPOV 032300Z 19004KT 7000 SCT004 BKN010 19/18 Q1017
LPOV,2017-09-04 00:00,-8.6459,40.9159,66.20,64.40,93.92,170.00,3.00,0.00,30.03,M,4.97,M,SCT,BKN,M,M,400.00,1000.00,M,M,-DZ,M,M,M,M,M,M,66.20,LPOV 040000Z 17003KT 8000 -DZ SCT004 BKN010 19/18 Q1017
LPOV,2017-09-04 01:00,-8.6459,40.9159,64.40,64.40,100.00,170.00,4.00,0.00,30.03,M,5.59,M,SCT,BKN,M,M,400.00,1000.00,M,M,-DZ,M,M,M,M,M,M,64.40,LPOV 040100Z 17004KT 9000 -DZ SCT004 BKN010 18/18 Q1017
LPOV,2017-09-04 02:00,-8.6459,40.9159,64.40,64.40,100.00,170.00,4.00,0.00,30.03,M,5.59,M,SCT,BKN,M,M,400.00,1000.00,M,M,-DZ,M,M,M,M,M,M,64.40,LPOV 040200Z 17004KT 9000 -DZ SCT004 BKN010 18/18 Q1017
LPOV,2017-09-04 03:00,-8.6459,40.9159,66.20,64.40,93.92,180.00,4.00,0.00,30.00,M,5.59,M,SCT,BKN,M,M,400.00,1000.00,M,M,-DZ,M,M,M,M,M,M,66.20,LPOV 040300Z 18004KT 9000 -DZ SCT004 BKN010 19/18 Q1016
LPOV,2017-09-04 04:00,-8.6459,40.9159,66.20,64.40,93.92,200.00,3.00,0.00,30.00,M,5.59,M,SCT,BKN,M,M,400.00,1000.00,M,M,-DZ,M,M,M,M,M,M,66.20,LPOV 040400Z 20003KT 9000 -DZ SCT004 BKN010 19/18 Q1016
LPOV,2017-09-04 05:00,-8.6459,40.9159,66.20,64.40,93.92,M,2.00,0.00,30.00,M,6.21,M,SCT,BKN,M,M,400.00,1000.00,M,M,M,M,M,M,M,M,M,66.20,LPOV 040500Z VRB02KT 9999 SCT004 BKN010 19/18 Q1016
LPOV,2017-09-04 06:00,-8.6459,40.9159,66.20,64.40,93.92,M,2.00,0.00,30.00,M,2.49,M,SCT,BKN,M,M,400.00,1000.00,M,M,-DZ BR,M,M,M,M,M,M,66.20,LPOV 040600Z VRB02KT 4000 -DZ BR SCT004 BKN010 19/18 Q1016
LPOV,2017-09-04 07:00,-8.6459,40.9159,66.20,64.40,93.92,250.00,3.00,0.00,30.00,M,2.49,M,FEW,BKN,BKN,M,400.00,800.00,1000.00,M,-DZ BR,M,M,M,M,M,M,66.20,LPOV 040700Z 25003KT 220V280 4000 -DZ BR FEW004 BKN008 BKN010 19/18 Q1016
LPOV,2017-09-04 08:00,-8.6459,40.9159,66.20,66.20,100.00,M,2.00,0.00,30.03,M,1.24,M,FEW,BKN,BKN,M,400.00,800.00,1000.00,M,BR,M,M,M,M,M,M,66.20,LPOV 040800Z VRB02KT 2000 BR FEW004 BKN008 BKN010 19/19 Q1017
LPOV,2017-09-04 09:00,-8.6459,40.9159,66.20,66.20,100.00,290.00,4.00,0.00,30.06,M,1.86,M,FEW,SCT,BKN,M,100.00,300.00,1200.00,M,PRFG BR,M,M,M,M,M,M,66.20,LPOV 040900Z 29004KT 260V340 3000 0800N PRFG BR FEW001 SCT003 BKN012 19/19 Q1018
LPOV,2017-09-04 10:00,-8.6459,40.9159,68.00,66.20,93.97,M,2.00,0.00,30.06,M,4.35,M,SCT,BKN,M,M,500.00,1300.00,M,M,M,M,M,M,M,M,M,68.00,LPOV 041000Z VRB02KT 7000 SCT005 BKN013 20/19 Q1018
LPOV,2017-09-04 11:00,-8.6459,40.9159,69.80,64.40,82.98,330.00,4.00,0.00,30.09,M,6.21,M,FEW,M,M,M,600.00,M,M,M,M,M,M,M,M,M,M,69.80,LPOV 041100Z 33004KT 270V030 9999 FEW006 21/18 Q1019
LPOV,2017-09-04 12:00,-8.6459,40.9159,71.60,64.40,78.04,350.00,6.00,0.00,30.09,M,6.21,M,FEW,M,M,M,600.00,M,M,M,M,M,M,M,M,M,M,71.60,LPOV 041200Z 35006KT 290V030 9999 FEW006 22/18 Q1019
LPOV,2017-09-04 13:00,-8.6459,40.9159,71.60,64.40,78.04,330.00,8.00,0.00,30.09,M,6.21,M,FEW,M,M,M,800.00,M,M,M,M,M,M,M,M,M,M,71.60,LPOV 041300Z 33008KT 300V020 9999 FEW008 22/18 Q1019
LPOV,2017-09-04 14:00,-8.6459,40.9159,71.60,62.60,73.27,330.00,7.00,0.00,30.09,M,6.21,M,FEW,M,M,M,800.00,M,M,M,M,M,M,M,M,M,M,71.60,LPOV 041400Z 33007KT 280V030 9999 FEW008 22/17 Q1019
LPOV,2017-09-04 15:00,-8.6459,40.9159,71.60,64.40,78.04,330.00,7.00,0.00,30.09,M,6.21,M,FEW,M,M,M,1300.00,M,M,M,M,M,M,M,M,M,M,71.60,LPOV 041500Z 33007KT 280V020 9999 FEW013 22/18 Q1019
LPOV,2017-09-04 16:00,-8.6459,40.9159,71.60,64.40,78.04,360.00,9.00,0.00,30.06,M,6.21,M,FEW,M,M,M,1300.00,M,M,M,M,M,M,M,M,M,M,71.60,LPOV 041600Z 36009KT 9999 FEW013 22/18 Q1018
LPOV,2017-09-04 17:00,-8.6459,40.9159,69.80,64.40,82.98,10.00,9.00,0.00,30.09,M,6.21,M,FEW,M,M,M,1300.00,M,M,M,M,M,M,M,M,M,M,69.80,LPOV 041700Z 01009KT 330V030 9999 FEW013 21/18 Q1019
LPOV,2017-09-04 18:00,-8.6459,40.9159,69.80,64.40,82.98,10.00,9.00,0.00,30.06,M,6.21,M,FEW,M,M,M,1200.00,M,M,M,M,M,M,M,M,M,M,69.80,LPOV 041800Z 01009KT 330V050 9999 FEW012 21/18 Q1018
LPOV,2017-09-04 19:00,-8.6459,40.9159,66.20,62.60,88.18,10.00,6.00,0.00,30.06,M,6.21,M,FEW,M,M,M,1200.00,M,M,M,M,M,M,M,M,M,M,66.20,LPOV 041900Z 01006KT 9999 FEW012 19/17 Q1018
LPOV,2017-09-04 20:00,-8.6459,40.9159,64.40,62.60,93.88,360.00,5.00,0.00,30.09,M,6.21,M,SCT,M,M,M,300.00,M,M,M,M,M,M,M,M,M,M,64.40,LPOV 042000Z 36005KT 330V030 9999 SCT003 18/17 Q1019
LPOV,2017-09-04 21:00,-8.6459,40.9159,64.40,62.60,93.88,20.00,4.00,0.00,30.12,M,6.21,M,BKN,M,M,M,300.00,M,M,M,M,M,M,M,M,M,M,64.40,LPOV 042100Z 02004KT 340V050 9999 BKN003 18/17 Q1020
LPOV,2017-09-04 22:00,-8.6459,40.9159,62.60,62.60,100.00,20.00,6.00,0.00,30.12,M,4.35,M,BKN,M,M,M,300.00,M,M,M,M,M,M,M,M,M,M,62.60,LPOV 042200Z 02006KT 7000 BKN003 17/17 Q1020
LPOV,2017-09-04 23:00,-8.6459,40.9159,64.40,62.60,93.88,20.00,5.00,0.00,30.15,M,3.73,M,BKN,M,M,M,300.00,M,M,M,M,M,M,M,M,M,M,64.40,LPOV 042300Z 02005KT 6000 BKN003 18/17 Q1021
LPOV,2017-09-05 00:00,-8.6459,40.9159,62.60,62.60,100.00,10.00,4.00,0.00,30.15,M,1.86,M,SCT,M,M,M,300.00,M,M,M,BR,M,M,M,M,M,M,62.60,LPOV 050000Z 01004KT 3000 BR SCT003 17/17 Q1021
LPOV,2017-09-05 01:00,-8.6459,40.9159,62.60,62.60,100.00,10.00,4.00,0.00,30.15,M,1.86,M,BKN,M,M,M,300.00,M,M,M,BR,M,M,M,M,M,M,62.60,LPOV 050100Z 01004KT 3000 BR BKN003 17/17 Q1021
LPOV,2017-09-05 02:00,-8.6459,40.9159,62.60,62.60,100.00,M,2.00,0.00,30.15,M,1.24,M,BKN,BKN,M,M,300.00,1000.00,M,M,BR,M,M,M,M,M,M,62.60,LPOV 050200Z VRB02KT 2000 BR BKN003 BKN010 17/17 Q1021
LPOV,2017-09-05 03:00,-8.6459,40.9159,64.40,62.60,93.88,30.00,5.00,0.00,30.15,M,1.86,M,OVC,M,M,M,400.00,M,M,M,BR,M,M,M,M,M,M,64.40,LPOV 050300Z 03005KT 3000 BR OVC004 18/17 Q1021
LPOV,2017-09-05 04:00,-8.6459,40.9159,64.40,62.60,93.88,20.00,5.00,0.00,30.12,M,3.11,M,SCT,BKN,M,M,400.00,1400.00,M,M,BR,M,M,M,M,M,M,64.40,LPOV 050400Z 02005KT 5000 BR SCT004 BKN014 18/17 Q1020
LPOV,2017-09-05 05:00,-8.6459,40.9159,64.40,62.60,93.88,30.00,3.00,0.00,30.12,M,3.73,M,FEW,BKN,M,M,500.00,1500.00,M,M,M,M,M,M,M,M,M,64.40,LPOV 050500Z 03003KT 6000 FEW005 BKN015 18/17 Q1020
LPOV,2017-09-05 06:00,-8.6459,40.9159,62.60,60.80,93.83,M,2.00,0.00,30.12,M,4.97,M,SCT,SCT,BKN,M,500.00,1200.00,1500.00,M,M,M,M,M,M,M,M,62.60,LPOV 050600Z VRB02KT 8000 SCT005 SCT012 BKN015 17/16 Q1020
LPOV,2017-09-05 07:00,-8.6459,40.9159,62.60,60.80,93.83,30.00,4.00,0.00,30.15,M,4.97,M,FEW,BKN,M,M,500.00,1300.00,M,M,M,M,M,M,M,M,M,62.60,LPOV 050700Z 03004KT 8000 FEW005 BKN013 17/16 Q1021
LPOV,2017-09-05 08:00,-8.6459,40.9159,62.60,60.80,93.83,20.00,7.00,0.00,30.18,M,5.59,M,FEW,BKN,M,M,500.00,1300.00,M,M,M,M,M,M,M,M,M,62.60,LPOV 050800Z 02007KT 9000 FEW005 BKN013 17/16 Q1022
LPOV,2017-09-05 09:00,-8.6459,40.9159,68.00,62.60,82.86,20.00,6.00,0.00,30.18,M,6.21,M,FEW,BKN,M,M,500.00,1500.00,M,M,M,M,M,M,M,M,M,68.00,LPOV 050900Z 02006KT 9999 FEW005 BKN015 20/17 Q1022
LPOV,2017-09-05 10:00,-8.6459,40.9159,69.80,60.80,73.09,360.00,8.00,0.00,30.21,M,6.21,M,FEW,BKN,M,M,500.00,1500.00,M,M,M,M,M,M,M,M,M,69.80,LPOV 051000Z 36008KT 9999 FEW005 BKN015 21/16 Q1023
LPOV,2017-09-05 11:00,-8.6459,40.9159,71.60,62.60,73.27,10.00,11.00,0.00,30.21,M,6.21,M,FEW,M,M,M,1800.00,M,M,M,M,M,M,M,M,M,M,71.60,LPOV 051100Z 01011KT 9999 FEW018 22/17 Q1023
LPOV,2017-09-05 12:00,-8.6459,40.9159,69.80,60.80,73.09,350.00,10.00,0.00,30.18,M,6.21,M,M,M,M,M,M,M,M,M,M,M,M,M,M,M,M,69.80,LPOV 051200Z 35010KT 310V020 CAVOK 21/16 Q1022
LPOV,2017-09-05 13:00,-8.6459,40.9159,71.60,60.80,68.75,350.00,11.00,0.00,30.21,M,6.21,21.00,FEW,M,M,M,2000.00,M,M,M,M,M,M,M,M,M,M,71.60,LPOV 051300Z 35011G21KT 310V020 9999 FEW020 22/16 Q1023
LPOV,2017-09-05 14:00,-8.6459,40.9159,69.80,60.80,73.09,360.00,13.00,0.00,30.18,M,6.21,M,M,M,M,M,M,M,M,M,M,M,M,M,M,M,M,69.80,LPOV 051400Z 36013KT 330V030 CAVOK 21/16 Q1022
LPOV,2017-09-05 15:00,-8.6459,40.9159,69.80,60.80,73.09,360.00,12.00,0.00,30.18,M,6.21,M,M,M,M,M,M,M,M,M,M,M,M,M,M,M,M,69.80,LPOV 051500Z 36012KT 330V030 CAVOK 21/16 Q1022
LPOV,2017-09-05 16:00,-8.6459,40.9159,69.80,60.80,73.09,360.00,11.00,0.00,30.18,M,6.21,M,M,M,M,M,M,M,M,M,M,M,M,M,M,M,M,69.80,LPOV 051600Z 36011KT 320V020 CAVOK 21/16 Q1022
LPOV,2017-09-05 17:00,-8.6459,40.9159,68.00,60.80,77.75,360.00,12.00,0.00,30.18,M,6.21,M,M,M,M,M,M,M,M,M,M,M,M,M,M,M,M,68.00,LPOV 051700Z 36012KT CAVOK 20/16 Q1022
LPOV,2017-09-05 18:00,-8.6459,40.9159,66.20,60.80,82.74,360.00,9.00,0.00,30.18,M,6.21,M,M,M,M,M,M,M,M,M,M,M,M,M,M,M,M,66.20,LPOV 051800Z 36009KT CAVOK 19/16 Q1022
LPOV,2017-09-05 19:00,-8.6459,40.9159,64.40,60.80,88.09,360.00,9.00,0.00,30.18,M,6.21,M,FEW,M,M,M,800.00,M,M,M,M,M,M,M,M,M,M,64.40,LPOV 051900Z 36009KT 9999 FEW008 18/16 Q1022
LPOV,2017-09-05 20:00,-8.6459,40.9159,64.40,62.60,93.88,360.00,10.00,0.00,30.18,M,6.21,M,BKN,M,M,M,800.00,M,M,M,M,M,M,M,M,M,M,64.40,LPOV 052000Z 36010KT 9999 BKN008 18/17 Q1022
LPOV,2017-09-05 21:00,-8.6459,40.9159,62.60,60.80,93.83,10.00,10.00,0.00,30.21,M,2.49,M,BKN,M,M,M,600.00,M,M,M,BR,M,M,M,M,M,M,62.60,LPOV 052100Z 01010KT 4000 BR BKN006 17/16 Q1023
LPOV,2017-09-05 22:00,-8.6459,40.9159,60.80,60.80,100.00,350.00,9.00,0.00,30.18,M,0.37,M,OVC,M,M,M,600.00,M,M,M,FG,M,M,M,M,M,M,60.80,LPOV 052200Z 35009KT 0600 FG OVC006 16/16 Q1022
LPOV,2017-09-05 23:00,-8.6459,40.9159,60.80,60.80,100.00,350.00,5.00,0.00,30.18,M,0.37,M,OVC,M,M,M,600.00,M,M,M,FG,M,M,M,M,M,M,60.80,LPOV 052300Z 35005KT 0600 FG OVC006 16/16 Q1022
LPOV,2017-09-06 00:00,-8.6459,40.9159,60.80,59.00,93.79,M,2.00,0.00,30.18,M,0.25,M,OVC,M,M,M,400.00,M,M,M,FG,M,M,M,M,M,M,60.80,LPOV 060000Z VRB02KT 0400 FG OVC004 16/15 Q1022
LPOV,2017-09-06 01:00,-8.6459,40.9159,60.80,59.00,93.79,170.00,4.00,0.00,30.21,M,0.25,M,OVC,M,M,M,400.00,M,M,M,FG,M,M,M,M,M,M,60.80,LPOV 060100Z 17004KT 0400 FG OVC004 16/15 Q1023
LPOV,2017-09-06 03:00,-8.6459,40.9159,57.20,57.20,100.00,M,2.00,0.00,30.18,M,0.25,M,OVC,M,M,M,400.00,M,M,M,FG,M,M,M,M,M,M,57.20,LPOV 060300Z VRB02KT 0400 FG OVC004 14/14 Q1022
LPOV,2017-09-06 04:00,-8.6459,40.9159,57.20,55.40,93.69,M,1.00,0.00,30.18,M,0.25,M,OVC,M,M,M,400.00,M,M,M,FG,M,M,M,M,M,M,57.20,LPOV 060400Z VRB01KT 0400 FG OVC004 14/13 Q1022
LPOV,2017-09-06 06:00,-8.6459,40.9159,59.00,57.20,93.74,M,1.00,0.00,30.18,M,0.12,M,VV ,M,M,M,M,M,M,M,FG,M,M,M,M,M,M,59.00,LPOV 060600Z VRB01KT 0200 FG VV/// 15/14 Q1022
LPOV,2017-09-06 07:00,-8.6459,40.9159,60.80,59.00,93.79,M,1.00,0.00,30.18,M,0.12,M,VV ,M,M,M,M,M,M,M,FG,M,M,M,M,M,M,60.80,LPOV 060700Z VRB01KT 0200 FG VV/// 16/15 Q1022
LPOV,2017-09-06 08:00,-8.6459,40.9159,59.00,59.00,100.00,M,1.00,0.00,30.18,M,0.19,M,BKN,M,M,M,300.00,M,M,M,FG,M,M,M,M,M,M,59.00,LPOV 060800Z VRB01KT 0300 FG BKN003 15/15 Q1022
LPOV,2017-09-06 09:00,-8.6459,40.9159,60.80,60.80,100.00,M,1.00,0.00,30.18,M,3.73,M,SCT,M,M,M,500.00,M,M,M,M,M,M,M,M,M,M,60.80,LPOV 060900Z VRB01KT 6000 SCT005 16/16 Q1022
LPOV,2017-09-06 10:00,-8.6459,40.9159,64.40,62.60,93.88,350.00,3.00,0.00,30.18,M,6.21,M,M,M,M,M,M,M,M,M,M,M,M,M,M,M,M,64.40,LPOV 061000Z 35003KT 300V040 CAVOK 18/17 Q1022
LPOV,2017-09-06 11:00,-8.6459,40.9159,69.80,60.80,73.09,350.00,6.00,0.00,30.15,M,6.21,M,M,M,M,M,M,M,M,M,M,M,M,M,M,M,M,69.80,LPOV 061100Z 35006KT 310V050 CAVOK 21/16 Q1021
LPOV,2017-09-06 12:00,-8.6459,40.9159,73.40,60.80,64.69,360.00,12.00,0.00,30.15,M,6.21,M,M,M,M,M,M,M,M,M,M,M,M,M,M,M,M,73.40,LPOV 061200Z 36012KT CAVOK 23/16 Q1021
LPOV,2017-09-06 13:00,-8.6459,40.9159,73.40,59.00,60.67,10.00,15.00,0.00,30.15,M,6.21,M,M,M,M,M,M,M,M,M,M,M,M,M,M,M,M,73.40,LPOV 061300Z 01015KT CAVOK 23/15 Q1021
LPOV,2017-09-06 14:00,-8.6459,40.9159,75.20,59.00,57.12,10.00,16.00,0.00,30.12,M,6.21,M,M,M,M,M,M,M,M,M,M,M,M,M,M,M,M,75.20,LPOV 061400Z 01016KT CAVOK 24/15 Q1020
LPOV,2017-09-06 15:00,-8.6459,40.9159,73.40,59.00,60.67,360.00,17.00,0.00,30.09,M,6.21,M,M,M,M,M,M,M,M,M,M,M,M,M,M,M,M,73.40,LPOV 061500Z 36017KT CAVOK 23/15 Q1019
LPOV,2017-09-06 16:00,-8.6459,40.9159,69.80,59.00,68.55,10.00,16.00,0.00,30.09,M,6.21,M,M,M,M,M,M,M,M,M,M,M,M,M,M,M,M,69.80,LPOV 061600Z 01016KT CAVOK 21/15 Q1019
LPOV,2017-09-06 17:00,-8.6459,40.9159,69.80,59.00,68.55,360.00,17.00,0.00,30.06,M,6.21,M,M,M,M,M,M,M,M,M,M,M,M,M,M,M,M,69.80,LPOV 061700Z 36017KT CAVOK 21/15 Q1018
LPOV,2017-09-06 18:00,-8.6459,40.9159,66.20,57.20,72.74,10.00,12.00,0.00,30.06,M,6.21,M,M,M,M,M,M,M,M,M,M,M,M,M,M,M,M,66.20,LPOV 061800Z 01012KT CAVOK 19/14 Q1018
LPOV,2017-09-06 19:00,-8.6459,40.9159,64.40,57.20,77.45,10.00,10.00,0.00,30.06,M,6.21,M,M,M,M,M,M,M,M,M,M,M,M,M,M,M,M,64.40,LPOV 061900Z 01010KT CAVOK 18/14 Q1018
LPOV,2017-09-06 23:00,-8.6459,40.9159,59.00,57.20,93.74,30.00,3.00,0.00,30.06,M,6.21,M,M,M,M,M,M,M,M,M,M,M,M,M,M,M,M,59.00,LPOV 062300Z 03003KT 350V060 CAVOK 15/14 Q1018
LPOV,2017-09-07 00:00,-8.6459,40.9159,59.00,57.20,93.74,20.00,4.00,0.00,30.06,M,6.21,M,M,M,M,M,M,M,M,M,M,M,M,M,M,M,M,59.00,LPOV 070000Z 02004KT CAVOK 15/14 Q1018
LPOV,2017-09-07 01:00,-8.6459,40.9159,57.20,55.40,93.69,M,2.00,0.00,30.06,M,6.21,M,M,M,M,M,M,M,M,M,M,M,M,M,M,M,M,57.20,LPOV 070100Z VRB02KT CAVOK 14/13 Q1018
LPOV,2017-09-07 02:00,-8.6459,40.9159,55.40,53.60,93.65,70.00,3.00,0.00,30.06,M,6.21,M,M,M,M,M,M,M,M,M,M,M,M,M,M,M,M,55.40,LPOV 070200Z 07003KT CAVOK 13/12 Q1018
LPOV,2017-09-07 03:00,-8.6459,40.9159,55.40,53.60,93.65,M,2.00,0.00,30.06,M,6.21,M,M,M,M,M,M,M,M,M,M,M,M,M,M,M,M,55.40,LPOV 070300Z VRB02KT CAVOK 13/12 Q1018
LPOV,2017-09-07 04:00,-8.6459,40.9159,55.40,53.60,93.65,M,2.00,0.00,30.03,M,6.21,M,M,M,M,M,M,M,M,M,M,M,M,M,M,M,M,55.40,LPOV 070400Z VRB02KT CAVOK 13/12 Q1017
LPOV,2017-09-07 05:00,-8.6459,40.9159,53.60,53.60,100.00,90.00,3.00,0.00,30.06,M,6.21,M,M,M,M,M,M,M,M,M,M,M,M,M,M,M,M,53.60,LPOV 070500Z 09003KT CAVOK 12/12 Q1018
LPOV,2017-09-07 06:00,-8.6459,40.9159,53.60,51.80,93.60,M,2.00,0.00,30.06,M,6.21,M,M,M,M,M,M,M,M,M,M,M,M,M,M,M,M,53.60,LPOV 070600Z VRB02KT CAVOK 12/11 Q1018
LPOV,2017-09-07 07:00,-8.6459,40.9159,53.60,51.80,93.60,M,2.00,0.00,30.06,M,6.21,M,M,M,M,M,M,M,M,M,M,M,M,M,M,M,M,53.60,LPOV 070700Z VRB02KT CAVOK 12/11 Q1018
LPOV,2017-09-07 08:00,-8.6459,40.9159,59.00,57.20,93.74,M,2.00,0.00,30.06,M,6.21,M,M,M,M,M,M,M,M,M,M,M,M,M,M,M,M,59.00,LPOV 070800Z VRB02KT CAVOK 15/14 Q1018
LPOV,2017-09-07 09:00,-8.6459,40.9159,68.00,59.00,72.92,M,2.00,0.00,30.09,M,6.21,M,M,M,M,M,M,M,M,M,M,M,M,M,M,M,M,68.00,LPOV 070900Z VRB02KT CAVOK 20/15 Q1019
LPOV,2017-09-07 10:00,-8.6459,40.9159,77.00,55.40,47.25,40.00,5.00,0.00,30.09,M,6.21,M,M,M,M,M,M,M,M,M,M,M,M,M,M,M,M,77.00,LPOV 071000Z 04005KT 010V070 CAVOK 25/13 Q1019
LPOV,2017-09-07 11:00,-8.6459,40.9159,78.80,55.40,44.52,360.00,6.00,0.00,30.09,M,6.21,M,M,M,M,M,M,M,M,M,M,M,M,M,M,M,M,78.80,LPOV 071100Z 36006KT CAVOK 26/13 Q1019
LPOV,2017-09-07 12:00,-8.6459,40.9159,73.40,57.20,56.88,350.00,10.00,0.00,30.06,M,6.21,M,M,M,M,M,M,M,M,M,M,M,M,M,M,M,M,73.40,LPOV 071200Z 35010KT CAVOK 23/14 Q1018
LPOV,2017-09-07 13:00,-8.6459,40.9159,73.40,55.40,53.29,10.00,10.00,0.00,30.06,M,6.21,M,M,M,M,M,M,M,M,M,M,M,M,M,M,M,M,73.40,LPOV 071300Z 01010KT CAVOK 23/13 Q1018
LPOV,2017-09-07 14:00,-8.6459,40.9159,71.60,51.80,49.64,10.00,15.00,0.00,30.03,M,6.21,M,M,M,M,M,M,M,M,M,M,M,M,M,M,M,M,71.60,LPOV 071400Z 01015KT CAVOK 22/11 Q1017
LPOV,2017-09-07 15:00,-8.6459,40.9159,71.60,55.40,56.63,360.00,13.00,0.00,30.03,M,6.21,M,M,M,M,M,M,M,M,M,M,M,M,M,M,M,M,71.60,LPOV 071500Z 36013KT CAVOK 22/13 Q1017
LPOV,2017-09-07 16:00,-8.6459,40.9159,68.00,57.20,68.35,360.00,13.00,0.00,30.03,M,6.21,M,M,M,M,M,M,M,M,M,M,M,M,M,M,M,M,68.00,LPOV 071600Z 36013KT CAVOK 20/14 Q1017
LPOV,2017-09-07 17:00,-8.6459,40.9159,66.20,55.40,68.15,360.00,13.00,0.00,30.03,M,6.21,M,M,M,M,M,M,M,M,M,M,M,M,M,M,M,M,66.20,LPOV 071700Z 36013KT CAVOK 19/13 Q1017
LPOV,2017-09-07 18:00,-8.6459,40.9159,64.40,57.20,77.45,350.00,12.00,0.00,30.03,M,6.21,M,M,M,M,M,M,M,M,M,M,M,M,M,M,M,M,64.40,LPOV 071800Z 35012KT CAVOK 18/14 Q1017
LPOV,2017-09-07 19:00,-8.6459,40.9159,60.80,57.20,87.92,350.00,10.00,0.00,30.03,M,6.21,M,M,M,M,M,M,M,M,M,M,M,M,M,M,M,M,60.80,LPOV 071900Z 35010KT CAVOK 16/14 Q1017
LPOV,2017-09-07 20:00,-8.6459,40.9159,59.00,57.20,93.74,360.00,7.00,0.00,30.03,M,6.21,M,M,M,M,M,M,M,M,M,M,M,M,M,M,M,M,59.00,LPOV 072000Z 36007KT CAVOK 15/14 Q1017
LPOV,2017-09-07 21:00,-8.6459,40.9159,59.00,57.20,93.74,350.00,8.00,0.00,30.03,M,6.21,M,M,M,M,M,M,M,M,M,M,M,M,M,M,M,M,59.00,LPOV 072100Z 35008KT CAVOK 15/14 Q1017
LPOV,2017-09-07 22:00,-8.6459,40.9159,57.20,55.40,93.69,350.00,7.00,0.00,30.03,M,6.21,M,M,M,M,M,M,M,M,M,M,M,M,M,M,M,M,57.20,LPOV 072200Z 35007KT CAVOK 14/13 Q1017
LPOV,2017-09-07 23:00,-8.6459,40.9159,57.20,55.40,93.69,350.00,5.00,0.00,30.03,M,6.21,M,M,M,M,M,M,M,M,M,M,M,M,M,M,M,M,57.20,LPOV 072300Z 35005KT CAVOK 14/13 Q1017
LPOV,2017-09-08 00:00,-8.6459,40.9159,57.20,55.40,93.69,350.00,3.00,0.00,30.03,M,6.21,M,M,M,M,M,M,M,M,M,M,M,M,M,M,M,M,57.20,LPOV 080000Z 35003KT CAVOK 14/13 Q1017
LPOV,2017-09-08 01:00,-8.6459,40.9159,57.20,55.40,93.69,360.00,4.00,0.00,30.03,M,6.21,M,M,M,M,M,M,M,M,M,M,M,M,M,M,M,M,57.20,LPOV 080100Z 36004KT CAVOK 14/13 Q1017
LPOV,2017-09-08 02:00,-8.6459,40.9159,57.20,55.40,93.69,M,2.00,0.00,30.03,M,3.73,M,NSC,M,M,M,M,M,M,M,PRFG,M,M,M,M,M,M,57.20,LPOV 080200Z VRB02KT 6000 1000S PRFG NSC 14/13 Q1017
LPOV,2017-09-08 03:00,-8.6459,40.9159,51.80,50.00,93.55,130.00,4.00,0.00,30.00,M,3.73,M,NSC,M,M,M,M,M,M,M,PRFG,M,M,M,M,M,M,51.80,LPOV 080300Z 13004KT 6000 1000S PRFG NSC 11/10 Q1016
LPOV,2017-09-08 04:00,-8.6459,40.9159,50.00,50.00,100.00,150.00,4.00,0.00,30.00,M,2.49,M,FEW,M,M,M,100.00,M,M,M,PRFG BR,M,M,M,M,M,M,48.44,LPOV 080400Z 15004KT 4000 0800S PRFG BR FEW001 10/10 Q1016
LPOV,2017-09-08 05:00,-8.6459,40.9159,53.60,51.80,93.60,150.00,4.00,0.00,30.00,M,1.12,M,SCT,M,M,M,100.00,M,M,M,PRFG BR,M,M,M,M,M,M,53.60,LPOV 080500Z 15004KT 1800 0700S PRFG BR SCT001 12/11 Q1016
LPOV,2017-09-08 06:00,-8.6459,40.9159,55.40,53.60,93.65,150.00,4.00,0.00,30.00,M,0.31,M,VV ,M,M,M,M,M,M,M,FG,M,M,M,M,M,M,55.40,LPOV 080600Z 15004KT 0500 FG VV/// 13/12 Q1016
LPOV,2017-09-08 07:00,-8.6459,40.9159,55.40,55.40,100.00,130.00,6.00,0.00,30.00,M,0.12,M,VV ,M,M,M,M,M,M,M,FG,M,M,M,M,M,M,55.40,LPOV 080700Z 13006KT 0200 FG VV/// 13/13 Q1016
LPOV,2017-09-08 08:00,-8.6459,40.9159,53.60,53.60,100.00,140.00,5.00,0.00,30.03,M,0.12,M,VV ,M,M,M,M,M,M,M,FG,M,M,M,M,M,M,53.60,LPOV 080800Z 14005KT 0200 FG VV/// 12/12 Q1017
LPOV,2017-09-08 09:00,-8.6459,40.9159,57.20,57.20,100.00,300.00,3.00,0.00,30.03,M,1.86,M,OVC,M,M,M,200.00,M,M,M,PRFG BR,M,M,M,M,M,M,57.20,LPOV 080900Z 30003KT 3000 0900S PRFG BR OVC002 14/14 Q1017
LPOV,2017-09-08 10:00,-8.6459,40.9159,59.00,57.20,93.74,M,2.00,0.00,30.03,M,4.35,M,FEW,SCT,M,M,200.00,400.00,M,M,M,M,M,M,M,M,M,59.00,LPOV 081000Z VRB02KT 7000 FEW002 SCT004 15/14 Q1017
LPOV,2017-09-08 12:00,-8.6459,40.9159,62.60,55.40,77.29,290.00,7.00,0.00,30.03,M,6.21,M,M,M,M,M,M,M,M,M,M,M,M,M,M,M,M,62.60,LPOV 081200Z 29007KT 260V340 CAVOK 17/13 Q1017
LPOV,2017-09-08 13:00,-8.6459,40.9159,64.40,55.40,72.56,290.00,9.00,0.00,30.03,M,6.21,M,M,M,M,M,M,M,M,M,M,M,M,M,M,M,M,64.40,LPOV 081300Z 29009KT 250V350 CAVOK 18/13 Q1017
LPOV,2017-09-08 14:00,-8.6459,40.9159,66.20,55.40,68.15,340.00,9.00,0.00,30.00,M,6.21,M,M,M,M,M,M,M,M,M,M,M,M,M,M,M,M,66.20,LPOV 081400Z 34009KT 290V010 CAVOK 19/13 Q1016
LPOV,2017-09-08 15:00,-8.6459,40.9159,66.20,57.20,72.74,320.00,8.00,0.00,30.00,M,6.21,M,M,M,M,M,M,M,M,M,M,M,M,M,M,M,M,66.20,LPOV 081500Z 32008KT 270V010 CAVOK 19/14 Q1016
LPOV,2017-09-08 16:00,-8.6459,40.9159,66.20,59.00,77.60,320.00,7.00,0.00,30.00,M,6.21,M,M,M,M,M,M,M,M,M,M,M,M,M,M,M,M,66.20,LPOV 081600Z 32007KT 280V010 CAVOK 19/15 Q1016
LPOV,2017-09-08 17:00,-8.6459,40.9159,66.20,59.00,77.60,320.00,7.00,0.00,30.00,M,6.21,M,M,M,M,M,M,M,M,M,M,M,M,M,M,M,M,66.20,LPOV 081700Z 32007KT 280V360 CAVOK 19/15 Q1016
LPOV,2017-09-08 18:00,-8.6459,40.9159,64.40,60.80,88.09,340.00,8.00,0.00,30.00,M,6.21,M,FEW,M,M,M,1000.00,M,M,M,M,M,M,M,M,M,M,64.40,LPOV 081800Z 34008KT 300V010 9999 FEW010 18/16 Q1016
LPOV,2017-09-08 19:00,-8.6459,40.9159,62.60,59.00,88.00,350.00,6.00,0.00,30.00,M,6.21,M,FEW,SCT,M,M,1000.00,1500.00,M,M,M,M,M,M,M,M,M,62.60,LPOV 081900Z 35006KT 9999 FEW010 SCT015 17/15 Q1016
LPOV,2017-09-08 20:00,-8.6459,40.9159,62.60,59.00,88.00,350.00,3.00,0.00,30.00,M,6.21,M,FEW,BKN,M,M,1000.00,1500.00,M,M,M,M,M,M,M,M,M,62.60,LPOV 082000Z 35003KT 9999 FEW010 BKN015 17/15 Q1016
LPOV,2017-09-08 21:00,-8.6459,40.9159,62.60,60.80,93.83,360.00,5.00,0.00,30.03,M,6.21,M,BKN,M,M,M,1200.00,M,M,M,M,M,M,M,M,M,M,62.60,LPOV 082100Z 36005KT 9999 BKN012 17/16 Q1017
LPOV,2017-09-08 22:00,-8.6459,40.9159,62.60,60.80,93.83,360.00,6.00,0.00,30.00,M,6.21,M,BKN,M,M,M,1200.00,M,M,M,M,M,M,M,M,M,M,62.60,LPOV 082200Z 36006KT 9999 BKN012 17/16 Q1016
LPOV,2017-09-08 23:00,-8.6459,40.9159,62.60,60.80,93.83,360.00,3.00,0.00,30.00,M,6.21,M,BKN,M,M,M,1200.00,M,M,M,M,M,M,M,M,M,M,62.60,LPOV 082300Z 36003KT 9999 BKN012 17/16 Q1016
LPOV,2017-09-09 00:00,-8.6459,40.9159,62.60,60.80,93.83,330.00,4.00,0.00,30.00,M,6.21,M,OVC,M,M,M,1200.00,M,M,M,M,M,M,M,M,M,M,62.60,LPOV 090000Z 33004KT 9999 OVC012 17/16 Q1016
LPOV,2017-09-09 01:00,-8.6459,40.9159,62.60,60.80,93.83,290.00,3.00,0.00,29.97,M,6.21,M,OVC,M,M,M,1200.00,M,M,M,M,M,M,M,M,M,M,62.60,LPOV 090100Z 29003KT 9999 OVC012 17/16 Q1015
LPOV,2017-09-09 02:00,-8.6459,40.9159,62.60,60.80,93.83,M,2.00,0.00,29.97,M,6.21,M,FEW,OVC,M,M,400.00,1200.00,M,M,-DZ,M,M,M,M,M,M,62.60,LPOV 090200Z VRB02KT 9999 -DZ FEW004 OVC012 17/16 Q1015
LPOV,2017-09-09 03:00,-8.6459,40.9159,62.60,60.80,93.83,30.00,3.00,0.00,29.97,M,6.21,M,FEW,OVC,M,M,400.00,1200.00,M,M,M,M,M,M,M,M,M,62.60,LPOV 090300Z 03003KT 9999 FEW004 OVC012 17/16 Q1015
LPOV,2017-09-09 04:00,-8.6459,40.9159,62.60,60.80,93.83,360.00,5.00,0.00,29.97,M,6.21,M,FEW,OVC,M,M,400.00,1000.00,M,M,M,M,M,M,M,M,M,62.60,LPOV 090400Z 36005KT 9999 FEW004 OVC010 17/16 Q1015
LPOV,2017-09-09 05:00,-8.6459,40.9159,60.80,60.80,100.00,30.00,4.00,0.00,29.97,M,6.21,M,FEW,BKN,M,M,400.00,1000.00,M,M,M,M,M,M,M,M,M,60.80,LPOV 090500Z 03004KT 9999 FEW004 BKN010 16/16 Q1015
LPOV,2017-09-09 06:00,-8.6459,40.9159,60.80,60.80,100.00,20.00,5.00,0.00,29.97,M,6.21,M,FEW,BKN,M,M,400.00,1000.00,M,M,M,M,M,M,M,M,M,60.80,LPOV 090600Z 02005KT 9999 FEW004 BKN010 16/16 Q1015
LPOV,2017-09-09 07:00,-8.6459,40.9159,60.80,59.00,93.79,30.00,5.00,0.00,29.97,M,6.21,M,SCT,SCT,M,M,400.00,1000.00,M,M,M,M,M,M,M,M,M,60.80,LPOV 090700Z 03005KT 9999 SCT004 SCT010 16/15 Q1015
LPOV,2017-09-09 08:00,-8.6459,40.9159,60.80,59.00,93.79,350.00,6.00,0.00,29.97,M,6.21,M,SCT,SCT,M,M,400.00,1000.00,M,M,M,M,M,M,M,M,M,60.80,LPOV 090800Z 35006KT 9999 SCT004 SCT010 16/15 Q1015
LPOV,2017-09-09 09:00,-8.6459,40.9159,62.60,60.80,93.83,340.00,8.00,0.00,30.00,M,6.21,M,FEW,M,M,M,1200.00,M,M,M,M,M,M,M,M,M,M,62.60,LPOV 090900Z 34008KT 9999 FEW012 17/16 Q1016
LPOV,2017-09-09 10:00,-8.6459,40.9159,66.20,59.00,77.60,360.00,9.00,0.00,30.00,M,6.21,M,FEW,SCT,M,M,1200.00,2200.00,M,M,M,M,M,M,M,M,M,66.20,LPOV 091000Z 36009KT 9999 FEW012 SCT022 19/15 Q1016
LPOV,2017-09-09 11:00,-8.6459,40.9159,64.40,59.00,82.62,340.00,9.00,0.00,30.00,M,6.21,M,FEW,BKN,M,M,1200.00,2200.00,M,M,M,M,M,M,M,M,M,64.40,LPOV 091100Z 34009KT 9999 FEW012 BKN022 18/15 Q1016
LPOV,2017-09-09 12:00,-8.6459,40.9159,66.20,57.20,72.74,340.00,9.00,0.00,30.00,M,6.21,M,FEW,M,M,M,1200.00,M,M,M,M,M,M,M,M,M,M,66.20,LPOV 091200Z 34009KT 9999 FEW012 19/14 Q1016
LPOV,2017-09-09 13:00,-8.6459,40.9159,68.00,59.00,72.92,330.00,11.00,0.00,30.00,M,6.21,M,FEW,M,M,M,1200.00,M,M,M,M,M,M,M,M,M,M,68.00,LPOV 091300Z 33011KT 9999 FEW012 20/15 Q1016
LPOV,2017-09-09 14:00,-8.6459,40.9159,68.00,57.20,68.35,320.00,12.00,0.00,30.00,M,6.21,M,FEW,M,M,M,1200.00,M,M,M,M,M,M,M,M,M,M,68.00,LPOV 091400Z 32012KT 9999 FEW012 20/14 Q1016
LPOV,2017-09-09 15:00,-8.6459,40.9159,66.20,57.20,72.74,350.00,13.00,0.00,30.00,M,6.21,M,FEW,M,M,M,1200.00,M,M,M,M,M,M,M,M,M,M,66.20,LPOV 091500Z 35013KT 9999 FEW012 19/14 Q1016
LPOV,2017-09-09 16:00,-8.6459,40.9159,66.20,57.20,72.74,340.00,13.00,0.00,29.97,M,6.21,M,FEW,SCT,M,M,1200.00,2600.00,M,M,M,M,M,M,M,M,M,66.20,LPOV 091600Z 34013KT 9999 FEW012 SCT026 19/14 Q1015
LPOV,2017-09-09 17:00,-8.6459,40.9159,64.40,57.20,77.45,330.00,9.00,0.00,29.97,M,6.21,M,FEW,M,M,M,1200.00,M,M,M,M,M,M,M,M,M,M,64.40,LPOV 091700Z 33009KT 9999 FEW012 18/14 Q1015
LPOV,2017-09-09 18:00,-8.6459,40.9159,64.40,57.20,77.45,340.00,8.00,0.00,30.00,M,6.21,M,FEW,M,M,M,1400.00,M,M,M,M,M,M,M,M,M,M,64.40,LPOV 091800Z 34008KT 9999 FEW014 18/14 Q1016
LPOV,2017-09-09 19:00,-8.6459,40.9159,62.60,57.20,82.50,330.00,8.00,0.00,30.00,M,6.21,M,M,M,M,M,M,M,M,M,M,M,M,M,M,M,M,62.60,LPOV 091900Z 33008KT CAVOK 17/14 Q1016
LPOV,2017-09-09 20:00,-8.6459,40.9159,62.60,57.20,82.50,340.00,8.00,0.00,30.00,M,6.21,M,M,M,M,M,M,M,M,M,M,M,M,M,M,M,M,62.60,LPOV 092000Z 34008KT CAVOK 17/14 Q1016
LPOV,2017-09-09 21:00,-8.6459,40.9159,59.00,55.40,87.83,20.00,5.00,0.00,30.00,M,6.21,M,M,M,M,M,M,M,M,M,M,M,M,M,M,M,M,59.00,LPOV 092100Z 02005KT CAVOK 15/13 Q1016
LPOV,2017-09-09 22:00,-8.6459,40.9159,59.00,59.00,100.00,350.00,8.00,0.00,30.03,M,6.21,M,M,M,M,M,M,M,M,M,M,M,M,M,M,M,M,59.00,LPOV 092200Z 35008KT CAVOK 15/15 Q1017
LPOV,2017-09-09 23:00,-8.6459,40.9159,59.00,57.20,93.74,350.00,6.00,0.00,30.03,M,6.21,M,M,M,M,M,M,M,M,M,M,M,M,M,M,M,M,59.00,LPOV 092300Z 35006KT CAVOK 15/14 Q1017
LPOV,2017-09-10 00:00,-8.6459,40.9159,57.20,55.40,93.69,360.00,4.00,0.00,30.03,M,6.21,M,M,M,M,M,M,M,M,M,M,M,M,M,M,M,M,57.20,LPOV 100000Z 36004KT CAVOK 14/13 Q1017
LPOV,2017-09-10 01:00,-8.6459,40.9159,57.20,55.40,93.69,M,2.00,0.00,30.03,M,6.21,M,M,M,M,M,M,M,M,M,M,M,M,M,M,M,M,57.20,LPOV 100100Z VRB02KT CAVOK 14/13 Q1017
LPOV,2017-09-10 02:00,-8.6459,40.9159,57.20,53.60,87.74,M,2.00,0.00,30.03,M,6.21,M,M,M,M,M,M,M,M,M,M,M,M,M,M,M,M,57.20,LPOV 100200Z VRB02KT CAVOK 14/12 Q1017
LPOV,2017-09-10 03:00,-8.6459,40.9159,55.40,55.40,100.00,M,1.00,0.00,30.03,M,6.21,M,M,M,M,M,M,M,M,M,M,M,M,M,M,M,M,55.40,LPOV 100300Z VRB01KT CAVOK 13/13 Q1017
LPOV,2017-09-10 04:00,-8.6459,40.9159,53.60,51.80,93.60,M,1.00,0.00,30.03,M,6.21,M,M,M,M,M,M,M,M,M,M,M,M,M,M,M,M,53.60,LPOV 100400Z VRB01KT CAVOK 12/11 Q1017
LPOV,2017-09-10 05:00,-8.6459,40.9159,51.80,50.00,93.55,M,1.00,0.00,30.03,M,6.21,M,M,M,M,M,M,M,M,M,M,M,M,M,M,M,M,51.80,LPOV 100500Z VRB01KT CAVOK 11/10 Q1017
LPOV,2017-09-10 06:00,-8.6459,40.9159,48.20,48.20,100.00,M,2.00,0.00,30.03,M,6.21,M,M,M,M,M,M,M,M,M,M,M,M,M,M,M,M,48.20,LPOV 100600Z VRB02KT CAVOK 09/09 Q1017
LPOV,2017-09-10 07:00,-8.6459,40.9159,48.20,46.40,93.45,M,2.00,0.00,30.06,M,6.21,M,M,M,M,M,M,M,M,M,M,M,M,M,M,M,M,48.20,LPOV 100700Z VRB02KT CAVOK 09/08 Q1018
LPOV,2017-09-10 08:00,-8.6459,40.9159,55.40,53.60,93.65,M,1.00,0.00,30.06,M,6.21,M,M,M,M,M,M,M,M,M,M,M,M,M,M,M,M,55.40,LPOV 100800Z VRB01KT CAVOK 13/12 Q1018
LPOV,2017-09-10 09:00,-8.6459,40.9159,62.60,53.60,72.38,350.00,3.00,0.00,30.09,M,6.21,M,M,M,M,M,M,M,M,M,M,M,M,M,M,M,M,62.60,LPOV 100900Z 35003KT 300V040 CAVOK 17/12 Q1019
LPOV,2017-09-10 10:00,-8.6459,40.9159,64.40,55.40,72.56,330.00,6.00,0.00,30.09,M,6.21,M,FEW,M,M,M,1300.00,M,M,M,M,M,M,M,M,M,M,64.40,LPOV 101000Z 33006KT 280V020 9999 FEW013 18/13 Q1019
LPOV,2017-09-10 11:00,-8.6459,40.9159,66.20,53.60,63.82,320.00,6.00,0.00,30.09,M,6.21,M,FEW,M,M,M,1500.00,M,M,M,M,M,M,M,M,M,M,66.20,LPOV 101100Z 32006KT 270V020 9999 FEW015 19/12 Q1019
LPOV,2017-09-10 12:00,-8.6459,40.9159,66.20,55.40,68.15,320.00,9.00,0.00,30.09,M,6.21,M,FEW,M,M,M,1500.00,M,M,M,M,M,M,M,M,M,M,66.20,LPOV 101200Z 32009KT 290V360 9999 FEW015 19/13 Q1019
LPOV,2017-09-10 13:00,-8.6459,40.9159,68.00,57.20,68.35,320.00,8.00,0.00,30.09,M,6.21,M,FEW,M,M,M,1500.00,M,M,M,M,M,M,M,M,M,M,68.00,LPOV 101300Z 32008KT 290V010 9999 FEW015 20/14 Q1019
LPOV,2017-09-10 14:00,-8.6459,40.9159,68.00,57.20,68.35,340.00,14.00,0.00,30.09,M,6.21,M,FEW,M,M,M,1500.00,M,M,M,M,M,M,M,M,M,M,68.00,LPOV 101400Z 34014KT 9999 FEW015 20/14 Q1019
LPOV,2017-09-10 15:00,-8.6459,40.9159,68.00,57.20,68.35,340.00,10.00,0.00,30.06,M,6.21,M,FEW,M,M,M,1500.00,M,M,M,M,M,M,M,M,M,M,68.00,LPOV 101500Z 34010KT 300V020 9999 FEW015 20/14 Q1018
LPOV,2017-09-10 16:00,-8.6459,40.9159,68.00,57.20,68.35,340.00,11.00,0.00,30.06,M,6.21,M,M,M,M,M,M,M,M,M,M,M,M,M,M,M,M,68.00,LPOV 101600Z 34011KT 310V010 CAVOK 20/14 Q1018
LPOV,2017-09-10 17:00,-8.6459,40.9159,66.20,53.60,63.82,350.00,12.00,0.00,30.09,M,6.21,M,M,M,M,M,M,M,M,M,M,M,M,M,M,M,M,66.20,LPOV 101700Z 35012KT CAVOK 19/12 Q1019
LPOV,2017-09-10 18:00,-8.6459,40.9159,64.40,57.20,77.45,350.00,8.00,0.00,30.09,M,6.21,M,FEW,M,M,M,4000.00,M,M,M,M,M,M,M,M,M,M,64.40,LPOV 101800Z 35008KT 320V020 9999 FEW040 18/14 Q1019
LPOV,2017-09-10 19:00,-8.6459,40.9159,62.60,57.20,82.50,360.00,9.00,0.00,30.06,M,6.21,M,FEW,M,M,M,4000.00,M,M,M,M,M,M,M,M,M,M,62.60,LPOV 101900Z 36009KT 9999 FEW040 17/14 Q1018
LPOV,2017-09-10 20:00,-8.6459,40.9159,62.60,55.40,77.29,360.00,8.00,0.00,30.06,M,6.21,M,FEW,M,M,M,4000.00,M,M,M,M,M,M,M,M,M,M,62.60,LPOV 102000Z 36008KT 9999 FEW040 17/13 Q1018
LPOV,2017-09-10 21:00,-8.6459,40.9159,60.80,57.20,87.92,340.00,7.00,0.00,30.09,M,6.21,M,FEW,M,M,M,4000.00,M,M,M,M,M,M,M,M,M,M,60.80,LPOV 102100Z 34007KT 9999 FEW040 16/14 Q1019
LPOV,2017-09-10 22:00,-8.6459,40.9159,60.80,57.20,87.92,M,1.00,0.00,30.09,M,6.21,M,FEW,M,M,M,4000.00,M,M,M,M,M,M,M,M,M,M,60.80,LPOV 102200Z VRB01KT 9999 FEW040 16/14 Q1019
LPOV,2017-09-10 23:00,-8.6459,40.9159,59.00,57.20,93.74,M,2.00,0.00,30.09,M,6.21,M,FEW,M,M,M,4000.00,M,M,M,M,M,M,M,M,M,M,59.00,LPOV 102300Z VRB02KT 9999 FEW040 15/14 Q1019
LPOV,2017-09-11 00:00,-8.6459,40.9159,59.00,55.40,87.83,M,2.00,0.00,30.06,M,6.21,M,SCT,M,M,M,4000.00,M,M,M,M,M,M,M,M,M,M,59.00,LPOV 110000Z VRB02KT 9999 SCT040 15/13 Q1018
LPOV,2017-09-11 01:00,-8.6459,40.9159,59.00,55.40,87.83,340.00,3.00,0.00,30.06,M,6.21,M,BKN,M,M,M,4000.00,M,M,M,M,M,M,M,M,M,M,59.00,LPOV 110100Z 34003KT 9999 BKN040 15/13 Q1018
LPOV,2017-09-11 02:00,-8.6459,40.9159,60.80,57.20,87.92,M,1.00,0.00,30.06,M,6.21,M,BKN,M,M,M,4000.00,M,M,M,M,M,M,M,M,M,M,60.80,LPOV 110200Z VRB01KT 9999 BKN040 16/14 Q1018
LPOV,2017-09-11 03:00,-8.6459,40.9159,62.60,59.00,88.00,360.00,3.00,0.00,30.03,M,6.21,M,FEW,BKN,M,M,1500.00,3000.00,M,M,M,M,M,M,M,M,M,62.60,LPOV 110300Z 36003KT 9999 FEW015 BKN030 17/15 Q1017
LPOV,2017-09-11 04:00,-8.6459,40.9159,62.60,59.00,88.00,340.00,4.00,0.00,30.06,M,6.21,M,SCT,BKN,M,M,1500.00,3000.00,M,M,M,M,M,M,M,M,M,62.60,LPOV 110400Z 34004KT 9999 SCT015 BKN030 17/15 Q1018
LPOV,2017-09-11 05:00,-8.6459,40.9159,62.60,60.80,93.83,350.00,3.00,0.00,30.06,M,6.21,M,SCT,BKN,M,M,800.00,1500.00,M,M,M,M,M,M,M,M,M,62.60,LPOV 110500Z 35003KT 9999 SCT008 BKN015 17/16 Q1018
LPOV,2017-09-11 06:00,-8.6459,40.9159,62.60,60.80,93.83,350.00,4.00,0.00,30.03,M,6.21,M,SCT,BKN,M,M,800.00,1500.00,M,M,M,M,M,M,M,M,M,62.60,LPOV 110600Z 35004KT 9999 SCT008 BKN015 17/16 Q1017
LPOV,2017-09-11 07:00,-8.6459,40.9159,62.60,60.80,93.83,10.00,3.00,0.00,30.03,M,6.21,M,BKN,M,M,M,2500.00,M,M,M,M,M,M,M,M,M,M,62.60,LPOV 110700Z 01003KT 9999 BKN025 17/16 Q1017
LPOV,2017-09-11 08:00,-8.6459,40.9159,64.40,60.80,88.09,320.00,3.00,0.00,30.06,M,6.21,M,BKN,M,M,M,2500.00,M,M,M,M,M,M,M,M,M,M,64.40,LPOV 110800Z 32003KT 290V360 9999 BKN025 18/16 Q1018
LPOV,2017-09-11 09:00,-8.6459,40.9159,68.00,64.40,88.26,330.00,4.00,0.00,30.06,M,6.21,M,FEW,BKN,M,M,2000.00,2500.00,M,M,M,M,M,M,M,M,M,68.00,LPOV 110900Z 33004KT 280V020 9999 FEW020 BKN025 20/18 Q1018
LPOV,2017-09-11 10:00,-8.6459,40.9159,64.40,62.60,93.88,320.00,5.00,0.00,30.06,M,3.73,M,BKN,BKN,M,M,600.00,2500.00,M,M,M,M,M,M,M,M,M,64.40,LPOV 111000Z 32005KT 290V010 6000 BKN006 BKN025 18/17 Q1018
LPOV,2017-09-11 11:00,-8.6459,40.9159,68.00,62.60,82.86,360.00,7.00,0.00,30.06,M,6.21,M,FEW,SCT,BKN,M,600.00,2000.00,2500.00,M,M,M,M,M,M,M,M,68.00,LPOV 111100Z 36007KT 330V040 9999 FEW006 SCT020 BKN025 20/17 Q1018
LPOV,2017-09-11 12:00,-8.6459,40.9159,71.60,62.60,73.27,360.00,10.00,0.00,30.06,M,6.21,M,FEW,BKN,M,M,2000.00,2500.00,M,M,M,M,M,M,M,M,M,71.60,LPOV 111200Z 36010KT 330V040 9999 FEW020 BKN025 22/17 Q1018
LPOV,2017-09-11 13:00,-8.6459,40.9159,71.60,60.80,68.75,340.00,10.00,0.00,30.06,M,6.21,M,FEW,M,M,M,2600.00,M,M,M,M,M,M,M,M,M,M,71.60,LPOV 111300Z 34010KT 300V010 9999 FEW026 22/16 Q1018
LPOV,2017-09-11 14:00,-8.6459,40.9159,71.60,60.80,68.75,330.00,11.00,0.00,30.06,M,6.21,M,FEW,M,M,M,2600.00,M,M,M,M,M,M,M,M,M,M,71.60,LPOV 111400Z 33011KT 300V360 9999 FEW026 22/16 Q1018
LPOV,2017-09-11 15:00,-8.6459,40.9159,69.80,60.80,73.09,340.00,11.00,0.00,30.06,M,6.21,M,FEW,M,M,M,2500.00,M,M,M,M,M,M,M,M,M,M,69.80,LPOV 111500Z 34011KT 300V010 9999 FEW025 21/16 Q1018
LPOV,2017-09-11 16:00,-8.6459,40.9159,69.80,60.80,73.09,340.00,10.00,0.00,30.06,M,6.21,M,M,M,M,M,M,M,M,M,M,M,M,M,M,M,M,69.80,LPOV 111600Z 34010KT 310V020 CAVOK 21/16 Q1018
LPOV,2017-09-11 17:00,-8.6459,40.9159,68.00,59.00,72.92,340.00,10.00,0.00,30.06,M,6.21,M,M,M,M,M,M,M,M,M,M,M,M,M,M,M,M,68.00,LPOV 111700Z 34010KT 310V010 CAVOK 20/15 Q1018
LPOV,2017-09-11 18:00,-8.6459,40.9159,64.40,57.20,77.45,360.00,10.00,0.00,30.06,M,6.21,M,M,M,M,M,M,M,M,M,M,M,M,M,M,M,M,64.40,LPOV 111800Z 36010KT 330V030 CAVOK 18/14 Q1018
LPOV,2017-09-11 19:00,-8.6459,40.9159,62.60,57.20,82.50,360.00,8.00,0.00,30.06,M,6.21,M,M,M,M,M,M,M,M,M,M,M,M,M,M,M,M,62.60,LPOV 111900Z 36008KT 330V030 CAVOK 17/14 Q1018
LPOV,2017-09-11 20:00,-8.6459,40.9159,62.60,57.20,82.50,10.00,6.00,0.00,30.09,M,6.21,M,M,M,M,M,M,M,M,M,M,M,M,M,M,M,M,62.60,LPOV 112000Z 01006KT 330V040 CAVOK 17/14 Q1019
LPOV,2017-09-11 21:00,-8.6459,40.9159,60.80,57.20,87.92,350.00,7.00,0.00,30.09,M,6.21,M,M,M,M,M,M,M,M,M,M,M,M,M,M,M,M,60.80,LPOV 112100Z 35007KT 320V020 CAVOK 16/14 Q1019
LPOV,2017-09-11 22:00,-8.6459,40.9159,59.00,57.20,93.74,350.00,7.00,0.00,30.09,M,6.21,M,M,M,M,M,M,M,M,M,M,M,M,M,M,M,M,59.00,LPOV 112200Z 35007KT CAVOK 15/14 Q1019
LPOV,2017-09-11 23:00,-8.6459,40.9159,59.00,57.20,93.74,330.00,3.00,0.00,30.09,M,6.21,M,M,M,M,M,M,M,M,M,M,M,M,M,M,M,M,59.00,LPOV 112300Z 33003KT CAVOK 15/14 Q1019
LPOV,2017-09-12 00:00,-8.6459,40.9159,59.00,57.20,93.74,M,1.00,0.00,30.09,M,6.21,M,M,M,M,M,M,M,M,M,M,M,M,M,M,M,M,59.00,LPOV 120000Z VRB01KT CAVOK 15/14 Q1019
LPOV,2017-09-12 01:00,-8.6459,40.9159,55.40,55.40,100.00,M,1.00,0.00,30.09,M,6.21,M,M,M,M,M,M,M,M,M,M,M,M,M,M,M,M,55.40,LPOV 120100Z VRB01KT CAVOK 13/13 Q1019
LPOV,2017-09-12 02:00,-8.6459,40.9159,53.60,51.80,93.60,M,2.00,0.00,30.12,M,5.59,M,NSC,M,M,M,M,M,M,M,M,M,M,M,M,M,M,53.60,LPOV 120200Z VRB02KT 9000 NSC 12/11 Q1020
LPOV,2017-09-12 03:00,-8.6459,40.9159,53.60,51.80,93.60,M,1.00,0.00,30.09,M,5.59,M,NSC,M,M,M,M,M,M,M,M,M,M,M,M,M,M,53.60,LPOV 120300Z VRB01KT 9000 NSC 12/11 Q1019
LPOV,2017-09-12 04:00,-8.6459,40.9159,53.60,51.80,93.60,M,1.00,0.00,30.09,M,6.21,M,M,M,M,M,M,M,M,M,M,M,M,M,M,M,M,53.60,LPOV 120400Z VRB01KT CAVOK 12/11 Q1019
LPOV,2017-09-12 05:00,-8.6459,40.9159,53.60,51.80,93.60,M,2.00,0.00,30.09,M,5.59,M,NSC,M,M,M,M,M,M,M,M,M,M,M,M,M,M,53.60,LPOV 120500Z VRB02KT 9000 NSC 12/11 Q1019
LPOV,2017-09-12 06:00,-8.6459,40.9159,53.60,51.80,93.60,M,2.00,0.00,30.09,M,5.59,M,NSC,M,M,M,M,M,M,M,M,M,M,M,M,M,M,53.60,LPOV 120600Z VRB02KT 9000 NSC 12/11 Q1019
LPOV,2017-09-12 07:00,-8.6459,40.9159,53.60,51.80,93.60,M,2.00,0.00,30.12,M,5.59,M,NSC,M,M,M,M,M,M,M,M,M,M,M,M,M,M,53.60,LPOV 120700Z VRB02KT 9000 NSC 12/11 Q1020
LPOV,2017-09-12 08:00,-8.6459,40.9159,59.00,57.20,93.74,M,2.00,0.00,30.12,M,6.21,M,FEW,M,M,M,3500.00,M,M,M,M,M,M,M,M,M,M,59.00,LPOV 120800Z VRB02KT 9999 FEW035 15/14 Q1020
LPOV,2017-09-12 10:00,-8.6459,40.9159,71.60,57.20,60.44,360.00,8.00,0.00,30.15,M,6.21,M,FEW,M,M,M,2000.00,M,M,M,M,M,M,M,M,M,M,71.60,LPOV 121000Z 36008KT 320V030 9999 FEW020 22/14 Q1021
LPOV,2017-09-12 11:00,-8.6459,40.9159,71.60,57.20,60.44,320.00,7.00,0.00,30.15,M,6.21,M,FEW,M,M,M,2000.00,M,M,M,M,M,M,M,M,M,M,71.60,LPOV 121100Z 32007KT 290V360 9999 FEW020 22/14 Q1021
LPOV,2017-09-12 12:00,-8.6459,40.9159,71.60,59.00,64.48,340.00,10.00,0.00,30.15,M,6.21,M,FEW,M,M,M,2000.00,M,M,M,M,M,M,M,M,M,M,71.60,LPOV 121200Z 34010KT 300V010 9999 FEW020 22/15 Q1021
LPOV,2017-09-12 13:00,-8.6459,40.9159,71.60,60.80,68.75,330.00,11.00,0.00,30.18,M,6.21,M,FEW,M,M,M,2000.00,M,M,M,M,M,M,M,M,M,M,71.60,LPOV 121300Z 33011KT 300V010 9999 FEW020 22/16 Q1022
LPOV,2017-09-12 14:00,-8.6459,40.9159,71.60,60.80,68.75,330.00,10.00,0.00,30.15,M,6.21,M,FEW,M,M,M,2000.00,M,M,M,M,M,M,M,M,M,M,71.60,LPOV 121400Z 33010KT 300V360 9999 FEW020 22/16 Q1021
LPOV,2017-09-12 16:00,-8.6459,40.9159,69.80,62.60,77.90,330.00,10.00,0.00,30.15,M,6.21,M,FEW,M,M,M,1000.00,M,M,M,M,M,M,M,M,M,M,69.80,LPOV 121600Z 33010KT 300V360 9999 FEW010 21/17 Q1021
LPOV,2017-09-12 17:00,-8.6459,40.9159,68.00,62.60,82.86,340.00,10.00,0.00,30.15,M,6.21,M,FEW,M,M,M,1600.00,M,M,M,M,M,M,M,M,M,M,68.00,LPOV 121700Z 34010KT 310V010 9999 FEW016 20/17 Q1021
LPOV,2017-09-12 19:00,-8.6459,40.9159,64.40,60.80,88.09,340.00,7.00,0.00,30.15,M,6.21,M,FEW,M,M,M,1000.00,M,M,M,M,M,M,M,M,M,M,64.40,LPOV 121900Z 34007KT 310V020 9999 FEW010 18/16 Q1021
LPOV,2017-09-12 20:00,-8.6459,40.9159,62.60,59.00,88.00,360.00,8.00,0.00,30.18,M,6.21,M,SCT,M,M,M,700.00,M,M,M,M,M,M,M,M,M,M,62.60,LPOV 122000Z 36008KT 9999 SCT007 17/15 Q1022
LPOV,2017-09-12 21:00,-8.6459,40.9159,60.80,60.80,100.00,20.00,5.00,0.00,30.18,M,3.11,M,SCT,M,M,M,700.00,M,M,M,BR,M,M,M,M,M,M,60.80,LPOV 122100Z 02005KT 5000 BR SCT007 16/16 Q1022
LPOV,2017-09-12 22:00,-8.6459,40.9159,60.80,59.00,93.79,10.00,4.00,0.00,30.18,M,4.97,M,FEW,M,M,M,700.00,M,M,M,M,M,M,M,M,M,M,60.80,LPOV 122200Z 01004KT 8000 FEW007 16/15 Q1022
LPOV,2017-09-12 23:00,-8.6459,40.9159,59.00,57.20,93.74,360.00,4.00,0.00,30.18,M,6.21,M,FEW,M,M,M,600.00,M,M,M,M,M,M,M,M,M,M,59.00,LPOV 122300Z 36004KT 9999 FEW006 15/14 Q1022
LPOV,2017-09-13 00:00,-8.6459,40.9159,59.00,59.00,100.00,20.00,6.00,0.00,30.18,M,6.21,M,FEW,M,M,M,600.00,M,M,M,M,M,M,M,M,M,M,59.00,LPOV 130000Z 02006KT 9999 FEW006 15/15 Q1022
LPOV,2017-09-13 01:00,-8.6459,40.9159,59.00,57.20,93.74,80.00,3.00,0.00,30.15,M,6.21,M,M,M,M,M,M,M,M,M,M,M,M,M,M,M,M,59.00,LPOV 130100Z 08003KT CAVOK 15/14 Q1021
LPOV,2017-09-13 02:00,-8.6459,40.9159,57.20,57.20,100.00,360.00,5.00,0.00,30.15,M,4.97,M,FEW,M,M,M,600.00,M,M,M,M,M,M,M,M,M,M,57.20,LPOV 130200Z 36005KT 8000 FEW006 14/14 Q1021
LPOV,2017-09-13 04:00,-8.6459,40.9159,59.00,59.00,100.00,80.00,3.00,0.00,30.15,M,4.97,M,NSC,M,M,M,M,M,M,M,M,M,M,M,M,M,M,59.00,LPOV 130400Z 08003KT 8000 NSC 15/15 Q1021
LPOV,2017-09-13 05:00,-8.6459,40.9159,57.20,57.20,100.00,60.00,3.00,0.00,30.15,M,4.97,M,NSC,M,M,M,M,M,M,M,M,M,M,M,M,M,M,57.20,LPOV 130500Z 06003KT 8000 NSC 14/14 Q1021
LPOV,2017-09-13 06:00,-8.6459,40.9159,55.40,55.40,100.00,M,1.00,0.00,30.15,M,3.73,M,NSC,M,M,M,M,M,M,M,MIFG,M,M,M,M,M,M,55.40,LPOV 130600Z VRB01KT 6000 MIFG NSC 13/13 Q1021
LPOV,2017-09-13 07:00,-8.6459,40.9159,55.40,55.40,100.00,M,2.00,0.00,30.18,M,2.49,M,NSC,M,M,M,M,M,M,M,MIFG BR,M,M,M,M,M,M,55.40,LPOV 130700Z VRB02KT 4000 MIFG BR NSC 13/13 Q1022
LPOV,2017-09-13 08:00,-8.6459,40.9159,62.60,60.80,93.83,M,2.00,0.00,30.18,M,4.97,M,NSC,M,M,M,M,M,M,M,M,M,M,M,M,M,M,62.60,LPOV 130800Z VRB02KT 8000 NSC 17/16 Q1022
LPOV,2017-09-13 09:00,-8.6459,40.9159,68.00,60.80,77.75,340.00,6.00,0.00,30.18,M,6.21,M,M,M,M,M,M,M,M,M,M,M,M,M,M,M,M,68.00,LPOV 130900Z 34006KT 300V010 CAVOK 20/16 Q1022
LPOV,2017-09-13 10:00,-8.6459,40.9159,71.60,60.80,68.75,360.00,7.00,0.00,30.18,M,6.21,M,M,M,M,M,M,M,M,M,M,M,M,M,M,M,M,71.60,LPOV 131000Z 36007KT 320V030 CAVOK 22/16 Q1022
LPOV,2017-09-13 11:00,-8.6459,40.9159,71.60,59.00,64.48,360.00,10.00,0.00,30.18,M,6.21,M,M,M,M,M,M,M,M,M,M,M,M,M,M,M,M,71.60,LPOV 131100Z 36010KT 320V020 CAVOK 22/15 Q1022
LPOV,2017-09-13 12:00,-8.6459,40.9159,73.40,59.00,60.67,350.00,11.00,0.00,30.18,M,6.21,M,M,M,M,M,M,M,M,M,M,M,M,M,M,M,M,73.40,LPOV 131200Z 35011KT CAVOK 23/15 Q1022
LPOV,2017-09-13 13:00,-8.6459,40.9159,71.60,59.00,64.48,350.00,13.00,0.00,30.18,M,6.21,M,M,M,M,M,M,M,M,M,M,M,M,M,M,M,M,71.60,LPOV 131300Z 35013KT CAVOK 22/15 Q1022
LPOV,2017-09-13 14:00,-8.6459,40.9159,71.60,59.00,64.48,350.00,11.00,0.00,30.18,M,6.21,M,M,M,M,M,M,M,M,M,M,M,M,M,M,M,M,71.60,LPOV 131400Z 35011KT CAVOK 22/15 Q1022
LPOV,2017-09-13 15:00,-8.6459,40.9159,71.60,60.80,68.75,350.00,12.00,0.00,30.18,M,6.21,M,M,M,M,M,M,M,M,M,M,M,M,M,M,M,M,71.60,LPOV 131500Z 35012KT CAVOK 22/16 Q1022
LPOV,2017-09-13 16:00,-8.6459,40.9159,69.80,62.60,77.90,350.00,12.00,0.00,30.15,M,6.21,M,FEW,M,M,M,400.00,M,M,M,M,M,M,M,M,M,M,69.80,LPOV 131600Z 35012KT 9999 FEW004 21/17 Q1021
LPOV,2017-09-13 19:00,-8.6459,40.9159,64.40,62.60,93.88,360.00,8.00,0.00,30.18,M,6.21,M,BKN,M,M,M,400.00,M,M,M,M,M,M,M,M,M,M,64.40,LPOV 131900Z 36008KT 330V030 9999 BKN004 18/17 Q1022
LPOV,2017-09-13 20:00,-8.6459,40.9159,64.40,62.60,93.88,10.00,10.00,0.00,30.18,M,6.21,M,SCT,M,M,M,400.00,M,M,M,M,M,M,M,M,M,M,64.40,LPOV 132000Z 01010KT 9999 SCT004 18/17 Q1022
LPOV,2017-09-13 21:00,-8.6459,40.9159,62.60,60.80,93.83,10.00,6.00,0.00,30.18,M,6.21,M,FEW,M,M,M,400.00,M,M,M,M,M,M,M,M,M,M,62.60,LPOV 132100Z 01006KT 9999 FEW004 17/16 Q1022
LPOV,2017-09-13 22:00,-8.6459,40.9159,60.80,59.00,93.79,350.00,5.00,0.00,30.18,M,6.21,M,M,M,M,M,M,M,M,M,M,M,M,M,M,M,M,60.80,LPOV 132200Z 35005KT CAVOK 16/15 Q1022
LPOV,2017-09-13 23:00,-8.6459,40.9159,59.00,59.00,100.00,340.00,4.00,0.00,30.18,M,6.21,M,M,M,M,M,M,M,M,M,M,M,M,M,M,M,M,59.00,LPOV 132300Z 34004KT CAVOK 15/15 Q1022
LPOV,2017-09-14 00:00,-8.6459,40.9159,59.00,59.00,100.00,350.00,5.00,0.00,30.18,M,6.21,M,M,M,M,M,M,M,M,M,M,M,M,M,M,M,M,59.00,LPOV 140000Z 35005KT CAVOK 15/15 Q1022
LPOV,2017-09-14 01:00,-8.6459,40.9159,60.80,59.00,93.79,350.00,5.00,0.00,30.18,M,6.21,M,FEW,SCT,M,M,200.00,800.00,M,M,M,M,M,M,M,M,M,60.80,LPOV 140100Z 35005KT 9999 FEW002 SCT008 16/15 Q1022
LPOV,2017-09-14 02:00,-8.6459,40.9159,60.80,60.80,100.00,350.00,3.00,0.00,30.18,M,6.21,M,FEW,M,M,M,3000.00,M,M,M,M,M,M,M,M,M,M,60.80,LPOV 140200Z 35003KT 9999 FEW030 16/16 Q1022
LPOV,2017-09-14 03:00,-8.6459,40.9159,59.00,59.00,100.00,360.00,3.00,0.00,30.18,M,6.21,M,FEW,SCT,M,M,200.00,500.00,M,M,M,M,M,M,M,M,M,59.00,LPOV 140300Z 36003KT 9999 FEW002 SCT005 15/15 Q1022
LPOV,2017-09-14 04:00,-8.6459,40.9159,59.00,59.00,100.00,10.00,3.00,0.00,30.18,M,3.73,M,FEW,BKN,M,M,200.00,500.00,M,M,M,M,M,M,M,M,M,59.00,LPOV 140400Z 01003KT 6000 FEW002 BKN005 15/15 Q1022
LPOV,2017-09-14 05:00,-8.6459,40.9159,59.00,59.00,100.00,20.00,5.00,0.00,30.18,M,1.86,M,OVC,M,M,M,500.00,M,M,M,BR,M,M,M,M,M,M,59.00,LPOV 140500Z 02005KT 3000 BR OVC005 15/15 Q1022
LPOV,2017-09-14 06:00,-8.6459,40.9159,60.80,60.80,100.00,360.00,3.00,0.00,30.18,M,0.93,M,OVC,M,M,M,500.00,M,M,M,BR,M,M,M,M,M,M,60.80,LPOV 140600Z 36003KT 1500 BR OVC005 16/16 Q1022
LPOV,2017-09-14 07:00,-8.6459,40.9159,60.80,60.80,100.00,M,1.00,0.00,30.18,M,2.49,M,BKN,M,M,M,500.00,M,M,M,BR,M,M,M,M,M,M,60.80,LPOV 140700Z VRB01KT 4000 BR BKN005 16/16 Q1022
LPOV,2017-09-14 08:00,-8.6459,40.9159,62.60,60.80,93.83,10.00,2.00,0.00,30.18,M,3.73,M,BKN,BKN,M,M,500.00,3000.00,M,M,M,M,M,M,M,M,M,62.60,LPOV 140800Z 01002KT 6000 BKN005 BKN030 17/16 Q1022
LPOV,2017-09-14 09:00,-8.6459,40.9159,64.40,62.60,93.88,340.00,3.00,0.00,30.18,M,4.97,M,FEW,BKN,M,M,500.00,2000.00,M,M,M,M,M,M,M,M,M,64.40,LPOV 140900Z 34003KT 8000 FEW005 BKN020 18/17 Q1022
LPOV,2017-09-14 11:00,-8.6459,40.9159,64.40,60.80,88.09,330.00,5.00,0.00,30.21,M,4.97,M,SCT,BKN,M,M,500.00,2000.00,M,M,M,M,M,M,M,M,M,64.40,LPOV 141100Z 33005KT 8000 SCT005 BKN020 18/16 Q1023
LPOV,2017-09-14 12:00,-8.6459,40.9159,64.40,60.80,88.09,340.00,7.00,0.00,30.18,M,5.59,M,SCT,BKN,M,M,500.00,2000.00,M,M,M,M,M,M,M,M,M,64.40,LPOV 141200Z 34007KT 300V020 9000 SCT005 BKN020 18/16 Q1022
LPOV,2017-09-14 16:00,-8.6459,40.9159,66.20,53.60,63.82,350.00,13.00,0.00,30.12,M,6.21,M,M,M,M,M,M,M,M,M,M,M,M,M,M,M,M,66.20,LPOV 141600Z 35013KT 320V020 CAVOK 19/12 Q1020
LPOV,2017-09-14 17:00,-8.6459,40.9159,64.40,53.60,67.95,350.00,11.00,0.00,30.09,M,6.21,M,M,M,M,M,M,M,M,M,M,M,M,M,M,M,M,64.40,LPOV 141700Z 35011KT CAVOK 18/12 Q1019
LPOV,2017-09-14 19:00,-8.6459,40.9159,60.80,53.60,77.14,350.00,13.00,0.00,30.09,M,6.21,23.00,M,M,M,M,M,M,M,M,M,M,M,M,M,M,M,60.80,LPOV 141900Z 35013G23KT CAVOK 16/12 Q1019
LPOV,2017-09-14 20:00,-8.6459,40.9159,60.80,51.80,72.20,360.00,17.00,0.00,30.09,M,6.21,27.00,M,M,M,M,M,M,M,M,M,M,M,M,M,M,M,60.80,LPOV 142000Z 36017G27KT CAVOK 16/11 Q1019
LPOV,2017-09-14 21:00,-8.6459,40.9159,59.00,53.60,82.25,360.00,14.00,0.00,30.09,M,6.21,M,M,M,M,M,M,M,M,M,M,M,M,M,M,M,M,59.00,LPOV 142100Z 36014KT CAVOK 15/12 Q1019
LPOV,2017-09-14 22:00,-8.6459,40.9159,59.00,51.80,76.98,360.00,14.00,0.00,30.09,M,6.21,M,M,M,M,M,M,M,M,M,M,M,M,M,M,M,M,59.00,LPOV 142200Z 36014KT CAVOK 15/11 Q1019
LPOV,2017-09-14 23:00,-8.6459,40.9159,59.00,51.80,76.98,360.00,14.00,0.00,30.09,M,6.21,M,M,M,M,M,M,M,M,M,M,M,M,M,M,M,M,59.00,LPOV 142300Z 36014KT CAVOK 15/11 Q1019
LPOV,2017-09-15 00:00,-8.6459,40.9159,57.20,50.00,76.82,360.00,13.00,0.00,30.09,M,6.21,M,M,M,M,M,M,M,M,M,M,M,M,M,M,M,M,57.20,LPOV 150000Z 36013KT CAVOK 14/10 Q1019
LPOV,2017-09-15 02:00,-8.6459,40.9159,55.40,48.20,76.66,350.00,11.00,0.00,30.09,M,6.21,M,M,M,M,M,M,M,M,M,M,M,M,M,M,M,M,55.40,LPOV 150200Z 35011KT CAVOK 13/09 Q1019
LPOV,2017-09-15 03:00,-8.6459,40.9159,55.40,44.60,66.91,20.00,6.00,0.00,30.09,M,6.21,M,M,M,M,M,M,M,M,M,M,M,M,M,M,M,M,55.40,LPOV 150300Z 02006KT CAVOK 13/07 Q1019
LPOV,2017-09-15 04:00,-8.6459,40.9159,53.60,44.60,71.45,20.00,5.00,0.00,30.09,M,6.21,M,M,M,M,M,M,M,M,M,M,M,M,M,M,M,M,53.60,LPOV 150400Z 02005KT CAVOK 12/07 Q1019
LPOV,2017-09-15 05:00,-8.6459,40.9159,53.60,44.60,71.45,20.00,4.00,0.00,30.09,M,6.21,M,M,M,M,M,M,M,M,M,M,M,M,M,M,M,M,53.60,LPOV 150500Z 02004KT CAVOK 12/07 Q1019
LPOV,2017-09-15 06:00,-8.6459,40.9159,51.80,44.60,76.34,360.00,5.00,0.00,30.09,M,6.21,M,M,M,M,M,M,M,M,M,M,M,M,M,M,M,M,51.80,LPOV 150600Z 36005KT CAVOK 11/07 Q1019
LPOV,2017-09-15 07:00,-8.6459,40.9159,51.80,44.60,76.34,50.00,3.00,0.00,30.09,M,6.21,M,M,M,M,M,M,M,M,M,M,M,M,M,M,M,M,51.80,LPOV 150700Z 05003KT CAVOK 11/07 Q1019
LPOV,2017-09-15 08:00,-8.6459,40.9159,57.20,50.00,76.82,360.00,3.00,0.00,30.09,M,6.21,M,M,M,M,M,M,M,M,M,M,M,M,M,M,M,M,57.20,LPOV 150800Z 36003KT CAVOK 14/10 Q1019
LPOV,2017-09-15 09:00,-8.6459,40.9159,62.60,48.20,59.26,10.00,8.00,0.00,30.12,M,6.21,M,M,M,M,M,M,M,M,M,M,M,M,M,M,M,M,62.60,LPOV 150900Z 01008KT 330V060 CAVOK 17/09 Q1020
LPOV,2017-09-15 10:00,-8.6459,40.9159,64.40,48.20,55.63,340.00,10.00,0.00,30.12,M,6.21,M,M,M,M,M,M,M,M,M,M,M,M,M,M,M,M,64.40,LPOV 151000Z 34010KT 310V010 CAVOK 18/09 Q1020
LPOV,2017-09-15 11:00,-8.6459,40.9159,64.40,50.00,59.50,350.00,13.00,0.00,30.09,M,6.21,M,FEW,M,M,M,2000.00,M,M,M,M,M,M,M,M,M,M,64.40,LPOV 151100Z 35013KT 9999 FEW020 18/10 Q1019
LPOV,2017-09-15 12:00,-8.6459,40.9159,66.20,50.00,55.88,340.00,13.00,0.00,30.09,M,6.21,M,FEW,M,M,M,2000.00,M,M,M,M,M,M,M,M,M,M,66.20,LPOV 151200Z 34013KT 310V020 9999 FEW020 19/10 Q1019
LPOV,2017-09-15 13:00,-8.6459,40.9159,64.40,51.80,63.60,340.00,13.00,0.00,30.06,M,6.21,M,FEW,M,M,M,2000.00,M,M,M,M,M,M,M,M,M,M,64.40,LPOV 151300Z 34013KT 320V030 9999 FEW020 18/11 Q1018
LPOV,2017-09-15 14:00,-8.6459,40.9159,64.40,51.80,63.60,350.00,16.00,0.00,30.06,M,6.21,M,FEW,M,M,M,2000.00,M,M,M,M,M,M,M,M,M,M,64.40,LPOV 151400Z 35016KT 320V020 9999 FEW020 18/11 Q1018
LPOV,2017-09-15 15:00,-8.6459,40.9159,64.40,51.80,63.60,350.00,16.00,0.00,30.03,M,6.21,M,FEW,M,M,M,2000.00,M,M,M,M,M,M,M,M,M,M,64.40,LPOV 151500Z 35016KT 9999 FEW020 18/11 Q1017
LPOV,2017-09-15 16:00,-8.6459,40.9159,64.40,51.80,63.60,350.00,16.00,0.00,30.03,M,6.21,M,FEW,M,M,M,2000.00,M,M,M,M,M,M,M,M,M,M,64.40,LPOV 151600Z 35016KT 9999 FEW020 18/11 Q1017
LPOV,2017-09-15 17:00,-8.6459,40.9159,62.60,51.80,67.75,350.00,15.00,0.00,30.03,M,6.21,M,FEW,M,M,M,2000.00,M,M,M,M,M,M,M,M,M,M,62.60,LPOV 151700Z 35015KT 320V020 9999 FEW020 17/11 Q1017
LPOV,2017-09-15 18:00,-8.6459,40.9159,60.80,51.80,72.20,350.00,14.00,0.00,30.03,M,6.21,M,M,M,M,M,M,M,M,M,M,M,M,M,M,M,M,60.80,LPOV 151800Z 35014KT CAVOK 16/11 Q1017
LPOV,2017-09-15 19:00,-8.6459,40.9159,59.00,53.60,82.25,350.00,13.00,0.00,30.03,M,6.21,M,M,M,M,M,M,M,M,M,M,M,M,M,M,M,M,59.00,LPOV 151900Z 35013KT CAVOK 15/12 Q1017
LPOV,2017-09-15 20:00,-8.6459,40.9159,57.20,53.60,87.74,350.00,14.00,0.00,30.03,M,6.21,M,M,M,M,M,M,M,M,M,M,M,M,M,M,M,M,57.20,LPOV 152000Z 35014KT CAVOK 14/12 Q1017
LPOV,2017-09-15 21:00,-8.6459,40.9159,57.20,51.80,82.12,360.00,13.00,0.00,30.03,M,6.21,M,M,M,M,M,M,M,M,M,M,M,M,M,M,M,M,57.20,LPOV 152100Z 36013KT CAVOK 14/11 Q1017
LPOV,2017-09-15 22:00,-8.6459,40.9159,55.40,51.80,87.65,350.00,10.00,0.00,30.03,M,6.21,M,M,M,M,M,M,M,M,M,M,M,M,M,M,M,M,55.40,LPOV 152200Z 35010KT CAVOK 13/11 Q1017
LPOV,2017-09-15 23:00,-8.6459,40.9159,55.40,51.80,87.65,M,2.00,0.00,30.03,M,6.21,M,M,M,M,M,M,M,M,M,M,M,M,M,M,M,M,55.40,LPOV 152300Z VRB02KT CAVOK 13/11 Q1017
LPOV,2017-09-16 00:00,-8.6459,40.9159,55.40,50.00,81.99,360.00,6.00,0.00,30.03,M,6.21,M,M,M,M,M,M,M,M,M,M,M,M,M,M,M,M,55.40,LPOV 160000Z 36006KT CAVOK 13/10 Q1017
LPOV,2017-09-16 01:00,-8.6459,40.9159,50.00,48.20,93.50,M,2.00,0.00,30.03,M,6.21,M,M,M,M,M,M,M,M,M,M,M,M,M,M,M,M,50.00,LPOV 160100Z VRB02KT CAVOK 10/09 Q1017
LPOV,2017-09-16 03:00,-8.6459,40.9159,50.00,48.20,93.50,360.00,6.00,0.00,30.03,M,6.21,M,M,M,M,M,M,M,M,M,M,M,M,M,M,M,M,47.21,LPOV 160300Z 36006KT CAVOK 10/09 Q1017
LPOV,2017-09-16 04:00,-8.6459,40.9159,48.20,46.40,93.45,360.00,6.00,0.00,30.03,M,6.21,M,M,M,M,M,M,M,M,M,M,M,M,M,M,M,M,45.04,LPOV 160400Z 36006KT CAVOK 09/08 Q1017
LPOV,2017-09-16 05:00,-8.6459,40.9159,48.20,46.40,93.45,360.00,5.00,0.00,30.00,M,6.21,M,M,M,M,M,M,M,M,M,M,M,M,M,M,M,M,45.63,LPOV 160500Z 36005KT CAVOK 09/08 Q1016
LPOV,2017-09-16 06:00,-8.6459,40.9159,48.20,44.60,87.28,M,2.00,0.00,30.03,M,6.21,M,M,M,M,M,M,M,M,M,M,M,M,M,M,M,M,48.20,LPOV 160600Z VRB02KT CAVOK 09/07 Q1017
LPOV,2017-09-16 08:00,-8.6459,40.9159,55.40,50.00,81.99,360.00,6.00,0.00,30.06,M,6.21,M,M,M,M,M,M,M,M,M,M,M,M,M,M,M,M,55.40,LPOV 160800Z 36006KT CAVOK 13/10 Q1018
LPOV,2017-09-16 09:00,-8.6459,40.9159,60.80,46.40,59.01,360.00,6.00,0.00,30.06,M,6.21,M,M,M,M,M,M,M,M,M,M,M,M,M,M,M,M,60.80,LPOV 160900Z 36006KT 330V030 CAVOK 16/08 Q1018
LPOV,2017-09-16 10:00,-8.6459,40.9159,64.40,44.60,48.55,360.00,7.00,0.00,30.06,M,6.21,M,M,M,M,M,M,M,M,M,M,M,M,M,M,M,M,64.40,LPOV 161000Z 36007KT CAVOK 18/07 Q1018
LPOV,2017-09-16 11:00,-8.6459,40.9159,64.40,48.20,55.63,340.00,10.00,0.00,30.06,M,6.21,M,FEW,M,M,M,1500.00,M,M,M,M,M,M,M,M,M,M,64.40,LPOV 161100Z 34010KT 9999 FEW015 18/09 Q1018
LPOV,2017-09-16 12:00,-8.6459,40.9159,64.40,50.00,59.50,350.00,13.00,0.00,30.06,M,6.21,M,FEW,M,M,M,1700.00,M,M,M,M,M,M,M,M,M,M,64.40,LPOV 161200Z 35013KT 9999 FEW017 18/10 Q1018
LPOV,2017-09-16 13:00,-8.6459,40.9159,64.40,50.00,59.50,340.00,12.00,0.00,30.06,M,6.21,M,FEW,M,M,M,1700.00,M,M,M,M,M,M,M,M,M,M,64.40,LPOV 161300Z 34012KT 300V020 9999 FEW017 18/10 Q1018
LPOV,2017-09-16 14:00,-8.6459,40.9159,64.40,51.80,63.60,350.00,16.00,0.00,30.06,M,6.21,M,FEW,M,M,M,2000.00,M,M,M,M,M,M,M,M,M,M,64.40,LPOV 161400Z 35016KT 9999 FEW020 18/11 Q1018
LPOV,2017-09-16 15:00,-8.6459,40.9159,62.60,51.80,67.75,350.00,14.00,0.00,30.03,M,6.21,M,FEW,M,M,M,2000.00,M,M,M,M,M,M,M,M,M,M,62.60,LPOV 161500Z 35014KT 9999 FEW020 17/11 Q1017
LPOV,2017-09-16 16:00,-8.6459,40.9159,62.60,51.80,67.75,350.00,13.00,0.00,30.03,M,6.21,M,M,M,M,M,M,M,M,M,M,M,M,M,M,M,M,62.60,LPOV 161600Z 35013KT CAVOK 17/11 Q1017
LPOV,2017-09-16 17:00,-8.6459,40.9159,62.60,51.80,67.75,340.00,13.00,0.00,30.03,M,6.21,M,M,M,M,M,M,M,M,M,M,M,M,M,M,M,M,62.60,LPOV 161700Z 34013KT CAVOK 17/11 Q1017
LPOV,2017-09-16 18:00,-8.6459,40.9159,60.80,51.80,72.20,350.00,12.00,0.00,30.03,M,6.21,M,M,M,M,M,M,M,M,M,M,M,M,M,M,M,M,60.80,LPOV 161800Z 35012KT CAVOK 16/11 Q1017
LPOV,2017-09-16 19:00,-8.6459,40.9159,59.00,51.80,76.98,350.00,10.00,0.00,30.06,M,6.21,M,M,M,M,M,M,M,M,M,M,M,M,M,M,M,M,59.00,LPOV 161900Z 35010KT CAVOK 15/11 Q1018
LPOV,2017-09-16 20:00,-8.6459,40.9159,57.20,51.80,82.12,360.00,10.00,0.00,30.09,M,6.21,M,M,M,M,M,M,M,M,M,M,M,M,M,M,M,M,57.20,LPOV 162000Z 36010KT CAVOK 14/11 Q1019
LPOV,2017-09-16 21:00,-8.6459,40.9159,57.20,53.60,87.74,360.00,10.00,0.00,30.09,M,6.21,M,M,M,M,M,M,M,M,M,M,M,M,M,M,M,M,57.20,LPOV 162100Z 36010KT CAVOK 14/12 Q1019
LPOV,2017-09-16 22:00,-8.6459,40.9159,55.40,53.60,93.65,350.00,8.00,0.00,30.09,M,6.21,M,M,M,M,M,M,M,M,M,M,M,M,M,M,M,M,55.40,LPOV 162200Z 35008KT CAVOK 13/12 Q1019
LPOV,2017-09-16 23:00,-8.6459,40.9159,55.40,53.60,93.65,350.00,6.00,0.00,30.09,M,6.21,M,M,M,M,M,M,M,M,M,M,M,M,M,M,M,M,55.40,LPOV 162300Z 35006KT CAVOK 13/12 Q1019
LPOV,2017-09-17 00:00,-8.6459,40.9159,55.40,53.60,93.65,350.00,3.00,0.00,30.09,M,6.21,M,M,M,M,M,M,M,M,M,M,M,M,M,M,M,M,55.40,LPOV 170000Z 35003KT CAVOK 13/12 Q1019
LPOV,2017-09-17 01:00,-8.6459,40.9159,53.60,51.80,93.60,M,1.00,0.00,30.09,M,6.21,M,M,M,M,M,M,M,M,M,M,M,M,M,M,M,M,53.60,LPOV 170100Z VRB01KT CAVOK 12/11 Q1019
LPOV,2017-09-17 02:00,-8.6459,40.9159,48.20,46.40,93.45,0.00,0.00,0.00,30.09,M,6.21,M,M,M,M,M,M,M,M,M,M,M,M,M,M,M,M,48.20,LPOV 170200Z 00000KT CAVOK 09/08 Q1019
LPOV,2017-09-17 03:00,-8.6459,40.9159,46.40,44.60,93.40,0.00,0.00,0.00,30.09,M,6.21,M,M,M,M,M,M,M,M,M,M,M,M,M,M,M,M,46.40,LPOV 170300Z 00000KT CAVOK 08/07 Q1019
LPOV,2017-09-17 04:00,-8.6459,40.9159,44.60,44.60,100.00,0.00,0.00,0.00,30.09,M,6.21,M,M,M,M,M,M,M,M,M,M,M,M,M,M,M,M,44.60,LPOV 170400Z 00000KT CAVOK 07/07 Q1019
LPOV,2017-09-17 05:00,-8.6459,40.9159,42.80,41.00,93.30,M,1.00,0.00,30.09,M,6.21,M,M,M,M,M,M,M,M,M,M,M,M,M,M,M,M,42.80,LPOV 170500Z VRB01KT CAVOK 06/05 Q1019
LPOV,2017-09-17 06:00,-8.6459,40.9159,42.80,42.80,100.00,M,2.00,0.00,30.09,M,6.21,M,M,M,M,M,M,M,M,M,M,M,M,M,M,M,M,42.80,LPOV 170600Z VRB02KT CAVOK 06/06 Q1019
LPOV,2017-09-17 07:00,-8.6459,40.9159,42.80,42.80,100.00,M,1.00,0.00,30.12,M,6.21,M,M,M,M,M,M,M,M,M,M,M,M,M,M,M,M,42.80,LPOV 170700Z VRB01KT CAVOK 06/06 Q1020
LPOV,2017-09-17 08:00,-8.6459,40.9159,50.00,48.20,93.50,0.00,0.00,0.00,30.12,M,6.21,M,M,M,M,M,M,M,M,M,M,M,M,M,M,M,M,50.00,LPOV 170800Z 00000KT CAVOK 10/09 Q1020
LPOV,2017-09-17 09:00,-8.6459,40.9159,55.40,51.80,87.65,320.00,3.00,0.00,30.15,M,6.21,M,M,M,M,M,M,M,M,M,M,M,M,M,M,M,M,55.40,LPOV 170900Z 32003KT 270V030 CAVOK 13/11 Q1021
LPOV,2017-09-17 10:00,-8.6459,40.9159,60.80,51.80,72.20,300.00,3.00,0.00,30.15,M,6.21,M,FEW,M,M,M,3000.00,M,M,M,M,M,M,M,M,M,M,60.80,LPOV 171000Z 30003KT 9999 FEW030 16/11 Q1021
LPOV,2017-09-17 11:00,-8.6459,40.9159,62.60,50.00,63.38,300.00,5.00,0.00,30.15,M,6.21,M,FEW,M,M,M,3000.00,M,M,M,M,M,M,M,M,M,M,62.60,LPOV 171100Z 30005KT 9999 FEW030 17/10 Q1021
LPOV,2017-09-17 12:00,-8.6459,40.9159,62.60,50.00,63.38,310.00,8.00,0.00,30.15,M,6.21,M,FEW,M,M,M,3000.00,M,M,M,M,M,M,M,M,M,M,62.60,LPOV 171200Z 31008KT 9999 FEW030 17/10 Q1021
LPOV,2017-09-17 13:00,-8.6459,40.9159,66.20,50.00,55.88,300.00,7.00,0.00,30.15,M,6.21,M,FEW,M,M,M,3000.00,M,M,M,M,M,M,M,M,M,M,66.20,LPOV 171300Z 30007KT 9999 FEW030 19/10 Q1021
LPOV,2017-09-17 14:00,-8.6459,40.9159,66.20,51.80,59.74,300.00,7.00,0.00,30.12,M,6.21,M,FEW,M,M,M,3000.00,M,M,M,M,M,M,M,M,M,M,66.20,LPOV 171400Z 30007KT 9999 FEW030 19/11 Q1020
LPOV,2017-09-17 15:00,-8.6459,40.9159,64.40,53.60,67.95,300.00,7.00,0.00,30.12,M,6.21,M,FEW,M,M,M,3000.00,M,M,M,M,M,M,M,M,M,M,64.40,LPOV 171500Z 30007KT 9999 FEW030 18/12 Q1020
LPOV,2017-09-17 16:00,-8.6459,40.9159,64.40,53.60,67.95,320.00,7.00,0.00,30.12,M,6.21,M,M,M,M,M,M,M,M,M,M,M,M,M,M,M,M,64.40,LPOV 171600Z 32007KT CAVOK 18/12 Q1020
LPOV,2017-09-17 17:00,-8.6459,40.9159,64.40,55.40,72.56,330.00,6.00,0.00,30.12,M,6.21,M,FEW,M,M,M,1500.00,M,M,M,M,M,M,M,M,M,M,64.40,LPOV 171700Z 33006KT 9999 FEW015 18/13 Q1020
LPOV,2017-09-17 18:00,-8.6459,40.9159,62.60,55.40,77.29,320.00,6.00,0.00,30.12,M,6.21,M,M,M,M,M,M,M,M,M,M,M,M,M,M,M,M,62.60,LPOV 171800Z 32006KT CAVOK 17/13 Q1020
LPOV,2017-09-17 19:00,-8.6459,40.9159,59.00,55.40,87.83,330.00,3.00,0.00,30.15,M,6.21,M,M,M,M,M,M,M,M,M,M,M,M,M,M,M,M,59.00,LPOV 171900Z 33003KT CAVOK 15/13 Q1021
LPOV,2017-09-17 20:00,-8.6459,40.9159,59.00,55.40,87.83,M,2.00,0.00,30.15,M,6.21,M,M,M,M,M,M,M,M,M,M,M,M,M,M,M,M,59.00,LPOV 172000Z VRB02KT CAVOK 15/13 Q1021
LPOV,2017-09-17 21:00,-8.6459,40.9159,55.40,51.80,87.65,M,2.00,0.00,30.15,M,6.21,M,M,M,M,M,M,M,M,M,M,M,M,M,M,M,M,55.40,LPOV 172100Z VRB02KT CAVOK 13/11 Q1021
LPOV,2017-09-17 22:00,-8.6459,40.9159,53.60,50.00,87.56,M,2.00,0.00,30.15,M,6.21,M,M,M,M,M,M,M,M,M,M,M,M,M,M,M,M,53.60,LPOV 172200Z VRB02KT CAVOK 12/10 Q1021
LPOV,2017-09-17 23:00,-8.6459,40.9159,51.80,50.00,93.55,M,2.00,0.00,30.15,M,6.21,M,FEW,M,M,M,4000.00,M,M,M,M,M,M,M,M,M,M,51.80,LPOV 172300Z VRB02KT 9999 FEW040 11/10 Q1021
LPOV,2017-09-18 00:00,-8.6459,40.9159,51.80,50.00,93.55,M,2.00,0.00,30.15,M,6.21,M,BKN,M,M,M,3500.00,M,M,M,M,M,M,M,M,M,M,51.80,LPOV 180000Z VRB02KT 9999 BKN035 11/10 Q1021
LPOV,2017-09-18 01:00,-8.6459,40.9159,51.80,48.20,87.47,180.00,4.00,0.00,30.12,M,6.21,M,BKN,M,M,M,3500.00,M,M,M,M,M,M,M,M,M,M,51.80,LPOV 180100Z 18004KT 9999 BKN035 11/09 Q1020
LPOV,2017-09-18 02:00,-8.6459,40.9159,55.40,51.80,87.65,190.00,4.00,0.00,30.12,M,6.21,M,BKN,M,M,M,3000.00,M,M,M,M,M,M,M,M,M,M,55.40,LPOV 180200Z 19004KT 9999 BKN030 13/11 Q1020
LPOV,2017-09-18 03:00,-8.6459,40.9159,57.20,51.80,82.12,180.00,6.00,0.00,30.09,M,6.21,M,SCT,BKN,M,M,2000.00,3000.00,M,M,M,M,M,M,M,M,M,57.20,LPOV 180300Z 18006KT 9999 SCT020 BKN030 14/11 Q1019
LPOV,2017-09-18 04:00,-8.6459,40.9159,57.20,53.60,87.74,180.00,6.00,0.00,30.09,M,6.21,M,SCT,BKN,M,M,1500.00,2500.00,M,M,M,M,M,M,M,M,M,57.20,LPOV 180400Z 18006KT 9999 SCT015 BKN025 14/12 Q1019
LPOV,2017-09-18 05:00,-8.6459,40.9159,57.20,55.40,93.69,170.00,3.00,0.00,30.09,M,6.21,M,SCT,BKN,M,M,1000.00,2000.00,M,M,M,M,M,M,M,M,M,57.20,LPOV 180500Z 17003KT 9999 SCT010 BKN020 14/13 Q1019
LPOV,2017-09-18 06:00,-8.6459,40.9159,57.20,55.40,93.69,180.00,7.00,0.00,30.09,M,6.21,M,SCT,BKN,M,M,1000.00,2000.00,M,M,M,M,M,M,M,M,M,57.20,LPOV 180600Z 18007KT 9999 SCT010 BKN020 14/13 Q1019
LPOV,2017-09-18 07:00,-8.6459,40.9159,57.20,55.40,93.69,130.00,3.00,0.00,30.09,M,6.21,M,FEW,SCT,BKN,M,800.00,1000.00,2000.00,M,M,M,M,M,M,M,M,57.20,LPOV 180700Z 13003KT 9999 FEW008 SCT010 BKN020 14/13 Q1019
LPOV,2017-09-18 08:00,-8.6459,40.9159,60.80,57.20,87.92,170.00,4.00,0.00,30.12,M,6.21,M,SCT,SCT,BKN,M,800.00,1000.00,2000.00,M,M,M,M,M,M,M,M,60.80,LPOV 180800Z 17004KT 9999 SCT008 SCT010 BKN020 16/14 Q1020
LPOV,2017-09-18 09:00,-8.6459,40.9159,62.60,59.00,88.00,160.00,4.00,0.00,30.15,M,6.21,M,FEW,SCT,BKN,M,800.00,1200.00,2200.00,M,M,M,M,M,M,M,M,62.60,LPOV 180900Z 16004KT 9999 FEW008 SCT012 BKN022 17/15 Q1021
LPOV,2017-09-18 10:00,-8.6459,40.9159,66.20,59.00,77.60,330.00,3.00,0.00,30.18,M,6.21,M,FEW,M,M,M,1500.00,M,M,M,M,M,M,M,M,M,M,66.20,LPOV 181000Z 33003KT 9999 FEW015 19/15 Q1022
LPOV,2017-09-18 11:00,-8.6459,40.9159,66.20,59.00,77.60,240.00,6.00,0.00,30.18,M,6.21,M,FEW,BKN,M,M,1600.00,2800.00,M,M,M,M,M,M,M,M,M,66.20,LPOV 181100Z 24006KT 210V280 9999 FEW016 BKN028 19/15 Q1022
LPOV,2017-09-18 12:00,-8.6459,40.9159,68.00,59.00,72.92,270.00,9.00,0.00,30.21,M,6.21,M,FEW,BKN,M,M,1800.00,3000.00,M,M,M,M,M,M,M,M,M,68.00,LPOV 181200Z 27009KT 240V300 9999 FEW018 BKN030 20/15 Q1023
LPOV,2017-09-18 13:00,-8.6459,40.9159,68.00,59.00,72.92,290.00,4.00,0.00,30.21,M,6.21,M,FEW,BKN,M,M,1800.00,3000.00,M,M,M,M,M,M,M,M,M,68.00,LPOV 181300Z 29004KT 240V340 9999 FEW018 BKN030 20/15 Q1023
LPOV,2017-09-18 14:00,-8.6459,40.9159,69.80,59.00,68.55,270.00,6.00,0.00,30.18,M,6.21,M,FEW,M,M,M,1800.00,M,M,M,M,M,M,M,M,M,M,69.80,LPOV 181400Z 27006KT 9999 FEW018 21/15 Q1022
LPOV,2017-09-18 15:00,-8.6459,40.9159,69.80,59.00,68.55,280.00,6.00,0.00,30.18,M,6.21,M,FEW,M,M,M,1800.00,M,M,M,M,M,M,M,M,M,M,69.80,LPOV 181500Z 28006KT 250V320 9999 FEW018 21/15 Q1022
LPOV,2017-09-18 16:00,-8.6459,40.9159,68.00,60.80,77.75,280.00,6.00,0.00,30.21,M,6.21,M,FEW,M,M,M,1800.00,M,M,M,M,M,M,M,M,M,M,68.00,LPOV 181600Z 28006KT 250V320 9999 FEW018 20/16 Q1023
LPOV,2017-09-18 17:00,-8.6459,40.9159,68.00,62.60,82.86,280.00,6.00,0.00,30.21,M,6.21,M,FEW,M,M,M,1800.00,M,M,M,M,M,M,M,M,M,M,68.00,LPOV 181700Z 28006KT 9999 FEW018 20/17 Q1023
LPOV,2017-09-18 19:00,-8.6459,40.9159,62.60,60.80,93.83,M,2.00,0.00,30.21,M,6.21,M,FEW,M,M,M,1500.00,M,M,M,M,M,M,M,M,M,M,62.60,LPOV 181900Z VRB02KT 9999 FEW015 17/16 Q1023
LPOV,2017-09-18 20:00,-8.6459,40.9159,59.00,59.00,100.00,M,1.00,0.00,30.21,M,6.21,M,FEW,M,M,M,1500.00,M,M,M,M,M,M,M,M,M,M,59.00,LPOV 182000Z VRB01KT 9999 FEW015 15/15 Q1023
LPOV,2017-09-18 21:00,-8.6459,40.9159,59.00,57.20,93.74,M,1.00,0.00,30.24,M,6.21,M,FEW,M,M,M,800.00,M,M,M,M,M,M,M,M,M,M,59.00,LPOV 182100Z VRB01KT 9999 FEW008 15/14 Q1024
LPOV,2017-09-18 22:00,-8.6459,40.9159,59.00,57.20,93.74,M,1.00,0.00,30.24,M,6.21,M,FEW,SCT,M,M,800.00,3000.00,M,M,M,M,M,M,M,M,M,59.00,LPOV 182200Z VRB01KT 9999 FEW008 SCT030 15/14 Q1024
LPOV,2017-09-18 23:00,-8.6459,40.9159,59.00,57.20,93.74,M,1.00,0.00,30.24,M,6.21,M,FEW,SCT,M,M,800.00,3000.00,M,M,M,M,M,M,M,M,M,59.00,LPOV 182300Z VRB01KT 9999 FEW008 SCT030 15/14 Q1024
LPOV,2017-09-19 00:00,-8.6459,40.9159,59.00,57.20,93.74,M,1.00,0.00,30.24,M,6.21,M,FEW,M,M,M,800.00,M,M,M,M,M,M,M,M,M,M,59.00,LPOV 190000Z VRB01KT 9999 FEW008 15/14 Q1024
LPOV,2017-09-19 01:00,-8.6459,40.9159,55.40,55.40,100.00,M,1.00,0.00,30.24,M,6.21,M,FEW,M,M,M,700.00,M,M,M,M,M,M,M,M,M,M,55.40,LPOV 190100Z VRB01KT 9999 FEW007 13/13 Q1024
LPOV,2017-09-19 02:00,-8.6459,40.9159,55.40,53.60,93.65,M,1.00,0.00,30.21,M,6.21,M,FEW,M,M,M,700.00,M,M,M,M,M,M,M,M,M,M,55.40,LPOV 190200Z VRB01KT 9999 FEW007 13/12 Q1023
LPOV,2017-09-19 03:00,-8.6459,40.9159,53.60,51.80,93.60,M,1.00,0.00,30.21,M,6.21,M,FEW,M,M,M,600.00,M,M,M,M,M,M,M,M,M,M,53.60,LPOV 190300Z VRB01KT 9999 FEW006 12/11 Q1023
LPOV,2017-09-19 04:00,-8.6459,40.9159,51.80,51.80,100.00,M,1.00,0.00,30.21,M,3.73,M,BKN,M,M,M,500.00,M,M,M,PRFG,M,M,M,M,M,M,51.80,LPOV 190400Z VRB01KT 6000 0600W PRFG BKN005 11/11 Q1023
LPOV,2017-09-19 05:00,-8.6459,40.9159,51.80,51.80,100.00,M,2.00,0.00,30.21,M,0.31,M,BKN,M,M,M,500.00,M,M,M,FG,M,M,M,M,M,M,51.80,LPOV 190500Z VRB02KT 0500 FG BKN005 11/11 Q1023
LPOV,2017-09-19 06:00,-8.6459,40.9159,51.80,51.80,100.00,90.00,3.00,0.00,30.21,M,0.43,M,SCT,M,M,M,400.00,M,M,M,FG,M,M,M,M,M,M,51.80,LPOV 190600Z 09003KT 0700 FG SCT004 11/11 Q1023
LPOV,2017-09-19 07:00,-8.6459,40.9159,51.80,51.80,100.00,140.00,3.00,0.00,30.21,M,0.37,M,SCT,M,M,M,400.00,M,M,M,FG,M,M,M,M,M,M,51.80,LPOV 190700Z 14003KT 0600 FG SCT004 11/11 Q1023
LPOV,2017-09-19 08:00,-8.6459,40.9159,53.60,53.60,100.00,130.00,4.00,0.00,30.24,M,0.37,M,SCT,M,M,M,400.00,M,M,M,FG,M,M,M,M,M,M,53.60,LPOV 190800Z 13004KT 0600 FG SCT004 12/12 Q1024
LPOV,2017-09-19 09:00,-8.6459,40.9159,57.20,55.40,93.69,150.00,3.00,0.00,30.24,M,0.50,M,BKN,M,M,M,600.00,M,M,M,FG,M,M,M,M,M,M,57.20,LPOV 190900Z 15003KT 0800 FG BKN006 14/13 Q1024
LPOV,2017-09-19 11:00,-8.6459,40.9159,60.80,55.40,82.37,300.00,5.00,0.00,30.24,M,5.59,M,FEW,M,M,M,100.00,M,M,M,M,M,M,M,M,M,M,60.80,LPOV 191100Z 30005KT 250V360 9000 FEW001 16/13 Q1024
LPOV,2017-09-19 12:00,-8.6459,40.9159,62.60,57.20,82.50,320.00,6.00,0.00,30.24,M,5.59,M,FEW,M,M,M,100.00,M,M,M,M,M,M,M,M,M,M,62.60,LPOV 191200Z 32006KT 270V360 9000 FEW001 17/14 Q1024
LPOV,2017-09-19 13:00,-8.6459,40.9159,60.80,57.20,87.92,320.00,9.00,0.00,30.24,M,5.59,M,FEW,M,M,M,100.00,M,M,M,BCFG,M,M,M,M,M,M,60.80,LPOV 191300Z 32009KT 9000 0900N BCFG FEW001 16/14 Q1024
LPOV,2017-09-19 14:00,-8.6459,40.9159,60.80,57.20,87.92,340.00,9.00,0.00,30.21,M,3.73,M,FEW,BKN,M,M,100.00,700.00,M,M,PRFG,M,M,M,M,M,M,60.80,LPOV 191400Z 34009KT 6000 0900W PRFG FEW001 BKN007 16/14 Q1023
LPOV,2017-09-19 15:00,-8.6459,40.9159,62.60,57.20,82.50,330.00,8.00,0.00,30.21,M,4.97,M,FEW,SCT,M,M,100.00,700.00,M,M,M,M,M,M,M,M,M,62.60,LPOV 191500Z 33008KT 8000 FEW001 SCT007 17/14 Q1023
LPOV,2017-09-19 16:00,-8.6459,40.9159,60.80,55.40,82.37,340.00,8.00,0.00,30.18,M,5.59,M,FEW,SCT,M,M,100.00,700.00,M,M,M,M,M,M,M,M,M,60.80,LPOV 191600Z 34008KT 310V020 9000 FEW001 SCT007 16/13 Q1022
LPOV,2017-09-19 17:00,-8.6459,40.9159,60.80,57.20,87.92,340.00,8.00,0.00,30.18,M,6.21,M,FEW,M,M,M,700.00,M,M,M,M,M,M,M,M,M,M,60.80,LPOV 191700Z 34008KT 310V010 9999 FEW007 16/14 Q1022
LPOV,2017-09-19 18:00,-8.6459,40.9159,60.80,57.20,87.92,350.00,7.00,0.00,30.18,M,6.21,M,FEW,M,M,M,700.00,M,M,M,M,M,M,M,M,M,M,60.80,LPOV 191800Z 35007KT 9999 FEW007 16/14 Q1022
LPOV,2017-09-19 19:00,-8.6459,40.9159,59.00,57.20,93.74,340.00,4.00,0.00,30.18,M,6.21,M,FEW,M,M,M,700.00,M,M,M,M,M,M,M,M,M,M,59.00,LPOV 191900Z 34004KT 9999 FEW007 15/14 Q1022
LPOV,2017-09-19 20:00,-8.6459,40.9159,57.20,55.40,93.69,30.00,3.00,0.00,30.18,M,6.21,M,M,M,M,M,M,M,M,M,M,M,M,M,M,M,M,57.20,LPOV 192000Z 03003KT CAVOK 14/13 Q1022
LPOV,2017-09-19 21:00,-8.6459,40.9159,55.40,55.40,100.00,30.00,2.00,0.00,30.18,M,6.21,M,M,M,M,M,M,M,M,M,M,M,M,M,M,M,M,55.40,LPOV 192100Z 03002KT CAVOK 13/13 Q1022
LPOV,2017-09-19 22:00,-8.6459,40.9159,55.40,55.40,100.00,M,2.00,0.00,30.18,M,6.21,M,M,M,M,M,M,M,M,M,M,M,M,M,M,M,M,55.40,LPOV 192200Z VRB02KT CAVOK 13/13 Q1022
LPOV,2017-09-19 23:00,-8.6459,40.9159,55.40,53.60,93.65,M,1.00,0.00,30.15,M,6.21,M,M,M,M,M,M,M,M,M,M,M,M,M,M,M,M,55.40,LPOV 192300Z VRB01KT CAVOK 13/12 Q1021
LPOV,2017-09-20 00:00,-8.6459,40.9159,51.80,51.80,100.00,M,1.00,0.00,30.15,M,6.21,M,M,M,M,M,M,M,M,M,M,M,M,M,M,M,M,51.80,LPOV 200000Z VRB01KT CAVOK 11/11 Q1021
LPOV,2017-09-20 01:00,-8.6459,40.9159,51.80,50.00,93.55,180.00,3.00,0.00,30.15,M,4.35,M,NSC,M,M,M,M,M,M,M,M,M,M,M,M,M,M,51.80,LPOV 200100Z 18003KT 7000 NSC 11/10 Q1021
LPOV,2017-09-20 02:00,-8.6459,40.9159,50.00,50.00,100.00,M,2.00,0.00,30.15,M,2.49,M,SCT,M,M,M,400.00,M,M,M,BR,M,M,M,M,M,M,50.00,LPOV 200200Z VRB02KT 4000 BR SCT004 10/10 Q1021
LPOV,2017-09-20 03:00,-8.6459,40.9159,50.00,50.00,100.00,180.00,3.00,0.00,30.12,M,3.73,M,SCT,M,M,M,400.00,M,M,M,M,M,M,M,M,M,M,49.27,LPOV 200300Z 18003KT 6000 SCT004 10/10 Q1020
LPOV,2017-09-20 04:00,-8.6459,40.9159,50.00,50.00,100.00,170.00,3.00,0.00,30.12,M,1.86,M,SCT,M,M,M,400.00,M,M,M,BR,M,M,M,M,M,M,49.27,LPOV 200400Z 17003KT 3000 BR SCT004 10/10 Q1020
LPOV,2017-09-20 05:00,-8.6459,40.9159,50.00,50.00,100.00,M,2.00,0.00,30.12,M,1.24,M,BKN,M,M,M,400.00,M,M,M,BR,M,M,M,M,M,M,50.00,LPOV 200500Z VRB02KT 2000 BR BKN004 10/10 Q1020
LPOV,2017-09-20 06:00,-8.6459,40.9159,51.80,50.00,93.55,M,2.00,0.00,30.12,M,0.56,M,BKN,M,M,M,400.00,M,M,M,FG,M,M,M,M,M,M,51.80,LPOV 200600Z VRB02KT 0900 FG BKN004 11/10 Q1020
LPOV,2017-09-20 07:00,-8.6459,40.9159,51.80,50.00,93.55,M,1.00,0.00,30.12,M,0.37,M,OVC,M,M,M,400.00,M,M,M,FG,M,M,M,M,M,M,51.80,LPOV 200700Z VRB01KT 0600 FG OVC004 11/10 Q1020
LPOV,2017-09-20 08:00,-8.6459,40.9159,51.80,51.80,100.00,M,2.00,0.00,30.09,M,0.12,M,BKN,M,M,M,400.00,M,M,M,FG,M,M,M,M,M,M,51.80,LPOV 200800Z VRB02KT 0200 FG BKN004 11/11 Q1019
LPOV,2017-09-20 09:00,-8.6459,40.9159,55.40,55.40,100.00,M,2.00,0.00,30.12,M,0.37,M,OVC,M,M,M,400.00,M,M,M,FG,M,M,M,M,M,M,55.40,LPOV 200900Z VRB02KT 0600 FG OVC004 13/13 Q1020
LPOV,2017-09-20 10:00,-8.6459,40.9159,55.40,55.40,100.00,M,2.00,0.00,30.12,M,0.75,M,OVC,M,M,M,400.00,M,M,M,BR,M,M,M,M,M,M,55.40,LPOV 201000Z VRB02KT 1200 BR OVC004 13/13 Q1020
LPOV,2017-09-20 11:00,-8.6459,40.9159,57.20,57.20,100.00,290.00,4.00,0.00,30.12,M,4.97,M,FEW,M,M,M,700.00,M,M,M,M,M,M,M,M,M,M,57.20,LPOV 201100Z 29004KT 8000 FEW007 14/14 Q1020
LPOV,2017-09-20 12:00,-8.6459,40.9159,60.80,55.40,82.37,290.00,6.00,0.00,30.12,M,6.21,M,FEW,M,M,M,700.00,M,M,M,M,M,M,M,M,M,M,60.80,LPOV 201200Z 29006KT 260V350 9999 FEW007 16/13 Q1020
LPOV,2017-09-20 13:00,-8.6459,40.9159,62.60,55.40,77.29,310.00,6.00,0.00,30.09,M,6.21,M,FEW,M,M,M,700.00,M,M,M,M,M,M,M,M,M,M,62.60,LPOV 201300Z 31006KT 270V350 9999 FEW007 17/13 Q1019
LPOV,2017-09-20 14:00,-8.6459,40.9159,64.40,57.20,77.45,340.00,7.00,0.00,30.09,M,6.21,M,FEW,M,M,M,700.00,M,M,M,M,M,M,M,M,M,M,64.40,LPOV 201400Z 34007KT 300V010 9999 FEW007 18/14 Q1019
LPOV,2017-09-20 15:00,-8.6459,40.9159,66.20,57.20,72.74,350.00,9.00,0.00,30.06,M,6.21,M,M,M,M,M,M,M,M,M,M,M,M,M,M,M,M,66.20,LPOV 201500Z 35009KT 300V020 CAVOK 19/14 Q1018
LPOV,2017-09-20 16:00,-8.6459,40.9159,64.40,57.20,77.45,340.00,7.00,0.00,30.06,M,6.21,M,M,M,M,M,M,M,M,M,M,M,M,M,M,M,M,64.40,LPOV 201600Z 34007KT 310V010 CAVOK 18/14 Q1018
LPOV,2017-09-20 17:00,-8.6459,40.9159,64.40,57.20,77.45,340.00,8.00,0.00,30.06,M,6.21,M,M,M,M,M,M,M,M,M,M,M,M,M,M,M,M,64.40,LPOV 201700Z 34008KT 310V020 CAVOK 18/14 Q1018
LPOV,2017-09-20 19:00,-8.6459,40.9159,62.60,57.20,82.50,M,2.00,0.00,30.03,M,6.21,M,M,M,M,M,M,M,M,M,M,M,M,M,M,M,M,62.60,LPOV 201900Z VRB02KT CAVOK 17/14 Q1017
LPOV,2017-09-20 20:00,-8.6459,40.9159,57.20,55.40,93.69,M,2.00,0.00,30.06,M,6.21,M,M,M,M,M,M,M,M,M,M,M,M,M,M,M,M,57.20,LPOV 202000Z VRB02KT CAVOK 14/13 Q1018
LPOV,2017-09-20 21:00,-8.6459,40.9159,57.20,53.60,87.74,M,2.00,0.00,30.06,M,6.21,M,M,M,M,M,M,M,M,M,M,M,M,M,M,M,M,57.20,LPOV 202100Z VRB02KT CAVOK 14/12 Q1018
LPOV,2017-09-20 22:00,-8.6459,40.9159,55.40,53.60,93.65,M,2.00,0.00,30.06,M,6.21,M,SCT,SCT,M,M,600.00,1200.00,M,M,M,M,M,M,M,M,M,55.40,LPOV 202200Z VRB02KT 9999 SCT006 SCT012 13/12 Q1018
LPOV,2017-09-20 23:00,-8.6459,40.9159,57.20,53.60,87.74,M,1.00,0.00,30.06,M,6.21,M,SCT,SCT,M,M,600.00,1200.00,M,M,M,M,M,M,M,M,M,57.20,LPOV 202300Z VRB01KT 9999 SCT006 SCT012 14/12 Q1018
LPOV,2017-09-21 00:00,-8.6459,40.9159,60.80,59.00,93.79,M,2.00,0.00,30.06,M,6.21,M,SCT,BKN,M,M,600.00,1200.00,M,M,M,M,M,M,M,M,M,60.80,LPOV 210000Z VRB02KT 9999 SCT006 BKN012 16/15 Q1018
LPOV,2017-09-21 01:00,-8.6459,40.9159,60.80,59.00,93.79,M,2.00,0.00,30.06,M,6.21,M,FEW,M,M,M,600.00,M,M,M,M,M,M,M,M,M,M,60.80,LPOV 210100Z VRB02KT 9999 FEW006 16/15 Q1018
LPOV,2017-09-21 02:00,-8.6459,40.9159,60.80,59.00,93.79,M,2.00,0.00,30.06,M,3.11,M,SCT,BKN,M,M,600.00,1200.00,M,M,BR,M,M,M,M,M,M,60.80,LPOV 210200Z VRB02KT 5000 BR SCT006 BKN012 16/15 Q1018
LPOV,2017-09-21 03:00,-8.6459,40.9159,60.80,59.00,93.79,M,2.00,0.00,30.06,M,0.50,M,BKN,BKN,M,M,600.00,1200.00,M,M,FG,M,M,M,M,M,M,60.80,LPOV 210300Z VRB02KT 0800 FG BKN006 BKN012 16/15 Q1018
LPOV,2017-09-21 05:00,-8.6459,40.9159,60.80,59.00,93.79,M,2.00,0.00,30.03,M,0.37,M,BKN,SCT,M,M,400.00,1000.00,M,M,FG,M,M,M,M,M,M,60.80,LPOV 210500Z VRB02KT 0600 FG BKN004 SCT010 16/15 Q1017
LPOV,2017-09-21 06:00,-8.6459,40.9159,59.00,57.20,93.74,M,2.00,0.00,30.03,M,0.75,M,BKN,SCT,M,M,400.00,1000.00,M,M,BR,M,M,M,M,M,M,59.00,LPOV 210600Z VRB02KT 1200 BR BKN004 SCT010 15/14 Q1017
LPOV,2017-09-21 07:00,-8.6459,40.9159,59.00,57.20,93.74,M,2.00,0.00,30.06,M,1.24,M,FEW,SCT,M,M,700.00,1400.00,M,M,BR,M,M,M,M,M,M,59.00,LPOV 210700Z VRB02KT 2000 BR FEW007 SCT014 15/14 Q1018
LPOV,2017-09-21 09:00,-8.6459,40.9159,62.60,60.80,93.83,150.00,3.00,0.00,30.06,M,5.59,M,FEW,M,M,M,1800.00,M,M,M,M,M,M,M,M,M,M,62.60,LPOV 210900Z 15003KT 090V210 9000 FEW018 17/16 Q1018
LPOV,2017-09-21 11:00,-8.6459,40.9159,64.40,60.80,88.09,290.00,4.00,0.00,30.06,M,6.21,M,FEW,M,M,M,200.00,M,M,M,M,M,M,M,M,M,M,64.40,LPOV 211100Z 29004KT 250V320 9999 FEW002 18/16 Q1018
LPOV,2017-09-21 12:00,-8.6459,40.9159,68.00,62.60,82.86,330.00,5.00,0.00,30.06,M,6.21,M,FEW,SCT,M,M,1500.00,2500.00,M,M,M,M,M,M,M,M,M,68.00,LPOV 211200Z 33005KT 280V030 9999 FEW015 SCT025 20/17 Q1018
LPOV,2017-09-21 13:00,-8.6459,40.9159,66.20,60.80,82.74,310.00,8.00,0.00,30.06,M,4.97,M,FEW,BKN,M,M,100.00,400.00,M,M,PRFG,M,M,M,M,M,M,66.20,LPOV 211300Z 31008KT 260V350 8000 1500N PRFG FEW001 BKN004 19/16 Q1018
LPOV,2017-09-21 14:00,-8.6459,40.9159,66.20,62.60,88.18,330.00,5.00,0.00,30.06,M,6.21,M,SCT,M,M,M,500.00,M,M,M,M,M,M,M,M,M,M,66.20,LPOV 211400Z 33005KT 9999 SCT005 19/17 Q1018
LPOV,2017-09-21 16:00,-8.6459,40.9159,64.40,59.00,82.62,340.00,11.00,0.00,30.06,M,6.21,M,FEW,M,M,M,500.00,M,M,M,M,M,M,M,M,M,M,64.40,LPOV 211600Z 34011KT 310V020 9999 FEW005 18/15 Q1018
LPOV,2017-09-21 18:00,-8.6459,40.9159,62.60,57.20,82.50,340.00,9.00,0.00,30.06,M,6.21,M,FEW,M,M,M,2000.00,M,M,M,M,M,M,M,M,M,M,62.60,LPOV 211800Z 34009KT 310V010 9999 FEW020 17/14 Q1018
LPOV,2017-09-21 22:00,-8.6459,40.9159,59.00,55.40,87.83,350.00,5.00,0.00,30.06,M,6.21,M,M,M,M,M,M,M,M,M,M,M,M,M,M,M,M,59.00,LPOV 212200Z 35005KT CAVOK 15/13 Q1018
LPOV,2017-09-21 23:00,-8.6459,40.9159,59.00,55.40,87.83,340.00,8.00,0.00,30.06,M,6.21,M,M,M,M,M,M,M,M,M,M,M,M,M,M,M,M,59.00,LPOV 212300Z 34008KT CAVOK 15/13 Q1018
LPOV,2017-09-22 00:00,-8.6459,40.9159,59.00,55.40,87.83,M,1.00,0.00,30.06,M,6.21,M,M,M,M,M,M,M,M,M,M,M,M,M,M,M,M,59.00,LPOV 220000Z VRB01KT CAVOK 15/13 Q1018
LPOV,2017-09-22 01:00,-8.6459,40.9159,53.60,51.80,93.60,M,2.00,0.00,30.09,M,6.21,M,M,M,M,M,M,M,M,M,M,M,M,M,M,M,M,53.60,LPOV 220100Z VRB02KT CAVOK 12/11 Q1019
LPOV,2017-09-22 02:00,-8.6459,40.9159,51.80,51.80,100.00,M,2.00,0.00,30.06,M,6.21,M,M,M,M,M,M,M,M,M,M,M,M,M,M,M,M,51.80,LPOV 220200Z VRB02KT CAVOK 11/11 Q1018
LPOV,2017-09-22 03:00,-8.6459,40.9159,53.60,51.80,93.60,110.00,4.00,0.00,30.06,M,3.11,M,SCT,M,M,M,400.00,M,M,M,BR,M,M,M,M,M,M,53.60,LPOV 220300Z 11004KT 060V150 5000 BR SCT004 12/11 Q1018
LPOV,2017-09-22 04:00,-8.6459,40.9159,53.60,53.60,100.00,130.00,6.00,0.00,30.06,M,0.19,M,BKN,M,M,M,400.00,M,M,M,FG,M,M,M,M,M,M,53.60,LPOV 220400Z 13006KT 0300 FG BKN004 12/12 Q1018
LPOV,2017-09-22 05:00,-8.6459,40.9159,53.60,53.60,100.00,200.00,4.00,0.00,30.06,M,0.19,M,BKN,M,M,M,400.00,M,M,M,FG,M,M,M,M,M,M,53.60,LPOV 220500Z 20004KT 0300 FG BKN004 12/12 Q1018
LPOV,2017-09-22 06:00,-8.6459,40.9159,53.60,53.60,100.00,M,1.00,0.00,30.09,M,0.12,M,BKN,M,M,M,400.00,M,M,M,FG,M,M,M,M,M,M,53.60,LPOV 220600Z VRB01KT 0200 FG BKN004 12/12 Q1019
LPOV,2017-09-22 07:00,-8.6459,40.9159,53.60,53.60,100.00,90.00,4.00,0.00,30.09,M,0.12,M,BKN,M,M,M,400.00,M,M,M,FG,M,M,M,M,M,M,53.60,LPOV 220700Z 09004KT 0200 FG BKN004 12/12 Q1019
LPOV,2017-09-22 08:00,-8.6459,40.9159,55.40,55.40,100.00,M,2.00,0.00,30.09,M,0.93,M,FEW,BKN,M,M,200.00,400.00,M,M,BR,M,M,M,M,M,M,55.40,LPOV 220800Z VRB02KT 1500 BR FEW002 BKN004 13/13 Q1019
LPOV,2017-09-22 09:00,-8.6459,40.9159,59.00,57.20,93.74,M,1.00,0.00,30.09,M,2.49,M,FEW,SCT,M,M,200.00,400.00,M,M,BR,M,M,M,M,M,M,59.00,LPOV 220900Z VRB01KT 4000 BR FEW002 SCT004 15/14 Q1019
LPOV,2017-09-22 10:00,-8.6459,40.9159,59.00,57.20,93.74,270.00,5.00,0.00,30.09,M,2.49,M,FEW,SCT,M,M,100.00,300.00,M,M,PRFG BR,M,M,M,M,M,M,59.00,LPOV 221000Z 27005KT 4000 0700N PRFG BR FEW001 SCT003 15/14 Q1019
LPOV,2017-09-22 11:00,-8.6459,40.9159,62.60,57.20,82.50,280.00,5.00,0.00,30.09,M,4.35,M,FEW,M,M,M,200.00,M,M,M,M,M,M,M,M,M,M,62.60,LPOV 221100Z 28005KT 240V330 7000 FEW002 17/14 Q1019
LPOV,2017-09-22 12:00,-8.6459,40.9159,62.60,55.40,77.29,310.00,5.00,0.00,30.09,M,6.21,M,FEW,M,M,M,200.00,M,M,M,M,M,M,M,M,M,M,62.60,LPOV 221200Z 31005KT 250V350 9999 FEW002 17/13 Q1019
LPOV,2017-09-22 13:00,-8.6459,40.9159,66.20,53.60,63.82,340.00,7.00,0.00,30.06,M,6.21,M,FEW,M,M,M,2000.00,M,M,M,M,M,M,M,M,M,M,66.20,LPOV 221300Z 34007KT 300V020 9999 FEW020 19/12 Q1018
LPOV,2017-09-22 14:00,-8.6459,40.9159,66.20,55.40,68.15,340.00,9.00,0.00,30.03,M,6.21,M,FEW,M,M,M,2000.00,M,M,M,M,M,M,M,M,M,M,66.20,LPOV 221400Z 34009KT 300V010 9999 FEW020 19/13 Q1017
LPOV,2017-09-22 15:00,-8.6459,40.9159,66.20,55.40,68.15,350.00,11.00,0.00,30.03,M,6.21,M,M,M,M,M,M,M,M,M,M,M,M,M,M,M,M,66.20,LPOV 221500Z 35011KT 310V020 CAVOK 19/13 Q1017
LPOV,2017-09-22 16:00,-8.6459,40.9159,64.40,57.20,77.45,350.00,12.00,0.00,30.03,M,6.21,M,M,M,M,M,M,M,M,M,M,M,M,M,M,M,M,64.40,LPOV 221600Z 35012KT 320V020 CAVOK 18/14 Q1017
LPOV,2017-09-22 17:00,-8.6459,40.9159,64.40,57.20,77.45,340.00,8.00,0.00,30.03,M,6.21,M,M,M,M,M,M,M,M,M,M,M,M,M,M,M,M,64.40,LPOV 221700Z 34008KT 320V020 CAVOK 18/14 Q1017
LPOV,2017-09-22 18:00,-8.6459,40.9159,62.60,57.20,82.50,340.00,6.00,0.00,30.03,M,6.21,M,M,M,M,M,M,M,M,M,M,M,M,M,M,M,M,62.60,LPOV 221800Z 34006KT 310V020 CAVOK 17/14 Q1017
LPOV,2017-09-22 19:00,-8.6459,40.9159,60.80,57.20,87.92,330.00,3.00,0.00,30.03,M,6.21,M,M,M,M,M,M,M,M,M,M,M,M,M,M,M,M,60.80,LPOV 221900Z 33003KT 300V010 CAVOK 16/14 Q1017
LPOV,2017-09-22 20:00,-8.6459,40.9159,57.20,55.40,93.69,M,1.00,0.00,30.03,M,6.21,M,M,M,M,M,M,M,M,M,M,M,M,M,M,M,M,57.20,LPOV 222000Z VRB01KT CAVOK 14/13 Q1017
LPOV,2017-09-22 21:00,-8.6459,40.9159,55.40,53.60,93.65,M,2.00,0.00,30.06,M,6.21,M,M,M,M,M,M,M,M,M,M,M,M,M,M,M,M,55.40,LPOV 222100Z VRB02KT CAVOK 13/12 Q1018
LPOV,2017-09-22 22:00,-8.6459,40.9159,55.40,51.80,87.65,190.00,3.00,0.00,30.06,M,6.21,M,M,M,M,M,M,M,M,M,M,M,M,M,M,M,M,55.40,LPOV 222200Z 19003KT CAVOK 13/11 Q1018
LPOV,2017-09-22 23:00,-8.6459,40.9159,53.60,51.80,93.60,M,1.00,0.00,30.06,M,6.21,M,M,M,M,M,M,M,M,M,M,M,M,M,M,M,M,53.60,LPOV 222300Z VRB01KT CAVOK 12/11 Q1018
LPOV,2017-09-23 00:00,-8.6459,40.9159,53.60,51.80,93.60,M,2.00,0.00,30.03,M,3.73,M,SCT,M,M,M,400.00,M,M,M,M,M,M,M,M,M,M,53.60,LPOV 230000Z VRB02KT 6000 SCT004 12/11 Q1017
LPOV,2017-09-23 01:00,-8.6459,40.9159,51.80,51.80,100.00,140.00,5.00,0.00,30.03,M,0.43,M,BKN,M,M,M,200.00,M,M,M,FG,M,M,M,M,M,M,51.80,LPOV 230100Z 14005KT 0700 FG BKN002 11/11 Q1017
LPOV,2017-09-23 02:00,-8.6459,40.9159,50.00,48.20,93.50,130.00,6.00,0.00,30.03,M,0.56,M,SCT,M,M,M,200.00,M,M,M,FG,M,M,M,M,M,M,47.21,LPOV 230200Z 13006KT 0900 FG SCT002 10/09 Q1017
LPOV,2017-09-23 03:00,-8.6459,40.9159,55.40,37.40,50.64,160.00,4.00,0.00,30.03,M,0.56,M,SCT,M,M,M,200.00,M,M,M,FG,M,M,M,M,M,M,55.40,LPOV 230300Z 16004KT 0900 FG SCT002 13/03 Q1017
LPOV,2017-09-23 04:00,-8.6459,40.9159,55.40,53.60,93.65,180.00,4.00,0.00,30.03,M,0.43,M,SCT,M,M,M,200.00,M,M,M,FG,M,M,M,M,M,M,55.40,LPOV 230400Z 18004KT 0700 FG SCT002 13/12 Q1017
LPOV,2017-09-23 05:00,-8.6459,40.9159,53.60,53.60,100.00,180.00,4.00,0.00,30.03,M,0.19,M,BKN,M,M,M,200.00,M,M,M,FG,M,M,M,M,M,M,53.60,LPOV 230500Z 18004KT 0300 FG BKN002 12/12 Q1017
LPOV,2017-09-23 06:00,-8.6459,40.9159,53.60,51.80,93.60,190.00,4.00,0.00,30.03,M,0.12,M,BKN,M,M,M,200.00,M,M,M,FG,M,M,M,M,M,M,53.60,LPOV 230600Z 19004KT 0200 FG BKN002 12/11 Q1017
LPOV,2017-09-23 07:00,-8.6459,40.9159,53.60,53.60,100.00,150.00,4.00,0.00,30.06,M,0.06,M,BKN,M,M,M,100.00,M,M,M,FG,M,M,M,M,M,M,53.60,LPOV 230700Z 15004KT 0100 FG BKN001 12/12 Q1018
LPOV,2017-09-23 08:00,-8.6459,40.9159,53.60,53.60,100.00,180.00,3.00,0.00,30.09,M,0.06,M,BKN,M,M,M,100.00,M,M,M,FG,M,M,M,M,M,M,53.60,LPOV 230800Z 18003KT 0100 FG BKN001 12/12 Q1019
LPOV,2017-09-23 10:00,-8.6459,40.9159,57.20,55.40,93.69,130.00,5.00,0.00,30.12,M,0.50,M,BKN,M,M,M,200.00,M,M,M,FG,M,M,M,M,M,M,57.20,LPOV 231000Z 13005KT 0800 FG BKN002 14/13 Q1020
LPOV,2017-09-23 11:00,-8.6459,40.9159,57.20,55.40,93.69,M,2.00,0.00,30.12,M,1.86,M,BKN,M,M,M,400.00,M,M,M,BR,M,M,M,M,M,M,57.20,LPOV 231100Z VRB02KT 3000 BR BKN004 14/13 Q1020
LPOV,2017-09-23 12:00,-8.6459,40.9159,59.00,55.40,87.83,200.00,4.00,0.00,30.12,M,4.35,M,BKN,M,M,M,800.00,M,M,M,M,M,M,M,M,M,M,59.00,LPOV 231200Z 20004KT 7000 BKN008 15/13 Q1020
LPOV,2017-09-23 13:00,-8.6459,40.9159,62.60,59.00,88.00,M,2.00,0.00,30.09,M,5.59,M,FEW,SCT,M,M,800.00,1200.00,M,M,M,M,M,M,M,M,M,62.60,LPOV 231300Z VRB02KT 9000 FEW008 SCT012 17/15 Q1019
LPOV,2017-09-23 14:00,-8.6459,40.9159,64.40,57.20,77.45,30.00,8.00,0.00,30.09,M,6.21,M,FEW,M,M,M,1400.00,M,M,M,M,M,M,M,M,M,M,64.40,LPOV 231400Z 03008KT 9999 FEW014 18/14 Q1019
LPOV,2017-09-23 15:00,-8.6459,40.9159,64.40,57.20,77.45,290.00,5.00,0.00,30.09,M,6.21,M,FEW,M,M,M,1400.00,M,M,M,M,M,M,M,M,M,M,64.40,LPOV 231500Z 29005KT 9999 FEW014 18/14 Q1019
LPOV,2017-09-23 16:00,-8.6459,40.9159,64.40,59.00,82.62,330.00,3.00,0.00,30.12,M,6.21,M,FEW,M,M,M,1400.00,M,M,M,M,M,M,M,M,M,M,64.40,LPOV 231600Z 33003KT 9999 FEW014 18/15 Q1020
LPOV,2017-09-23 17:00,-8.6459,40.9159,66.20,59.00,77.60,10.00,3.00,0.00,30.09,M,6.21,M,FEW,M,M,M,1400.00,M,M,M,M,M,M,M,M,M,M,66.20,LPOV 231700Z 01003KT 9999 FEW014 19/15 Q1019
LPOV,2017-09-23 18:00,-8.6459,40.9159,64.40,59.00,82.62,300.00,4.00,0.00,30.09,M,6.21,M,M,M,M,M,M,M,M,M,M,M,M,M,M,M,M,64.40,LPOV 231800Z 30004KT CAVOK 18/15 Q1019
LPOV,2017-09-23 19:00,-8.6459,40.9159,59.00,57.20,93.74,M,1.00,0.00,30.09,M,4.35,M,NSC,M,M,M,M,M,M,M,M,M,M,M,M,M,M,59.00,LPOV 231900Z VRB01KT 7000 NSC 15/14 Q1019
LPOV,2017-09-23 20:00,-8.6459,40.9159,59.00,57.20,93.74,M,2.00,0.00,30.09,M,4.35,M,FEW,M,M,M,700.00,M,M,M,M,M,M,M,M,M,M,59.00,LPOV 232000Z VRB02KT 7000 FEW007 15/14 Q1019
LPOV,2017-09-23 21:00,-8.6459,40.9159,59.00,55.40,87.83,M,2.00,0.00,30.12,M,4.35,M,FEW,M,M,M,700.00,M,M,M,M,M,M,M,M,M,M,59.00,LPOV 232100Z VRB02KT 7000 FEW007 15/13 Q1020
LPOV,2017-09-23 22:00,-8.6459,40.9159,57.20,55.40,93.69,M,2.00,0.00,30.12,M,5.59,M,NSC,M,M,M,M,M,M,M,M,M,M,M,M,M,M,57.20,LPOV 232200Z VRB02KT 9000 NSC 14/13 Q1020
LPOV,2017-09-23 23:00,-8.6459,40.9159,51.80,50.00,93.55,M,2.00,0.00,30.12,M,5.59,M,NSC,M,M,M,M,M,M,M,M,M,M,M,M,M,M,51.80,LPOV 232300Z VRB02KT 9000 NSC 11/10 Q1020
LPOV,2017-09-24 00:00,-8.6459,40.9159,50.00,48.20,93.50,M,2.00,0.00,30.12,M,5.59,M,NSC,M,M,M,M,M,M,M,M,M,M,M,M,M,M,50.00,LPOV 240000Z VRB02KT 9000 NSC 10/09 Q1020
LPOV,2017-09-24 01:00,-8.6459,40.9159,50.00,48.20,93.50,M,2.00,0.00,30.12,M,5.59,M,NSC,M,M,M,M,M,M,M,M,M,M,M,M,M,M,50.00,LPOV 240100Z VRB02KT 9000 NSC 10/09 Q1020
LPOV,2017-09-24 02:00,-8.6459,40.9159,48.20,46.40,93.45,M,2.00,0.00,30.12,M,4.97,M,FEW,M,M,M,600.00,M,M,M,M,M,M,M,M,M,M,48.20,LPOV 240200Z VRB02KT 8000 FEW006 09/08 Q1020
LPOV,2017-09-24 04:00,-8.6459,40.9159,46.40,44.60,93.40,M,2.00,0.00,30.12,M,4.35,M,SCT,M,M,M,600.00,M,M,M,M,M,M,M,M,M,M,46.40,LPOV 240400Z VRB02KT 7000 SCT006 08/07 Q1020
LPOV,2017-09-24 06:00,-8.6459,40.9159,46.40,46.40,100.00,M,2.00,0.00,30.12,M,0.37,M,BKN,M,M,M,300.00,M,M,M,FG,M,M,M,M,M,M,46.40,LPOV 240600Z VRB02KT 0600 FG BKN003 08/08 Q1020
LPOV,2017-09-24 07:00,-8.6459,40.9159,46.40,46.40,100.00,M,2.00,0.00,30.12,M,0.37,M,SCT,M,M,M,300.00,M,M,M,FG,M,M,M,M,M,M,46.40,LPOV 240700Z VRB02KT 0600 FG SCT003 08/08 Q1020
LPOV,2017-09-24 08:00,-8.6459,40.9159,51.80,50.00,93.55,140.00,3.00,0.00,30.12,M,3.73,M,FEW,M,M,M,300.00,M,M,M,M,M,M,M,M,M,M,51.80,LPOV 240800Z 14003KT 6000 FEW003 11/10 Q1020
LPOV,2017-09-24 09:00,-8.6459,40.9159,59.00,57.20,93.74,150.00,3.00,0.00,30.12,M,5.59,M,FEW,M,M,M,4000.00,M,M,M,M,M,M,M,M,M,M,59.00,LPOV 240900Z 15003KT 9000 FEW040 15/14 Q1020
LPOV,2017-09-24 10:00,-8.6459,40.9159,60.80,57.20,87.92,180.00,5.00,0.00,30.12,M,6.21,M,FEW,M,M,M,4000.00,M,M,M,M,M,M,M,M,M,M,60.80,LPOV 241000Z 18005KT 9999 FEW040 16/14 Q1020
LPOV,2017-09-24 12:00,-8.6459,40.9159,73.40,48.20,40.85,220.00,5.00,0.00,30.12,M,6.21,M,SCT,M,M,M,4000.00,M,M,M,M,M,M,M,M,M,M,72.36,LPOV 241200Z 22005KT 9999 SCT040 23/09 Q1020
LPOV,2017-09-24 13:00,-8.6459,40.9159,68.00,55.40,64.04,260.00,7.00,0.00,30.15,M,6.21,M,FEW,BKN,M,M,3500.00,4000.00,M,M,M,M,M,M,M,M,M,68.00,LPOV 241300Z 26007KT 9999 FEW035 BKN040 20/13 Q1021
LPOV,2017-09-24 14:00,-8.6459,40.9159,69.80,55.40,60.21,250.00,5.00,0.00,30.12,M,6.21,M,FEW,BKN,M,M,2000.00,3500.00,M,M,M,M,M,M,M,M,M,69.80,LPOV 241400Z 25005KT 9999 FEW020 BKN035 21/13 Q1020
LPOV,2017-09-24 15:00,-8.6459,40.9159,66.20,57.20,72.74,260.00,5.00,0.00,30.15,M,4.97,M,BKN,BKN,M,M,1500.00,2500.00,M,M,-SHRA,M,M,M,M,M,M,66.20,LPOV 241500Z 26005KT 8000 -SHRA BKN015 BKN025 19/14 Q1021
LPOV,2017-09-24 16:00,-8.6459,40.9159,64.40,60.80,88.09,M,2.00,0.00,30.15,M,1.86,M,SCT,BKN,M,M,400.00,1200.00,M,M,-SHRA BR,M,M,M,M,M,M,64.40,LPOV 241600Z VRB02KT 3000 -SHRA BR SCT004 BKN012 18/16 Q1021
LPOV,2017-09-24 17:00,-8.6459,40.9159,62.60,57.20,82.50,180.00,4.00,0.00,30.15,M,1.24,M,BKN,BKN,M,M,400.00,1200.00,M,M,-DZRA BR,M,M,M,M,M,M,62.60,LPOV 241700Z 18004KT 2000 -DZRA BR BKN004 BKN012 17/14 Q1021
LPOV,2017-09-24 18:00,-8.6459,40.9159,62.60,62.60,100.00,190.00,3.00,0.00,30.15,M,1.86,M,BKN,BKN,M,M,400.00,1200.00,M,M,-DZRA BR,M,M,M,M,M,M,62.60,LPOV 241800Z 19003KT 3000 -DZRA BR BKN004 BKN012 17/17 Q1021
LPOV,2017-09-24 19:00,-8.6459,40.9159,62.60,60.80,93.83,M,2.00,0.00,30.15,M,0.56,M,BKN,BKN,M,M,400.00,1200.00,M,M,FG,M,M,M,M,M,M,62.60,LPOV 241900Z VRB02KT 0900 FG BKN004 BKN012 17/16 Q1021
LPOV,2017-09-24 20:00,-8.6459,40.9159,62.60,62.60,100.00,120.00,4.00,0.00,30.18,M,0.56,M,BKN,BKN,M,M,400.00,1200.00,M,M,FG,M,M,M,M,M,M,62.60,LPOV 242000Z 12004KT 0900 FG BKN004 BKN012 17/17 Q1022
LPOV,2017-09-24 21:00,-8.6459,40.9159,64.40,60.80,88.09,150.00,3.00,0.00,30.18,M,0.56,M,BKN,BKN,M,M,400.00,1200.00,M,M,FG,M,M,M,M,M,M,64.40,LPOV 242100Z 15003KT 0900 FG BKN004 BKN012 18/16 Q1022
LPOV,2017-09-24 22:00,-8.6459,40.9159,62.60,62.60,100.00,M,2.00,0.00,30.18,M,1.24,M,SCT,BKN,M,M,400.00,1200.00,M,M,BR,M,M,M,M,M,M,62.60,LPOV 242200Z VRB02KT 2000 BR SCT004 BKN012 17/17 Q1022
LPOV,2017-09-24 23:00,-8.6459,40.9159,60.80,60.80,100.00,M,2.00,0.00,30.18,M,0.50,M,SCT,SCT,M,M,400.00,1200.00,M,M,FG,M,M,M,M,M,M,60.80,LPOV 242300Z VRB02KT 0800 FG SCT004 SCT012 16/16 Q1022
LPOV,2017-09-25 00:00,-8.6459,40.9159,60.80,60.80,100.00,100.00,5.00,0.00,30.18,M,0.50,M,FEW,SCT,M,M,400.00,1200.00,M,M,FG,M,M,M,M,M,M,60.80,LPOV 250000Z 10005KT 0800 FG FEW004 SCT012 16/16 Q1022
LPOV,2017-09-25 02:00,-8.6459,40.9159,59.00,57.20,93.74,M,2.00,0.00,30.18,M,0.31,M,FEW,M,M,M,400.00,M,M,M,FG,M,M,M,M,M,M,59.00,LPOV 250200Z VRB02KT 0500 FG FEW004 15/14 Q1022
LPOV,2017-09-25 03:00,-8.6459,40.9159,57.20,57.20,100.00,M,2.00,0.00,30.18,M,0.31,M,BKN,M,M,M,200.00,M,M,M,FG,M,M,M,M,M,M,57.20,LPOV 250300Z VRB02KT 0500 FG BKN002 14/14 Q1022
LPOV,2017-09-25 04:00,-8.6459,40.9159,57.20,55.40,93.69,M,2.00,0.00,30.18,M,0.31,M,FEW,M,M,M,400.00,M,M,M,FG,M,M,M,M,M,M,57.20,LPOV 250400Z VRB02KT 0500 FG FEW004 14/13 Q1022
LPOV,2017-09-25 05:00,-8.6459,40.9159,57.20,57.20,100.00,M,2.00,0.00,30.18,M,0.50,M,FEW,M,M,M,400.00,M,M,M,FG,M,M,M,M,M,M,57.20,LPOV 250500Z VRB02KT 0800 FG FEW004 14/14 Q1022
LPOV,2017-09-25 06:00,-8.6459,40.9159,57.20,55.40,93.69,M,1.00,0.00,30.18,M,0.31,M,SCT,M,M,M,400.00,M,M,M,FG,M,M,M,M,M,M,57.20,LPOV 250600Z VRB01KT 0500 FG SCT004 14/13 Q1022
LPOV,2017-09-25 07:00,-8.6459,40.9159,55.40,55.40,100.00,M,2.00,0.00,30.21,M,0.12,M,VV ,M,M,M,M,M,M,M,FG,M,M,M,M,M,M,55.40,LPOV 250700Z VRB02KT 0200 FG VV/// 13/13 Q1023
LPOV,2017-09-25 08:00,-8.6459,40.9159,55.40,55.40,100.00,M,2.00,0.00,30.24,M,0.12,M,VV ,M,M,M,M,M,M,M,FG,M,M,M,M,M,M,55.40,LPOV 250800Z VRB02KT 0200 FG VV/// 13/13 Q1024
LPOV,2017-09-25 09:00,-8.6459,40.9159,60.80,60.80,100.00,M,1.00,0.00,30.24,M,3.11,M,SCT,M,M,M,400.00,M,M,M,BR,M,M,M,M,M,M,60.80,LPOV 250900Z VRB01KT 5000 BR SCT004 16/16 Q1024
LPOV,2017-09-25 10:00,-8.6459,40.9159,64.40,62.60,93.88,280.00,4.00,0.00,30.24,M,5.59,M,FEW,M,M,M,800.00,M,M,M,M,M,M,M,M,M,M,64.40,LPOV 251000Z 28004KT 260V320 9000 FEW008 18/17 Q1024
LPOV,2017-09-25 11:00,-8.6459,40.9159,64.40,60.80,88.09,280.00,5.00,0.00,30.24,M,6.21,M,FEW,M,M,M,800.00,M,M,M,M,M,M,M,M,M,M,64.40,LPOV 251100Z 28005KT 260V330 9999 FEW008 18/16 Q1024
LPOV,2017-09-25 12:00,-8.6459,40.9159,66.20,60.80,82.74,310.00,5.00,0.00,30.21,M,6.21,M,FEW,M,M,M,1400.00,M,M,M,M,M,M,M,M,M,M,66.20,LPOV 251200Z 31005KT 260V360 9999 FEW014 19/16 Q1023
LPOV,2017-09-25 13:00,-8.6459,40.9159,66.20,60.80,82.74,310.00,6.00,0.00,30.21,M,6.21,M,FEW,M,M,M,500.00,M,M,M,M,M,M,M,M,M,M,66.20,LPOV 251300Z 31006KT 260V010 9999 FEW005 19/16 Q1023
LPOV,2017-09-25 14:00,-8.6459,40.9159,64.40,60.80,88.09,310.00,6.00,0.00,30.21,M,6.21,M,FEW,M,M,M,100.00,M,M,M,M,M,M,M,M,M,M,64.40,LPOV 251400Z 31006KT 220V010 9999 FEW001 18/16 Q1023
LPOV,2017-09-25 15:00,-8.6459,40.9159,64.40,60.80,88.09,330.00,8.00,0.00,30.21,M,6.21,M,SCT,M,M,M,400.00,M,M,M,M,M,M,M,M,M,M,64.40,LPOV 251500Z 33008KT 300V010 9999 SCT004 18/16 Q1023
LPOV,2017-09-25 16:00,-8.6459,40.9159,64.40,60.80,88.09,10.00,9.00,0.00,30.18,M,6.21,M,SCT,M,M,M,400.00,M,M,M,M,M,M,M,M,M,M,64.40,LPOV 251600Z 01009KT 330V040 9999 SCT004 18/16 Q1022
LPOV,2017-09-25 17:00,-8.6459,40.9159,62.60,60.80,93.83,20.00,7.00,0.00,30.18,M,4.97,M,FEW,BKN,M,M,100.00,400.00,M,M,M,M,M,M,M,M,M,62.60,LPOV 251700Z 02007KT 8000 FEW001 BKN004 17/16 Q1022
LPOV,2017-09-25 18:00,-8.6459,40.9159,60.80,59.00,93.79,20.00,6.00,0.00,30.18,M,6.21,M,FEW,SCT,M,M,100.00,400.00,M,M,PRFG,M,M,M,M,M,M,60.80,LPOV 251800Z 02006KT 350V060 9999 1500N PRFG FEW001 SCT004 16/15 Q1022
LPOV,2017-09-25 19:00,-8.6459,40.9159,60.80,59.00,93.79,40.00,3.00,0.00,30.21,M,6.21,M,SCT,M,M,M,400.00,M,M,M,M,M,M,M,M,M,M,60.80,LPOV 251900Z 04003KT 9999 SCT004 16/15 Q1023
LPOV,2017-09-25 20:00,-8.6459,40.9159,57.20,57.20,100.00,30.00,3.00,0.00,30.18,M,3.11,M,SCT,M,M,M,400.00,M,M,M,BR,M,M,M,M,M,M,57.20,LPOV 252000Z 03003KT 5000 BR SCT004 14/14 Q1022
LPOV,2017-09-25 21:00,-8.6459,40.9159,55.40,55.40,100.00,60.00,3.00,0.00,30.21,M,2.49,M,SCT,M,M,M,400.00,M,M,M,BR,M,M,M,M,M,M,55.40,LPOV 252100Z 06003KT 4000 BR SCT004 13/13 Q1023
LPOV,2017-09-25 22:00,-8.6459,40.9159,55.40,53.60,93.65,M,2.00,0.00,30.21,M,1.86,M,FEW,M,M,M,400.00,M,M,M,BR,M,M,M,M,M,M,55.40,LPOV 252200Z VRB02KT 3000 BR FEW004 13/12 Q1023
LPOV,2017-09-25 23:00,-8.6459,40.9159,53.60,53.60,100.00,80.00,3.00,0.00,30.21,M,0.12,M,BKN,M,M,M,200.00,M,M,M,FG,M,M,M,M,M,M,53.60,LPOV 252300Z 08003KT 0200 FG BKN002 12/12 Q1023
LPOV,2017-09-26 00:00,-8.6459,40.9159,55.40,53.60,93.65,90.00,3.00,0.00,30.21,M,0.56,M,BKN,M,M,M,200.00,M,M,M,FG,M,M,M,M,M,M,55.40,LPOV 260000Z 09003KT 0900 FG BKN002 13/12 Q1023
LPOV,2017-09-26 01:00,-8.6459,40.9159,57.20,55.40,93.69,50.00,3.00,0.00,30.21,M,0.56,M,BKN,M,M,M,300.00,M,M,M,FG,M,M,M,M,M,M,57.20,LPOV 260100Z 05003KT 0900 FG BKN003 14/13 Q1023
LPOV,2017-09-26 02:00,-8.6459,40.9159,59.00,59.00,100.00,40.00,3.00,0.00,30.18,M,1.55,M,FEW,BKN,M,M,200.00,500.00,M,M,BR,M,M,M,M,M,M,59.00,LPOV 260200Z 04003KT 2500 BR FEW002 BKN005 15/15 Q1022
LPOV,2017-09-26 03:00,-8.6459,40.9159,59.00,59.00,100.00,30.00,3.00,0.00,30.18,M,3.73,M,FEW,BKN,M,M,200.00,500.00,M,M,M,M,M,M,M,M,M,59.00,LPOV 260300Z 03003KT 6000 FEW002 BKN005 15/15 Q1022
LPOV,2017-09-26 04:00,-8.6459,40.9159,59.00,57.20,93.74,60.00,4.00,0.00,30.15,M,4.35,M,SCT,BKN,M,M,200.00,500.00,M,M,M,M,M,M,M,M,M,59.00,LPOV 260400Z 06004KT 7000 SCT002 BKN005 15/14 Q1021
LPOV,2017-09-26 05:00,-8.6459,40.9159,57.20,57.20,100.00,80.00,5.00,0.00,30.15,M,3.11,M,FEW,BKN,M,M,200.00,500.00,M,M,BR,M,M,M,M,M,M,57.20,LPOV 260500Z 08005KT 5000 BR FEW002 BKN005 14/14 Q1021
LPOV,2017-09-26 06:00,-8.6459,40.9159,55.40,55.40,100.00,110.00,3.00,0.00,30.15,M,1.24,M,SCT,BKN,M,M,200.00,500.00,M,M,BR,M,M,M,M,M,M,55.40,LPOV 260600Z 11003KT 2000 BR SCT002 BKN005 13/13 Q1021
LPOV,2017-09-26 07:00,-8.6459,40.9159,55.40,55.40,100.00,100.00,4.00,0.00,30.15,M,0.56,M,OVC,M,M,M,200.00,M,M,M,FG,M,M,M,M,M,M,55.40,LPOV 260700Z 10004KT 0900 FG OVC002 13/13 Q1021
LPOV,2017-09-26 08:00,-8.6459,40.9159,53.60,53.60,100.00,120.00,3.00,0.00,30.15,M,0.12,M,VV ,M,M,M,M,M,M,M,FG,M,M,M,M,M,M,53.60,LPOV 260800Z 12003KT 080V170 0200 FG VV/// 12/12 Q1021
LPOV,2017-09-26 09:00,-8.6459,40.9159,55.40,55.40,100.00,140.00,3.00,0.00,30.15,M,0.19,M,VV ,M,M,M,M,M,M,M,FG,M,M,M,M,M,M,55.40,LPOV 260900Z 14003KT 090V180 0300 FG VV/// 13/13 Q1021
LPOV,2017-09-26 10:00,-8.6459,40.9159,57.20,57.20,100.00,M,2.00,0.00,30.15,M,1.86,M,FEW,BKN,M,M,200.00,400.00,M,M,BR,M,M,M,M,M,M,57.20,LPOV 261000Z VRB02KT 3000 BR FEW002 BKN004 14/14 Q1021
LPOV,2017-09-26 11:00,-8.6459,40.9159,59.00,59.00,100.00,M,2.00,0.00,30.15,M,6.21,M,FEW,M,M,M,400.00,M,M,M,M,M,M,M,M,M,M,59.00,LPOV 261100Z VRB02KT 9999 FEW004 15/15 Q1021
LPOV,2017-09-26 12:00,-8.6459,40.9159,62.60,57.20,82.50,280.00,6.00,0.00,30.15,M,6.21,M,FEW,M,M,M,400.00,M,M,M,M,M,M,M,M,M,M,62.60,LPOV 261200Z 28006KT 250V330 9999 FEW004 17/14 Q1021
LPOV,2017-09-26 13:00,-8.6459,40.9159,62.60,57.20,82.50,300.00,4.00,0.00,30.12,M,6.21,M,FEW,M,M,M,100.00,M,M,M,PRFG,M,M,M,M,M,M,62.60,LPOV 261300Z 30004KT 230V010 9999 1500N PRFG FEW001 17/14 Q1020
LPOV,2017-09-26 14:00,-8.6459,40.9159,60.80,57.20,87.92,340.00,5.00,0.00,30.12,M,6.21,M,FEW,M,M,M,100.00,M,M,M,PRFG,M,M,M,M,M,M,60.80,LPOV 261400Z 34005KT 290V020 9999 1500NW PRFG FEW001 16/14 Q1020
LPOV,2017-09-26 15:00,-8.6459,40.9159,62.60,57.20,82.50,360.00,5.00,0.00,30.12,M,6.21,M,FEW,M,M,M,200.00,M,M,M,M,M,M,M,M,M,M,62.60,LPOV 261500Z 36005KT 310V040 9999 FEW002 17/14 Q1020
LPOV,2017-09-26 16:00,-8.6459,40.9159,64.40,57.20,77.45,10.00,5.00,0.00,30.09,M,6.21,M,FEW,M,M,M,200.00,M,M,M,M,M,M,M,M,M,M,64.40,LPOV 261600Z 01005KT 330V040 9999 FEW002 18/14 Q1019
LPOV,2017-09-26 17:00,-8.6459,40.9159,62.60,57.20,82.50,350.00,6.00,0.00,30.09,M,6.21,M,FEW,M,M,M,100.00,M,M,M,M,M,M,M,M,M,M,62.60,LPOV 261700Z 35006KT 9999 FEW001 17/14 Q1019
LPOV,2017-09-26 18:00,-8.6459,40.9159,59.00,55.40,87.83,360.00,4.00,0.00,30.09,M,6.21,M,FEW,M,M,M,100.00,M,M,M,M,M,M,M,M,M,M,59.00,LPOV 261800Z 36004KT 9999 FEW001 15/13 Q1019
LPOV,2017-09-26 19:00,-8.6459,40.9159,55.40,53.60,93.65,60.00,3.00,0.00,30.09,M,6.21,M,FEW,M,M,M,100.00,M,M,M,M,M,M,M,M,M,M,55.40,LPOV 261900Z 06003KT 9999 FEW001 13/12 Q1019
LPOV,2017-09-26 20:00,-8.6459,40.9159,55.40,53.60,93.65,80.00,3.00,0.00,30.12,M,6.21,M,FEW,M,M,M,100.00,M,M,M,M,M,M,M,M,M,M,55.40,LPOV 262000Z 08003KT 9999 FEW001 13/12 Q1020
LPOV,2017-09-26 21:00,-8.6459,40.9159,53.60,53.60,100.00,80.00,3.00,0.00,30.15,M,1.86,M,SCT,M,M,M,200.00,M,M,M,BR,M,M,M,M,M,M,53.60,LPOV 262100Z 08003KT 3000 BR SCT002 12/12 Q1021
LPOV,2017-09-26 22:00,-8.6459,40.9159,53.60,51.80,93.60,100.00,3.00,0.00,30.09,M,4.97,M,NSC,M,M,M,M,M,M,M,M,M,M,M,M,M,M,53.60,LPOV 262200Z 10003KT 8000 NSC 12/11 Q1019
LPOV,2017-09-26 23:00,-8.6459,40.9159,53.60,51.80,93.60,110.00,3.00,0.00,30.09,M,4.97,M,NSC,M,M,M,M,M,M,M,M,M,M,M,M,M,M,53.60,LPOV 262300Z 11003KT 8000 NSC 12/11 Q1019
LPOV,2017-09-27 00:00,-8.6459,40.9159,53.60,51.80,93.60,110.00,4.00,0.00,30.09,M,3.11,M,NSC,M,M,M,M,M,M,M,BR,M,M,M,M,M,M,53.60,LPOV 270000Z 11004KT 5000 BR NSC 12/11 Q1019
LPOV,2017-09-27 01:00,-8.6459,40.9159,51.80,51.80,100.00,100.00,3.00,0.00,30.09,M,3.73,M,FEW,M,M,M,200.00,M,M,M,M,M,M,M,M,M,M,51.80,LPOV 270100Z 10003KT 6000 FEW002 11/11 Q1019
LPOV,2017-09-27 02:00,-8.6459,40.9159,51.80,51.80,100.00,100.00,3.00,0.00,30.09,M,3.73,M,FEW,M,M,M,200.00,M,M,M,M,M,M,M,M,M,M,51.80,LPOV 270200Z 10003KT 6000 FEW002 11/11 Q1019
LPOV,2017-09-27 03:00,-8.6459,40.9159,50.00,50.00,100.00,100.00,3.00,0.00,30.09,M,6.21,M,FEW,M,M,M,600.00,M,M,M,M,M,M,M,M,M,M,49.27,LPOV 270300Z 10003KT 9999 FEW006 10/10 Q1019
LPOV,2017-09-27 04:00,-8.6459,40.9159,48.20,48.20,100.00,110.00,3.00,0.00,30.09,M,6.21,M,FEW,M,M,M,600.00,M,M,M,M,M,M,M,M,M,M,47.21,LPOV 270400Z 11003KT 9999 FEW006 09/09 Q1019
LPOV,2017-09-27 05:00,-8.6459,40.9159,48.20,48.20,100.00,90.00,4.00,0.00,30.09,M,6.21,M,FEW,M,M,M,600.00,M,M,M,M,M,M,M,M,M,M,46.34,LPOV 270500Z 09004KT 9999 FEW006 09/09 Q1019
LPOV,2017-09-27 06:00,-8.6459,40.9159,46.40,46.40,100.00,150.00,4.00,0.00,30.06,M,3.73,M,FEW,M,M,M,2500.00,M,M,M,M,M,M,M,M,M,M,44.24,LPOV 270600Z 15004KT 6000 FEW025 08/08 Q1018
LPOV,2017-09-27 07:00,-8.6459,40.9159,50.00,50.00,100.00,100.00,3.00,0.00,30.09,M,4.97,M,FEW,M,M,M,2500.00,M,M,M,M,M,M,M,M,M,M,49.27,LPOV 270700Z 10003KT 8000 FEW025 10/10 Q1019
LPOV,2017-09-27 08:00,-8.6459,40.9159,53.60,53.60,100.00,150.00,3.00,0.00,30.09,M,5.59,M,FEW,M,M,M,2500.00,M,M,M,M,M,M,M,M,M,M,53.60,LPOV 270800Z 15003KT 9000 FEW025 12/12 Q1019
LPOV,2017-09-27 09:00,-8.6459,40.9159,60.80,53.60,77.14,140.00,3.00,0.00,30.09,M,6.21,M,FEW,M,M,M,2500.00,M,M,M,M,M,M,M,M,M,M,60.80,LPOV 270900Z 14003KT 090V200 9999 FEW025 16/12 Q1019
LPOV,2017-09-27 10:00,-8.6459,40.9159,66.20,59.00,77.60,M,2.00,0.00,30.09,M,6.21,M,FEW,M,M,M,3000.00,M,M,M,M,M,M,M,M,M,M,66.20,LPOV 271000Z VRB02KT 9999 FEW030 19/15 Q1019
LPOV,2017-09-27 11:00,-8.6459,40.9159,68.00,57.20,68.35,290.00,3.00,0.00,30.09,M,6.21,M,FEW,M,M,M,3000.00,M,M,M,M,M,M,M,M,M,M,68.00,LPOV 271100Z 29003KT 210V310 9999 FEW030 20/14 Q1019
LPOV,2017-09-27 12:00,-8.6459,40.9159,66.20,57.20,72.74,300.00,5.00,0.00,30.09,M,6.21,M,FEW,M,M,M,3000.00,M,M,M,M,M,M,M,M,M,M,66.20,LPOV 271200Z 30005KT 250V360 9999 FEW030 19/14 Q1019
LPOV,2017-09-27 13:00,-8.6459,40.9159,68.00,57.20,68.35,320.00,4.00,0.00,30.09,M,6.21,M,FEW,M,M,M,3500.00,M,M,M,M,M,M,M,M,M,M,68.00,LPOV 271300Z 32004KT 230V030 9999 FEW035 20/14 Q1019
LPOV,2017-09-27 14:00,-8.6459,40.9159,68.00,57.20,68.35,320.00,4.00,0.00,30.09,M,6.21,M,FEW,M,M,M,3500.00,M,M,M,M,M,M,M,M,M,M,68.00,LPOV 271400Z 32004KT 9999 FEW035 20/14 Q1019
LPOV,2017-09-27 15:00,-8.6459,40.9159,69.80,57.20,64.26,310.00,3.00,0.00,30.09,M,6.21,M,FEW,M,M,M,3500.00,M,M,M,M,M,M,M,M,M,M,69.80,LPOV 271500Z 31003KT 9999 FEW035 21/14 Q1019
LPOV,2017-09-27 16:00,-8.6459,40.9159,69.80,60.80,73.09,340.00,4.00,0.00,30.09,M,6.21,M,M,M,M,M,M,M,M,M,M,M,M,M,M,M,M,69.80,LPOV 271600Z 34004KT 280V040 CAVOK 21/16 Q1019
LPOV,2017-09-27 17:00,-8.6459,40.9159,68.00,64.40,88.26,10.00,3.00,0.00,30.09,M,6.21,M,FEW,M,M,M,1000.00,M,M,M,M,M,M,M,M,M,M,68.00,LPOV 271700Z 01003KT 290V060 9999 FEW010 20/18 Q1019
LPOV,2017-09-27 18:00,-8.6459,40.9159,66.20,62.60,88.18,20.00,4.00,0.00,30.09,M,6.21,M,FEW,M,M,M,1000.00,M,M,M,M,M,M,M,M,M,M,66.20,LPOV 271800Z 02004KT 9999 FEW010 19/17 Q1019
LPOV,2017-09-27 19:00,-8.6459,40.9159,62.60,60.80,93.83,M,2.00,0.00,30.12,M,6.21,M,FEW,M,M,M,800.00,M,M,M,M,M,M,M,M,M,M,62.60,LPOV 271900Z VRB02KT 9999 FEW008 17/16 Q1020
LPOV,2017-09-27 20:00,-8.6459,40.9159,60.80,57.20,87.92,M,2.00,0.00,30.12,M,6.21,M,FEW,M,M,M,800.00,M,M,M,M,M,M,M,M,M,M,60.80,LPOV 272000Z VRB02KT 9999 FEW008 16/14 Q1020
LPOV,2017-09-27 21:00,-8.6459,40.9159,60.80,59.00,93.79,70.00,3.00,0.00,30.15,M,6.21,M,FEW,M,M,M,500.00,M,M,M,M,M,M,M,M,M,M,60.80,LPOV 272100Z 07003KT 9999 FEW005 16/15 Q1021
LPOV,2017-09-27 22:00,-8.6459,40.9159,59.00,57.20,93.74,110.00,3.00,0.00,30.15,M,6.21,M,FEW,M,M,M,500.00,M,M,M,M,M,M,M,M,M,M,59.00,LPOV 272200Z 11003KT 9999 FEW005 15/14 Q1021
LPOV,2017-09-27 23:00,-8.6459,40.9159,60.80,59.00,93.79,M,2.00,0.00,30.18,M,0.31,M,BKN,M,M,M,300.00,M,M,M,FG,M,M,M,M,M,M,60.80,LPOV 272300Z VRB02KT 0500 FG BKN003 16/15 Q1022
LPOV,2017-09-28 00:00,-8.6459,40.9159,60.80,60.80,100.00,60.00,3.00,0.00,30.15,M,0.06,M,BKN,M,M,M,200.00,M,M,M,FG,M,M,M,M,M,M,60.80,LPOV 280000Z 06003KT 0100 FG BKN002 16/16 Q1021
LPOV,2017-09-28 01:00,-8.6459,40.9159,60.80,60.80,100.00,80.00,5.00,0.00,30.15,M,0.06,M,OVC,M,M,M,200.00,M,M,M,FG,M,M,M,M,M,M,60.80,LPOV 280100Z 08005KT 0100 FG OVC002 16/16 Q1021
LPOV,2017-09-28 02:00,-8.6459,40.9159,60.80,60.80,100.00,M,2.00,0.00,30.15,M,0.06,M,OVC,M,M,M,200.00,M,M,M,FG,M,M,M,M,M,M,60.80,LPOV 280200Z VRB02KT 0100 FG OVC002 16/16 Q1021
LPOV,2017-09-28 03:00,-8.6459,40.9159,60.80,60.80,100.00,M,1.00,0.00,30.12,M,0.06,M,OVC,M,M,M,200.00,M,M,M,FG,M,M,M,M,M,M,60.80,LPOV 280300Z VRB01KT 0100 FG OVC002 16/16 Q1020
LPOV,2017-09-28 04:00,-8.6459,40.9159,60.80,60.80,100.00,M,2.00,0.00,30.12,M,0.06,M,OVC,M,M,M,200.00,M,M,M,FG,M,M,M,M,M,M,60.80,LPOV 280400Z VRB02KT 0100 FG OVC002 16/16 Q1020
LPOV,2017-09-28 05:00,-8.6459,40.9159,59.00,59.00,100.00,350.00,3.00,0.00,30.15,M,0.06,M,OVC,M,M,M,200.00,M,M,M,FG,M,M,M,M,M,M,59.00,LPOV 280500Z 35003KT 0100 FG OVC002 15/15 Q1021
LPOV,2017-09-28 06:00,-8.6459,40.9159,59.00,59.00,100.00,90.00,4.00,0.00,30.15,M,0.06,M,OVC,M,M,M,200.00,M,M,M,FG,M,M,M,M,M,M,59.00,LPOV 280600Z 09004KT 0100 FG OVC002 15/15 Q1021
LPOV,2017-09-28 07:00,-8.6459,40.9159,59.00,59.00,100.00,M,2.00,0.00,30.15,M,0.06,M,OVC,M,M,M,200.00,M,M,M,FG,M,M,M,M,M,M,59.00,LPOV 280700Z VRB02KT 0100 FG OVC002 15/15 Q1021
LPOV,2017-09-28 08:00,-8.6459,40.9159,59.00,59.00,100.00,M,1.00,0.00,30.18,M,0.06,M,OVC,M,M,M,200.00,M,M,M,FG,M,M,M,M,M,M,59.00,LPOV 280800Z VRB01KT 0100 FG OVC002 15/15 Q1022
LPOV,2017-09-28 09:00,-8.6459,40.9159,60.80,60.80,100.00,160.00,4.00,0.00,30.18,M,0.12,M,OVC,M,M,M,200.00,M,M,M,FG,M,M,M,M,M,M,60.80,LPOV 280900Z 16004KT 0200 FG OVC002 16/16 Q1022
LPOV,2017-09-28 10:00,-8.6459,40.9159,62.60,60.80,93.83,140.00,3.00,0.00,30.18,M,0.37,M,OVC,M,M,M,300.00,M,M,M,FG,M,M,M,M,M,M,62.60,LPOV 281000Z 14003KT 0600 FG OVC003 17/16 Q1022
LPOV,2017-09-28 11:00,-8.6459,40.9159,64.40,62.60,93.88,150.00,5.00,0.00,30.18,M,4.97,M,SCT,M,M,M,500.00,M,M,M,M,M,M,M,M,M,M,64.40,LPOV 281100Z 15005KT 8000 SCT005 18/17 Q1022
LPOV,2017-09-28 12:00,-8.6459,40.9159,68.00,62.60,82.86,290.00,5.00,0.00,30.18,M,6.21,M,FEW,M,M,M,100.00,M,M,M,PRFG,M,M,M,M,M,M,68.00,LPOV 281200Z 29005KT 250V330 9999 0900N PRFG FEW001 20/17 Q1022
LPOV,2017-09-28 13:00,-8.6459,40.9159,66.20,60.80,82.74,310.00,6.00,0.00,30.18,M,6.21,M,FEW,M,M,M,100.00,M,M,M,PRFG,M,M,M,M,M,M,66.20,LPOV 281300Z 31006KT 9999 1500N PRFG FEW001 19/16 Q1022
LPOV,2017-09-28 14:00,-8.6459,40.9159,66.20,60.80,82.74,360.00,5.00,0.00,30.15,M,6.21,M,FEW,M,M,M,500.00,M,M,M,M,M,M,M,M,M,M,66.20,LPOV 281400Z 36005KT 9999 FEW005 19/16 Q1021
LPOV,2017-09-28 15:00,-8.6459,40.9159,66.20,60.80,82.74,340.00,6.00,0.00,30.15,M,6.21,M,FEW,M,M,M,500.00,M,M,M,M,M,M,M,M,M,M,66.20,LPOV 281500Z 34006KT 300V030 9999 FEW005 19/16 Q1021
LPOV,2017-09-28 16:00,-8.6459,40.9159,66.20,60.80,82.74,330.00,3.00,0.00,30.15,M,6.21,M,FEW,M,M,M,500.00,M,M,M,M,M,M,M,M,M,M,66.20,LPOV 281600Z 330003KT 270V010 9999 FEW005 19/16 Q1021
LPOV,2017-09-28 17:00,-8.6459,40.9159,69.80,59.00,68.55,M,2.00,0.00,30.15,M,6.21,M,FEW,M,M,M,500.00,M,M,M,M,M,M,M,M,M,M,69.80,LPOV 281700Z VRB02KT 9999 FEW005 21/15 Q1021
LPOV,2017-09-28 18:00,-8.6459,40.9159,62.60,59.00,88.00,330.00,3.00,0.00,30.15,M,6.21,M,FEW,SCT,M,M,100.00,500.00,M,M,PRFG,M,M,M,M,M,M,62.60,LPOV 281800Z 33003KT 9999 0800NW PRFG FEW001 SCT005 17/15 Q1021
LPOV,2017-09-28 19:00,-8.6459,40.9159,59.00,57.20,93.74,20.00,3.00,0.00,30.18,M,0.25,M,BKN,M,M,M,300.00,M,M,M,FG,M,M,M,M,M,M,59.00,LPOV 281900Z 02003KT 0400 FG BKN003 15/14 Q1022
LPOV,2017-09-28 20:00,-8.6459,40.9159,59.00,57.20,93.74,M,2.00,0.00,30.18,M,0.25,M,OVC,M,M,M,300.00,M,M,M,FG,M,M,M,M,M,M,59.00,LPOV 282000Z VRB02KT 0400 FG OVC003 15/14 Q1022
LPOV,2017-09-28 21:00,-8.6459,40.9159,57.20,57.20,100.00,M,2.00,0.00,30.18,M,0.12,M,OVC,M,M,M,300.00,M,M,M,FG,M,M,M,M,M,M,57.20,LPOV 282100Z VRB02KT 0200 FG OVC003 14/14 Q1022
LPOV,2017-09-28 22:00,-8.6459,40.9159,57.20,57.20,100.00,M,2.00,0.00,30.18,M,0.12,M,OVC,M,M,M,300.00,M,M,M,FG,M,M,M,M,M,M,57.20,LPOV 282200Z VRB02KT 0200 FG OVC003 14/14 Q1022
LPOV,2017-09-28 23:00,-8.6459,40.9159,57.20,57.20,100.00,M,2.00,0.00,30.18,M,0.06,M,OVC,M,M,M,300.00,M,M,M,FG,M,M,M,M,M,M,57.20,LPOV 282300Z VRB02KT 0100 FG OVC003 14/14 Q1022
LPOV,2017-09-29 00:00,-8.6459,40.9159,55.40,55.40,100.00,M,1.00,0.00,30.18,M,0.06,M,OVC,M,M,M,300.00,M,M,M,FG,M,M,M,M,M,M,55.40,LPOV 290000Z VRB01KT 0100 FG OVC003 13/13 Q1022
LPOV,2017-09-29 01:00,-8.6459,40.9159,55.40,55.40,100.00,M,2.00,0.00,30.18,M,1.86,M,SCT,M,M,M,300.00,M,M,M,BR,M,M,M,M,M,M,55.40,LPOV 290100Z VRB02KT 3000 BR SCT003 13/13 Q1022
LPOV,2017-09-29 02:00,-8.6459,40.9159,53.60,51.80,93.60,M,2.00,0.00,30.18,M,3.73,M,FEW,M,M,M,300.00,M,M,M,M,M,M,M,M,M,M,53.60,LPOV 290200Z VRB02KT 6000 FEW003 12/11 Q1022
LPOV,2017-09-29 03:00,-8.6459,40.9159,53.60,53.60,100.00,90.00,4.00,0.00,30.15,M,1.24,M,SCT,M,M,M,300.00,M,M,M,BR,M,M,M,M,M,M,53.60,LPOV 290300Z 09004KT 2000 BR SCT003 12/12 Q1021
LPOV,2017-09-29 04:00,-8.6459,40.9159,51.80,51.80,100.00,80.00,2.00,0.00,30.15,M,3.11,M,SCT,M,M,M,300.00,M,M,M,BR,M,M,M,M,M,M,51.80,LPOV 290400Z 08002KT 5000 BR SCT003 11/11 Q1021
LPOV,2017-09-29 05:00,-8.6459,40.9159,51.80,51.80,100.00,80.00,4.00,0.00,30.18,M,0.93,M,BKN,M,M,M,300.00,M,M,M,BR,M,M,M,M,M,M,51.80,LPOV 290500Z 08004KT 1500 BR BKN003 11/11 Q1022
LPOV,2017-09-29 06:00,-8.6459,40.9159,51.80,51.80,100.00,M,2.00,0.00,30.18,M,0.50,M,BKN,M,M,M,300.00,M,M,M,FG,M,M,M,M,M,M,51.80,LPOV 290600Z VRB02KT 0800 FG BKN003 11/11 Q1022
LPOV,2017-09-29 07:00,-8.6459,40.9159,50.00,50.00,100.00,M,2.00,0.00,30.18,M,0.50,M,SCT,M,M,M,300.00,M,M,M,FG,M,M,M,M,M,M,50.00,LPOV 290700Z VRB02KT 0800 FG SCT003 10/10 Q1022
LPOV,2017-09-29 08:00,-8.6459,40.9159,53.60,51.80,93.60,M,1.00,0.00,30.21,M,2.49,M,FEW,M,M,M,300.00,M,M,M,BR,M,M,M,M,M,M,53.60,LPOV 290800Z VRB01KT 4000 BR FEW003 12/11 Q1023
LPOV,2017-09-29 09:00,-8.6459,40.9159,57.20,55.40,93.69,360.00,3.00,0.00,30.21,M,3.73,M,FEW,M,M,M,300.00,M,M,M,M,M,M,M,M,M,M,57.20,LPOV 290900Z 36003KT 6000 FEW003 14/13 Q1023
LPOV,2017-09-29 10:00,-8.6459,40.9159,60.80,59.00,93.79,M,2.00,0.00,30.21,M,5.59,M,FEW,M,M,M,300.00,M,M,M,M,M,M,M,M,M,M,60.80,LPOV 291000Z VRB02KT 9000 FEW003 16/15 Q1023
LPOV,2017-09-29 11:00,-8.6459,40.9159,66.20,57.20,72.74,M,2.00,0.00,30.18,M,6.21,M,FEW,M,M,M,300.00,M,M,M,M,M,M,M,M,M,M,66.20,LPOV 291100Z VRB02KT 9999 FEW003 19/14 Q1022
LPOV,2017-09-29 12:00,-8.6459,40.9159,64.40,59.00,82.62,290.00,6.00,0.00,30.18,M,6.21,M,FEW,M,M,M,300.00,M,M,M,M,M,M,M,M,M,M,64.40,LPOV 291200Z 29006KT 9999 FEW003 18/15 Q1022
LPOV,2017-09-29 13:00,-8.6459,40.9159,66.20,59.00,77.60,340.00,5.00,0.00,30.18,M,6.21,M,FEW,M,M,M,300.00,M,M,M,M,M,M,M,M,M,M,66.20,LPOV 291300Z 34005KT 9999 FEW003 19/15 Q1022
LPOV,2017-09-29 14:00,-8.6459,40.9159,69.80,60.80,73.09,330.00,5.00,0.00,30.15,M,6.21,M,FEW,M,M,M,4000.00,M,M,M,M,M,M,M,M,M,M,69.80,LPOV 291400Z 33005KT 9999 FEW040 21/16 Q1021
LPOV,2017-09-29 15:00,-8.6459,40.9159,71.60,60.80,68.75,340.00,4.00,0.00,30.15,M,6.21,M,FEW,M,M,M,3500.00,M,M,M,M,M,M,M,M,M,M,71.60,LPOV 291500Z 34004KT 9999 FEW035 22/16 Q1021
LPOV,2017-09-29 16:00,-8.6459,40.9159,66.20,62.60,88.18,360.00,7.00,0.00,30.18,M,4.97,M,BKN,M,M,M,500.00,M,M,M,M,M,M,M,M,M,M,66.20,LPOV 291600Z 36007KT 8000 BKN005 19/17 Q1022
LPOV,2017-09-29 17:00,-8.6459,40.9159,64.40,60.80,88.09,360.00,7.00,0.00,30.18,M,0.93,M,SCT,BKN,M,M,100.00,500.00,M,M,BR,M,M,M,M,M,M,64.40,LPOV 291700Z 36007KT 1500 BR SCT001 BKN005 18/16 Q1022
LPOV,2017-09-29 18:00,-8.6459,40.9159,64.40,60.80,88.09,360.00,6.00,0.00,30.18,M,0.75,M,BKN,BKN,M,M,100.00,500.00,M,M,BR,M,M,M,M,M,M,64.40,LPOV 291800Z 36006KT 1200 BR BKN001 BKN005 18/16 Q1022
LPOV,2017-09-29 19:00,-8.6459,40.9159,62.60,60.80,93.83,60.00,4.00,0.00,30.18,M,0.50,M,SCT,BKN,M,M,100.00,500.00,M,M,FG,M,M,M,M,M,M,62.60,LPOV 291900Z 06004KT 0800 FG SCT001 BKN005 17/16 Q1022
LPOV,2017-09-29 20:00,-8.6459,40.9159,62.60,60.80,93.83,360.00,4.00,0.00,30.18,M,0.50,M,SCT,BKN,M,M,100.00,500.00,M,M,FG,M,M,M,M,M,M,62.60,LPOV 292000Z 36004KT 0800 FG SCT001 BKN005 17/16 Q1022
LPOV,2017-09-29 21:00,-8.6459,40.9159,62.60,60.80,93.83,360.00,6.00,0.00,30.18,M,0.50,M,SCT,BKN,M,M,100.00,500.00,M,M,FG,M,M,M,M,M,M,62.60,LPOV 292100Z 36006KT 0800 FG SCT001 BKN005 17/16 Q1022
LPOV,2017-09-29 23:00,-8.6459,40.9159,60.80,59.00,93.79,30.00,4.00,0.00,30.21,M,0.93,M,BKN,M,M,M,500.00,M,M,M,BR,M,M,M,M,M,M,60.80,LPOV 292300Z 03004KT 1500 BR BKN005 16/15 Q1023
LPOV,2017-09-30 00:00,-8.6459,40.9159,59.00,59.00,100.00,330.00,5.00,0.00,30.18,M,0.93,M,BKN,M,M,M,500.00,M,M,M,BR,M,M,M,M,M,M,59.00,LPOV 300000Z 33005KT 1500 BR BKN005 15/15 Q1022
LPOV,2017-09-30 02:00,-8.6459,40.9159,59.00,59.00,100.00,360.00,4.00,0.00,30.18,M,0.93,M,BKN,M,M,M,500.00,M,M,M,BR,M,M,M,M,M,M,59.00,LPOV 300200Z 36004KT 1500 BR BKN005 15/15 Q1022
LPOV,2017-09-30 03:00,-8.6459,40.9159,60.80,59.00,93.79,350.00,4.00,0.00,30.18,M,0.93,M,BKN,M,M,M,500.00,M,M,M,BR,M,M,M,M,M,M,60.80,LPOV 300300Z 35004KT 1500 BR BKN005 16/15 Q1022
LPOV,2017-09-30 04:00,-8.6459,40.9159,60.80,59.00,93.79,350.00,6.00,0.00,30.18,M,0.93,M,BKN,M,M,M,500.00,M,M,M,BR,M,M,M,M,M,M,60.80,LPOV 300400Z 35006KT 1500 BR BKN005 16/15 Q1022
LPOV,2017-09-30 05:00,-8.6459,40.9159,59.00,59.00,100.00,10.00,7.00,0.00,30.18,M,3.11,M,BKN,M,M,M,500.00,M,M,M,BR,M,M,M,M,M,M,59.00,LPOV 300500Z 01007KT 5000 BR BKN005 15/15 Q1022
LPOV,2017-09-30 06:00,-8.6459,40.9159,59.00,57.20,93.74,20.00,3.00,0.00,30.18,M,6.21,M,SCT,M,M,M,500.00,M,M,M,M,M,M,M,M,M,M,59.00,LPOV 300600Z 02003KT 9999 SCT005 15/14 Q1022
LPOV,2017-09-30 07:00,-8.6459,40.9159,59.00,57.20,93.74,20.00,5.00,0.00,30.18,M,4.97,M,FEW,M,M,M,500.00,M,M,M,M,M,M,M,M,M,M,59.00,LPOV 300700Z 02005KT 8000 FEW005 15/14 Q1022
LPOV,2017-09-30 08:00,-8.6459,40.9159,59.00,57.20,93.74,10.00,4.00,0.00,30.21,M,5.59,M,FEW,M,M,M,500.00,M,M,M,M,M,M,M,M,M,M,59.00,LPOV 300800Z 01004KT 9000 FEW005 15/14 Q1023
LPOV,2017-09-30 09:00,-8.6459,40.9159,62.60,59.00,88.00,10.00,7.00,0.00,30.21,M,5.59,M,SCT,M,M,M,600.00,M,M,M,M,M,M,M,M,M,M,62.60,LPOV 300900Z 01007KT 330V050 9000 SCT006 17/15 Q1023
LPOV,2017-09-30 10:00,-8.6459,40.9159,64.40,59.00,82.62,350.00,5.00,0.00,30.21,M,5.59,M,FEW,SCT,M,M,600.00,1200.00,M,M,M,M,M,M,M,M,M,64.40,LPOV 301000Z 35005KT 320V050 9000 FEW006 SCT012 18/15 Q1023
LPOV,2017-09-30 11:00,-8.6459,40.9159,66.20,57.20,72.74,350.00,8.00,0.00,30.21,M,6.21,M,FEW,M,M,M,1300.00,M,M,M,M,M,M,M,M,M,M,66.20,LPOV 301100Z 35008KT 310V030 9999 FEW013 19/14 Q1023
LPOV,2017-09-30 12:00,-8.6459,40.9159,66.20,55.40,68.15,360.00,12.00,0.00,30.21,M,6.21,M,FEW,M,M,M,1500.00,M,M,M,M,M,M,M,M,M,M,66.20,LPOV 301200Z 36012KT 330V030 9999 FEW015 19/13 Q1023
LPOV,2017-09-30 13:00,-8.6459,40.9159,68.00,53.60,59.97,10.00,14.00,0.00,30.18,M,6.21,M,M,M,M,M,M,M,M,M,M,M,M,M,M,M,M,68.00,LPOV 301300Z 01014KT CAVOK 20/12 Q1022
LPOV,2017-09-30 14:00,-8.6459,40.9159,66.20,53.60,63.82,360.00,13.00,0.00,30.18,M,6.21,24.00,M,M,M,M,M,M,M,M,M,M,M,M,M,M,M,66.20,LPOV 301400Z 36013G24KT CAVOK 19/12 Q1022
LPOV,2017-09-30 15:00,-8.6459,40.9159,66.20,55.40,68.15,350.00,12.00,0.00,30.18,M,6.21,M,M,M,M,M,M,M,M,M,M,M,M,M,M,M,M,66.20,LPOV 301500Z 35012KT 320V030 CAVOK 19/13 Q1022
LPOV,2017-09-30 16:00,-8.6459,40.9159,66.20,55.40,68.15,360.00,14.00,0.00,30.15,M,6.21,M,M,M,M,M,M,M,M,M,M,M,M,M,M,M,M,66.20,LPOV 301600Z 36014KT 330V030 CAVOK 19/13 Q1021
LPOV,2017-09-30 17:00,-8.6459,40.9159,62.60,55.40,77.29,360.00,12.00,0.00,30.18,M,6.21,M,M,M,M,M,M,M,M,M,M,M,M,M,M,M,M,62.60,LPOV 301700Z 36012KT 320V020 CAVOK 17/13 Q1022
LPOV,2017-09-30 18:00,-8.6459,40.9159,60.80,55.40,82.37,10.00,13.00,0.00,30.18,M,6.21,M,M,M,M,M,M,M,M,M,M,M,M,M,M,M,M,60.80,LPOV 301800Z 01013KT CAVOK 16/13 Q1022
LPOV,2017-09-30 19:00,-8.6459,40.9159,60.80,55.40,82.37,10.00,9.00,0.00,30.18,M,6.21,M,M,M,M,M,M,M,M,M,M,M,M,M,M,M,M,60.80,LPOV 301900Z 01009KT 330V050 CAVOK 16/13 Q1022
LPOV,2017-09-30 20:00,-8.6459,40.9159,60.80,55.40,82.37,350.00,10.00,0.00,30.21,M,6.21,M,M,M,M,M,M,M,M,M,M,M,M,M,M,M,M,60.80,LPOV 302000Z 35010KT CAVOK 16/13 Q1023
LPOV,2017-09-30 21:00,-8.6459,40.9159,60.80,55.40,82.37,30.00,3.00,0.00,30.21,M,6.21,M,M,M,M,M,M,M,M,M,M,M,M,M,M,M,M,60.80,LPOV 302100Z 03003KT CAVOK 16/13 Q1023
LPOV,2017-09-30 22:00,-8.6459,40.9159,59.00,55.40,87.83,50.00,4.00,0.00,30.21,M,6.21,M,M,M,M,M,M,M,M,M,M,M,M,M,M,M,M,59.00,LPOV 302200Z 05004KT CAVOK 15/13 Q1023
LPOV,2017-09-30 23:00,-8.6459,40.9159,59.00,55.40,87.83,10.00,4.00,0.00,30.21,M,6.21,M,M,M,M,M,M,M,M,M,M,M,M,M,M,M,M,59.00,LPOV 302300Z 01004KT CAVOK 15/13 Q1023
LPOV,2017-10-01 00:00,-8.6459,40.9159,57.20,53.60,87.74,40.00,3.00,0.00,30.21,M,6.21,M,M,M,M,M,M,M,M,M,M,M,M,M,M,M,M,57.20,LPOV 010000Z 04003KT 360V070 CAVOK 14/12 Q1023
LPOV,2017-10-01 01:00,-8.6459,40.9159,60.80,57.20,87.92,360.00,8.00,0.00,30.18,M,6.21,M,M,M,M,M,M,M,M,M,M,M,M,M,M,M,M,60.80,LPOV 010100Z 36008KT 340V050 CAVOK 16/14 Q1022
LPOV,2017-10-01 02:00,-8.6459,40.9159,59.00,57.20,93.74,20.00,8.00,0.00,30.18,M,6.21,M,M,M,M,M,M,M,M,M,M,M,M,M,M,M,M,59.00,LPOV 010200Z 02008KT 350V060 CAVOK 15/14 Q1022
LPOV,2017-10-01 03:00,-8.6459,40.9159,59.00,55.40,87.83,M,1.00,0.00,30.18,M,6.21,M,M,M,M,M,M,M,M,M,M,M,M,M,M,M,M,59.00,LPOV 010300Z VRB01KT CAVOK 15/13 Q1022
LPOV,2017-10-01 04:00,-8.6459,40.9159,59.00,55.40,87.83,M,2.00,0.00,30.18,M,6.21,M,M,M,M,M,M,M,M,M,M,M,M,M,M,M,M,59.00,LPOV 010400Z VRB02KT CAVOK 15/13 Q1022
LPOV,2017-10-01 05:00,-8.6459,40.9159,55.40,53.60,93.65,360.00,3.00,0.00,30.18,M,6.21,M,M,M,M,M,M,M,M,M,M,M,M,M,M,M,M,55.40,LPOV 010500Z 36003KT CAVOK 13/12 Q1022
LPOV,2017-10-01 06:00,-8.6459,40.9159,57.20,55.40,93.69,360.00,8.00,0.00,30.18,M,6.21,M,M,M,M,M,M,M,M,M,M,M,M,M,M,M,M,57.20,LPOV 010600Z 36008KT CAVOK 14/13 Q1022
LPOV,2017-10-01 07:00,-8.6459,40.9159,57.20,53.60,87.74,M,2.00,0.00,30.18,M,6.21,M,M,M,M,M,M,M,M,M,M,M,M,M,M,M,M,57.20,LPOV 010700Z VRB02KT CAVOK 14/12 Q1022
LPOV,2017-10-01 08:00,-8.6459,40.9159,62.60,55.40,77.29,40.00,5.00,0.00,30.18,M,6.21,M,M,M,M,M,M,M,M,M,M,M,M,M,M,M,M,62.60,LPOV 010800Z 04005KT CAVOK 17/13 Q1022
LPOV,2017-10-01 09:00,-8.6459,40.9159,66.20,57.20,72.74,10.00,5.00,0.00,30.21,M,6.21,M,M,M,M,M,M,M,M,M,M,M,M,M,M,M,M,66.20,LPOV 010900Z 01005KT CAVOK 19/14 Q1023
LPOV,2017-10-01 10:00,-8.6459,40.9159,68.00,57.20,68.35,350.00,7.00,0.00,30.21,M,6.21,M,M,M,M,M,M,M,M,M,M,M,M,M,M,M,M,68.00,LPOV 011000Z 35007KT CAVOK 20/14 Q1023
LPOV,2017-10-01 11:00,-8.6459,40.9159,68.00,57.20,68.35,360.00,11.00,0.00,30.21,M,6.21,M,M,M,M,M,M,M,M,M,M,M,M,M,M,M,M,68.00,LPOV 011100Z 36011KT CAVOK 20/14 Q1023
LPOV,2017-10-01 12:00,-8.6459,40.9159,68.00,57.20,68.35,360.00,13.00,0.00,30.24,M,6.21,M,M,M,M,M,M,M,M,M,M,M,M,M,M,M,M,68.00,LPOV 011200Z 36013KT CAVOK 20/14 Q1024
LPOV,2017-10-01 13:00,-8.6459,40.9159,69.80,60.80,73.09,360.00,13.00,0.00,30.21,M,6.21,M,M,M,M,M,M,M,M,M,M,M,M,M,M,M,M,69.80,LPOV 011300Z 36013KT CAVOK 21/16 Q1023
LPOV,2017-10-01 14:00,-8.6459,40.9159,69.80,59.00,68.55,360.00,14.00,0.00,30.18,M,6.21,M,M,M,M,M,M,M,M,M,M,M,M,M,M,M,M,69.80,LPOV 011400Z 36014KT CAVOK 21/15 Q1022
LPOV,2017-10-01 15:00,-8.6459,40.9159,71.60,60.80,68.75,360.00,17.00,0.00,30.18,M,6.21,27.00,M,M,M,M,M,M,M,M,M,M,M,M,M,M,M,71.60,LPOV 011500Z 36017G27KT CAVOK 22/16 Q1022
LPOV,2017-10-01 16:00,-8.6459,40.9159,68.00,59.00,72.92,350.00,17.00,0.00,30.15,M,6.21,27.00,M,M,M,M,M,M,M,M,M,M,M,M,M,M,M,68.00,LPOV 011600Z 35017G27KT CAVOK 20/15 Q1021
LPOV,2017-10-01 17:00,-8.6459,40.9159,66.20,57.20,72.74,360.00,18.00,0.00,30.15,M,6.21,28.00,FEW,M,M,M,3500.00,M,M,M,M,M,M,M,M,M,M,66.20,LPOV 011700Z 36018G28KT 9999 FEW035 19/14 Q1021
LPOV,2017-10-01 18:00,-8.6459,40.9159,64.40,59.00,82.62,360.00,18.00,0.00,30.15,M,6.21,28.00,FEW,M,M,M,3500.00,M,M,M,M,M,M,M,M,M,M,64.40,LPOV 011800Z 36018G28KT 9999 FEW035 18/15 Q1021
LPOV,2017-10-01 19:00,-8.6459,40.9159,62.60,59.00,88.00,360.00,11.00,0.00,30.15,M,6.21,M,M,M,M,M,M,M,M,M,M,M,M,M,M,M,M,62.60,LPOV 011900Z 36011KT CAVOK 17/15 Q1021
LPOV,2017-10-01 20:00,-8.6459,40.9159,60.80,57.20,87.92,10.00,9.00,0.00,30.18,M,6.21,M,M,M,M,M,M,M,M,M,M,M,M,M,M,M,M,60.80,LPOV 012000Z 01009KT CAVOK 16/14 Q1022
LPOV,2017-10-01 21:00,-8.6459,40.9159,60.80,57.20,87.92,360.00,5.00,0.00,30.18,M,6.21,M,M,M,M,M,M,M,M,M,M,M,M,M,M,M,M,60.80,LPOV 012100Z 36005KT CAVOK 16/14 Q1022
LPOV,2017-10-01 22:00,-8.6459,40.9159,59.00,57.20,93.74,M,2.00,0.00,30.18,M,6.21,M,M,M,M,M,M,M,M,M,M,M,M,M,M,M,M,59.00,LPOV 012200Z VRB02KT CAVOK 15/14 Q1022
LPOV,2017-10-01 23:00,-8.6459,40.9159,57.20,55.40,93.69,M,2.00,0.00,30.18,M,6.21,M,M,M,M,M,M,M,M,M,M,M,M,M,M,M,M,57.20,LPOV 012300Z VRB02KT CAVOK 14/13 Q1022
LPOV,2017-10-02 00:00,-8.6459,40.9159,55.40,55.40,100.00,M,2.00,0.00,30.18,M,6.21,M,M,M,M,M,M,M,M,M,M,M,M,M,M,M,M,55.40,LPOV 020000Z VRB02KT CAVOK 13/13 Q1022
LPOV,2017-10-02 01:00,-8.6459,40.9159,55.40,53.60,93.65,M,1.00,0.00,30.18,M,6.21,M,M,M,M,M,M,M,M,M,M,M,M,M,M,M,M,55.40,LPOV 020100Z VRB01KT CAVOK 13/12 Q1022
LPOV,2017-10-02 02:00,-8.6459,40.9159,57.20,55.40,93.69,M,1.00,0.00,30.18,M,6.21,M,M,M,M,M,M,M,M,M,M,M,M,M,M,M,M,57.20,LPOV 020200Z VRB01KT CAVOK 14/13 Q1022
LPOV,2017-10-02 03:00,-8.6459,40.9159,57.20,55.40,93.69,M,2.00,0.00,30.18,M,6.21,M,M,M,M,M,M,M,M,M,M,M,M,M,M,M,M,57.20,LPOV 020300Z VRB02KT CAVOK 14/13 Q1022
LPOV,2017-10-02 04:00,-8.6459,40.9159,55.40,53.60,93.65,M,1.00,0.00,30.18,M,6.21,M,M,M,M,M,M,M,M,M,M,M,M,M,M,M,M,55.40,LPOV 020400Z VRB01KT CAVOK 13/12 Q1022
LPOV,2017-10-02 05:00,-8.6459,40.9159,55.40,55.40,100.00,M,2.00,0.00,30.18,M,6.21,M,M,M,M,M,M,M,M,M,M,M,M,M,M,M,M,55.40,LPOV 020500Z VRB02KT CAVOK 13/13 Q1022
LPOV,2017-10-02 06:00,-8.6459,40.9159,55.40,53.60,93.65,M,1.00,0.00,30.18,M,6.21,M,M,M,M,M,M,M,M,M,M,M,M,M,M,M,M,55.40,LPOV 020600Z VRB01KT CAVOK 13/12 Q1022
LPOV,2017-10-02 07:00,-8.6459,40.9159,55.40,53.60,93.65,M,2.00,0.00,30.18,M,6.21,M,M,M,M,M,M,M,M,M,M,M,M,M,M,M,M,55.40,LPOV 020700Z VRB02KT CAVOK 13/12 Q1022
LPOV,2017-10-02 08:00,-8.6459,40.9159,59.00,57.20,93.74,M,2.00,0.00,30.21,M,6.21,M,M,M,M,M,M,M,M,M,M,M,M,M,M,M,M,59.00,LPOV 020800Z VRB02KT CAVOK 15/14 Q1023
LPOV,2017-10-02 09:00,-8.6459,40.9159,66.20,60.80,82.74,M,2.00,0.00,30.21,M,6.21,M,M,M,M,M,M,M,M,M,M,M,M,M,M,M,M,66.20,LPOV 020900Z VRB02KT CAVOK 19/16 Q1023
LPOV,2017-10-02 11:00,-8.6459,40.9159,73.40,60.80,64.69,20.00,5.00,0.00,30.21,M,6.21,M,M,M,M,M,M,M,M,M,M,M,M,M,M,M,M,73.40,LPOV 021100Z 02005KT CAVOK 23/16 Q1023
LPOV,2017-10-02 12:00,-8.6459,40.9159,77.00,59.00,53.80,10.00,8.00,0.00,30.21,M,6.21,M,M,M,M,M,M,M,M,M,M,M,M,M,M,M,M,77.00,LPOV 021200Z 01008KT 340V030 CAVOK 25/15 Q1023
LPOV,2017-10-02 13:00,-8.6459,40.9159,77.00,59.00,53.80,350.00,9.00,0.00,30.18,M,6.21,M,M,M,M,M,M,M,M,M,M,M,M,M,M,M,M,77.00,LPOV 021300Z 35009KT CAVOK 25/15 Q1022
LPOV,2017-10-02 14:00,-8.6459,40.9159,77.00,60.80,57.36,360.00,9.00,0.00,30.15,M,6.21,M,M,M,M,M,M,M,M,M,M,M,M,M,M,M,M,77.00,LPOV 021400Z 36009KT CAVOK 25/16 Q1021
LPOV,2017-10-02 15:00,-8.6459,40.9159,73.40,59.00,60.67,360.00,10.00,0.00,30.15,M,6.21,M,M,M,M,M,M,M,M,M,M,M,M,M,M,M,M,73.40,LPOV 021500Z 36010KT CAVOK 23/15 Q1021
LPOV,2017-10-02 16:00,-8.6459,40.9159,69.80,60.80,73.09,350.00,11.00,0.00,30.15,M,6.21,M,M,M,M,M,M,M,M,M,M,M,M,M,M,M,M,69.80,LPOV 021600Z 35011KT CAVOK 21/16 Q1021
LPOV,2017-10-02 17:00,-8.6459,40.9159,64.40,60.80,88.09,350.00,11.00,0.00,30.15,M,6.21,M,SCT,M,M,M,800.00,M,M,M,M,M,M,M,M,M,M,64.40,LPOV 021700Z 35011KT 9999 SCT008 18/16 Q1021
LPOV,2017-10-02 18:00,-8.6459,40.9159,60.80,59.00,93.79,360.00,10.00,0.00,30.15,M,3.73,M,FEW,BKN,M,M,100.00,600.00,M,M,PRFG,M,M,M,M,M,M,60.80,LPOV 021800Z 36010KT 330V030 6000 0600S PRFG FEW001 BKN006 16/15 Q1021
LPOV,2017-10-02 19:00,-8.6459,40.9159,60.80,59.00,93.79,350.00,10.00,0.00,30.18,M,0.12,M,BKN,M,M,M,500.00,M,M,M,FG,M,M,M,M,M,M,60.80,LPOV 021900Z 35010KT 320V020 0200 FG BKN005 16/15 Q1022
LPOV,2017-10-02 20:00,-8.6459,40.9159,60.80,59.00,93.79,350.00,10.00,0.00,30.18,M,0.12,M,VV ,M,M,M,M,M,M,M,FG,M,M,M,M,M,M,60.80,LPOV 022000Z 35010KT 0200 FG VV/// 16/15 Q1022
LPOV,2017-10-02 21:00,-8.6459,40.9159,60.80,59.00,93.79,360.00,10.00,0.00,30.18,M,0.12,M,VV ,M,M,M,M,M,M,M,FG,M,M,M,M,M,M,60.80,LPOV 022100Z 36010KT 0200 FG VV/// 16/15 Q1022
LPOV,2017-10-02 22:00,-8.6459,40.9159,59.00,59.00,100.00,350.00,8.00,0.00,30.18,M,0.12,M,VV ,M,M,M,M,M,M,M,FG,M,M,M,M,M,M,59.00,LPOV 022200Z 35008KT 0200 FG VV/// 15/15 Q1022
LPOV,2017-10-02 23:00,-8.6459,40.9159,59.00,59.00,100.00,20.00,6.00,0.00,30.18,M,0.12,M,VV ,M,M,M,M,M,M,M,FG,M,M,M,M,M,M,59.00,LPOV 022300Z 02006KT 0200 FG VV/// 15/15 Q1022
LPOV,2017-10-03 00:00,-8.6459,40.9159,59.00,59.00,100.00,10.00,4.00,0.00,30.18,M,0.12,M,VV ,M,M,M,M,M,M,M,FG,M,M,M,M,M,M,59.00,LPOV 030000Z 01004KT 0200 FG VV/// 15/15 Q1022
LPOV,2017-10-03 01:00,-8.6459,40.9159,59.00,59.00,100.00,50.00,3.00,0.00,30.15,M,0.12,M,BKN,M,M,M,200.00,M,M,M,FG,M,M,M,M,M,M,59.00,LPOV 030100Z 05003KT 0200 FG BKN002 15/15 Q1021
LPOV,2017-10-03 02:00,-8.6459,40.9159,59.00,59.00,100.00,190.00,4.00,0.00,30.15,M,0.12,M,BKN,M,M,M,200.00,M,M,M,FG,M,M,M,M,M,M,59.00,LPOV 030200Z 19004KT 0200 FG BKN002 15/15 Q1021
LPOV,2017-10-03 03:00,-8.6459,40.9159,59.00,59.00,100.00,180.00,6.00,0.00,30.15,M,0.12,M,BKN,M,M,M,200.00,M,M,M,FG,M,M,M,M,M,M,59.00,LPOV 030300Z 18006KT 0200 FG BKN002 15/15 Q1021
LPOV,2017-10-03 04:00,-8.6459,40.9159,59.00,59.00,100.00,180.00,4.00,0.00,30.15,M,0.12,M,BKN,M,M,M,200.00,M,M,M,FG,M,M,M,M,M,M,59.00,LPOV 030400Z 18004KT 0200 FG BKN002 15/15 Q1021
LPOV,2017-10-03 05:00,-8.6459,40.9159,59.00,59.00,100.00,180.00,6.00,0.00,30.15,M,0.12,M,BKN,M,M,M,200.00,M,M,M,FG,M,M,M,M,M,M,59.00,LPOV 030500Z 18006KT 0200 FG BKN002 15/15 Q1021
LPOV,2017-10-03 06:00,-8.6459,40.9159,59.00,59.00,100.00,150.00,5.00,0.00,30.15,M,0.12,M,BKN,M,M,M,200.00,M,M,M,FG,M,M,M,M,M,M,59.00,LPOV 030600Z 15005KT 0200 FG BKN002 15/15 Q1021
LPOV,2017-10-03 07:00,-8.6459,40.9159,59.00,59.00,100.00,160.00,6.00,0.00,30.15,M,0.12,M,BKN,M,M,M,200.00,M,M,M,FG,M,M,M,M,M,M,59.00,LPOV 030700Z 16006KT 0200 FG BKN002 15/15 Q1021
LPOV,2017-10-03 08:00,-8.6459,40.9159,59.00,59.00,100.00,160.00,5.00,0.00,30.15,M,0.12,M,BKN,M,M,M,200.00,M,M,M,FG,M,M,M,M,M,M,59.00,LPOV 030800Z 16005KT 0200 FG BKN002 15/15 Q1021
LPOV,2017-10-03 09:00,-8.6459,40.9159,59.00,59.00,100.00,M,2.00,0.00,30.15,M,0.12,M,BKN,M,M,M,200.00,M,M,M,FG,M,M,M,M,M,M,59.00,LPOV 030900Z VRB02KT 0200 FG BKN002 15/15 Q1021
LPOV,2017-10-03 10:00,-8.6459,40.9159,59.00,59.00,100.00,100.00,3.00,0.00,30.18,M,0.12,M,BKN,M,M,M,200.00,M,M,M,FG,M,M,M,M,M,M,59.00,LPOV 031000Z 10003KT 0200 FG BKN002 15/15 Q1022
LPOV,2017-10-03 11:00,-8.6459,40.9159,62.60,60.80,93.83,290.00,3.00,0.00,30.18,M,0.93,M,SCT,M,M,M,200.00,M,M,M,BR,M,M,M,M,M,M,62.60,LPOV 031100Z 29003KT 1500 BR SCT002 17/16 Q1022
LPOV,2017-10-03 12:00,-8.6459,40.9159,64.40,62.60,93.88,250.00,4.00,0.00,30.15,M,4.35,M,FEW,M,M,M,200.00,M,M,M,M,M,M,M,M,M,M,64.40,LPOV 031200Z 25004KT 7000 FEW002 18/17 Q1021
LPOV,2017-10-03 13:00,-8.6459,40.9159,66.20,59.00,77.60,280.00,6.00,0.00,30.15,M,5.59,M,FEW,M,M,M,300.00,M,M,M,M,M,M,M,M,M,M,66.20,LPOV 031300Z 28006KT 9000 FEW003 19/15 Q1021
LPOV,2017-10-03 14:00,-8.6459,40.9159,66.20,59.00,77.60,360.00,10.00,0.00,30.12,M,6.21,M,FEW,M,M,M,300.00,M,M,M,M,M,M,M,M,M,M,66.20,LPOV 031400Z 36010KT 9999 FEW003 19/15 Q1020
LPOV,2017-10-03 15:00,-8.6459,40.9159,68.00,59.00,72.92,350.00,10.00,0.00,30.12,M,6.21,M,M,M,M,M,M,M,M,M,M,M,M,M,M,M,M,68.00,LPOV 031500Z 35010KT CAVOK 20/15 Q1020
LPOV,2017-10-03 16:00,-8.6459,40.9159,66.20,59.00,77.60,350.00,10.00,0.00,30.12,M,6.21,M,M,M,M,M,M,M,M,M,M,M,M,M,M,M,M,66.20,LPOV 031600Z 35010KT CAVOK 19/15 Q1020
LPOV,2017-10-03 17:00,-8.6459,40.9159,66.20,59.00,77.60,350.00,9.00,0.00,30.12,M,6.21,M,M,M,M,M,M,M,M,M,M,M,M,M,M,M,M,66.20,LPOV 031700Z 35009KT CAVOK 19/15 Q1020
LPOV,2017-10-03 18:00,-8.6459,40.9159,64.40,59.00,82.62,350.00,8.00,0.00,30.12,M,6.21,M,M,M,M,M,M,M,M,M,M,M,M,M,M,M,M,64.40,LPOV 031800Z 35008KT CAVOK 18/15 Q1020
LPOV,2017-10-03 19:00,-8.6459,40.9159,60.80,59.00,93.79,360.00,5.00,0.00,30.12,M,6.21,M,M,M,M,M,M,M,M,M,M,M,M,M,M,M,M,60.80,LPOV 031900Z 36005KT CAVOK 16/15 Q1020
LPOV,2017-10-03 20:00,-8.6459,40.9159,60.80,59.00,93.79,360.00,7.00,0.00,30.12,M,6.21,M,M,M,M,M,M,M,M,M,M,M,M,M,M,M,M,60.80,LPOV 032000Z 36007KT CAVOK 16/15 Q1020
LPOV,2017-10-03 21:00,-8.6459,40.9159,60.80,59.00,93.79,10.00,4.00,0.00,30.12,M,6.21,M,M,M,M,M,M,M,M,M,M,M,M,M,M,M,M,60.80,LPOV 032100Z 01004KT CAVOK 16/15 Q1020
LPOV,2017-10-03 22:00,-8.6459,40.9159,59.00,57.20,93.74,360.00,4.00,0.00,30.15,M,6.21,M,M,M,M,M,M,M,M,M,M,M,M,M,M,M,M,59.00,LPOV 032200Z 36004KT CAVOK 15/14 Q1021
LPOV,2017-10-03 23:00,-8.6459,40.9159,59.00,57.20,93.74,80.00,3.00,0.00,30.15,M,3.73,M,NSC,M,M,M,M,M,M,M,M,M,M,M,M,M,M,59.00,LPOV 032300Z 08003KT 6000 NSC 15/14 Q1021
LPOV,2017-10-04 00:00,-8.6459,40.9159,57.20,55.40,93.69,130.00,3.00,0.00,30.12,M,4.97,M,SCT,M,M,M,500.00,M,M,M,M,M,M,M,M,M,M,57.20,LPOV 040000Z 13003KT 8000 SCT005 14/13 Q1020
LPOV,2017-10-04 01:00,-8.6459,40.9159,57.20,55.40,93.69,M,2.00,0.00,30.12,M,0.12,M,BKN,M,M,M,200.00,M,M,M,FG,M,M,M,M,M,M,57.20,LPOV 040100Z VRB02KT 0200 FG BKN002 14/13 Q1020
LPOV,2017-10-04 02:00,-8.6459,40.9159,57.20,57.20,100.00,140.00,6.00,0.00,30.12,M,0.12,M,BKN,M,M,M,200.00,M,M,M,FG,M,M,M,M,M,M,57.20,LPOV 040200Z 14006KT 0200 FG BKN002 14/14 Q1020
LPOV,2017-10-04 03:00,-8.6459,40.9159,59.00,57.20,93.74,150.00,6.00,0.00,30.12,M,0.12,M,BKN,M,M,M,200.00,M,M,M,FG,M,M,M,M,M,M,59.00,LPOV 040300Z 15006KT 0200 FG BKN002 15/14 Q1020
LPOV,2017-10-04 04:00,-8.6459,40.9159,57.20,57.20,100.00,160.00,5.00,0.00,30.09,M,0.12,M,BKN,M,M,M,200.00,M,M,M,FG,M,M,M,M,M,M,57.20,LPOV 040400Z 16005KT 0200 FG BKN002 14/14 Q1019
LPOV,2017-10-04 05:00,-8.6459,40.9159,57.20,57.20,100.00,140.00,6.00,0.00,30.09,M,0.12,M,BKN,M,M,M,200.00,M,M,M,FG,M,M,M,M,M,M,57.20,LPOV 040500Z 14006KT 0200 FG BKN002 14/14 Q1019
LPOV,2017-10-04 06:00,-8.6459,40.9159,57.20,57.20,100.00,150.00,5.00,0.00,30.09,M,0.12,M,BKN,M,M,M,200.00,M,M,M,FG,M,M,M,M,M,M,57.20,LPOV 040600Z 15005KT 0200 FG BKN002 14/14 Q1019
LPOV,2017-10-04 07:00,-8.6459,40.9159,57.20,57.20,100.00,140.00,3.00,0.00,30.09,M,0.12,M,BKN,M,M,M,200.00,M,M,M,FG,M,M,M,M,M,M,57.20,LPOV 040700Z 14003KT 0200 FG BKN002 14/14 Q1019
LPOV,2017-10-04 08:00,-8.6459,40.9159,55.40,55.40,100.00,160.00,5.00,0.00,30.12,M,0.56,M,BKN,M,M,M,200.00,M,M,M,FG,M,M,M,M,M,M,55.40,LPOV 040800Z 16005KT 0900 FG BKN002 13/13 Q1020
LPOV,2017-10-04 09:00,-8.6459,40.9159,57.20,55.40,93.69,130.00,6.00,0.00,30.15,M,0.37,M,BKN,M,M,M,200.00,M,M,M,FG,M,M,M,M,M,M,57.20,LPOV 040900Z 13006KT 0600 FG BKN002 14/13 Q1021
LPOV,2017-10-04 10:00,-8.6459,40.9159,57.20,57.20,100.00,150.00,5.00,0.00,30.15,M,0.50,M,FEW,BKN,M,M,100.00,300.00,M,M,FG,M,M,M,M,M,M,57.20,LPOV 041000Z 15005KT 0800 FG FEW001 BKN003 14/14 Q1021
LPOV,2017-10-04 11:00,-8.6459,40.9159,60.80,59.00,93.79,210.00,6.00,0.00,30.15,M,4.97,M,FEW,SCT,M,M,100.00,500.00,M,M,M,M,M,M,M,M,M,60.80,LPOV 041100Z 21006KT 8000 FEW001 SCT005 16/15 Q1021
LPOV,2017-10-04 12:00,-8.6459,40.9159,66.20,60.80,82.74,210.00,5.00,0.00,30.15,M,6.21,M,FEW,M,M,M,500.00,M,M,M,M,M,M,M,M,M,M,66.20,LPOV 041200Z 21005KT 160V260 9999 FEW005 19/16 Q1021
LPOV,2017-10-04 13:00,-8.6459,40.9159,66.20,60.80,82.74,250.00,9.00,0.00,30.12,M,6.21,M,FEW,M,M,M,500.00,M,M,M,M,M,M,M,M,M,M,66.20,LPOV 041300Z 25009KT 210V270 9999 FEW005 19/16 Q1020
LPOV,2017-10-04 14:00,-8.6459,40.9159,64.40,60.80,88.09,260.00,8.00,0.00,30.12,M,6.21,M,FEW,SCT,M,M,100.00,500.00,M,M,PRFG,M,M,M,M,M,M,64.40,LPOV 041400Z 26008KT 200V300 9999 1000N PRFG FEW001 SCT005 18/16 Q1020
LPOV,2017-10-04 15:00,-8.6459,40.9159,62.60,59.00,88.00,240.00,6.00,0.00,30.12,M,6.21,M,FEW,BKN,M,M,100.00,500.00,M,M,PRFG,M,M,M,M,M,M,62.60,LPOV 041500Z 24006KT 190V290 9999 1500N PRFG FEW001 BKN005 17/15 Q1020
LPOV,2017-10-04 16:00,-8.6459,40.9159,62.60,60.80,93.83,250.00,4.00,0.00,30.12,M,6.21,M,FEW,BKN,M,M,100.00,500.00,M,M,PRFG,M,M,M,M,M,M,62.60,LPOV 041600Z 25004KT 220V310 9999 1500N PRFG FEW001 BKN005 17/16 Q1020
LPOV,2017-10-04 17:00,-8.6459,40.9159,62.60,59.00,88.00,M,2.00,0.00,30.12,M,0.56,M,FEW,BKN,M,M,100.00,400.00,M,M,FG,M,M,M,M,M,M,62.60,LPOV 041700Z VRB02KT 0900 FG FEW001 BKN004 17/15 Q1020
LPOV,2017-10-04 18:00,-8.6459,40.9159,60.80,59.00,93.79,M,2.00,0.00,30.15,M,0.50,M,FEW,OVC,M,M,100.00,400.00,M,M,FG,M,M,M,M,M,M,60.80,LPOV 041800Z VRB02KT 0800 FG FEW001 OVC004 16/15 Q1021
LPOV,2017-10-04 19:00,-8.6459,40.9159,60.80,59.00,93.79,M,2.00,0.00,30.15,M,0.50,M,FEW,OVC,M,M,100.00,400.00,M,M,FG,M,M,M,M,M,M,60.80,LPOV 041900Z VRB02KT 0800 FG FEW001 OVC004 16/15 Q1021
LPOV,2017-10-04 20:00,-8.6459,40.9159,60.80,59.00,93.79,140.00,5.00,0.00,30.15,M,0.56,M,OVC,M,M,M,400.00,M,M,M,FG,M,M,M,M,M,M,60.80,LPOV 042000Z 14005KT 0900 FG OVC004 16/15 Q1021
LPOV,2017-10-04 21:00,-8.6459,40.9159,60.80,59.00,93.79,120.00,6.00,0.00,30.18,M,0.56,M,OVC,M,M,M,400.00,M,M,M,FG,M,M,M,M,M,M,60.80,LPOV 042100Z 12006KT 0900 FG OVC004 16/15 Q1022
LPOV,2017-10-04 22:00,-8.6459,40.9159,60.80,59.00,93.79,120.00,6.00,0.00,30.18,M,0.50,M,OVC,M,M,M,400.00,M,M,M,FG,M,M,M,M,M,M,60.80,LPOV 042200Z 12006KT 0800 FG OVC004 16/15 Q1022
LPOV,2017-10-04 23:00,-8.6459,40.9159,60.80,59.00,93.79,120.00,5.00,0.00,30.18,M,1.55,M,FEW,BKN,M,M,200.00,400.00,M,M,BR,M,M,M,M,M,M,60.80,LPOV 042300Z 12005KT 2500 BR FEW002 BKN004 16/15 Q1022
LPOV,2017-10-05 00:00,-8.6459,40.9159,60.80,59.00,93.79,M,2.00,0.00,30.15,M,1.86,M,FEW,BKN,M,M,200.00,400.00,M,M,BR,M,M,M,M,M,M,60.80,LPOV 050000Z VRB02KT 3000 BR FEW002 BKN004 16/15 Q1021
LPOV,2017-10-05 01:00,-8.6459,40.9159,60.80,59.00,93.79,M,2.00,0.00,30.15,M,2.17,M,FEW,BKN,M,M,200.00,400.00,M,M,BR,M,M,M,M,M,M,60.80,LPOV 050100Z VRB02KT 3500 BR FEW002 BKN004 16/15 Q1021
LPOV,2017-10-05 02:00,-8.6459,40.9159,60.80,59.00,93.79,140.00,3.00,0.00,30.15,M,3.11,M,BKN,M,M,M,400.00,M,M,M,BR,M,M,M,M,M,M,60.80,LPOV 050200Z 14003KT 5000 BR BKN004 16/15 Q1021
LPOV,2017-10-05 03:00,-8.6459,40.9159,59.00,59.00,100.00,130.00,4.00,0.00,30.15,M,2.49,M,BKN,M,M,M,400.00,M,M,M,BR,M,M,M,M,M,M,59.00,LPOV 050300Z 13004KT 4000 BR BKN004 15/15 Q1021
LPOV,2017-10-05 04:00,-8.6459,40.9159,59.00,59.00,100.00,130.00,4.00,0.00,30.15,M,3.73,M,BKN,M,M,M,400.00,M,M,M,M,M,M,M,M,M,M,59.00,LPOV 050400Z 13004KT 6000 BKN004 15/15 Q1021
LPOV,2017-10-05 05:00,-8.6459,40.9159,60.80,59.00,93.79,140.00,4.00,0.00,30.15,M,4.35,M,OVC,M,M,M,400.00,M,M,M,M,M,M,M,M,M,M,60.80,LPOV 050500Z 14004KT 7000 OVC004 16/15 Q1021
LPOV,2017-10-05 06:00,-8.6459,40.9159,60.80,59.00,93.79,M,2.00,0.00,30.15,M,4.97,M,OVC,M,M,M,400.00,M,M,M,M,M,M,M,M,M,M,60.80,LPOV 050600Z VRB02KT 8000 OVC004 16/15 Q1021
LPOV,2017-10-05 07:00,-8.6459,40.9159,60.80,59.00,93.79,120.00,3.00,0.00,30.15,M,3.73,M,OVC,M,M,M,400.00,M,M,M,M,M,M,M,M,M,M,60.80,LPOV 050700Z 12003KT 6000 OVC004 16/15 Q1021
LPOV,2017-10-05 08:00,-8.6459,40.9159,60.80,59.00,93.79,110.00,4.00,0.00,30.18,M,3.73,M,FEW,OVC,M,M,200.00,400.00,M,M,M,M,M,M,M,M,M,60.80,LPOV 050800Z 11004KT 6000 FEW002 OVC004 16/15 Q1022
LPOV,2017-10-05 09:00,-8.6459,40.9159,60.80,59.00,93.79,140.00,5.00,0.00,30.18,M,3.73,M,FEW,OVC,M,M,200.00,400.00,M,M,M,M,M,M,M,M,M,60.80,LPOV 050900Z 14005KT 6000 FEW002 OVC004 16/15 Q1022
LPOV,2017-10-05 10:00,-8.6459,40.9159,62.60,59.00,88.00,140.00,3.00,0.00,30.18,M,3.73,M,FEW,BKN,M,M,400.00,600.00,M,M,M,M,M,M,M,M,M,62.60,LPOV 051000Z 14003KT 6000 FEW004 BKN006 17/15 Q1022
LPOV,2017-10-05 11:00,-8.6459,40.9159,62.60,59.00,88.00,270.00,5.00,0.00,30.21,M,4.35,M,FEW,BKN,M,M,400.00,700.00,M,M,M,M,M,M,M,M,M,62.60,LPOV 051100Z 27005KT 240V320 7000 FEW004 BKN007 17/15 Q1023
LPOV,2017-10-05 12:00,-8.6459,40.9159,64.40,59.00,82.62,270.00,5.00,0.00,30.18,M,4.97,M,SCT,M,M,M,700.00,M,M,M,M,M,M,M,M,M,M,64.40,LPOV 051200Z 27005KT 220V330 8000 SCT007 18/15 Q1022
LPOV,2017-10-05 13:00,-8.6459,40.9159,66.20,59.00,77.60,290.00,5.00,0.00,30.18,M,6.21,M,FEW,M,M,M,700.00,M,M,M,M,M,M,M,M,M,M,66.20,LPOV 051300Z 29005KT 9999 FEW007 19/15 Q1022
LPOV,2017-10-05 14:00,-8.6459,40.9159,68.00,59.00,72.92,320.00,4.00,0.00,30.15,M,6.21,M,M,M,M,M,M,M,M,M,M,M,M,M,M,M,M,68.00,LPOV 051400Z 32004KT 300V030 CAVOK 20/15 Q1021
LPOV,2017-10-05 15:00,-8.6459,40.9159,68.00,59.00,72.92,350.00,5.00,0.00,30.15,M,6.21,M,M,M,M,M,M,M,M,M,M,M,M,M,M,M,M,68.00,LPOV 051500Z 35005KT 310V030 CAVOK 20/15 Q1021
LPOV,2017-10-05 16:00,-8.6459,40.9159,66.20,57.20,72.74,350.00,8.00,0.00,30.15,M,6.21,M,M,M,M,M,M,M,M,M,M,M,M,M,M,M,M,66.20,LPOV 051600Z 35008KT 320V020 CAVOK 19/14 Q1021
LPOV,2017-10-05 17:00,-8.6459,40.9159,64.40,57.20,77.45,360.00,8.00,0.00,30.12,M,6.21,M,M,M,M,M,M,M,M,M,M,M,M,M,M,M,M,64.40,LPOV 051700Z 36008KT CAVOK 18/14 Q1020
LPOV,2017-10-05 18:00,-8.6459,40.9159,62.60,57.20,82.50,360.00,8.00,0.00,30.12,M,6.21,M,M,M,M,M,M,M,M,M,M,M,M,M,M,M,M,62.60,LPOV 051800Z 36008KT CAVOK 17/14 Q1020
LPOV,2017-10-05 19:00,-8.6459,40.9159,59.00,55.40,87.83,360.00,5.00,0.00,30.12,M,6.21,M,M,M,M,M,M,M,M,M,M,M,M,M,M,M,M,59.00,LPOV 051900Z 36005KT CAVOK 15/13 Q1020
LPOV,2017-10-05 20:00,-8.6459,40.9159,57.20,55.40,93.69,20.00,4.00,0.00,30.12,M,6.21,M,M,M,M,M,M,M,M,M,M,M,M,M,M,M,M,57.20,LPOV 052000Z 02004KT CAVOK 14/13 Q1020
LPOV,2017-10-05 21:00,-8.6459,40.9159,57.20,55.40,93.69,M,2.00,0.00,30.12,M,6.21,M,M,M,M,M,M,M,M,M,M,M,M,M,M,M,M,57.20,LPOV 052100Z VRB02KT CAVOK 14/13 Q1020
LPOV,2017-10-05 22:00,-8.6459,40.9159,55.40,55.40,100.00,40.00,3.00,0.00,30.15,M,3.11,M,SCT,M,M,M,400.00,M,M,M,BR,M,M,M,M,M,M,55.40,LPOV 052200Z 04003KT 5000 BR SCT004 13/13 Q1021
LPOV,2017-10-05 23:00,-8.6459,40.9159,55.40,55.40,100.00,M,2.00,0.00,30.15,M,0.19,M,BKN,M,M,M,300.00,M,M,M,FG,M,M,M,M,M,M,55.40,LPOV 052300Z VRB02KT 0300 FG BKN003 13/13 Q1021
LPOV,2017-10-06 00:00,-8.6459,40.9159,57.20,57.20,100.00,M,2.00,0.00,30.15,M,0.19,M,BKN,M,M,M,200.00,M,M,M,FG,M,M,M,M,M,M,57.20,LPOV 060000Z VRB02KT 0300 FG BKN002 14/14 Q1021
LPOV,2017-10-06 01:00,-8.6459,40.9159,57.20,57.20,100.00,50.00,4.00,0.00,30.15,M,0.19,M,BKN,M,M,M,200.00,M,M,M,FG,M,M,M,M,M,M,57.20,LPOV 060100Z 05004KT 0300 FG BKN002 14/14 Q1021
LPOV,2017-10-06 02:00,-8.6459,40.9159,57.20,57.20,100.00,M,2.00,0.00,30.12,M,0.19,M,BKN,M,M,M,200.00,M,M,M,FG,M,M,M,M,M,M,57.20,LPOV 060200Z VRB02KT 0300 FG BKN002 14/14 Q1020
LPOV,2017-10-06 03:00,-8.6459,40.9159,57.20,57.20,100.00,60.00,4.00,0.00,30.12,M,0.19,M,BKN,M,M,M,200.00,M,M,M,FG,M,M,M,M,M,M,57.20,LPOV 060300Z 06004KT 0300 FG BKN002 14/14 Q1020
LPOV,2017-10-06 04:00,-8.6459,40.9159,57.20,57.20,100.00,360.00,3.00,0.00,30.09,M,0.19,M,BKN,M,M,M,200.00,M,M,M,FG,M,M,M,M,M,M,57.20,LPOV 060400Z 36003KT 0300 FG BKN002 14/14 Q1019
LPOV,2017-10-06 05:00,-8.6459,40.9159,53.60,53.60,100.00,360.00,4.00,0.00,30.12,M,0.19,M,BKN,M,M,M,200.00,M,M,M,FG,M,M,M,M,M,M,53.60,LPOV 060500Z 36004KT 320V040 0300 FG BKN002 12/12 Q1020
LPOV,2017-10-06 06:00,-8.6459,40.9159,53.60,53.60,100.00,350.00,3.00,0.00,30.12,M,0.19,M,BKN,M,M,M,200.00,M,M,M,FG,M,M,M,M,M,M,53.60,LPOV 060600Z 35003KT 320V020 0300 FG BKN002 12/12 Q1020
LPOV,2017-10-06 08:00,-8.6459,40.9159,53.60,51.80,93.60,100.00,3.00,0.00,30.12,M,0.12,M,VV ,M,M,M,M,M,M,M,FG,M,M,M,M,M,M,53.60,LPOV 060800Z 10003KT 0200 FG VV/// 12/11 Q1020
LPOV,2017-10-06 09:00,-8.6459,40.9159,53.60,53.60,100.00,150.00,3.00,0.00,30.12,M,0.12,M,BKN,M,M,M,200.00,M,M,M,FG,M,M,M,M,M,M,53.60,LPOV 060900Z 15003KT 0200 FG BKN002 12/12 Q1020
LPOV,2017-10-06 10:00,-8.6459,40.9159,57.20,55.40,93.69,M,2.00,0.00,30.15,M,0.50,M,BKN,M,M,M,200.00,M,M,M,FG,M,M,M,M,M,M,57.20,LPOV 061000Z VRB02KT 0800 FG BKN002 14/13 Q1021
LPOV,2017-10-06 11:00,-8.6459,40.9159,59.00,57.20,93.74,290.00,3.00,0.00,30.15,M,4.35,M,FEW,M,M,M,200.00,M,M,M,M,M,M,M,M,M,M,59.00,LPOV 061100Z 29003KT 7000 FEW002 15/14 Q1021
LPOV,2017-10-06 12:00,-8.6459,40.9159,62.60,59.00,88.00,300.00,3.00,0.00,30.12,M,5.59,M,FEW,M,M,M,200.00,M,M,M,M,M,M,M,M,M,M,62.60,LPOV 061200Z 30003KT 9000 FEW002 17/15 Q1020
LPOV,2017-10-06 13:00,-8.6459,40.9159,62.60,57.20,82.50,310.00,4.00,0.00,30.12,M,5.59,M,FEW,M,M,M,200.00,M,M,M,M,M,M,M,M,M,M,62.60,LPOV 061300Z 31004KT 9000 FEW002 17/14 Q1020
LPOV,2017-10-06 14:00,-8.6459,40.9159,64.40,57.20,77.45,340.00,4.00,0.00,30.09,M,5.59,M,FEW,M,M,M,200.00,M,M,M,M,M,M,M,M,M,M,64.40,LPOV 061400Z 34004KT 9000 FEW002 18/14 Q1019
LPOV,2017-10-06 15:00,-8.6459,40.9159,64.40,57.20,77.45,330.00,6.00,0.00,30.09,M,5.59,M,FEW,M,M,M,200.00,M,M,M,M,M,M,M,M,M,M,64.40,LPOV 061500Z 33006KT 9000 FEW002 18/14 Q1019
LPOV,2017-10-06 16:00,-8.6459,40.9159,66.20,57.20,72.74,350.00,6.00,0.00,30.06,M,6.21,M,FEW,M,M,M,200.00,M,M,M,M,M,M,M,M,M,M,66.20,LPOV 061600Z 35006KT 9999 FEW002 19/14 Q1018
LPOV,2017-10-06 17:00,-8.6459,40.9159,64.40,57.20,77.45,340.00,6.00,0.00,30.06,M,6.21,M,M,M,M,M,M,M,M,M,M,M,M,M,M,M,M,64.40,LPOV 061700Z 34006KT CAVOK 18/14 Q1018
LPOV,2017-10-06 18:00,-8.6459,40.9159,62.60,59.00,88.00,340.00,5.00,0.00,30.06,M,6.21,M,M,M,M,M,M,M,M,M,M,M,M,M,M,M,M,62.60,LPOV 061800Z 34005KT CAVOK 17/15 Q1018
LPOV,2017-10-06 19:00,-8.6459,40.9159,57.20,55.40,93.69,M,2.00,0.00,30.06,M,6.21,M,M,M,M,M,M,M,M,M,M,M,M,M,M,M,M,57.20,LPOV 061900Z VRB02KT CAVOK 14/13 Q1018
LPOV,2017-10-06 20:00,-8.6459,40.9159,57.20,55.40,93.69,M,2.00,0.00,30.06,M,6.21,M,M,M,M,M,M,M,M,M,M,M,M,M,M,M,M,57.20,LPOV 062000Z VRB02KT CAVOK 14/13 Q1018
LPOV,2017-10-06 21:00,-8.6459,40.9159,55.40,53.60,93.65,M,2.00,0.00,30.06,M,6.21,M,M,M,M,M,M,M,M,M,M,M,M,M,M,M,M,55.40,LPOV 062100Z VRB02KT CAVOK 13/12 Q1018
LPOV,2017-10-06 22:00,-8.6459,40.9159,55.40,53.60,93.65,M,1.00,0.00,30.06,M,6.21,M,M,M,M,M,M,M,M,M,M,M,M,M,M,M,M,55.40,LPOV 062200Z VRB01KT CAVOK 13/12 Q1018
LPOV,2017-10-06 23:00,-8.6459,40.9159,53.60,51.80,93.60,M,2.00,0.00,30.06,M,6.21,M,M,M,M,M,M,M,M,M,M,M,M,M,M,M,M,53.60,LPOV 062300Z VRB02KT CAVOK 12/11 Q1018
LPOV,2017-10-07 00:00,-8.6459,40.9159,51.80,50.00,93.55,130.00,4.00,0.00,30.09,M,6.21,M,M,M,M,M,M,M,M,M,M,M,M,M,M,M,M,51.80,LPOV 070000Z 13004KT CAVOK 11/10 Q1019
LPOV,2017-10-07 01:00,-8.6459,40.9159,53.60,51.80,93.60,110.00,4.00,0.00,30.09,M,3.11,M,NSC,M,M,M,M,M,M,M,BR,M,M,M,M,M,M,53.60,LPOV 070100Z 11004KT 5000 BR NSC 12/11 Q1019
LPOV,2017-10-07 02:00,-8.6459,40.9159,51.80,50.00,93.55,M,2.00,0.00,30.06,M,1.24,M,NSC,M,M,M,M,M,M,M,BR,M,M,M,M,M,M,51.80,LPOV 070200Z VRB02KT 2000 BR NSC 11/10 Q1018
LPOV,2017-10-07 03:00,-8.6459,40.9159,50.00,50.00,100.00,M,2.00,0.00,30.06,M,1.24,M,NSC,M,M,M,M,M,M,M,BR,M,M,M,M,M,M,50.00,LPOV 070300Z VRB02KT 2000 BR NSC 10/10 Q1018
LPOV,2017-10-07 04:00,-8.6459,40.9159,50.00,50.00,100.00,M,2.00,0.00,30.06,M,4.35,M,NSC,M,M,M,M,M,M,M,M,M,M,M,M,M,M,50.00,LPOV 070400Z VRB02KT 7000 NSC 10/10 Q1018
LPOV,2017-10-07 05:00,-8.6459,40.9159,51.80,50.00,93.55,M,2.00,0.00,30.06,M,4.35,M,NSC,M,M,M,M,M,M,M,M,M,M,M,M,M,M,51.80,LPOV 070500Z VRB02KT 7000 NSC 11/10 Q1018
LPOV,2017-10-07 07:00,-8.6459,40.9159,50.00,48.20,93.50,M,2.00,0.00,30.06,M,6.21,M,M,M,M,M,M,M,M,M,M,M,M,M,M,M,M,50.00,LPOV 070700Z VRB02KT CAVOK 10/09 Q1018
LPOV,2017-10-07 08:00,-8.6459,40.9159,51.80,50.00,93.55,M,2.00,0.00,30.06,M,6.21,M,M,M,M,M,M,M,M,M,M,M,M,M,M,M,M,51.80,LPOV 070800Z VRB02KT CAVOK 11/10 Q1018
LPOV,2017-10-07 09:00,-8.6459,40.9159,71.60,44.60,37.89,60.00,7.00,0.00,30.09,M,6.21,M,M,M,M,M,M,M,M,M,M,M,M,M,M,M,M,70.24,LPOV 070900Z 06007KT 020V090 CAVOK 22/07 Q1019
LPOV,2017-10-07 10:00,-8.6459,40.9159,77.00,42.80,29.51,70.00,8.00,0.00,30.09,M,6.21,M,M,M,M,M,M,M,M,M,M,M,M,M,M,M,M,75.79,LPOV 071000Z 07008KT 040V100 CAVOK 25/06 Q1019
LPOV,2017-10-07 11:00,-8.6459,40.9159,82.40,42.80,24.72,70.00,6.00,0.00,30.06,M,6.21,M,M,M,M,M,M,M,M,M,M,M,M,M,M,M,M,80.39,LPOV 071100Z 07006KT CAVOK 28/06 Q1018
LPOV,2017-10-07 12:00,-8.6459,40.9159,84.20,42.80,23.33,60.00,3.00,0.00,30.06,M,6.21,M,M,M,M,M,M,M,M,M,M,M,M,M,M,M,M,81.61,LPOV 071200Z 06003KT CAVOK 29/06 Q1018
LPOV,2017-10-07 13:00,-8.6459,40.9159,87.80,39.20,18.09,50.00,5.00,0.00,30.06,M,6.21,M,M,M,M,M,M,M,M,M,M,M,M,M,M,M,M,84.22,LPOV 071300Z 05005KT 350V110 CAVOK 31/04 Q1018
LPOV,2017-10-07 14:00,-8.6459,40.9159,82.40,39.20,21.51,320.00,6.00,0.00,30.03,M,6.21,M,M,M,M,M,M,M,M,M,M,M,M,M,M,M,M,80.21,LPOV 071400Z 32006KT 270V350 CAVOK 28/04 Q1017
LPOV,2017-10-07 15:00,-8.6459,40.9159,82.40,41.00,23.07,330.00,5.00,0.00,30.00,M,6.21,M,M,M,M,M,M,M,M,M,M,M,M,M,M,M,M,80.29,LPOV 071500Z 33005KT 290V020 CAVOK 28/05 Q1016
LPOV,2017-10-07 16:00,-8.6459,40.9159,78.80,46.40,31.90,10.00,12.00,0.00,30.00,M,6.21,M,M,M,M,M,M,M,M,M,M,M,M,M,M,M,M,78.80,LPOV 071600Z 01012KT CAVOK 26/08 Q1016
LPOV,2017-10-07 17:00,-8.6459,40.9159,78.80,48.20,34.13,10.00,10.00,0.00,30.00,M,6.21,M,M,M,M,M,M,M,M,M,M,M,M,M,M,M,M,78.80,LPOV 071700Z 01010KT CAVOK 26/09 Q1016
LPOV,2017-10-07 18:00,-8.6459,40.9159,73.40,50.00,43.69,10.00,7.00,0.00,30.03,M,6.21,M,M,M,M,M,M,M,M,M,M,M,M,M,M,M,M,73.40,LPOV 071800Z 01007KT CAVOK 23/10 Q1017
LPOV,2017-10-07 19:00,-8.6459,40.9159,66.20,53.60,63.82,M,2.00,0.00,30.03,M,6.21,M,M,M,M,M,M,M,M,M,M,M,M,M,M,M,M,66.20,LPOV 071900Z VRB02KT CAVOK 19/12 Q1017
LPOV,2017-10-07 20:00,-8.6459,40.9159,62.60,53.60,72.38,90.00,3.00,0.00,30.03,M,6.21,M,M,M,M,M,M,M,M,M,M,M,M,M,M,M,M,62.60,LPOV 072000Z 09003KT CAVOK 17/12 Q1017
LPOV,2017-10-07 21:00,-8.6459,40.9159,59.00,50.00,72.01,50.00,2.00,0.00,30.03,M,6.21,M,M,M,M,M,M,M,M,M,M,M,M,M,M,M,M,59.00,LPOV 072100Z 05002KT CAVOK 15/10 Q1017
LPOV,2017-10-07 22:00,-8.6459,40.9159,59.00,50.00,72.01,140.00,3.00,0.00,30.03,M,6.21,M,M,M,M,M,M,M,M,M,M,M,M,M,M,M,M,59.00,LPOV 072200Z 14003KT CAVOK 15/10 Q1017
LPOV,2017-10-07 23:00,-8.6459,40.9159,55.40,46.40,71.64,90.00,2.00,0.00,30.03,M,6.21,M,M,M,M,M,M,M,M,M,M,M,M,M,M,M,M,55.40,LPOV 072300Z 09002KT CAVOK 13/08 Q1017
LPOV,2017-10-08 00:00,-8.6459,40.9159,53.60,46.40,76.50,100.00,3.00,0.00,30.03,M,6.21,M,M,M,M,M,M,M,M,M,M,M,M,M,M,M,M,53.60,LPOV 080000Z 10003KT CAVOK 12/08 Q1017
LPOV,2017-10-08 01:00,-8.6459,40.9159,51.80,48.20,87.47,100.00,3.00,0.00,30.03,M,6.21,M,M,M,M,M,M,M,M,M,M,M,M,M,M,M,M,51.80,LPOV 080100Z 10003KT CAVOK 11/09 Q1017
LPOV,2017-10-08 02:00,-8.6459,40.9159,50.00,41.00,71.07,110.00,3.00,0.00,30.03,M,6.21,M,M,M,M,M,M,M,M,M,M,M,M,M,M,M,M,49.27,LPOV 080200Z 11003KT CAVOK 10/05 Q1017
LPOV,2017-10-08 03:00,-8.6459,40.9159,50.00,41.00,71.07,90.00,3.00,0.00,30.03,M,6.21,M,M,M,M,M,M,M,M,M,M,M,M,M,M,M,M,49.27,LPOV 080300Z 09003KT CAVOK 10/05 Q1017
LPOV,2017-10-08 04:00,-8.6459,40.9159,50.00,39.20,66.27,110.00,3.00,0.00,30.03,M,6.21,M,M,M,M,M,M,M,M,M,M,M,M,M,M,M,M,49.27,LPOV 080400Z 11003KT CAVOK 10/04 Q1017
LPOV,2017-10-08 05:00,-8.6459,40.9159,50.00,39.20,66.27,100.00,3.00,0.00,30.03,M,6.21,M,M,M,M,M,M,M,M,M,M,M,M,M,M,M,M,49.27,LPOV 080500Z 10003KT CAVOK 10/04 Q1017
LPOV,2017-10-08 06:00,-8.6459,40.9159,46.40,35.60,65.83,150.00,5.00,0.00,30.03,M,6.21,M,M,M,M,M,M,M,M,M,M,M,M,M,M,M,M,43.50,LPOV 080600Z 15005KT CAVOK 08/02 Q1017
LPOV,2017-10-08 07:00,-8.6459,40.9159,46.40,37.40,70.68,100.00,3.00,0.00,30.06,M,6.21,M,M,M,M,M,M,M,M,M,M,M,M,M,M,M,M,45.15,LPOV 080700Z 10003KT CAVOK 08/03 Q1018
LPOV,2017-10-08 08:00,-8.6459,40.9159,51.80,37.40,57.77,80.00,3.00,0.00,30.06,M,6.21,M,M,M,M,M,M,M,M,M,M,M,M,M,M,M,M,51.80,LPOV 080800Z 08003KT CAVOK 11/03 Q1018
LPOV,2017-10-08 09:00,-8.6459,40.9159,62.60,42.80,48.28,100.00,3.00,0.00,30.06,M,6.21,M,M,M,M,M,M,M,M,M,M,M,M,M,M,M,M,62.60,LPOV 080900Z 10003KT CAVOK 17/06 Q1018
LPOV,2017-10-08 10:00,-8.6459,40.9159,73.40,48.20,40.85,80.00,3.00,0.00,30.09,M,6.21,M,M,M,M,M,M,M,M,M,M,M,M,M,M,M,M,72.36,LPOV 081000Z 08003KT CAVOK 23/09 Q1019
LPOV,2017-10-08 11:00,-8.6459,40.9159,80.60,44.60,28.08,280.00,3.00,0.00,30.06,M,6.21,M,M,M,M,M,M,M,M,M,M,M,M,M,M,M,M,79.42,LPOV 081100Z 28003KT 200V360 CAVOK 27/07 Q1018
LPOV,2017-10-08 12:00,-8.6459,40.9159,73.40,42.80,33.29,330.00,4.00,0.00,30.09,M,6.21,M,M,M,M,M,M,M,M,M,M,M,M,M,M,M,M,72.00,LPOV 081200Z 33004KT 250V030 CAVOK 23/06 Q1019
LPOV,2017-10-08 13:00,-8.6459,40.9159,73.40,39.20,28.96,300.00,4.00,0.00,30.09,M,6.21,M,M,M,M,M,M,M,M,M,M,M,M,M,M,M,M,71.80,LPOV 081300Z 30004KT CAVOK 23/04 Q1019
LPOV,2017-10-08 15:00,-8.6459,40.9159,80.60,41.00,24.46,M,2.00,0.00,30.06,M,6.21,M,M,M,M,M,M,M,M,M,M,M,M,M,M,M,M,79.20,LPOV 081500Z VRB02KT CAVOK 27/05 Q1018
LPOV,2017-10-08 16:00,-8.6459,40.9159,78.80,41.00,25.95,M,2.00,0.00,30.06,M,6.21,M,M,M,M,M,M,M,M,M,M,M,M,M,M,M,M,77.60,LPOV 081600Z VRB02KT CAVOK 26/05 Q1018
LPOV,2017-10-08 17:00,-8.6459,40.9159,77.00,44.60,31.62,M,1.00,0.00,30.06,M,6.21,M,M,M,M,M,M,M,M,M,M,M,M,M,M,M,M,75.89,LPOV 081700Z VRB01KT CAVOK 25/07 Q1018
LPOV,2017-10-08 18:00,-8.6459,40.9159,71.60,48.20,43.42,M,1.00,0.00,30.06,M,6.21,M,M,M,M,M,M,M,M,M,M,M,M,M,M,M,M,70.50,LPOV 081800Z VRB01KT CAVOK 22/09 Q1018
LPOV,2017-10-08 19:00,-8.6459,40.9159,62.60,42.80,48.28,M,1.00,0.00,30.06,M,6.21,M,M,M,M,M,M,M,M,M,M,M,M,M,M,M,M,62.60,LPOV 081900Z VRB01KT CAVOK 17/06 Q1018
LPOV,2017-10-08 20:00,-8.6459,40.9159,59.00,48.20,67.33,M,1.00,0.00,30.09,M,6.21,M,M,M,M,M,M,M,M,M,M,M,M,M,M,M,M,59.00,LPOV 082000Z VRB01KT CAVOK 15/09 Q1019
LPOV,2017-10-08 21:00,-8.6459,40.9159,57.20,44.60,62.69,0.00,0.00,0.00,30.09,M,6.21,M,M,M,M,M,M,M,M,M,M,M,M,M,M,M,M,57.20,LPOV 082100Z 00000KT CAVOK 14/07 Q1019
LPOV,2017-10-08 22:00,-8.6459,40.9159,53.60,41.00,62.23,M,1.00,0.00,30.09,M,6.21,M,M,M,M,M,M,M,M,M,M,M,M,M,M,M,M,53.60,LPOV 082200Z VRB01KT CAVOK 12/05 Q1019
LPOV,2017-10-08 23:00,-8.6459,40.9159,53.60,41.00,62.23,M,1.00,0.00,30.09,M,6.21,M,M,M,M,M,M,M,M,M,M,M,M,M,M,M,M,53.60,LPOV 082300Z VRB01KT CAVOK 12/05 Q1019
LPOV,2017-10-09 00:00,-8.6459,40.9159,50.00,41.00,71.07,M,2.00,0.00,30.09,M,6.21,M,M,M,M,M,M,M,M,M,M,M,M,M,M,M,M,50.00,LPOV 090000Z VRB02KT CAVOK 10/05 Q1019
LPOV,2017-10-09 01:00,-8.6459,40.9159,48.20,41.00,76.01,M,1.00,0.00,30.09,M,6.21,M,M,M,M,M,M,M,M,M,M,M,M,M,M,M,M,48.20,LPOV 090100Z VRB01KT CAVOK 09/05 Q1019
LPOV,2017-10-09 02:00,-8.6459,40.9159,48.20,41.00,76.01,M,1.00,0.00,30.09,M,6.21,M,M,M,M,M,M,M,M,M,M,M,M,M,M,M,M,48.20,LPOV 090200Z VRB01KT CAVOK 09/05 Q1019
LPOV,2017-10-09 03:00,-8.6459,40.9159,46.40,39.20,75.84,0.00,0.00,0.00,30.06,M,6.21,M,M,M,M,M,M,M,M,M,M,M,M,M,M,M,M,46.40,LPOV 090300Z 00000KT CAVOK 08/04 Q1018
LPOV,2017-10-09 04:00,-8.6459,40.9159,46.40,39.20,75.84,M,1.00,0.00,30.06,M,6.21,M,M,M,M,M,M,M,M,M,M,M,M,M,M,M,M,46.40,LPOV 090400Z VRB01KT CAVOK 08/04 Q1018
LPOV,2017-10-09 05:00,-8.6459,40.9159,46.40,39.20,75.84,M,1.00,0.00,30.06,M,6.21,M,M,M,M,M,M,M,M,M,M,M,M,M,M,M,M,46.40,LPOV 090500Z VRB01KT CAVOK 08/04 Q1018
LPOV,2017-10-09 06:00,-8.6459,40.9159,44.60,39.20,81.20,M,2.00,0.00,30.06,M,6.21,M,M,M,M,M,M,M,M,M,M,M,M,M,M,M,M,44.60,LPOV 090600Z VRB02KT CAVOK 07/04 Q1018
LPOV,2017-10-09 07:00,-8.6459,40.9159,42.80,37.40,81.07,M,2.00,0.00,30.09,M,6.21,M,M,M,M,M,M,M,M,M,M,M,M,M,M,M,M,42.80,LPOV 090700Z VRB02KT CAVOK 06/03 Q1019
LPOV,2017-10-09 08:00,-8.6459,40.9159,44.60,39.20,81.20,160.00,3.00,0.00,30.09,M,6.21,M,M,M,M,M,M,M,M,M,M,M,M,M,M,M,M,43.09,LPOV 090800Z 16003KT CAVOK 07/04 Q1019
LPOV,2017-10-09 11:00,-8.6459,40.9159,68.00,48.20,49.10,280.00,6.00,0.00,30.12,M,6.21,M,M,M,M,M,M,M,M,M,M,M,M,M,M,M,M,68.00,LPOV 091100Z 28006KT 250V310 CAVOK 20/09 Q1020
LPOV,2017-10-09 12:00,-8.6459,40.9159,68.00,48.20,49.10,290.00,5.00,0.00,30.09,M,4.97,M,NSC,M,M,M,M,M,M,M,M,M,M,M,M,M,M,68.00,LPOV 091200Z 29005KT 250V360 8000 NSC 20/09 Q1019
LPOV,2017-10-09 13:00,-8.6459,40.9159,68.00,55.40,64.04,300.00,6.00,0.00,30.09,M,4.97,M,NSC,M,M,M,M,M,M,M,M,M,M,M,M,M,M,68.00,LPOV 091300Z 30006KT 250V350 8000 NSC 20/13 Q1019
LPOV,2017-10-09 14:00,-8.6459,40.9159,66.20,55.40,68.15,320.00,6.00,0.00,30.09,M,6.21,M,M,M,M,M,M,M,M,M,M,M,M,M,M,M,M,66.20,LPOV 091400Z 32006KT 270V010 CAVOK 19/13 Q1019
LPOV,2017-10-09 15:00,-8.6459,40.9159,68.00,57.20,68.35,330.00,4.00,0.00,30.06,M,6.21,M,M,M,M,M,M,M,M,M,M,M,M,M,M,M,M,68.00,LPOV 091500Z 33004KT 290V020 CAVOK 20/14 Q1018
LPOV,2017-10-09 16:00,-8.6459,40.9159,68.00,55.40,64.04,340.00,4.00,0.00,30.06,M,6.21,M,M,M,M,M,M,M,M,M,M,M,M,M,M,M,M,68.00,LPOV 091600Z 34004KT 300V030 CAVOK 20/13 Q1018
LPOV,2017-10-09 17:00,-8.6459,40.9159,66.20,53.60,63.82,340.00,5.00,0.00,30.03,M,6.21,M,M,M,M,M,M,M,M,M,M,M,M,M,M,M,M,66.20,LPOV 091700Z 34005KT 320V020 CAVOK 19/12 Q1017
LPOV,2017-10-09 18:00,-8.6459,40.9159,62.60,55.40,77.29,320.00,4.00,0.00,30.06,M,6.21,M,M,M,M,M,M,M,M,M,M,M,M,M,M,M,M,62.60,LPOV 091800Z 32004KT 290V350 CAVOK 17/13 Q1018
LPOV,2017-10-09 19:00,-8.6459,40.9159,59.00,57.20,93.74,M,1.00,0.00,30.06,M,6.21,M,FEW,M,M,M,800.00,M,M,M,M,M,M,M,M,M,M,59.00,LPOV 091900Z VRB01KT 9999 FEW008 15/14 Q1018
LPOV,2017-10-09 20:00,-8.6459,40.9159,53.60,51.80,93.60,M,1.00,0.00,30.06,M,1.24,M,FEW,M,M,M,600.00,M,M,M,BR,M,M,M,M,M,M,53.60,LPOV 092000Z VRB01KT 2000 BR FEW006 12/11 Q1018
LPOV,2017-10-09 21:00,-8.6459,40.9159,53.60,53.60,100.00,170.00,3.00,0.00,30.09,M,0.75,M,BKN,M,M,M,600.00,M,M,M,BR,M,M,M,M,M,M,53.60,LPOV 092100Z 17003KT 1200 BR BKN006 12/12 Q1019
LPOV,2017-10-09 22:00,-8.6459,40.9159,55.40,55.40,100.00,M,2.00,0.00,30.09,M,0.37,M,VV ,M,M,M,M,M,M,M,FG,M,M,M,M,M,M,55.40,LPOV 092200Z VRB02KT 0600 FG VV/// 13/13 Q1019
LPOV,2017-10-09 23:00,-8.6459,40.9159,55.40,53.60,93.65,150.00,4.00,0.00,30.09,M,0.25,M,VV ,M,M,M,M,M,M,M,FG,M,M,M,M,M,M,55.40,LPOV 092300Z 15004KT 0400 FG VV/// 13/12 Q1019
LPOV,2017-10-10 00:00,-8.6459,40.9159,51.80,51.80,100.00,180.00,3.00,0.00,30.09,M,0.43,M,VV ,M,M,M,M,M,M,M,FG,M,M,M,M,M,M,51.80,LPOV 100000Z 18003KT 0700 FG VV/// 11/11 Q1019
LPOV,2017-10-10 01:00,-8.6459,40.9159,51.80,51.80,100.00,M,2.00,0.00,30.06,M,0.19,M,VV ,M,M,M,M,M,M,M,FG,M,M,M,M,M,M,51.80,LPOV 100100Z VRB02KT 0300 FG VV/// 11/11 Q1018
LPOV,2017-10-10 02:00,-8.6459,40.9159,51.80,51.80,100.00,M,2.00,0.00,30.06,M,0.25,M,VV ,M,M,M,M,M,M,M,FG,M,M,M,M,M,M,51.80,LPOV 100200Z VRB02KT 0400 FG VV/// 11/11 Q1018
LPOV,2017-10-10 03:00,-8.6459,40.9159,46.40,46.40,100.00,M,2.00,0.00,30.06,M,0.19,M,VV ,M,M,M,M,M,M,M,FG,M,M,M,M,M,M,46.40,LPOV 100300Z VRB02KT 0300 FG VV/// 08/08 Q1018
LPOV,2017-10-10 04:00,-8.6459,40.9159,46.40,46.40,100.00,M,1.00,0.00,30.06,M,1.24,M,FEW,M,M,M,200.00,M,M,M,BR,M,M,M,M,M,M,46.40,LPOV 100400Z VRB01KT 2000 BR FEW002 08/08 Q1018
LPOV,2017-10-10 05:00,-8.6459,40.9159,46.40,44.60,93.40,M,1.00,0.00,30.06,M,1.24,M,FEW,M,M,M,200.00,M,M,M,BR,M,M,M,M,M,M,46.40,LPOV 100500Z VRB01KT 2000 BR FEW002 08/07 Q1018
LPOV,2017-10-10 06:00,-8.6459,40.9159,42.80,42.80,100.00,M,1.00,0.00,30.06,M,0.75,M,SCT,M,M,M,200.00,M,M,M,BR,M,M,M,M,M,M,42.80,LPOV 100600Z VRB01KT 1200 BR SCT002 06/06 Q1018
LPOV,2017-10-10 07:00,-8.6459,40.9159,42.80,42.80,100.00,M,1.00,0.00,30.09,M,0.43,M,SCT,M,M,M,200.00,M,M,M,FG,M,M,M,M,M,M,42.80,LPOV 100700Z VRB01KT 0700 FG SCT002 06/06 Q1019
LPOV,2017-10-10 08:00,-8.6459,40.9159,44.60,44.60,100.00,M,1.00,0.00,30.09,M,0.75,M,SCT,M,M,M,200.00,M,M,M,BR,M,M,M,M,M,M,44.60,LPOV 100800Z VRB01KT 1200 BR SCT002 07/07 Q1019
LPOV,2017-10-10 09:00,-8.6459,40.9159,50.00,50.00,100.00,M,2.00,0.00,30.09,M,3.73,M,FEW,M,M,M,200.00,M,M,M,M,M,M,M,M,M,M,50.00,LPOV 100900Z VRB02KT 6000 FEW002 10/10 Q1019
LPOV,2017-10-10 10:00,-8.6459,40.9159,57.20,53.60,87.74,290.00,3.00,0.00,30.09,M,4.97,M,FEW,M,M,M,200.00,M,M,M,M,M,M,M,M,M,M,57.20,LPOV 101000Z 29003KT 8000 FEW002 14/12 Q1019
LPOV,2017-10-10 11:00,-8.6459,40.9159,68.00,53.60,59.97,M,2.00,0.00,30.09,M,5.59,M,FEW,M,M,M,200.00,M,M,M,M,M,M,M,M,M,M,68.00,LPOV 101100Z VRB02KT 9000 FEW002 20/12 Q1019
LPOV,2017-10-10 12:00,-8.6459,40.9159,69.80,53.60,56.38,280.00,6.00,0.00,30.09,M,6.21,M,M,M,M,M,M,M,M,M,M,M,M,M,M,M,M,69.80,LPOV 101200Z 28006KT 260V340 CAVOK 21/12 Q1019
LPOV,2017-10-10 13:00,-8.6459,40.9159,66.20,57.20,72.74,310.00,4.00,0.00,30.06,M,6.21,M,M,M,M,M,M,M,M,M,M,M,M,M,M,M,M,66.20,LPOV 101300Z 31004KT CAVOK 19/14 Q1018
LPOV,2017-10-10 14:00,-8.6459,40.9159,64.40,53.60,67.95,280.00,6.00,0.00,30.06,M,6.21,M,M,M,M,M,M,M,M,M,M,M,M,M,M,M,M,64.40,LPOV 101400Z 28006KT CAVOK 18/12 Q1018
LPOV,2017-10-10 15:00,-8.6459,40.9159,62.60,57.20,82.50,300.00,4.00,0.00,30.06,M,6.21,M,FEW,M,M,M,200.00,M,M,M,M,M,M,M,M,M,M,62.60,LPOV 101500Z 30004KT 9999 FEW002 17/14 Q1018
LPOV,2017-10-10 16:00,-8.6459,40.9159,62.60,57.20,82.50,350.00,4.00,0.00,30.06,M,6.21,M,M,M,M,M,M,M,M,M,M,M,M,M,M,M,M,62.60,LPOV 101600Z 35004KT CAVOK 17/14 Q1018
LPOV,2017-10-10 17:00,-8.6459,40.9159,62.60,57.20,82.50,350.00,4.00,0.00,30.03,M,6.21,M,M,M,M,M,M,M,M,M,M,M,M,M,M,M,M,62.60,LPOV 101700Z 35004KT CAVOK 17/14 Q1017
LPOV,2017-10-10 18:00,-8.6459,40.9159,60.80,57.20,87.92,360.00,3.00,0.00,30.06,M,6.21,M,M,M,M,M,M,M,M,M,M,M,M,M,M,M,M,60.80,LPOV 101800Z 36003KT CAVOK 16/14 Q1018
LPOV,2017-10-10 19:00,-8.6459,40.9159,59.00,55.40,87.83,M,2.00,0.00,30.06,M,5.59,M,NSC,M,M,M,M,M,M,M,M,M,M,M,M,M,M,59.00,LPOV 101900Z VRB02KT 9000 NSC 15/13 Q1018
LPOV,2017-10-10 20:00,-8.6459,40.9159,55.40,53.60,93.65,M,2.00,0.00,30.09,M,1.86,M,FEW,M,M,M,200.00,M,M,M,BR,M,M,M,M,M,M,55.40,LPOV 102000Z VRB02KT 3000 BR FEW002 13/12 Q1019
LPOV,2017-10-10 21:00,-8.6459,40.9159,53.60,51.80,93.60,M,2.00,0.00,30.09,M,0.50,M,BKN,M,M,M,200.00,M,M,M,FG,M,M,M,M,M,M,53.60,LPOV 102100Z VRB02KT 0800 FG BKN002 12/11 Q1019
LPOV,2017-10-10 22:00,-8.6459,40.9159,53.60,53.60,100.00,160.00,3.00,0.00,30.09,M,0.12,M,SCT,M,M,M,200.00,M,M,M,FG,M,M,M,M,M,M,53.60,LPOV 102200Z 16003KT 0200 FG SCT002 12/12 Q1019
LPOV,2017-10-10 23:00,-8.6459,40.9159,51.80,51.80,100.00,230.00,3.00,0.00,30.09,M,0.12,M,SCT,M,M,M,200.00,M,M,M,FG,M,M,M,M,M,M,51.80,LPOV 102300Z 23003KT 0200 FG SCT002 11/11 Q1019
LPOV,2017-10-11 00:00,-8.6459,40.9159,50.00,50.00,100.00,M,2.00,0.00,30.09,M,0.12,M,SCT,M,M,M,200.00,M,M,M,FG,M,M,M,M,M,M,50.00,LPOV 110000Z VRB02KT 0200 FG SCT002 10/10 Q1019
LPOV,2017-10-11 01:00,-8.6459,40.9159,50.00,50.00,100.00,M,2.00,0.00,30.12,M,0.12,M,SCT,M,M,M,200.00,M,M,M,FG,M,M,M,M,M,M,50.00,LPOV 110100Z VRB02KT 0200 FG SCT002 10/10 Q1020
LPOV,2017-10-11 02:00,-8.6459,40.9159,51.80,51.80,100.00,M,2.00,0.00,30.12,M,0.12,M,SCT,M,M,M,200.00,M,M,M,FG,M,M,M,M,M,M,51.80,LPOV 110200Z VRB02KT 0200 FG SCT002 11/11 Q1020
LPOV,2017-10-11 03:00,-8.6459,40.9159,51.80,51.80,100.00,M,2.00,0.00,30.12,M,0.12,M,SCT,M,M,M,200.00,M,M,M,FG,M,M,M,M,M,M,51.80,LPOV 110300Z VRB02KT 0200 FG SCT002 11/11 Q1020
LPOV,2017-10-11 04:00,-8.6459,40.9159,51.80,51.80,100.00,M,2.00,0.00,30.12,M,0.12,M,SCT,M,M,M,200.00,M,M,M,FG,M,M,M,M,M,M,51.80,LPOV 110400Z VRB02KT 0200 FG SCT002 11/11 Q1020
LPOV,2017-10-11 05:00,-8.6459,40.9159,51.80,51.80,100.00,M,2.00,0.00,30.09,M,0.12,M,SCT,M,M,M,200.00,M,M,M,FG,M,M,M,M,M,M,51.80,LPOV 110500Z VRB02KT 0200 FG SCT002 11/11 Q1019
LPOV,2017-10-11 06:00,-8.6459,40.9159,51.80,51.80,100.00,M,2.00,0.00,30.12,M,0.12,M,SCT,M,M,M,200.00,M,M,M,FG,M,M,M,M,M,M,51.80,LPOV 110600Z VRB02KT 0200 FG SCT002 11/11 Q1020
LPOV,2017-10-11 07:00,-8.6459,40.9159,51.80,51.80,100.00,M,2.00,0.00,30.12,M,0.06,M,VV ,M,M,M,M,M,M,M,FG,M,M,M,M,M,M,51.80,LPOV 110700Z VRB02KT 0100 FG VV/// 11/11 Q1020
LPOV,2017-10-11 08:00,-8.6459,40.9159,51.80,51.80,100.00,80.00,3.00,0.00,30.12,M,0.06,M,VV ,M,M,M,M,M,M,M,FG,M,M,M,M,M,M,51.80,LPOV 110800Z 08003KT 0100 FG VV/// 11/11 Q1020
LPOV,2017-10-11 09:00,-8.6459,40.9159,51.80,51.80,100.00,M,2.00,0.00,30.15,M,0.06,M,VV ,M,M,M,M,M,M,M,FG,M,M,M,M,M,M,51.80,LPOV 110900Z VRB02KT 0100 FG VV/// 11/11 Q1021
LPOV,2017-10-11 10:00,-8.6459,40.9159,53.60,53.60,100.00,50.00,3.00,0.00,30.15,M,1.86,M,FEW,M,M,M,200.00,M,M,M,BR,M,M,M,M,M,M,53.60,LPOV 111000Z 05003KT 320V080 3000 BR FEW002 12/12 Q1021
LPOV,2017-10-11 11:00,-8.6459,40.9159,57.20,55.40,93.69,290.00,5.00,0.00,30.18,M,4.35,M,FEW,M,M,M,200.00,M,M,M,M,M,M,M,M,M,M,57.20,LPOV 111100Z 29005KT 250V330 7000 FEW002 14/13 Q1022
LPOV,2017-10-11 12:00,-8.6459,40.9159,62.60,55.40,77.29,330.00,4.00,0.00,30.15,M,5.59,M,FEW,M,M,M,400.00,M,M,M,M,M,M,M,M,M,M,62.60,LPOV 111200Z 33004KT 290V030 9000 FEW004 17/13 Q1021
LPOV,2017-10-11 13:00,-8.6459,40.9159,66.20,57.20,72.74,320.00,3.00,0.00,30.15,M,5.59,M,NSC,M,M,M,M,M,M,M,M,M,M,M,M,M,M,66.20,LPOV 111300Z 32003KT 9000 NSC 19/14 Q1021
LPOV,2017-10-11 14:00,-8.6459,40.9159,64.40,57.20,77.45,320.00,6.00,0.00,30.15,M,5.59,M,FEW,M,M,M,400.00,M,M,M,M,M,M,M,M,M,M,64.40,LPOV 111400Z 32006KT 280V010 9000 FEW004 18/14 Q1021
LPOV,2017-10-11 15:00,-8.6459,40.9159,64.40,53.60,67.95,330.00,7.00,0.00,30.15,M,4.97,M,FEW,M,M,M,400.00,M,M,M,M,M,M,M,M,M,M,64.40,LPOV 111500Z 33007KT 8000 FEW004 18/12 Q1021
LPOV,2017-10-11 16:00,-8.6459,40.9159,64.40,57.20,77.45,350.00,9.00,0.00,30.15,M,5.59,M,FEW,M,M,M,400.00,M,M,M,M,M,M,M,M,M,M,64.40,LPOV 111600Z 35009KT 9000 FEW004 18/14 Q1021
LPOV,2017-10-11 17:00,-8.6459,40.9159,60.80,57.20,87.92,340.00,6.00,0.00,30.15,M,5.59,M,FEW,M,M,M,100.00,M,M,M,M,M,M,M,M,M,M,60.80,LPOV 111700Z 34006KT 9000 FEW001 16/14 Q1021
LPOV,2017-10-11 18:00,-8.6459,40.9159,59.00,57.20,93.74,340.00,7.00,0.00,30.15,M,5.59,M,FEW,M,M,M,100.00,M,M,M,M,M,M,M,M,M,M,59.00,LPOV 111800Z 34007KT 9000 FEW001 15/14 Q1021
LPOV,2017-10-11 19:00,-8.6459,40.9159,57.20,57.20,100.00,360.00,6.00,0.00,30.15,M,5.59,M,FEW,M,M,M,100.00,M,M,M,M,M,M,M,M,M,M,57.20,LPOV 111900Z 36006KT 9000 FEW001 14/14 Q1021
LPOV,2017-10-11 20:00,-8.6459,40.9159,57.20,55.40,93.69,350.00,4.00,0.00,30.15,M,5.59,M,FEW,M,M,M,200.00,M,M,M,M,M,M,M,M,M,M,57.20,LPOV 112000Z 35004KT 9000 FEW002 14/13 Q1021
LPOV,2017-10-11 21:00,-8.6459,40.9159,55.40,55.40,100.00,360.00,3.00,0.00,30.18,M,4.35,M,FEW,M,M,M,200.00,M,M,M,M,M,M,M,M,M,M,55.40,LPOV 112100Z 36003KT 7000 FEW002 13/13 Q1022
LPOV,2017-10-11 22:00,-8.6459,40.9159,53.60,53.60,100.00,350.00,3.00,0.00,30.18,M,4.35,M,NSC,M,M,M,M,M,M,M,M,M,M,M,M,M,M,53.60,LPOV 112200Z 35003KT 7000 NSC 12/12 Q1022
LPOV,2017-10-11 23:00,-8.6459,40.9159,55.40,53.60,93.65,M,2.00,0.00,30.15,M,4.97,M,NSC,M,M,M,M,M,M,M,M,M,M,M,M,M,M,55.40,LPOV 112300Z VRB02KT 8000 NSC 13/12 Q1021
LPOV,2017-10-12 00:00,-8.6459,40.9159,51.80,50.00,93.55,M,2.00,0.00,30.15,M,4.35,M,NSC,M,M,M,M,M,M,M,M,M,M,M,M,M,M,51.80,LPOV 120000Z VRB02KT 7000 NSC 11/10 Q1021
LPOV,2017-10-12 01:00,-8.6459,40.9159,50.00,50.00,100.00,M,1.00,0.00,30.15,M,3.11,M,NSC,M,M,M,M,M,M,M,BR,M,M,M,M,M,M,50.00,LPOV 120100Z VRB01KT 5000 BR NSC 10/10 Q1021
LPOV,2017-10-12 02:00,-8.6459,40.9159,48.20,48.20,100.00,160.00,3.00,0.00,30.15,M,3.73,M,NSC,M,M,M,M,M,M,M,M,M,M,M,M,M,M,47.21,LPOV 120200Z 16003KT 6000 NSC 09/09 Q1021
LPOV,2017-10-12 03:00,-8.6459,40.9159,50.00,48.20,93.50,M,2.00,0.00,30.15,M,5.59,M,NSC,M,M,M,M,M,M,M,M,M,M,M,M,M,M,50.00,LPOV 120300Z VRB02KT 9000 NSC 10/09 Q1021
LPOV,2017-10-12 04:00,-8.6459,40.9159,48.20,48.20,100.00,M,1.00,0.00,30.12,M,6.21,M,M,M,M,M,M,M,M,M,M,M,M,M,M,M,M,48.20,LPOV 120400Z VRB01KT CAVOK 09/09 Q1020
LPOV,2017-10-12 05:00,-8.6459,40.9159,48.20,46.40,93.45,M,2.00,0.00,30.15,M,6.21,M,M,M,M,M,M,M,M,M,M,M,M,M,M,M,M,48.20,LPOV 120500Z VRB02KT CAVOK 09/08 Q1021
LPOV,2017-10-12 06:00,-8.6459,40.9159,46.40,44.60,93.40,M,2.00,0.00,30.15,M,6.21,M,M,M,M,M,M,M,M,M,M,M,M,M,M,M,M,46.40,LPOV 120600Z VRB02KT CAVOK 08/07 Q1021
LPOV,2017-10-12 07:00,-8.6459,40.9159,44.60,44.60,100.00,M,1.00,0.00,30.15,M,6.21,M,M,M,M,M,M,M,M,M,M,M,M,M,M,M,M,44.60,LPOV 120700Z VRB01KT CAVOK 07/07 Q1021
LPOV,2017-10-12 08:00,-8.6459,40.9159,48.20,44.60,87.28,M,1.00,0.00,30.15,M,6.21,M,M,M,M,M,M,M,M,M,M,M,M,M,M,M,M,48.20,LPOV 120800Z VRB01KT CAVOK 09/07 Q1021
LPOV,2017-10-12 09:00,-8.6459,40.9159,59.00,51.80,76.98,M,2.00,0.00,30.18,M,6.21,M,M,M,M,M,M,M,M,M,M,M,M,M,M,M,M,59.00,LPOV 120900Z VRB02KT CAVOK 15/11 Q1022
LPOV,2017-10-12 10:00,-8.6459,40.9159,66.20,50.00,55.88,M,2.00,0.00,30.18,M,6.21,M,M,M,M,M,M,M,M,M,M,M,M,M,M,M,M,66.20,LPOV 121000Z VRB02KT CAVOK 19/10 Q1022
LPOV,2017-10-12 11:00,-8.6459,40.9159,73.40,51.80,46.71,270.00,4.00,0.00,30.18,M,6.21,M,M,M,M,M,M,M,M,M,M,M,M,M,M,M,M,73.40,LPOV 121100Z 27004KT 240V310 CAVOK 23/11 Q1022
LPOV,2017-10-12 12:00,-8.6459,40.9159,73.40,53.60,49.90,310.00,4.00,0.00,30.15,M,6.21,M,M,M,M,M,M,M,M,M,M,M,M,M,M,M,M,73.40,LPOV 121200Z 31004KT 270V350 CAVOK 23/12 Q1021
LPOV,2017-10-12 13:00,-8.6459,40.9159,75.20,51.80,43.97,340.00,6.00,0.00,30.15,M,6.21,M,M,M,M,M,M,M,M,M,M,M,M,M,M,M,M,75.20,LPOV 121300Z 34006KT 300V020 CAVOK 24/11 Q1021
LPOV,2017-10-12 14:00,-8.6459,40.9159,75.20,51.80,43.97,350.00,7.00,0.00,30.15,M,6.21,M,M,M,M,M,M,M,M,M,M,M,M,M,M,M,M,75.20,LPOV 121400Z 35007KT 320V030 CAVOK 24/11 Q1021
LPOV,2017-10-12 15:00,-8.6459,40.9159,75.20,51.80,43.97,350.00,10.00,0.00,30.12,M,6.21,M,M,M,M,M,M,M,M,M,M,M,M,M,M,M,M,75.20,LPOV 121500Z 35010KT CAVOK 24/11 Q1020
LPOV,2017-10-12 16:00,-8.6459,40.9159,73.40,53.60,49.90,340.00,7.00,0.00,30.12,M,6.21,M,M,M,M,M,M,M,M,M,M,M,M,M,M,M,M,73.40,LPOV 121600Z 34007KT CAVOK 23/12 Q1020
LPOV,2017-10-12 17:00,-8.6459,40.9159,73.40,55.40,53.29,340.00,7.00,0.00,30.15,M,6.21,M,M,M,M,M,M,M,M,M,M,M,M,M,M,M,M,73.40,LPOV 121700Z 34007KT CAVOK 23/13 Q1021
LPOV,2017-10-12 18:00,-8.6459,40.9159,64.40,57.20,77.45,320.00,4.00,0.00,30.15,M,6.21,M,M,M,M,M,M,M,M,M,M,M,M,M,M,M,M,64.40,LPOV 121800Z 32004KT CAVOK 18/14 Q1021
LPOV,2017-10-12 19:00,-8.6459,40.9159,60.80,55.40,82.37,220.00,3.00,0.00,30.18,M,6.21,M,M,M,M,M,M,M,M,M,M,M,M,M,M,M,M,60.80,LPOV 121900Z 22003KT CAVOK 16/13 Q1022
LPOV,2017-10-12 20:00,-8.6459,40.9159,59.00,55.40,87.83,M,2.00,0.00,30.18,M,6.21,M,M,M,M,M,M,M,M,M,M,M,M,M,M,M,M,59.00,LPOV 122000Z VRB02KT CAVOK 15/13 Q1022
LPOV,2017-10-12 21:00,-8.6459,40.9159,55.40,53.60,93.65,M,2.00,0.00,30.21,M,6.21,M,M,M,M,M,M,M,M,M,M,M,M,M,M,M,M,55.40,LPOV 122100Z VRB02KT CAVOK 13/12 Q1023
LPOV,2017-10-12 22:00,-8.6459,40.9159,53.60,51.80,93.60,M,2.00,0.00,30.21,M,6.21,M,M,M,M,M,M,M,M,M,M,M,M,M,M,M,M,53.60,LPOV 122200Z VRB02KT CAVOK 12/11 Q1023
LPOV,2017-10-12 23:00,-8.6459,40.9159,51.80,50.00,93.55,M,2.00,0.00,30.21,M,6.21,M,M,M,M,M,M,M,M,M,M,M,M,M,M,M,M,51.80,LPOV 122300Z VRB02KT CAVOK 11/10 Q1023
LPOV,2017-10-13 00:00,-8.6459,40.9159,51.80,50.00,93.55,180.00,4.00,0.00,30.21,M,6.21,M,M,M,M,M,M,M,M,M,M,M,M,M,M,M,M,51.80,LPOV 130000Z 18004KT CAVOK 11/10 Q1023
LPOV,2017-10-13 01:00,-8.6459,40.9159,53.60,51.80,93.60,M,1.00,0.00,30.21,M,3.73,M,NSC,M,M,M,M,M,M,M,M,M,M,M,M,M,M,53.60,LPOV 130100Z VRB01KT 6000 NSC 12/11 Q1023
LPOV,2017-10-13 02:00,-8.6459,40.9159,53.60,51.80,93.60,M,1.00,0.00,30.21,M,3.11,M,NSC,M,M,M,M,M,M,M,BR,M,M,M,M,M,M,53.60,LPOV 130200Z VRB01KT 5000 BR NSC 12/11 Q1023
LPOV,2017-10-13 03:00,-8.6459,40.9159,50.00,48.20,93.50,M,2.00,0.00,30.18,M,4.97,M,FEW,M,M,M,400.00,M,M,M,M,M,M,M,M,M,M,50.00,LPOV 130300Z VRB02KT 8000 FEW004 10/09 Q1022
LPOV,2017-10-13 04:00,-8.6459,40.9159,48.20,48.20,100.00,M,2.00,0.00,30.18,M,5.59,M,FEW,M,M,M,400.00,M,M,M,M,M,M,M,M,M,M,48.20,LPOV 130400Z VRB02KT 9000 FEW004 09/09 Q1022
LPOV,2017-10-13 05:00,-8.6459,40.9159,48.20,46.40,93.45,M,2.00,0.00,30.21,M,5.59,M,NSC,M,M,M,M,M,M,M,M,M,M,M,M,M,M,48.20,LPOV 130500Z VRB02KT 9000 NSC 09/08 Q1023
LPOV,2017-10-13 06:00,-8.6459,40.9159,46.40,46.40,100.00,M,2.00,0.00,30.21,M,4.97,M,FEW,M,M,M,400.00,M,M,M,M,M,M,M,M,M,M,46.40,LPOV 130600Z VRB02KT 8000 FEW004 08/08 Q1023
LPOV,2017-10-13 07:00,-8.6459,40.9159,48.20,48.20,100.00,180.00,4.00,0.00,30.21,M,3.11,M,FEW,M,M,M,400.00,M,M,M,BR,M,M,M,M,M,M,46.34,LPOV 130700Z 18004KT 5000 BR FEW004 09/09 Q1023
LPOV,2017-10-13 08:00,-8.6459,40.9159,51.80,50.00,93.55,180.00,3.00,0.00,30.21,M,6.21,M,M,M,M,M,M,M,M,M,M,M,M,M,M,M,M,51.80,LPOV 130800Z 18003KT CAVOK 11/10 Q1023
LPOV,2017-10-13 09:00,-8.6459,40.9159,57.20,51.80,82.12,180.00,4.00,0.00,30.24,M,4.97,M,FEW,M,M,M,400.00,M,M,M,M,M,M,M,M,M,M,57.20,LPOV 130900Z 18004KT 150V220 8000 FEW004 14/11 Q1024
LPOV,2017-10-13 10:00,-8.6459,40.9159,59.00,57.20,93.74,180.00,7.00,0.00,30.27,M,1.86,M,OVC,M,M,M,500.00,M,M,M,BR,M,M,M,M,M,M,59.00,LPOV 131000Z 18007KT 3000 BR OVC005 15/14 Q1025
LPOV,2017-10-13 11:00,-8.6459,40.9159,62.60,59.00,88.00,170.00,4.00,0.00,30.27,M,3.11,M,BKN,M,M,M,600.00,M,M,M,BR,M,M,M,M,M,M,62.60,LPOV 131100Z 17004KT 130V230 5000 BR BKN006 17/15 Q1025
LPOV,2017-10-13 12:00,-8.6459,40.9159,66.20,59.00,77.60,220.00,6.00,0.00,30.24,M,6.21,M,FEW,M,M,M,800.00,M,M,M,M,M,M,M,M,M,M,66.20,LPOV 131200Z 22006KT 160V280 9999 FEW008 19/15 Q1024
LPOV,2017-10-13 13:00,-8.6459,40.9159,66.20,59.00,77.60,240.00,8.00,0.00,30.24,M,6.21,M,M,M,M,M,M,M,M,M,M,M,M,M,M,M,M,66.20,LPOV 131300Z 24008KT 210V280 CAVOK 19/15 Q1024
LPOV,2017-10-13 14:00,-8.6459,40.9159,68.00,60.80,77.75,270.00,8.00,0.00,30.21,M,6.21,M,FEW,M,M,M,500.00,M,M,M,M,M,M,M,M,M,M,68.00,LPOV 131400Z 27008KT 9999 FEW005 20/16 Q1023
LPOV,2017-10-13 15:00,-8.6459,40.9159,64.40,59.00,82.62,270.00,7.00,0.00,30.21,M,6.21,M,FEW,M,M,M,100.00,M,M,M,PRFG,M,M,M,M,M,M,64.40,LPOV 131500Z 27007KT 240V300 9999 1500N PRFG FEW001 18/15 Q1023
LPOV,2017-10-13 16:00,-8.6459,40.9159,60.80,57.20,87.92,250.00,4.00,0.00,30.21,M,0.56,M,FEW,BKN,M,M,100.00,200.00,M,M,FG,M,M,M,M,M,M,60.80,LPOV 131600Z 25004KT 0900 FG FEW001 BKN002 16/14 Q1023
LPOV,2017-10-13 17:00,-8.6459,40.9159,59.00,57.20,93.74,290.00,3.00,0.00,30.21,M,0.19,M,FEW,OVC,M,M,100.00,200.00,M,M,FG,M,M,M,M,M,M,59.00,LPOV 131700Z 29003KT 250V340 0300 FG FEW001 OVC002 15/14 Q1023
LPOV,2017-10-13 18:00,-8.6459,40.9159,59.00,57.20,93.74,210.00,3.00,0.00,30.24,M,1.24,M,OVC,M,M,M,400.00,M,M,M,BR,M,M,M,M,M,M,59.00,LPOV 131800Z 21003KT 2000 BR OVC004 15/14 Q1024
LPOV,2017-10-13 19:00,-8.6459,40.9159,59.00,57.20,93.74,120.00,3.00,0.00,30.21,M,3.73,M,OVC,M,M,M,400.00,M,M,M,M,M,M,M,M,M,M,59.00,LPOV 131900Z 12003KT 6000 OVC004 15/14 Q1023
LPOV,2017-10-13 20:00,-8.6459,40.9159,59.00,57.20,93.74,M,2.00,0.00,30.21,M,1.86,M,OVC,M,M,M,400.00,M,M,M,BR,M,M,M,M,M,M,59.00,LPOV 132000Z VRB02KT 3000 BR OVC004 15/14 Q1023
LPOV,2017-10-13 21:00,-8.6459,40.9159,57.20,57.20,100.00,10.00,3.00,0.00,30.21,M,0.12,M,VV ,M,M,M,M,M,M,M,FG,M,M,M,M,M,M,57.20,LPOV 132100Z 01003KT 340V050 0200 FG VV/// 14/14 Q1023
LPOV,2017-10-13 22:00,-8.6459,40.9159,57.20,57.20,100.00,10.00,3.00,0.00,30.21,M,0.12,M,VV ,M,M,M,M,M,M,M,FG,M,M,M,M,M,M,57.20,LPOV 132200Z 01003KT 0200 FG VV/// 14/14 Q1023
LPOV,2017-10-13 23:00,-8.6459,40.9159,57.20,57.20,100.00,M,1.00,0.00,30.21,M,0.12,M,VV ,M,M,M,M,M,M,M,FG,M,M,M,M,M,M,57.20,LPOV 132300Z VRB01KT 0200 FG VV/// 14/14 Q1023
LPOV,2017-10-14 00:00,-8.6459,40.9159,57.20,57.20,100.00,150.00,4.00,0.00,30.21,M,0.12,M,VV ,M,M,M,M,M,M,M,FG,M,M,M,M,M,M,57.20,LPOV 140000Z 15004KT 120V180 0200 FG VV/// 14/14 Q1023
LPOV,2017-10-14 01:00,-8.6459,40.9159,55.40,53.60,93.65,M,1.00,0.00,30.18,M,0.12,M,VV ,M,M,M,M,M,M,M,FG,M,M,M,M,M,M,55.40,LPOV 140100Z VRB01KT 0200 FG VV/// 13/12 Q1022
LPOV,2017-10-14 02:00,-8.6459,40.9159,53.60,51.80,93.60,M,2.00,0.00,30.18,M,0.25,M,BKN,M,M,M,400.00,M,M,M,FG,M,M,M,M,M,M,53.60,LPOV 140200Z VRB02KT 0400 FG BKN004 12/11 Q1022
LPOV,2017-10-14 03:00,-8.6459,40.9159,51.80,50.00,93.55,60.00,3.00,0.00,30.15,M,1.86,M,SCT,M,M,M,400.00,M,M,M,BR,M,M,M,M,M,M,51.80,LPOV 140300Z 06003KT 3000 BR SCT004 11/10 Q1021
LPOV,2017-10-14 04:00,-8.6459,40.9159,50.00,50.00,100.00,M,1.00,0.00,30.15,M,3.73,M,FEW,M,M,M,400.00,M,M,M,M,M,M,M,M,M,M,50.00,LPOV 140400Z VRB01KT 6000 FEW004 10/10 Q1021
LPOV,2017-10-14 06:00,-8.6459,40.9159,50.00,48.20,93.50,M,1.00,0.00,30.15,M,4.97,M,NSC,M,M,M,M,M,M,M,M,M,M,M,M,M,M,50.00,LPOV 140600Z VRB01KT 8000 NSC 10/09 Q1021
LPOV,2017-10-14 08:00,-8.6459,40.9159,51.80,50.00,93.55,M,1.00,0.00,30.18,M,4.35,M,NSC,M,M,M,M,M,M,M,M,M,M,M,M,M,M,51.80,LPOV 140800Z VRB01KT 7000 NSC 11/10 Q1022
LPOV,2017-10-14 09:00,-8.6459,40.9159,57.20,55.40,93.69,M,1.00,0.00,30.18,M,5.59,M,NSC,M,M,M,M,M,M,M,M,M,M,M,M,M,M,57.20,LPOV 140900Z VRB01KT 9000 NSC 14/13 Q1022
LPOV,2017-10-14 10:00,-8.6459,40.9159,66.20,60.80,82.74,M,1.00,0.00,30.18,M,5.59,M,NSC,M,M,M,M,M,M,M,M,M,M,M,M,M,M,66.20,LPOV 141000Z VRB01KT 9000 NSC 19/16 Q1022
LPOV,2017-10-14 11:00,-8.6459,40.9159,77.00,59.00,53.80,M,2.00,0.00,30.18,M,6.21,M,M,M,M,M,M,M,M,M,M,M,M,M,M,M,M,77.00,LPOV 141100Z VRB02KT CAVOK 25/15 Q1022
LPOV,2017-10-14 12:00,-8.6459,40.9159,82.40,53.60,37.07,170.00,3.00,0.00,30.15,M,6.21,M,M,M,M,M,M,M,M,M,M,M,M,M,M,M,M,82.40,LPOV 141200Z 17003KT CAVOK 28/12 Q1021
LPOV,2017-10-14 13:00,-8.6459,40.9159,82.40,53.60,37.07,260.00,6.00,0.00,30.15,M,6.21,M,M,M,M,M,M,M,M,M,M,M,M,M,M,M,M,82.40,LPOV 141300Z 26006KT CAVOK 28/12 Q1021
LPOV,2017-10-14 14:00,-8.6459,40.9159,82.40,55.40,39.58,180.00,8.00,0.00,30.12,M,6.21,M,M,M,M,M,M,M,M,M,M,M,M,M,M,M,M,82.40,LPOV 141400Z 18008KT CAVOK 28/13 Q1020
LPOV,2017-10-14 15:00,-8.6459,40.9159,82.40,55.40,39.58,160.00,8.00,0.00,30.12,M,6.21,M,M,M,M,M,M,M,M,M,M,M,M,M,M,M,M,82.40,LPOV 141500Z 16008KT CAVOK 28/13 Q1020
LPOV,2017-10-14 16:00,-8.6459,40.9159,84.20,55.40,37.35,160.00,8.00,0.00,30.09,M,6.21,M,M,M,M,M,M,M,M,M,M,M,M,M,M,M,M,83.09,LPOV 141600Z 16008KT CAVOK 29/13 Q1019
LPOV,2017-10-14 17:00,-8.6459,40.9159,84.20,55.40,37.35,140.00,4.00,0.00,30.06,M,6.21,M,M,M,M,M,M,M,M,M,M,M,M,M,M,M,M,83.09,LPOV 141700Z 14004KT CAVOK 29/13 Q1018
LPOV,2017-10-14 18:00,-8.6459,40.9159,84.20,55.40,37.35,150.00,5.00,0.00,30.06,M,6.21,M,M,M,M,M,M,M,M,M,M,M,M,M,M,M,M,83.09,LPOV 141800Z 15005KT CAVOK 29/13 Q1018
LPOV,2017-10-14 19:00,-8.6459,40.9159,80.60,55.40,41.97,180.00,4.00,0.00,30.06,M,6.21,M,M,M,M,M,M,M,M,M,M,M,M,M,M,M,M,80.53,LPOV 141900Z 18004KT CAVOK 27/13 Q1018
LPOV,2017-10-14 20:00,-8.6459,40.9159,78.80,53.60,41.69,190.00,4.00,0.00,30.06,M,6.21,M,M,M,M,M,M,M,M,M,M,M,M,M,M,M,M,78.80,LPOV 142000Z 19004KT CAVOK 26/12 Q1018
LPOV,2017-10-14 21:00,-8.6459,40.9159,75.20,57.20,53.55,240.00,7.00,0.00,30.09,M,6.21,M,M,M,M,M,M,M,M,M,M,M,M,M,M,M,M,75.20,LPOV 142100Z 24007KT CAVOK 24/14 Q1019
LPOV,2017-10-14 22:00,-8.6459,40.9159,73.40,59.00,60.67,M,2.00,0.00,30.09,M,6.21,M,M,M,M,M,M,M,M,M,M,M,M,M,M,M,M,73.40,LPOV 142200Z VRB02KT CAVOK 23/15 Q1019
LPOV,2017-10-14 23:00,-8.6459,40.9159,68.00,55.40,64.04,M,2.00,0.00,30.09,M,6.21,M,M,M,M,M,M,M,M,M,M,M,M,M,M,M,M,68.00,LPOV 142300Z VRB02KT CAVOK 20/13 Q1019
LPOV,2017-10-15 00:00,-8.6459,40.9159,84.20,55.40,37.35,M,2.00,0.00,30.09,M,6.21,M,M,M,M,M,M,M,M,M,M,M,M,M,M,M,M,83.09,LPOV 150000Z VRB02KT CAVOK 29/13 Q1019
LPOV,2017-10-15 03:00,-8.6459,40.9159,64.40,55.40,72.56,M,2.00,0.00,30.09,M,6.21,M,M,M,M,M,M,M,M,M,M,M,M,M,M,M,M,64.40,LPOV 150300Z VRB02KT CAVOK 18/13 Q1019
LPOV,2017-10-15 05:00,-8.6459,40.9159,64.40,55.40,72.56,M,2.00,0.00,30.06,M,6.21,M,M,M,M,M,M,M,M,M,M,M,M,M,M,M,M,64.40,LPOV 150500Z VRB02KT CAVOK 18/13 Q1018
LPOV,2017-10-15 06:00,-8.6459,40.9159,64.40,55.40,72.56,180.00,4.00,0.00,30.06,M,6.21,M,M,M,M,M,M,M,M,M,M,M,M,M,M,M,M,64.40,LPOV 150600Z 18004KT CAVOK 18/13 Q1018
LPOV,2017-10-15 07:00,-8.6459,40.9159,75.20,46.40,35.94,180.00,6.00,0.00,30.06,M,6.21,M,M,M,M,M,M,M,M,M,M,M,M,M,M,M,M,74.11,LPOV 150700Z 18006KT CAVOK 24/08 Q1018
LPOV,2017-10-15 08:00,-8.6459,40.9159,71.60,51.80,49.64,190.00,6.00,0.00,30.06,M,6.21,M,M,M,M,M,M,M,M,M,M,M,M,M,M,M,M,71.60,LPOV 150800Z 19006KT CAVOK 22/11 Q1018
LPOV,2017-10-15 09:00,-8.6459,40.9159,80.60,50.00,34.41,190.00,5.00,0.00,30.06,M,6.21,M,M,M,M,M,M,M,M,M,M,M,M,M,M,M,M,80.60,LPOV 150900Z 19005KT CAVOK 27/10 Q1018
LPOV,2017-10-15 10:00,-8.6459,40.9159,84.20,55.40,37.35,160.00,11.00,0.00,30.06,M,6.21,M,M,M,M,M,M,M,M,M,M,M,M,M,M,M,M,83.09,LPOV 151000Z 16011KT CAVOK 29/13 Q1018
LPOV,2017-10-15 11:00,-8.6459,40.9159,86.00,53.60,33.01,160.00,12.00,0.00,30.03,M,6.21,M,M,M,M,M,M,M,M,M,M,M,M,M,M,M,M,84.18,LPOV 151100Z 16012KT CAVOK 30/12 Q1017
LPOV,2017-10-15 12:00,-8.6459,40.9159,91.40,53.60,27.83,190.00,17.00,0.00,30.00,M,6.21,27.00,M,M,M,M,M,M,M,M,M,M,M,M,M,M,M,89.08,LPOV 151200Z 19017G27KT CAVOK 33/12 Q1016
LPOV,2017-10-15 13:00,-8.6459,40.9159,95.00,53.60,24.89,180.00,20.00,0.00,29.97,M,6.21,30.00,M,M,M,M,M,M,M,M,M,M,M,M,M,M,M,92.71,LPOV 151300Z 18020G30KT CAVOK 35/12 Q1015
LPOV,2017-10-15 14:00,-8.6459,40.9159,95.00,53.60,24.89,190.00,20.00,0.00,29.94,M,6.21,30.00,M,M,M,M,M,M,M,M,M,M,M,M,M,M,M,92.71,LPOV 151400Z 19020G30KT CAVOK 35/12 Q1014
LPOV,2017-10-15 15:00,-8.6459,40.9159,95.00,53.60,24.89,200.00,17.00,0.00,29.94,M,6.21,27.00,M,M,M,M,M,M,M,M,M,M,M,M,M,M,M,92.71,LPOV 151500Z 20017G27KT CAVOK 35/12 Q1014
LPOV,2017-10-15 16:00,-8.6459,40.9159,82.40,55.40,39.58,210.00,15.00,0.00,29.94,M,6.21,25.00,FEW,M,M,M,4500.00,M,M,M,M,M,M,M,M,M,M,82.40,LPOV 151600Z 21015G25KT 9999 FEW045 28/13 Q1014
LPOV,2017-10-15 17:00,-8.6459,40.9159,80.60,55.40,41.97,180.00,9.00,0.00,29.94,M,6.21,M,FEW,M,M,M,4500.00,M,M,M,M,M,M,M,M,M,M,80.53,LPOV 151700Z 18009KT 9999 FEW045 27/13 Q1014
LPOV,2017-10-15 18:00,-8.6459,40.9159,77.00,55.40,47.25,180.00,9.00,0.00,29.94,M,6.21,M,FEW,M,M,M,4000.00,M,M,M,M,M,M,M,M,M,M,77.00,LPOV 151800Z 18009KT 140V230 9999 FEW040 25/13 Q1014
LPOV,2017-10-15 19:00,-8.6459,40.9159,78.80,53.60,41.69,160.00,10.00,0.00,29.94,M,6.21,M,SCT,M,M,M,3500.00,M,M,M,M,M,M,M,M,M,M,78.80,LPOV 151900Z 16010KT 9999 SCT035 26/12 Q1014
LPOV,2017-10-15 20:00,-8.6459,40.9159,77.00,53.60,44.25,200.00,7.00,0.00,29.97,M,6.21,M,SCT,M,M,M,3500.00,M,M,M,M,M,M,M,M,M,M,77.00,LPOV 152000Z 20007KT 160V250 9999 SCT035 25/12 Q1015
LPOV,2017-10-15 21:00,-8.6459,40.9159,75.20,55.40,50.17,210.00,12.00,0.00,30.00,M,6.21,M,SCT,M,M,M,3000.00,M,M,M,M,M,M,M,M,M,M,75.20,LPOV 152100Z 21012KT 150V210 9999 SCT030 24/13 Q1016
LPOV,2017-10-15 22:00,-8.6459,40.9159,75.20,57.20,53.55,190.00,12.00,0.00,30.03,M,6.21,24.00,SCT,M,M,M,3000.00,M,M,M,M,M,M,M,M,M,M,75.20,LPOV 152200Z 19012G24KT 160V220 9999 SCT030 24/14 Q1017
LPOV,2017-10-15 23:00,-8.6459,40.9159,73.40,60.80,64.69,200.00,15.00,0.00,30.03,M,6.21,25.00,SCT,M,M,M,3000.00,M,M,M,M,M,M,M,M,M,M,73.40,LPOV 152300Z 20015G25KT 9999 SCT030 23/16 Q1017
LPOV,2017-10-16 00:00,-8.6459,40.9159,73.40,60.80,64.69,200.00,11.00,0.00,30.06,M,6.21,M,SCT,M,M,M,3000.00,M,M,M,M,M,M,M,M,M,M,73.40,LPOV 160000Z 20011KT 9999 SCT030 23/16 Q1018
LPOV,2017-10-16 01:00,-8.6459,40.9159,71.60,64.40,78.04,190.00,11.00,0.00,30.06,M,6.21,M,SCT,M,M,M,3000.00,M,M,M,M,M,M,M,M,M,M,71.60,LPOV 160100Z 19011KT 9999 SCT030 22/18 Q1018
LPOV,2017-10-16 02:00,-8.6459,40.9159,71.60,64.40,78.04,200.00,10.00,0.00,30.06,M,6.21,M,FEW,BKN,M,M,1500.00,2500.00,M,M,M,M,M,M,M,M,M,71.60,LPOV 160200Z 20010KT 9999 FEW015 BKN025 22/18 Q1018
LPOV,2017-10-16 03:00,-8.6459,40.9159,69.80,64.40,82.98,200.00,8.00,0.00,30.06,M,6.21,M,FEW,BKN,M,M,1500.00,2500.00,M,M,M,M,M,M,M,M,M,69.80,LPOV 160300Z 20008KT 9999 FEW015 BKN025 21/18 Q1018
LPOV,2017-10-16 04:00,-8.6459,40.9159,69.80,66.20,88.34,220.00,6.00,0.00,30.06,M,6.21,M,FEW,SCT,M,M,1500.00,2500.00,M,M,M,M,M,M,M,M,M,69.80,LPOV 160400Z 22006KT 9999 FEW015 SCT025 21/19 Q1018
LPOV,2017-10-16 05:00,-8.6459,40.9159,68.00,66.20,93.97,200.00,6.00,0.00,30.06,M,6.21,M,FEW,SCT,M,M,1500.00,2500.00,M,M,M,M,M,M,M,M,M,68.00,LPOV 160500Z 20006KT 9999 FEW015 SCT025 20/19 Q1018
LPOV,2017-10-16 06:00,-8.6459,40.9159,66.20,62.60,88.18,270.00,5.00,0.00,30.09,M,6.21,M,FEW,BKN,M,M,1200.00,2200.00,M,M,M,M,M,M,M,M,M,66.20,LPOV 160600Z 27005KT 9999 FEW012 BKN022 19/17 Q1019
LPOV,2017-10-16 07:00,-8.6459,40.9159,66.20,62.60,88.18,350.00,4.00,0.00,30.09,M,5.59,M,SCT,BKN,M,M,1200.00,2200.00,M,M,M,M,M,M,M,M,M,66.20,LPOV 160700Z 35004KT 9000 SCT012 BKN022 19/17 Q1019
LPOV,2017-10-16 08:00,-8.6459,40.9159,64.40,62.60,93.88,320.00,5.00,0.00,30.12,M,3.73,M,SCT,BKN,M,M,1200.00,2000.00,M,M,M,M,M,M,M,M,M,64.40,LPOV 160800Z 32005KT 290V360 6000 SCT012 BKN020 18/17 Q1020
LPOV,2017-10-16 09:00,-8.6459,40.9159,64.40,60.80,88.09,350.00,7.00,0.00,30.12,M,4.35,M,SCT,BKN,M,M,1200.00,2000.00,M,M,M,M,M,M,M,M,M,64.40,LPOV 160900Z 35007KT 310V020 7000 SCT012 BKN020 18/16 Q1020
LPOV,2017-10-16 10:00,-8.6459,40.9159,64.40,60.80,88.09,350.00,8.00,0.00,30.15,M,4.35,M,SCT,BKN,M,M,1200.00,2000.00,M,M,M,M,M,M,M,M,M,64.40,LPOV 161000Z 35008KT 7000 SCT012 BKN020 18/16 Q1021
LPOV,2017-10-16 11:00,-8.6459,40.9159,64.40,60.80,88.09,340.00,7.00,0.00,30.15,M,4.35,M,SCT,BKN,M,M,1200.00,2000.00,M,M,M,M,M,M,M,M,M,64.40,LPOV 161100Z 34007KT 7000 SCT012 BKN020 18/16 Q1021
LPOV,2017-10-16 12:00,-8.6459,40.9159,66.20,57.20,72.74,350.00,9.00,0.00,30.15,M,4.97,M,SCT,BKN,M,M,1200.00,2000.00,M,M,M,M,M,M,M,M,M,66.20,LPOV 161200Z 35009KT 8000 SCT012 BKN020 19/14 Q1021
LPOV,2017-10-16 13:00,-8.6459,40.9159,66.20,59.00,77.60,340.00,10.00,0.00,30.12,M,4.97,M,BKN,M,M,M,2000.00,M,M,M,M,M,M,M,M,M,M,66.20,LPOV 161300Z 34010KT 310V010 8000 BKN020 19/15 Q1020
LPOV,2017-10-16 14:00,-8.6459,40.9159,66.20,59.00,77.60,350.00,11.00,0.00,30.12,M,4.97,M,SCT,M,M,M,2000.00,M,M,M,M,M,M,M,M,M,M,66.20,LPOV 161400Z 35011KT 8000 SCT020 19/15 Q1020
LPOV,2017-10-16 15:00,-8.6459,40.9159,66.20,57.20,72.74,350.00,10.00,0.00,30.12,M,4.97,M,SCT,M,M,M,2000.00,M,M,M,M,M,M,M,M,M,M,66.20,LPOV 161500Z 35010KT 8000 SCT020 19/14 Q1020
LPOV,2017-10-16 16:00,-8.6459,40.9159,66.20,57.20,72.74,350.00,11.00,0.00,30.12,M,4.35,M,SCT,BKN,M,M,2000.00,3500.00,M,M,M,M,M,M,M,M,M,66.20,LPOV 161600Z 35011KT 7000 SCT020 BKN035 19/14 Q1020
LPOV,2017-10-16 17:00,-8.6459,40.9159,62.60,59.00,88.00,340.00,9.00,0.00,30.12,M,3.73,M,SCT,BKN,M,M,2000.00,3500.00,M,M,M,M,M,M,M,M,M,62.60,LPOV 161700Z 34009KT 6000 SCT020 BKN035 17/15 Q1020
LPOV,2017-10-16 18:00,-8.6459,40.9159,60.80,57.20,87.92,350.00,6.00,0.00,30.12,M,3.73,M,SCT,BKN,M,M,2000.00,3500.00,M,M,M,M,M,M,M,M,M,60.80,LPOV 161800Z 35006KT 6000 SCT020 BKN035 16/14 Q1020
LPOV,2017-10-16 20:00,-8.6459,40.9159,60.80,59.00,93.79,350.00,4.00,0.00,30.09,M,4.35,M,BKN,BKN,M,M,2000.00,3500.00,M,M,M,M,M,M,M,M,M,60.80,LPOV 162000Z 35004KT 7000 BKN020 BKN035 16/15 Q1019
LPOV,2017-10-16 21:00,-8.6459,40.9159,60.80,59.00,93.79,M,2.00,0.00,30.09,M,3.11,M,FEW,BKN,BKN,M,700.00,2000.00,3500.00,M,BR,M,M,M,M,M,M,60.80,LPOV 162100Z VRB02KT 5000 BR FEW007 BKN020 BKN035 16/15 Q1019
LPOV,2017-10-16 22:00,-8.6459,40.9159,60.80,59.00,93.79,320.00,3.00,0.00,30.09,M,4.35,M,SCT,BKN,FEW,BKN,700.00,1600.00,2500.00,3000.00,TS,M,M,M,M,M,M,60.80,LPOV 162200Z 32003KT 7000 TS SCT007 BKN016 FEW025CB BKN030 16/15 Q1019
LPOV,2017-10-17 00:00,-8.6459,40.9159,59.00,57.20,93.74,340.00,5.00,0.00,30.09,M,3.11,M,FEW,BKN,BKN,M,700.00,1500.00,3000.00,M,-SHRA BR,M,M,M,M,M,M,59.00,LPOV 170000Z 34005KT 5000 -SHRA BR FEW007 BKN015 BKN030 15/14 Q1019
LPOV,2017-10-17 01:00,-8.6459,40.9159,59.00,59.00,100.00,M,2.00,0.00,30.06,M,3.73,M,FEW,BKN,FEW,BKN,500.00,1500.00,2500.00,3000.00,-TSRA,M,M,M,M,M,M,59.00,LPOV 170100Z VRB02KT 6000 -TSRA FEW005 BKN015 FEW025CB BKN030 15/15 Q1018
LPOV,2017-10-17 02:00,-8.6459,40.9159,59.00,59.00,100.00,M,2.00,0.00,30.06,M,3.73,M,SCT,BKN,FEW,M,500.00,1500.00,2500.00,M,-RA,M,M,M,M,M,M,59.00,LPOV 170200Z VRB02KT 6000 -RA SCT005 BKN015 FEW025CB 15/15 Q1018
LPOV,2017-10-17 03:00,-8.6459,40.9159,59.00,57.20,93.74,M,1.00,0.00,30.06,M,4.35,M,SCT,BKN,M,M,500.00,1500.00,M,M,M,M,M,M,M,M,M,59.00,LPOV 170300Z VRB01KT 7000 SCT005 BKN015 15/14 Q1018
LPOV,2017-10-17 04:00,-8.6459,40.9159,59.00,55.40,87.83,M,1.00,0.00,30.06,M,4.35,M,FEW,BKN,M,M,500.00,3000.00,M,M,M,M,M,M,M,M,M,59.00,LPOV 170400Z VRB01KT 7000 FEW005 BKN030 15/13 Q1018
LPOV,2017-10-17 05:00,-8.6459,40.9159,59.00,57.20,93.74,150.00,4.00,0.00,30.06,M,4.35,M,FEW,BKN,M,M,500.00,3000.00,M,M,M,M,M,M,M,M,M,59.00,LPOV 170500Z 15004KT 7000 FEW005 BKN030 15/14 Q1018
LPOV,2017-10-17 06:00,-8.6459,40.9159,57.20,55.40,93.69,M,2.00,0.00,30.06,M,4.35,M,FEW,BKN,M,M,500.00,3000.00,M,M,M,M,M,M,M,M,M,57.20,LPOV 170600Z VRB02KT 7000 FEW005 BKN030 14/13 Q1018
LPOV,2017-10-17 07:00,-8.6459,40.9159,55.40,55.40,100.00,180.00,3.00,0.00,30.06,M,2.49,M,FEW,SCT,M,M,1500.00,3000.00,M,M,MIFG BR,M,M,M,M,M,M,55.40,LPOV 170700Z 18003KT 4000 MIFG BR FEW015 SCT030 13/13 Q1018
LPOV,2017-10-17 08:00,-8.6459,40.9159,57.20,55.40,93.69,120.00,4.00,0.00,30.06,M,3.11,M,FEW,M,M,M,500.00,M,M,M,BR,M,M,M,M,M,M,57.20,LPOV 170800Z 12004KT 5000 BR FEW005 14/13 Q1018
LPOV,2017-10-17 09:00,-8.6459,40.9159,59.00,57.20,93.74,160.00,6.00,0.00,30.06,M,6.21,M,FEW,M,M,M,500.00,M,M,M,M,M,M,M,M,M,M,59.00,LPOV 170900Z 16006KT 9999 FEW005 15/14 Q1018
LPOV,2017-10-17 10:00,-8.6459,40.9159,62.60,57.20,82.50,160.00,8.00,0.00,30.06,M,6.21,M,FEW,M,M,M,1200.00,M,M,M,M,M,M,M,M,M,M,62.60,LPOV 171000Z 16008KT 9999 FEW012 17/14 Q1018
LPOV,2017-10-17 11:00,-8.6459,40.9159,64.40,57.20,77.45,180.00,7.00,0.00,30.06,M,6.21,M,FEW,M,M,M,1800.00,M,M,M,M,M,M,M,M,M,M,64.40,LPOV 171100Z 18007KT 9999 FEW018 18/14 Q1018
LPOV,2017-10-17 12:00,-8.6459,40.9159,66.20,55.40,68.15,180.00,10.00,0.00,30.06,M,6.21,M,FEW,M,M,M,1800.00,M,M,M,M,M,M,M,M,M,M,66.20,LPOV 171200Z 18010KT 140V200 9999 FEW018 19/13 Q1018
LPOV,2017-10-17 13:00,-8.6459,40.9159,68.00,53.60,59.97,190.00,12.00,0.00,30.03,M,6.21,M,FEW,M,M,M,2000.00,M,M,M,M,M,M,M,M,M,M,68.00,LPOV 171300Z 19012KT 150V220 9999 FEW020 20/12 Q1017
LPOV,2017-10-17 14:00,-8.6459,40.9159,68.00,55.40,64.04,230.00,10.00,0.00,30.00,M,6.21,M,FEW,M,M,M,2000.00,M,M,M,M,M,M,M,M,M,M,68.00,LPOV 171400Z 23010KT 200V270 9999 FEW020 20/13 Q1016
LPOV,2017-10-17 15:00,-8.6459,40.9159,68.00,53.60,59.97,240.00,10.00,0.00,29.97,M,6.21,M,FEW,M,M,M,2000.00,M,M,M,M,M,M,M,M,M,M,68.00,LPOV 171500Z 24010KT 190V260 9999 FEW020 20/12 Q1015
LPOV,2017-10-17 16:00,-8.6459,40.9159,64.40,55.40,72.56,250.00,9.00,0.00,29.97,M,6.21,M,FEW,BKN,M,M,2000.00,3500.00,M,M,M,M,M,M,M,M,M,64.40,LPOV 171600Z 25009KT 190V250 9999 FEW020 BKN035 18/13 Q1015
LPOV,2017-10-17 17:00,-8.6459,40.9159,60.80,55.40,82.37,220.00,9.00,0.00,29.97,M,5.59,M,FEW,BKN,M,M,1700.00,3500.00,M,M,-RA,M,M,M,M,M,M,60.80,LPOV 171700Z 22009KT 180V270 9000 -RA FEW017 BKN035 16/13 Q1015
LPOV,2017-10-17 18:00,-8.6459,40.9159,60.80,53.60,77.14,180.00,10.00,0.00,29.97,M,5.59,M,FEW,SCT,M,M,1700.00,3500.00,M,M,-RA,M,M,M,M,M,M,60.80,LPOV 171800Z 18010KT 9000 -RA FEW017 SCT035 16/12 Q1015
LPOV,2017-10-17 19:00,-8.6459,40.9159,59.00,57.20,93.74,200.00,10.00,0.00,29.97,M,4.35,M,FEW,BKN,M,M,900.00,3000.00,M,M,-RA,M,M,M,M,M,M,59.00,LPOV 171900Z 20010KT 7000 -RA FEW009 BKN030 15/14 Q1015
LPOV,2017-10-17 20:00,-8.6459,40.9159,59.00,57.20,93.74,150.00,9.00,0.00,29.94,M,4.35,M,FEW,BKN,M,M,900.00,3000.00,M,M,-RA,M,M,M,M,M,M,59.00,LPOV 172000Z 15009KT 7000 -RA FEW009 BKN030 15/14 Q1014
LPOV,2017-10-17 21:00,-8.6459,40.9159,59.00,57.20,93.74,170.00,10.00,0.00,29.94,M,4.97,M,FEW,SCT,BKN,M,900.00,1500.00,3000.00,M,-RA,M,M,M,M,M,M,59.00,LPOV 172100Z 17010KT 8000 -RA FEW009 SCT015 BKN030 15/14 Q1014
LPOV,2017-10-17 22:00,-8.6459,40.9159,59.00,57.20,93.74,160.00,6.00,0.00,29.94,M,5.59,M,FEW,BKN,M,M,900.00,3000.00,M,M,-RA,M,M,M,M,M,M,59.00,LPOV 172200Z 16006KT 120V190 9000 -RA FEW009 BKN030 15/14 Q1014
LPOV,2017-10-17 23:00,-8.6459,40.9159,59.00,57.20,93.74,180.00,8.00,0.00,29.91,M,4.35,M,SCT,BKN,M,M,900.00,3000.00,M,M,-RA,M,M,M,M,M,M,59.00,LPOV 172300Z 18008KT 7000 -RA SCT009 BKN030 15/14 Q1013
LPOV,2017-10-18 00:00,-8.6459,40.9159,59.00,57.20,93.74,180.00,9.00,0.00,29.88,M,5.59,M,SCT,BKN,M,M,900.00,3000.00,M,M,-RA,M,M,M,M,M,M,59.00,LPOV 180000Z 18009KT 9000 -RA SCT009 BKN030 15/14 Q1012
LPOV,2017-10-18 01:00,-8.6459,40.9159,59.00,59.00,100.00,180.00,11.00,0.00,29.88,M,4.35,M,FEW,SCT,BKN,M,900.00,1500.00,3000.00,M,-RA,M,M,M,M,M,M,59.00,LPOV 180100Z 18011KT 140V220 7000 -RA FEW009 SCT015 BKN030 15/15 Q1012
LPOV,2017-10-18 02:00,-8.6459,40.9159,59.00,57.20,93.74,200.00,5.00,0.00,29.88,M,6.21,M,SCT,BKN,M,M,900.00,3000.00,M,M,M,M,M,M,M,M,M,59.00,LPOV 180200Z 20005KT 9999 SCT009 BKN030 15/14 Q1012
LPOV,2017-10-18 03:00,-8.6459,40.9159,59.00,57.20,93.74,180.00,6.00,0.00,29.88,M,6.21,M,SCT,BKN,M,M,900.00,3000.00,M,M,M,M,M,M,M,M,M,59.00,LPOV 180300Z 18006KT 9999 SCT009 BKN030 15/14 Q1012
LPOV,2017-10-18 04:00,-8.6459,40.9159,59.00,57.20,93.74,200.00,6.00,0.00,29.85,M,6.21,M,FEW,BKN,M,M,900.00,3000.00,M,M,M,M,M,M,M,M,M,59.00,LPOV 180400Z 20006KT 9999 FEW009 BKN030 15/14 Q1011
LPOV,2017-10-18 05:00,-8.6459,40.9159,59.00,57.20,93.74,210.00,3.00,0.00,29.85,M,6.21,M,FEW,BKN,M,M,900.00,3000.00,M,M,M,M,M,M,M,M,M,59.00,LPOV 180500Z 21003KT 9999 FEW009 BKN030 15/14 Q1011
LPOV,2017-10-18 06:00,-8.6459,40.9159,55.40,55.40,100.00,170.00,2.00,0.00,29.85,M,6.21,M,FEW,SCT,M,M,900.00,3000.00,M,M,M,M,M,M,M,M,M,55.40,LPOV 180600Z 17002KT 9999 FEW009 SCT030 13/13 Q1011
LPOV,2017-10-18 07:00,-8.6459,40.9159,53.60,53.60,100.00,160.00,4.00,0.00,29.85,M,6.21,M,FEW,SCT,M,M,900.00,3000.00,M,M,M,M,M,M,M,M,M,53.60,LPOV 180700Z 16004KT 9999 FEW009 SCT030 12/12 Q1011
LPOV,2017-10-18 08:00,-8.6459,40.9159,55.40,53.60,93.65,170.00,4.00,0.00,29.88,M,6.21,M,FEW,FEW,SCT,M,700.00,1800.00,2800.00,M,M,M,M,M,M,M,M,55.40,LPOV 180800Z 17004KT 9999 FEW007 FEW018TCU SCT028 13/12 Q1012
LPOV,2017-10-18 09:00,-8.6459,40.9159,57.20,53.60,87.74,170.00,6.00,0.00,29.91,M,6.21,M,FEW,FEW,SCT,M,1500.00,2000.00,3000.00,M,M,M,M,M,M,M,M,57.20,LPOV 180900Z 17006KT 9999 FEW015 FEW020TCU SCT030 14/12 Q1013
LPOV,2017-10-18 10:00,-8.6459,40.9159,59.00,55.40,87.83,170.00,6.00,0.00,29.88,M,6.21,M,FEW,SCT,M,M,2000.00,3000.00,M,M,M,M,M,M,M,M,M,59.00,LPOV 181000Z 17006KT 9999 FEW020 SCT030 15/13 Q1012
LPOV,2017-10-18 11:00,-8.6459,40.9159,62.60,55.40,77.29,180.00,8.00,0.00,29.88,M,6.21,M,FEW,M,M,M,2000.00,M,M,M,M,M,M,M,M,M,M,62.60,LPOV 181100Z 18008KT 9999 FEW020 17/13 Q1012
LPOV,2017-10-18 12:00,-8.6459,40.9159,64.40,55.40,72.56,200.00,8.00,0.00,29.88,M,6.21,M,SCT,M,M,M,2000.00,M,M,M,M,M,M,M,M,M,M,64.40,LPOV 181200Z 20008KT 9999 SCT020 18/13 Q1012
LPOV,2017-10-18 13:00,-8.6459,40.9159,66.20,55.40,68.15,230.00,8.00,0.00,29.88,M,6.21,M,SCT,M,M,M,2000.00,M,M,M,M,M,M,M,M,M,M,66.20,LPOV 181300Z 23008KT 9999 SCT020 19/13 Q1012
LPOV,2017-10-18 14:00,-8.6459,40.9159,64.40,53.60,67.95,230.00,10.00,0.00,29.88,M,6.21,M,FEW,FEW,M,M,2000.00,2500.00,M,M,M,M,M,M,M,M,M,64.40,LPOV 181400Z 23010KT 9999 FEW020 FEW025TCU 18/12 Q1012
LPOV,2017-10-18 15:00,-8.6459,40.9159,66.20,53.60,63.82,230.00,8.00,0.00,29.85,M,6.21,M,FEW,M,M,M,2000.00,M,M,M,M,M,M,M,M,M,M,66.20,LPOV 181500Z 23008KT 9999 FEW020 19/12 Q1011
LPOV,2017-10-18 16:00,-8.6459,40.9159,64.40,55.40,72.56,230.00,8.00,0.00,29.85,M,6.21,M,FEW,M,M,M,2000.00,M,M,M,M,M,M,M,M,M,M,64.40,LPOV 181600Z 23008KT 190V260 9999 FEW020 18/13 Q1011
LPOV,2017-10-18 17:00,-8.6459,40.9159,64.40,55.40,72.56,220.00,5.00,0.00,29.83,M,6.21,M,FEW,M,M,M,2000.00,M,M,M,M,M,M,M,M,M,M,64.40,LPOV 181700Z 22005KT 190V250 9999 FEW020 18/13 Q1010
LPOV,2017-10-18 18:00,-8.6459,40.9159,60.80,55.40,82.37,M,2.00,0.00,29.85,M,6.21,M,FEW,M,M,M,1800.00,M,M,M,M,M,M,M,M,M,M,60.80,LPOV 181800Z VRB02KT 9999 FEW018 16/13 Q1011
LPOV,2017-10-18 19:00,-8.6459,40.9159,57.20,53.60,87.74,M,1.00,0.00,29.88,M,6.21,M,FEW,M,M,M,2800.00,M,M,M,M,M,M,M,M,M,M,57.20,LPOV 181900Z VRB01KT 9999 FEW028 14/12 Q1012
LPOV,2017-10-18 20:00,-8.6459,40.9159,53.60,51.80,93.60,M,1.00,0.00,29.88,M,6.21,M,FEW,M,M,M,2800.00,M,M,M,M,M,M,M,M,M,M,53.60,LPOV 182000Z VRB01KT 9999 FEW028 12/11 Q1012
LPOV,2017-10-18 21:00,-8.6459,40.9159,53.60,51.80,93.60,0.00,0.00,0.00,29.88,M,6.21,M,FEW,M,M,M,2800.00,M,M,M,M,M,M,M,M,M,M,53.60,LPOV 182100Z 00000KT 9999 FEW028 12/11 Q1012
LPOV,2017-10-18 22:00,-8.6459,40.9159,51.80,50.00,93.55,M,1.00,0.00,29.88,M,6.21,M,M,M,M,M,M,M,M,M,M,M,M,M,M,M,M,51.80,LPOV 182200Z VRB01KT CAVOK 11/10 Q1012
LPOV,2017-10-18 23:00,-8.6459,40.9159,50.00,50.00,100.00,M,2.00,0.00,29.88,M,6.21,M,M,M,M,M,M,M,M,M,M,M,M,M,M,M,M,50.00,LPOV 182300Z VRB02KT CAVOK 10/10 Q1012
LPOV,2017-10-19 00:00,-8.6459,40.9159,50.00,50.00,100.00,0.00,0.00,0.00,29.88,M,6.21,M,M,M,M,M,M,M,M,M,M,M,M,M,M,M,M,50.00,LPOV 190000Z 00000KT CAVOK 10/10 Q1012
LPOV,2017-10-19 01:00,-8.6459,40.9159,48.20,48.20,100.00,M,1.00,0.00,29.88,M,6.21,M,M,M,M,M,M,M,M,M,M,M,M,M,M,M,M,48.20,LPOV 190100Z VRB01KT CAVOK 09/09 Q1012
LPOV,2017-10-19 02:00,-8.6459,40.9159,48.20,46.40,93.45,M,1.00,0.00,29.88,M,6.21,M,M,M,M,M,M,M,M,M,M,M,M,M,M,M,M,48.20,LPOV 190200Z VRB01KT CAVOK 09/08 Q1012
LPOV,2017-10-19 03:00,-8.6459,40.9159,50.00,48.20,93.50,M,1.00,0.00,29.88,M,6.21,M,M,M,M,M,M,M,M,M,M,M,M,M,M,M,M,50.00,LPOV 190300Z VRB01KT CAVOK 10/09 Q1012
LPOV,2017-10-19 04:00,-8.6459,40.9159,50.00,48.20,93.50,M,2.00,0.00,29.88,M,6.21,M,FEW,SCT,M,M,1200.00,2000.00,M,M,M,M,M,M,M,M,M,50.00,LPOV 190400Z VRB02KT 9999 FEW012 SCT020 10/09 Q1012
LPOV,2017-10-19 05:00,-8.6459,40.9159,51.80,50.00,93.55,190.00,4.00,0.00,29.88,M,6.21,M,FEW,BKN,M,M,1200.00,2000.00,M,M,M,M,M,M,M,M,M,51.80,LPOV 190500Z 19004KT 9999 FEW012 BKN020 11/10 Q1012
LPOV,2017-10-19 06:00,-8.6459,40.9159,53.60,51.80,93.60,M,2.00,0.00,29.88,M,6.21,M,FEW,BKN,M,M,1200.00,2000.00,M,M,M,M,M,M,M,M,M,53.60,LPOV 190600Z VRB02KT 9999 FEW012 BKN020 12/11 Q1012
LPOV,2017-10-19 07:00,-8.6459,40.9159,55.40,53.60,93.65,190.00,4.00,0.00,29.88,M,6.21,M,FEW,BKN,M,M,1200.00,2200.00,M,M,M,M,M,M,M,M,M,55.40,LPOV 190700Z 19004KT 9999 FEW012 BKN022 13/12 Q1012
LPOV,2017-10-19 08:00,-8.6459,40.9159,55.40,53.60,93.65,180.00,4.00,0.00,29.91,M,5.59,M,FEW,BKN,M,M,1200.00,2200.00,M,M,-SHRA,M,M,M,M,M,M,55.40,LPOV 190800Z 18004KT 9000 -SHRA FEW012 BKN022 13/12 Q1013
LPOV,2017-10-19 09:00,-8.6459,40.9159,59.00,53.60,82.25,200.00,4.00,0.00,29.94,M,3.73,M,FEW,BKN,M,M,1200.00,2000.00,M,M,-RA,M,M,M,M,M,M,59.00,LPOV 190900Z 20004KT 160V220 6000 -RA FEW012 BKN020 15/12 Q1014
LPOV,2017-10-19 10:00,-8.6459,40.9159,59.00,55.40,87.83,180.00,4.00,0.00,29.94,M,3.73,M,FEW,SCT,M,M,1200.00,3500.00,M,M,-RA,M,M,M,M,M,M,59.00,LPOV 191000Z 18004KT 150V220 6000 -RA FEW012 SCT035 15/13 Q1014
LPOV,2017-10-19 11:00,-8.6459,40.9159,59.00,57.20,93.74,160.00,10.00,0.00,29.94,M,6.21,M,FEW,BKN,M,M,1200.00,3000.00,M,M,M,M,M,M,M,M,M,59.00,LPOV 191100Z 16010KT 9999 FEW012 BKN030 15/14 Q1014
LPOV,2017-10-19 12:00,-8.6459,40.9159,60.80,57.20,87.92,170.00,10.00,0.00,29.94,M,6.21,M,FEW,BKN,M,M,900.00,2500.00,M,M,M,M,M,M,M,M,M,60.80,LPOV 191200Z 17010KT 140V200 9999 FEW009 BKN025 16/14 Q1014
LPOV,2017-10-19 13:00,-8.6459,40.9159,62.60,57.20,82.50,170.00,11.00,0.00,29.94,M,6.21,M,FEW,BKN,M,M,900.00,2000.00,M,M,M,M,M,M,M,M,M,62.60,LPOV 191300Z 17011KT 9999 FEW009 BKN020 17/14 Q1014
LPOV,2017-10-19 14:00,-8.6459,40.9159,64.40,59.00,82.62,170.00,12.00,0.00,29.91,M,6.21,M,FEW,SCT,M,M,900.00,2500.00,M,M,M,M,M,M,M,M,M,64.40,LPOV 191400Z 17012KT 9999 FEW009 SCT025 18/15 Q1013
LPOV,2017-10-19 15:00,-8.6459,40.9159,64.40,59.00,82.62,170.00,9.00,0.00,29.94,M,6.21,M,FEW,SCT,M,M,1200.00,2500.00,M,M,M,M,M,M,M,M,M,64.40,LPOV 191500Z 17009KT 9999 FEW012 SCT025 18/15 Q1014
LPOV,2017-10-19 16:00,-8.6459,40.9159,64.40,62.60,93.88,160.00,6.00,0.00,29.91,M,4.35,M,FEW,BKN,M,M,900.00,1500.00,M,M,-RA,M,M,M,M,M,M,64.40,LPOV 191600Z 16006KT 7000 -RA FEW009 BKN015 18/17 Q1013
LPOV,2017-10-19 17:00,-8.6459,40.9159,62.60,60.80,93.83,170.00,8.00,0.00,29.94,M,3.11,M,FEW,SCT,BKN,M,400.00,900.00,1500.00,M,-RADZ BR,M,M,M,M,M,M,62.60,LPOV 191700Z 17008KT 5000 -RADZ BR FEW004 SCT009 BKN015 17/16 Q1014
LPOV,2017-10-19 18:00,-8.6459,40.9159,62.60,60.80,93.83,170.00,4.00,0.00,29.94,M,1.86,M,SCT,BKN,M,M,400.00,600.00,M,M,-RADZ BR,M,M,M,M,M,M,62.60,LPOV 191800Z 17004KT 3000 -RADZ BR SCT004 BKN006 17/16 Q1014
LPOV,2017-10-19 19:00,-8.6459,40.9159,62.60,60.80,93.83,170.00,8.00,0.00,29.97,M,3.11,M,SCT,BKN,M,M,400.00,600.00,M,M,-RADZ BR,M,M,M,M,M,M,62.60,LPOV 191900Z 17008KT 5000 -RADZ BR SCT004 BKN006 17/16 Q1015
LPOV,2017-10-19 20:00,-8.6459,40.9159,62.60,62.60,100.00,170.00,7.00,0.00,29.97,M,2.49,M,SCT,BKN,M,M,300.00,500.00,M,M,-DZ BR,M,M,M,M,M,M,62.60,LPOV 192000Z 17007KT 4000 -DZ BR SCT003 BKN005 17/17 Q1015
LPOV,2017-10-19 21:00,-8.6459,40.9159,64.40,62.60,93.88,200.00,8.00,0.00,29.97,M,6.21,M,SCT,BKN,M,M,400.00,600.00,M,M,M,M,M,M,M,M,M,64.40,LPOV 192100Z 20008KT 9999 SCT004 BKN006 18/17 Q1015
LPOV,2017-10-19 22:00,-8.6459,40.9159,64.40,62.60,93.88,190.00,6.00,0.00,30.00,M,4.35,M,SCT,BKN,M,M,400.00,600.00,M,M,M,M,M,M,M,M,M,64.40,LPOV 192200Z 19006KT 7000 SCT004 BKN006 18/17 Q1016
LPOV,2017-10-19 23:00,-8.6459,40.9159,64.40,62.60,93.88,190.00,10.00,0.00,30.00,M,4.35,M,SCT,BKN,M,M,400.00,600.00,M,M,M,M,M,M,M,M,M,64.40,LPOV 192300Z 19010KT 7000 SCT004 BKN006 18/17 Q1016
LPOV,2017-10-20 01:00,-8.6459,40.9159,64.40,62.60,93.88,180.00,8.00,0.00,30.00,M,1.24,M,SCT,BKN,M,M,400.00,600.00,M,M,BR,M,M,M,M,M,M,64.40,LPOV 200100Z 18008KT 2000 BR SCT004 BKN006 18/17 Q1016
LPOV,2017-10-20 02:00,-8.6459,40.9159,64.40,62.60,93.88,190.00,9.00,0.00,30.00,M,0.75,M,BKN,M,M,M,400.00,M,M,M,BR,M,M,M,M,M,M,64.40,LPOV 200200Z 19009KT 1200 BR BKN004 18/17 Q1016
LPOV,2017-10-20 03:00,-8.6459,40.9159,64.40,64.40,100.00,180.00,7.00,0.00,30.00,M,0.75,M,FEW,BKN,M,M,200.00,400.00,M,M,-RADZ BR,M,M,M,M,M,M,64.40,LPOV 200300Z 18007KT 1200 -RADZ BR FEW002 BKN004 18/18 Q1016
LPOV,2017-10-20 04:00,-8.6459,40.9159,64.40,64.40,100.00,180.00,5.00,0.00,30.00,M,2.49,M,FEW,BKN,M,M,200.00,400.00,M,M,BR,M,M,M,M,M,M,64.40,LPOV 200400Z 18005KT 4000 BR FEW002 BKN004 18/18 Q1016
LPOV,2017-10-20 05:00,-8.6459,40.9159,64.40,64.40,100.00,190.00,4.00,0.00,30.00,M,1.24,M,FEW,BKN,M,M,200.00,400.00,M,M,BR,M,M,M,M,M,M,64.40,LPOV 200500Z 19004KT 130V230 2000 BR FEW002 BKN004 18/18 Q1016
LPOV,2017-10-20 06:00,-8.6459,40.9159,64.40,64.40,100.00,170.00,5.00,0.00,30.03,M,0.75,M,FEW,BKN,M,M,200.00,400.00,M,M,BR,M,M,M,M,M,M,64.40,LPOV 200600Z 17005KT 1200 BR FEW002 BKN004 18/18 Q1017
LPOV,2017-10-20 07:00,-8.6459,40.9159,64.40,64.40,100.00,180.00,5.00,0.00,30.03,M,0.75,M,FEW,BKN,M,M,200.00,400.00,M,M,-DZ BR,M,M,M,M,M,M,64.40,LPOV 200700Z 18005KT 1200 -DZ BR FEW002 BKN004 18/18 Q1017
LPOV,2017-10-20 08:00,-8.6459,40.9159,64.40,64.40,100.00,170.00,6.00,0.00,30.06,M,0.75,M,SCT,OVC,M,M,200.00,400.00,M,M,-DZ BR,M,M,M,M,M,M,64.40,LPOV 200800Z 17006KT 1200 -DZ BR SCT002 OVC004 18/18 Q1018
LPOV,2017-10-20 09:00,-8.6459,40.9159,66.20,66.20,100.00,170.00,6.00,0.00,30.06,M,0.75,M,SCT,OVC,M,M,200.00,400.00,M,M,-DZ BR,M,M,M,M,M,M,66.20,LPOV 200900Z 17006KT 1200 -DZ BR SCT002 OVC004 19/19 Q1018
LPOV,2017-10-20 10:00,-8.6459,40.9159,66.20,66.20,100.00,190.00,6.00,0.00,30.09,M,0.93,M,SCT,OVC,M,M,200.00,400.00,M,M,-DZ BR,M,M,M,M,M,M,66.20,LPOV 201000Z 19006KT 1500 -DZ BR SCT002 OVC004 19/19 Q1019
LPOV,2017-10-20 11:00,-8.6459,40.9159,66.20,66.20,100.00,210.00,9.00,0.00,30.09,M,0.50,M,SCT,OVC,M,M,200.00,400.00,M,M,-DZ FG,M,M,M,M,M,M,66.20,LPOV 201100Z 21009KT 0800 -DZ FG SCT002 OVC004 19/19 Q1019
LPOV,2017-10-20 12:00,-8.6459,40.9159,68.00,66.20,93.97,210.00,6.00,0.00,30.09,M,2.49,M,SCT,BKN,M,M,300.00,500.00,M,M,BR,M,M,M,M,M,M,68.00,LPOV 201200Z 21006KT 180V240 4000 BR SCT003 BKN005 20/19 Q1019
LPOV,2017-10-20 13:00,-8.6459,40.9159,68.00,66.20,93.97,220.00,6.00,0.00,30.09,M,3.11,M,SCT,BKN,M,M,300.00,500.00,M,M,BR,M,M,M,M,M,M,68.00,LPOV 201300Z 22006KT 5000 BR SCT003 BKN005 20/19 Q1019
LPOV,2017-10-20 14:00,-8.6459,40.9159,68.00,66.20,93.97,220.00,7.00,0.00,30.09,M,4.35,M,SCT,BKN,M,M,300.00,500.00,M,M,M,M,M,M,M,M,M,68.00,LPOV 201400Z 22007KT 7000 SCT003 BKN005 20/19 Q1019
LPOV,2017-10-20 15:00,-8.6459,40.9159,68.00,66.20,93.97,200.00,6.00,0.00,30.09,M,5.59,M,FEW,SCT,BKN,M,300.00,500.00,2000.00,M,M,M,M,M,M,M,M,68.00,LPOV 201500Z 20006KT 9000 FEW003 SCT005 BKN020 20/19 Q1019
LPOV,2017-10-20 16:00,-8.6459,40.9159,69.80,66.20,88.34,210.00,7.00,0.00,30.09,M,6.21,M,FEW,BKN,M,M,300.00,2000.00,M,M,M,M,M,M,M,M,M,69.80,LPOV 201600Z 21007KT 9999 FEW003 BKN020 21/19 Q1019
LPOV,2017-10-20 17:00,-8.6459,40.9159,68.00,66.20,93.97,200.00,8.00,0.00,30.09,M,6.21,M,FEW,BKN,M,M,300.00,2000.00,M,M,M,M,M,M,M,M,M,68.00,LPOV 201700Z 20008KT 9999 FEW003 BKN020 20/19 Q1019
LPOV,2017-10-20 18:00,-8.6459,40.9159,68.00,66.20,93.97,210.00,10.00,0.00,30.09,M,6.21,M,SCT,BKN,M,M,300.00,2000.00,M,M,M,M,M,M,M,M,M,68.00,LPOV 201800Z 21010KT 9999 SCT003 BKN020 20/19 Q1019
LPOV,2017-10-20 19:00,-8.6459,40.9159,66.20,66.20,100.00,190.00,6.00,0.00,30.12,M,6.21,M,SCT,BKN,M,M,300.00,2000.00,M,M,M,M,M,M,M,M,M,66.20,LPOV 201900Z 19006KT 9999 SCT003 BKN020 19/19 Q1020
LPOV,2017-10-20 20:00,-8.6459,40.9159,66.20,66.20,100.00,180.00,7.00,0.00,30.12,M,6.21,M,SCT,BKN,M,M,300.00,2000.00,M,M,M,M,M,M,M,M,M,66.20,LPOV 202000Z 18007KT 9999 SCT003 BKN020 19/19 Q1020
LPOV,2017-10-20 21:00,-8.6459,40.9159,68.00,66.20,93.97,210.00,10.00,0.00,30.12,M,6.21,M,SCT,SCT,BKN,M,300.00,500.00,2000.00,M,-DZ,M,M,M,M,M,M,68.00,LPOV 202100Z 21010KT 9999 -DZ SCT003 SCT005 BKN020 20/19 Q1020
LPOV,2017-10-20 22:00,-8.6459,40.9159,66.20,66.20,100.00,210.00,9.00,0.00,30.15,M,6.21,M,FEW,SCT,BKN,M,300.00,500.00,2000.00,M,M,M,M,M,M,M,M,66.20,LPOV 202200Z 21009KT 9999 FEW003 SCT005 BKN020 19/19 Q1021
LPOV,2017-10-20 23:00,-8.6459,40.9159,66.20,64.40,93.92,210.00,10.00,0.00,30.18,M,6.21,M,FEW,SCT,BKN,M,300.00,500.00,2000.00,M,-DZ,M,M,M,M,M,M,66.20,LPOV 202300Z 21010KT 9999 -DZ FEW003 SCT005 BKN020 19/18 Q1022
LPOV,2017-10-21 00:00,-8.6459,40.9159,60.80,59.00,93.79,360.00,7.00,0.00,30.18,M,6.21,M,SCT,BKN,BKN,M,200.00,400.00,1500.00,M,-DZ,M,M,M,M,M,M,60.80,LPOV 210000Z 36007KT 9999 -DZ SCT002 BKN004 BKN015 16/15 Q1022
LPOV,2017-10-21 01:00,-8.6459,40.9159,60.80,59.00,93.79,M,2.00,0.00,30.18,M,5.59,M,SCT,BKN,BKN,M,200.00,400.00,1500.00,M,-DZ,M,M,M,M,M,M,60.80,LPOV 210100Z VRB02KT 9000 -DZ SCT002 BKN004 BKN015 16/15 Q1022
LPOV,2017-10-21 02:00,-8.6459,40.9159,60.80,59.00,93.79,340.00,3.00,0.00,30.21,M,5.59,M,SCT,BKN,BKN,M,200.00,400.00,1500.00,M,-DZRA,M,M,M,M,M,M,60.80,LPOV 210200Z 34003KT 9000 -DZRA SCT002 BKN004 BKN015 16/15 Q1023
LPOV,2017-10-21 03:00,-8.6459,40.9159,60.80,59.00,93.79,M,2.00,0.00,30.21,M,6.21,M,FEW,SCT,BKN,M,200.00,400.00,1500.00,M,M,M,M,M,M,M,M,60.80,LPOV 210300Z VRB02KT 9999 FEW002 SCT004 BKN015 16/15 Q1023
LPOV,2017-10-21 04:00,-8.6459,40.9159,60.80,59.00,93.79,M,2.00,0.00,30.21,M,6.21,M,FEW,BKN,M,M,200.00,1500.00,M,M,M,M,M,M,M,M,M,60.80,LPOV 210400Z VRB02KT 9999 FEW002 BKN015 16/15 Q1023
LPOV,2017-10-21 05:00,-8.6459,40.9159,59.00,59.00,100.00,M,1.00,0.00,30.24,M,3.11,M,FEW,BKN,M,M,400.00,1500.00,M,M,BR,M,M,M,M,M,M,59.00,LPOV 210500Z VRB01KT 5000 BR FEW004 BKN015 15/15 Q1024
LPOV,2017-10-21 06:00,-8.6459,40.9159,59.00,57.20,93.74,M,1.00,0.00,30.24,M,0.56,M,FEW,SCT,M,M,400.00,1500.00,M,M,FG,M,M,M,M,M,M,59.00,LPOV 210600Z VRB01KT 0900 FG FEW004 SCT015 15/14 Q1024
LPOV,2017-10-21 07:00,-8.6459,40.9159,57.20,57.20,100.00,M,1.00,0.00,30.27,M,0.25,M,FEW,SCT,M,M,400.00,1500.00,M,M,FG,M,M,M,M,M,M,57.20,LPOV 210700Z VRB01KT 0400 FG FEW004 SCT015 14/14 Q1025
LPOV,2017-10-21 08:00,-8.6459,40.9159,55.40,55.40,100.00,M,1.00,0.00,30.30,M,1.86,M,FEW,M,M,M,1500.00,M,M,M,MIFG BR,M,M,M,M,M,M,55.40,LPOV 210800Z VRB01KT 3000 MIFG BR FEW015 13/13 Q1026
LPOV,2017-10-21 09:00,-8.6459,40.9159,59.00,59.00,100.00,M,1.00,0.00,30.33,M,4.35,M,FEW,M,M,M,1500.00,M,M,M,M,M,M,M,M,M,M,59.00,LPOV 210900Z VRB01KT 7000 FEW015 15/15 Q1027
LPOV,2017-10-21 10:00,-8.6459,40.9159,60.80,57.20,87.92,10.00,3.00,0.00,30.33,M,4.35,M,FEW,M,M,M,200.00,M,M,M,BCFG,M,M,M,M,M,M,60.80,LPOV 211000Z 01003KT 7000 0800N BCFG FEW002 16/14 Q1027
LPOV,2017-10-21 11:00,-8.6459,40.9159,64.40,57.20,77.45,280.00,4.00,0.00,30.33,M,3.73,M,FEW,M,M,M,1500.00,M,M,M,M,M,M,M,M,M,M,64.40,LPOV 211100Z 28004KT 240V330 6000 FEW015 18/14 Q1027
LPOV,2017-10-21 12:00,-8.6459,40.9159,66.20,55.40,68.15,330.00,4.00,0.00,30.33,M,4.97,M,FEW,SCT,M,M,1700.00,3500.00,M,M,M,M,M,M,M,M,M,66.20,LPOV 211200Z 33004KT 280V020 8000 FEW017 SCT035 19/13 Q1027
LPOV,2017-10-21 13:00,-8.6459,40.9159,66.20,57.20,72.74,320.00,6.00,0.00,30.33,M,6.21,M,FEW,M,M,M,1800.00,M,M,M,M,M,M,M,M,M,M,66.20,LPOV 211300Z 32006KT 9999 FEW018 19/14 Q1027
LPOV,2017-10-21 14:00,-8.6459,40.9159,64.40,57.20,77.45,340.00,7.00,0.00,30.33,M,6.21,M,FEW,M,M,M,1800.00,M,M,M,M,M,M,M,M,M,M,64.40,LPOV 211400Z 34007KT 280V050 9999 FEW018 18/14 Q1027
LPOV,2017-10-21 15:00,-8.6459,40.9159,64.40,55.40,72.56,340.00,11.00,0.00,30.33,M,6.21,M,FEW,M,M,M,2000.00,M,M,M,M,M,M,M,M,M,M,64.40,LPOV 211500Z 34011KT 9999 FEW020 18/13 Q1027
LPOV,2017-10-21 16:00,-8.6459,40.9159,62.60,53.60,72.38,350.00,12.00,0.00,30.33,M,6.21,M,FEW,M,M,M,2000.00,M,M,M,M,M,M,M,M,M,M,62.60,LPOV 211600Z 35012KT 9999 FEW020 17/12 Q1027
LPOV,2017-10-21 17:00,-8.6459,40.9159,62.60,53.60,72.38,350.00,11.00,0.00,30.33,M,6.21,M,FEW,M,M,M,2000.00,M,M,M,M,M,M,M,M,M,M,62.60,LPOV 211700Z 35011KT 9999 FEW020 17/12 Q1027
LPOV,2017-10-21 18:00,-8.6459,40.9159,60.80,57.20,87.92,350.00,10.00,0.00,30.33,M,6.21,M,FEW,M,M,M,3500.00,M,M,M,M,M,M,M,M,M,M,60.80,LPOV 211800Z 35010KT 9999 FEW035 16/14 Q1027
LPOV,2017-10-21 19:00,-8.6459,40.9159,60.80,57.20,87.92,350.00,10.00,0.00,30.36,M,6.21,M,FEW,M,M,M,3500.00,M,M,M,M,M,M,M,M,M,M,60.80,LPOV 211900Z 35010KT 9999 FEW035 16/14 Q1028
LPOV,2017-10-21 20:00,-8.6459,40.9159,59.00,50.00,72.01,10.00,6.00,0.00,30.36,M,6.21,M,M,M,M,M,M,M,M,M,M,M,M,M,M,M,M,59.00,LPOV 212000Z 01006KT 340V040 CAVOK 15/10 Q1028
LPOV,2017-10-21 21:00,-8.6459,40.9159,55.40,50.00,81.99,M,2.00,0.00,30.36,M,6.21,M,M,M,M,M,M,M,M,M,M,M,M,M,M,M,M,55.40,LPOV 212100Z VRB02KT CAVOK 13/10 Q1028
LPOV,2017-10-21 22:00,-8.6459,40.9159,55.40,50.00,81.99,M,1.00,0.00,30.39,M,6.21,M,M,M,M,M,M,M,M,M,M,M,M,M,M,M,M,55.40,LPOV 212200Z VRB01KT CAVOK 13/10 Q1029
LPOV,2017-10-21 23:00,-8.6459,40.9159,50.00,48.20,93.50,M,1.00,0.00,30.39,M,6.21,M,M,M,M,M,M,M,M,M,M,M,M,M,M,M,M,50.00,LPOV 212300Z VRB01KT CAVOK 10/09 Q1029
LPOV,2017-10-22 00:00,-8.6459,40.9159,50.00,48.20,93.50,M,2.00,0.00,30.39,M,6.21,M,M,M,M,M,M,M,M,M,M,M,M,M,M,M,M,50.00,LPOV 220000Z VRB02KT CAVOK 10/09 Q1029
LPOV,2017-10-22 01:00,-8.6459,40.9159,48.20,46.40,93.45,M,1.00,0.00,30.36,M,6.21,M,M,M,M,M,M,M,M,M,M,M,M,M,M,M,M,48.20,LPOV 220100Z VRB01KT CAVOK 09/08 Q1028
LPOV,2017-10-22 02:00,-8.6459,40.9159,46.40,46.40,100.00,M,1.00,0.00,30.36,M,6.21,M,M,M,M,M,M,M,M,M,M,M,M,M,M,M,M,46.40,LPOV 220200Z VRB01KT CAVOK 08/08 Q1028
LPOV,2017-10-22 03:00,-8.6459,40.9159,46.40,44.60,93.40,M,2.00,0.00,30.36,M,6.21,M,M,M,M,M,M,M,M,M,M,M,M,M,M,M,M,46.40,LPOV 220300Z VRB02KT CAVOK 08/07 Q1028
LPOV,2017-10-22 04:00,-8.6459,40.9159,46.40,42.80,87.19,360.00,3.00,0.00,30.36,M,6.21,M,M,M,M,M,M,M,M,M,M,M,M,M,M,M,M,45.15,LPOV 220400Z 36003KT CAVOK 08/06 Q1028
LPOV,2017-10-22 06:00,-8.6459,40.9159,44.60,42.80,93.35,350.00,4.00,0.00,30.36,M,6.21,M,M,M,M,M,M,M,M,M,M,M,M,M,M,M,M,42.13,LPOV 220600Z 35004KT CAVOK 07/06 Q1028
LPOV,2017-10-22 07:00,-8.6459,40.9159,42.80,42.80,100.00,M,2.00,0.00,30.36,M,6.21,M,NSC,M,M,M,M,M,M,M,MIFG,M,M,M,M,M,M,42.80,LPOV 220700Z VRB02KT 9999 MIFG NSC 06/06 Q1028
LPOV,2017-10-22 08:00,-8.6459,40.9159,44.60,42.80,93.35,M,1.00,0.00,30.36,M,6.21,M,M,M,M,M,M,M,M,M,M,M,M,M,M,M,M,44.60,LPOV 220800Z VRB01KT CAVOK 07/06 Q1028
LPOV,2017-10-22 09:00,-8.6459,40.9159,50.00,48.20,93.50,20.00,7.00,0.00,30.36,M,6.21,M,M,M,M,M,M,M,M,M,M,M,M,M,M,M,M,46.72,LPOV 220900Z 02007KT CAVOK 10/09 Q1028
LPOV,2017-10-22 10:00,-8.6459,40.9159,57.20,46.40,67.12,10.00,8.00,0.00,30.36,M,6.21,M,M,M,M,M,M,M,M,M,M,M,M,M,M,M,M,57.20,LPOV 221000Z 01008KT CAVOK 14/08 Q1028
LPOV,2017-10-22 11:00,-8.6459,40.9159,60.80,44.60,55.12,30.00,7.00,0.00,30.36,M,6.21,M,M,M,M,M,M,M,M,M,M,M,M,M,M,M,M,60.80,LPOV 221100Z 03007KT 350V070 CAVOK 16/07 Q1028
LPOV,2017-10-22 12:00,-8.6459,40.9159,62.60,48.20,59.26,360.00,7.00,0.00,30.36,M,6.21,M,M,M,M,M,M,M,M,M,M,M,M,M,M,M,M,62.60,LPOV 221200Z 36007KT 320V050 CAVOK 17/09 Q1028
LPOV,2017-10-22 13:00,-8.6459,40.9159,62.60,50.00,63.38,350.00,10.00,0.00,30.33,M,6.21,M,M,M,M,M,M,M,M,M,M,M,M,M,M,M,M,62.60,LPOV 221300Z 35010KT CAVOK 17/10 Q1027
LPOV,2017-10-22 14:00,-8.6459,40.9159,64.40,51.80,63.60,360.00,10.00,0.00,30.30,M,6.21,M,M,M,M,M,M,M,M,M,M,M,M,M,M,M,M,64.40,LPOV 221400Z 36010KT CAVOK 18/11 Q1026
LPOV,2017-10-22 15:00,-8.6459,40.9159,62.60,51.80,67.75,340.00,11.00,0.00,30.30,M,6.21,M,M,M,M,M,M,M,M,M,M,M,M,M,M,M,M,62.60,LPOV 221500Z 34011KT 300V010 CAVOK 17/11 Q1026
LPOV,2017-10-22 16:00,-8.6459,40.9159,62.60,53.60,72.38,350.00,12.00,0.00,30.27,M,6.21,M,M,M,M,M,M,M,M,M,M,M,M,M,M,M,M,62.60,LPOV 221600Z 35012KT CAVOK 17/12 Q1025
LPOV,2017-10-22 17:00,-8.6459,40.9159,60.80,53.60,77.14,350.00,10.00,0.00,30.27,M,6.21,M,M,M,M,M,M,M,M,M,M,M,M,M,M,M,M,60.80,LPOV 221700Z 35010KT CAVOK 16/12 Q1025
LPOV,2017-10-22 18:00,-8.6459,40.9159,60.80,53.60,77.14,350.00,10.00,0.00,30.30,M,6.21,M,M,M,M,M,M,M,M,M,M,M,M,M,M,M,M,60.80,LPOV 221800Z 35010KT CAVOK 16/12 Q1026
LPOV,2017-10-22 19:00,-8.6459,40.9159,59.00,53.60,82.25,350.00,12.00,0.00,30.30,M,6.21,M,M,M,M,M,M,M,M,M,M,M,M,M,M,M,M,59.00,LPOV 221900Z 35012KT CAVOK 15/12 Q1026
LPOV,2017-10-22 20:00,-8.6459,40.9159,57.20,51.80,82.12,10.00,4.00,0.00,30.30,M,6.21,M,M,M,M,M,M,M,M,M,M,M,M,M,M,M,M,57.20,LPOV 222000Z 01004KT CAVOK 14/11 Q1026
LPOV,2017-10-22 21:00,-8.6459,40.9159,53.60,50.00,87.56,40.00,2.00,0.00,30.30,M,6.21,M,M,M,M,M,M,M,M,M,M,M,M,M,M,M,M,53.60,LPOV 222100Z 04002KT CAVOK 12/10 Q1026
LPOV,2017-10-22 22:00,-8.6459,40.9159,51.80,50.00,93.55,M,2.00,0.00,30.30,M,6.21,M,M,M,M,M,M,M,M,M,M,M,M,M,M,M,M,51.80,LPOV 222200Z VRB02KT CAVOK 11/10 Q1026
LPOV,2017-10-22 23:00,-8.6459,40.9159,51.80,50.00,93.55,360.00,3.00,0.00,30.30,M,6.21,M,M,M,M,M,M,M,M,M,M,M,M,M,M,M,M,51.80,LPOV 222300Z 36003KT CAVOK 11/10 Q1026
LPOV,2017-10-23 00:00,-8.6459,40.9159,50.00,48.20,93.50,M,2.00,0.00,30.27,M,6.21,M,M,M,M,M,M,M,M,M,M,M,M,M,M,M,M,50.00,LPOV 230000Z VRB02KT CAVOK 10/09 Q1025
LPOV,2017-10-23 01:00,-8.6459,40.9159,48.20,46.40,93.45,M,1.00,0.00,30.27,M,6.21,M,M,M,M,M,M,M,M,M,M,M,M,M,M,M,M,48.20,LPOV 230100Z VRB01KT CAVOK 09/08 Q1025
LPOV,2017-10-23 02:00,-8.6459,40.9159,46.40,46.40,100.00,M,1.00,0.00,30.27,M,6.21,M,M,M,M,M,M,M,M,M,M,M,M,M,M,M,M,46.40,LPOV 230200Z VRB01KT CAVOK 08/08 Q1025
LPOV,2017-10-23 03:00,-8.6459,40.9159,44.60,44.60,100.00,M,2.00,0.00,30.27,M,6.21,M,M,M,M,M,M,M,M,M,M,M,M,M,M,M,M,44.60,LPOV 230300Z VRB02KT CAVOK 07/07 Q1025
LPOV,2017-10-23 04:00,-8.6459,40.9159,44.60,44.60,100.00,M,2.00,0.00,30.39,M,6.21,M,M,M,M,M,M,M,M,M,M,M,M,M,M,M,M,44.60,LPOV 230400Z VRB02KT CAVOK 07/07 Q1029
LPOV,2017-10-23 05:00,-8.6459,40.9159,44.60,44.60,100.00,M,1.00,0.00,30.24,M,6.21,M,M,M,M,M,M,M,M,M,M,M,M,M,M,M,M,44.60,LPOV 230500Z VRB01KT CAVOK 07/07 Q1024
LPOV,2017-10-23 06:00,-8.6459,40.9159,44.60,42.80,93.35,0.00,0.00,0.00,30.24,M,6.21,M,M,M,M,M,M,M,M,M,M,M,M,M,M,M,M,44.60,LPOV 230600Z 00000KT CAVOK 07/06 Q1024
LPOV,2017-10-23 07:00,-8.6459,40.9159,42.80,41.00,93.30,M,2.00,0.00,30.24,M,6.21,M,M,M,M,M,M,M,M,M,M,M,M,M,M,M,M,42.80,LPOV 230700Z VRB02KT CAVOK 06/05 Q1024
LPOV,2017-10-23 08:00,-8.6459,40.9159,44.60,42.80,93.35,190.00,4.00,0.00,30.27,M,6.21,M,M,M,M,M,M,M,M,M,M,M,M,M,M,M,M,42.13,LPOV 230800Z 19004KT CAVOK 07/06 Q1025
LPOV,2017-10-23 09:00,-8.6459,40.9159,53.60,51.80,93.60,M,1.00,0.00,30.27,M,6.21,M,M,M,M,M,M,M,M,M,M,M,M,M,M,M,M,53.60,LPOV 230900Z VRB01KT CAVOK 12/11 Q1025
LPOV,2017-10-23 10:00,-8.6459,40.9159,60.80,50.00,67.54,M,1.00,0.00,30.27,M,6.21,M,M,M,M,M,M,M,M,M,M,M,M,M,M,M,M,60.80,LPOV 231000Z VRB01KT CAVOK 16/10 Q1025
LPOV,2017-10-23 11:00,-8.6459,40.9159,66.20,51.80,59.74,310.00,3.00,0.00,30.27,M,6.21,M,M,M,M,M,M,M,M,M,M,M,M,M,M,M,M,66.20,LPOV 231100Z 31003KT 240V010 CAVOK 19/11 Q1025
LPOV,2017-10-23 12:00,-8.6459,40.9159,69.80,50.00,49.37,290.00,4.00,0.00,30.27,M,6.21,M,M,M,M,M,M,M,M,M,M,M,M,M,M,M,M,69.80,LPOV 231200Z 29004KT CAVOK 21/10 Q1025
LPOV,2017-10-23 13:00,-8.6459,40.9159,68.00,53.60,59.97,280.00,6.00,0.00,30.27,M,6.21,M,M,M,M,M,M,M,M,M,M,M,M,M,M,M,M,68.00,LPOV 231300Z 28006KT 250V310 CAVOK 20/12 Q1025
LPOV,2017-10-23 14:00,-8.6459,40.9159,68.00,51.80,56.13,340.00,6.00,0.00,30.24,M,6.21,M,M,M,M,M,M,M,M,M,M,M,M,M,M,M,M,68.00,LPOV 231400Z 34006KT 300V020 CAVOK 20/11 Q1024
LPOV,2017-10-23 15:00,-8.6459,40.9159,68.00,53.60,59.97,340.00,8.00,0.00,30.21,M,6.21,M,M,M,M,M,M,M,M,M,M,M,M,M,M,M,M,68.00,LPOV 231500Z 34008KT CAVOK 20/12 Q1023
LPOV,2017-10-23 16:00,-8.6459,40.9159,66.20,55.40,68.15,340.00,7.00,0.00,30.21,M,6.21,M,M,M,M,M,M,M,M,M,M,M,M,M,M,M,M,66.20,LPOV 231600Z 34007KT CAVOK 19/13 Q1023
LPOV,2017-10-23 17:00,-8.6459,40.9159,66.20,51.80,59.74,350.00,8.00,0.00,30.18,M,6.21,M,M,M,M,M,M,M,M,M,M,M,M,M,M,M,M,66.20,LPOV 231700Z 35008KT CAVOK 19/11 Q1022
LPOV,2017-10-23 18:00,-8.6459,40.9159,60.80,53.60,77.14,350.00,5.00,0.00,30.18,M,6.21,M,M,M,M,M,M,M,M,M,M,M,M,M,M,M,M,60.80,LPOV 231800Z 35005KT CAVOK 16/12 Q1022
LPOV,2017-10-23 19:00,-8.6459,40.9159,60.80,57.20,87.92,M,2.00,0.00,30.18,M,6.21,M,M,M,M,M,M,M,M,M,M,M,M,M,M,M,M,60.80,LPOV 231900Z VRB02KT CAVOK 16/14 Q1022
LPOV,2017-10-23 20:00,-8.6459,40.9159,55.40,53.60,93.65,M,1.00,0.00,30.18,M,6.21,M,M,M,M,M,M,M,M,M,M,M,M,M,M,M,M,55.40,LPOV 232000Z VRB01KT CAVOK 13/12 Q1022
LPOV,2017-10-23 21:00,-8.6459,40.9159,53.60,51.80,93.60,M,2.00,0.00,30.18,M,6.21,M,M,M,M,M,M,M,M,M,M,M,M,M,M,M,M,53.60,LPOV 232100Z VRB02KT CAVOK 12/11 Q1022
LPOV,2017-10-23 22:00,-8.6459,40.9159,51.80,50.00,93.55,M,1.00,0.00,30.18,M,6.21,M,M,M,M,M,M,M,M,M,M,M,M,M,M,M,M,51.80,LPOV 232200Z VRB01KT CAVOK 11/10 Q1022
LPOV,2017-10-23 23:00,-8.6459,40.9159,50.00,48.20,93.50,M,1.00,0.00,30.18,M,6.21,M,M,M,M,M,M,M,M,M,M,M,M,M,M,M,M,50.00,LPOV 232300Z VRB01KT CAVOK 10/09 Q1022
LPOV,2017-10-24 00:00,-8.6459,40.9159,50.00,48.20,93.50,M,1.00,0.00,30.18,M,6.21,M,M,M,M,M,M,M,M,M,M,M,M,M,M,M,M,50.00,LPOV 240000Z VRB01KT CAVOK 10/09 Q1022
LPOV,2017-10-24 01:00,-8.6459,40.9159,48.20,48.20,100.00,M,2.00,0.00,30.18,M,6.21,M,M,M,M,M,M,M,M,M,M,M,M,M,M,M,M,48.20,LPOV 240100Z VRB02KT CAVOK 09/09 Q1022
LPOV,2017-10-24 02:00,-8.6459,40.9159,48.20,46.40,93.45,M,1.00,0.00,30.15,M,6.21,M,M,M,M,M,M,M,M,M,M,M,M,M,M,M,M,48.20,LPOV 240200Z VRB01KT CAVOK 09/08 Q1021
LPOV,2017-10-24 04:00,-8.6459,40.9159,48.20,46.40,93.45,M,1.00,0.00,30.15,M,6.21,M,M,M,M,M,M,M,M,M,M,M,M,M,M,M,M,48.20,LPOV 240400Z VRB01KT CAVOK 09/08 Q1021
LPOV,2017-10-24 05:00,-8.6459,40.9159,46.40,44.60,93.40,M,2.00,0.00,30.15,M,6.21,M,M,M,M,M,M,M,M,M,M,M,M,M,M,M,M,46.40,LPOV 240500Z VRB02KT CAVOK 08/07 Q1021
LPOV,2017-10-24 06:00,-8.6459,40.9159,46.40,44.60,93.40,M,1.00,0.00,30.15,M,6.21,M,M,M,M,M,M,M,M,M,M,M,M,M,M,M,M,46.40,LPOV 240600Z VRB01KT CAVOK 08/07 Q1021
LPOV,2017-10-24 07:00,-8.6459,40.9159,46.40,44.60,93.40,M,2.00,0.00,30.15,M,6.21,M,M,M,M,M,M,M,M,M,M,M,M,M,M,M,M,46.40,LPOV 240700Z VRB02KT CAVOK 08/07 Q1021
LPOV,2017-10-24 08:00,-8.6459,40.9159,48.20,46.40,93.45,M,1.00,0.00,30.18,M,6.21,M,M,M,M,M,M,M,M,M,M,M,M,M,M,M,M,48.20,LPOV 240800Z VRB01KT CAVOK 09/08 Q1022
LPOV,2017-10-24 09:00,-8.6459,40.9159,57.20,50.00,76.82,M,2.00,0.00,30.18,M,6.21,M,M,M,M,M,M,M,M,M,M,M,M,M,M,M,M,57.20,LPOV 240900Z VRB02KT CAVOK 14/10 Q1022
LPOV,2017-10-24 10:00,-8.6459,40.9159,68.00,53.60,59.97,M,1.00,0.00,30.18,M,6.21,M,M,M,M,M,M,M,M,M,M,M,M,M,M,M,M,68.00,LPOV 241000Z VRB01KT CAVOK 20/12 Q1022
LPOV,2017-10-24 11:00,-8.6459,40.9159,75.20,50.00,41.14,M,2.00,0.00,30.18,M,6.21,M,M,M,M,M,M,M,M,M,M,M,M,M,M,M,M,75.20,LPOV 241100Z VRB02KT CAVOK 24/10 Q1022
LPOV,2017-10-24 12:00,-8.6459,40.9159,77.00,53.60,44.25,280.00,4.00,0.00,30.15,M,6.21,M,M,M,M,M,M,M,M,M,M,M,M,M,M,M,M,77.00,LPOV 241200Z 28004KT 250V310 CAVOK 25/12 Q1021
LPOV,2017-10-24 13:00,-8.6459,40.9159,78.80,51.80,39.02,300.00,4.00,0.00,30.15,M,6.21,M,M,M,M,M,M,M,M,M,M,M,M,M,M,M,M,78.80,LPOV 241300Z 30004KT 260V340 CAVOK 26/11 Q1021
LPOV,2017-10-24 14:00,-8.6459,40.9159,77.00,53.60,44.25,280.00,6.00,0.00,30.12,M,6.21,M,M,M,M,M,M,M,M,M,M,M,M,M,M,M,M,77.00,LPOV 241400Z 28006KT 260V330 CAVOK 25/12 Q1020
LPOV,2017-10-24 15:00,-8.6459,40.9159,77.00,48.20,36.22,320.00,5.00,0.00,30.12,M,6.21,M,M,M,M,M,M,M,M,M,M,M,M,M,M,M,M,77.00,LPOV 241500Z 32005KT 290V350 CAVOK 25/09 Q1020
LPOV,2017-10-24 16:00,-8.6459,40.9159,73.40,55.40,53.29,320.00,5.00,0.00,30.12,M,6.21,M,M,M,M,M,M,M,M,M,M,M,M,M,M,M,M,73.40,LPOV 241600Z 32005KT 280V350 CAVOK 23/13 Q1020
LPOV,2017-10-24 17:00,-8.6459,40.9159,71.60,55.40,56.63,350.00,3.00,0.00,30.12,M,6.21,M,M,M,M,M,M,M,M,M,M,M,M,M,M,M,M,71.60,LPOV 241700Z 35003KT 330V040 CAVOK 22/13 Q1020
LPOV,2017-10-24 18:00,-8.6459,40.9159,64.40,57.20,77.45,M,2.00,0.00,30.12,M,6.21,M,M,M,M,M,M,M,M,M,M,M,M,M,M,M,M,64.40,LPOV 241800Z VRB02KT CAVOK 18/14 Q1020
LPOV,2017-10-24 19:00,-8.6459,40.9159,60.80,55.40,82.37,0.00,0.00,0.00,30.15,M,6.21,M,M,M,M,M,M,M,M,M,M,M,M,M,M,M,M,60.80,LPOV 241900Z 00000KT CAVOK 16/13 Q1021
LPOV,2017-10-24 20:00,-8.6459,40.9159,59.00,53.60,82.25,0.00,0.00,0.00,30.15,M,6.21,M,M,M,M,M,M,M,M,M,M,M,M,M,M,M,M,59.00,LPOV 242000Z 00000KT CAVOK 15/12 Q1021
LPOV,2017-10-24 21:00,-8.6459,40.9159,57.20,50.00,76.82,M,1.00,0.00,30.15,M,6.21,M,M,M,M,M,M,M,M,M,M,M,M,M,M,M,M,57.20,LPOV 242100Z VRB01KT CAVOK 14/10 Q1021
LPOV,2017-10-24 22:00,-8.6459,40.9159,55.40,50.00,81.99,M,1.00,0.00,30.15,M,6.21,M,M,M,M,M,M,M,M,M,M,M,M,M,M,M,M,55.40,LPOV 242200Z VRB01KT CAVOK 13/10 Q1021
LPOV,2017-10-24 23:00,-8.6459,40.9159,55.40,50.00,81.99,M,1.00,0.00,30.15,M,6.21,M,M,M,M,M,M,M,M,M,M,M,M,M,M,M,M,55.40,LPOV 242300Z VRB01KT CAVOK 13/10 Q1021
LPOV,2017-10-25 00:00,-8.6459,40.9159,50.00,46.40,87.37,190.00,4.00,0.00,30.12,M,6.21,M,M,M,M,M,M,M,M,M,M,M,M,M,M,M,M,48.44,LPOV 250000Z 19004KT CAVOK 10/08 Q1020
LPOV,2017-10-25 01:00,-8.6459,40.9159,48.20,46.40,93.45,M,1.00,0.00,30.12,M,6.21,M,M,M,M,M,M,M,M,M,M,M,M,M,M,M,M,48.20,LPOV 250100Z VRB01KT CAVOK 09/08 Q1020
LPOV,2017-10-25 02:00,-8.6459,40.9159,48.20,44.60,87.28,M,1.00,0.00,30.12,M,6.21,M,M,M,M,M,M,M,M,M,M,M,M,M,M,M,M,48.20,LPOV 250200Z VRB01KT CAVOK 09/07 Q1020
LPOV,2017-10-25 03:00,-8.6459,40.9159,48.20,46.40,93.45,M,1.00,0.00,30.12,M,6.21,M,M,M,M,M,M,M,M,M,M,M,M,M,M,M,M,48.20,LPOV 250300Z VRB01KT CAVOK 09/08 Q1020
LPOV,2017-10-25 04:00,-8.6459,40.9159,48.20,44.60,87.28,M,1.00,0.00,30.12,M,6.21,M,M,M,M,M,M,M,M,M,M,M,M,M,M,M,M,48.20,LPOV 250400Z VRB01KT CAVOK 09/07 Q1020
LPOV,2017-10-25 05:00,-8.6459,40.9159,48.20,44.60,87.28,M,2.00,0.00,30.12,M,6.21,M,M,M,M,M,M,M,M,M,M,M,M,M,M,M,M,48.20,LPOV 250500Z VRB02KT CAVOK 09/07 Q1020
LPOV,2017-10-25 06:00,-8.6459,40.9159,48.20,44.60,87.28,M,2.00,0.00,30.12,M,6.21,M,M,M,M,M,M,M,M,M,M,M,M,M,M,M,M,48.20,LPOV 250600Z VRB02KT CAVOK 09/07 Q1020
LPOV,2017-10-25 07:00,-8.6459,40.9159,46.40,44.60,93.40,0.00,0.00,0.00,30.12,M,6.21,M,M,M,M,M,M,M,M,M,M,M,M,M,M,M,M,46.40,LPOV 250700Z 00000KT CAVOK 08/07 Q1020
LPOV,2017-10-25 08:00,-8.6459,40.9159,48.20,46.40,93.45,M,1.00,0.00,30.12,M,6.21,M,M,M,M,M,M,M,M,M,M,M,M,M,M,M,M,48.20,LPOV 250800Z VRB01KT CAVOK 09/08 Q1020
LPOV,2017-10-25 09:00,-8.6459,40.9159,57.20,50.00,76.82,M,1.00,0.00,30.15,M,6.21,M,M,M,M,M,M,M,M,M,M,M,M,M,M,M,M,57.20,LPOV 250900Z VRB01KT CAVOK 14/10 Q1021
LPOV,2017-10-25 10:00,-8.6459,40.9159,68.00,55.40,64.04,M,2.00,0.00,30.15,M,6.21,M,M,M,M,M,M,M,M,M,M,M,M,M,M,M,M,68.00,LPOV 251000Z VRB02KT CAVOK 20/13 Q1021
LPOV,2017-10-25 11:00,-8.6459,40.9159,77.00,53.60,44.25,290.00,3.00,0.00,30.12,M,6.21,M,M,M,M,M,M,M,M,M,M,M,M,M,M,M,M,77.00,LPOV 251100Z 29003KT CAVOK 25/12 Q1020
LPOV,2017-10-25 12:00,-8.6459,40.9159,77.00,57.20,50.43,280.00,5.00,0.00,30.12,M,6.21,M,M,M,M,M,M,M,M,M,M,M,M,M,M,M,M,77.00,LPOV 251200Z 28005KT CAVOK 25/14 Q1020
LPOV,2017-10-25 13:00,-8.6459,40.9159,73.40,53.60,49.90,280.00,5.00,0.00,30.09,M,6.21,M,M,M,M,M,M,M,M,M,M,M,M,M,M,M,M,73.40,LPOV 251300Z 28005KT 230V310 CAVOK 23/12 Q1019
LPOV,2017-10-25 14:00,-8.6459,40.9159,73.40,55.40,53.29,280.00,4.00,0.00,30.09,M,6.21,M,M,M,M,M,M,M,M,M,M,M,M,M,M,M,M,73.40,LPOV 251400Z 28004KT 240V320 CAVOK 23/13 Q1019
LPOV,2017-10-25 15:00,-8.6459,40.9159,73.40,55.40,53.29,290.00,5.00,0.00,30.09,M,6.21,M,M,M,M,M,M,M,M,M,M,M,M,M,M,M,M,73.40,LPOV 251500Z 29005KT 220V330 CAVOK 23/13 Q1019
LPOV,2017-10-25 16:00,-8.6459,40.9159,69.80,57.20,64.26,280.00,5.00,0.00,30.12,M,6.21,M,M,M,M,M,M,M,M,M,M,M,M,M,M,M,M,69.80,LPOV 251600Z 28005KT 220V340 CAVOK 21/14 Q1020
LPOV,2017-10-25 17:00,-8.6459,40.9159,68.00,59.00,72.92,220.00,3.00,0.00,30.12,M,6.21,M,M,M,M,M,M,M,M,M,M,M,M,M,M,M,M,68.00,LPOV 251700Z 22003KT CAVOK 20/15 Q1020
LPOV,2017-10-25 18:00,-8.6459,40.9159,66.20,59.00,77.60,150.00,3.00,0.00,30.15,M,6.21,M,M,M,M,M,M,M,M,M,M,M,M,M,M,M,M,66.20,LPOV 251800Z 15003KT 120V180 CAVOK 19/15 Q1021
LPOV,2017-10-25 19:00,-8.6459,40.9159,62.60,57.20,82.50,190.00,3.00,0.00,30.15,M,6.21,M,FEW,M,M,M,900.00,M,M,M,M,M,M,M,M,M,M,62.60,LPOV 251900Z 19003KT 9999 FEW009 17/14 Q1021
LPOV,2017-10-25 20:00,-8.6459,40.9159,64.40,59.00,82.62,190.00,3.00,0.00,30.18,M,6.21,M,M,M,M,M,M,M,M,M,M,M,M,M,M,M,M,64.40,LPOV 252000Z 19003KT CAVOK 18/15 Q1022
LPOV,2017-10-25 21:00,-8.6459,40.9159,64.40,60.80,88.09,M,2.00,0.00,30.21,M,6.21,M,FEW,M,M,M,1200.00,M,M,M,M,M,M,M,M,M,M,64.40,LPOV 252100Z VRB02KT 9999 FEW012 18/16 Q1023
LPOV,2017-10-25 22:00,-8.6459,40.9159,64.40,59.00,82.62,150.00,3.00,0.00,30.21,M,6.21,M,FEW,M,M,M,1200.00,M,M,M,M,M,M,M,M,M,M,64.40,LPOV 252200Z 15003KT 100V200 9999 FEW012 18/15 Q1023
LPOV,2017-10-25 23:00,-8.6459,40.9159,62.60,59.00,88.00,180.00,3.00,0.00,30.21,M,6.21,M,M,M,M,M,M,M,M,M,M,M,M,M,M,M,M,62.60,LPOV 252300Z 18003KT CAVOK 17/15 Q1023
LPOV,2017-10-26 00:00,-8.6459,40.9159,60.80,57.20,87.92,190.00,4.00,0.00,30.21,M,6.21,M,M,M,M,M,M,M,M,M,M,M,M,M,M,M,M,60.80,LPOV 260000Z 19004KT CAVOK 16/14 Q1023
LPOV,2017-10-26 01:00,-8.6459,40.9159,59.00,57.20,93.74,M,2.00,0.00,30.21,M,6.21,M,M,M,M,M,M,M,M,M,M,M,M,M,M,M,M,59.00,LPOV 260100Z VRB02KT CAVOK 15/14 Q1023
LPOV,2017-10-26 02:00,-8.6459,40.9159,59.00,57.20,93.74,M,2.00,0.00,30.21,M,6.21,M,M,M,M,M,M,M,M,M,M,M,M,M,M,M,M,59.00,LPOV 260200Z VRB02KT CAVOK 15/14 Q1023
LPOV,2017-10-26 03:00,-8.6459,40.9159,55.40,55.40,100.00,M,1.00,0.00,30.21,M,6.21,M,M,M,M,M,M,M,M,M,M,M,M,M,M,M,M,55.40,LPOV 260300Z VRB01KT CAVOK 13/13 Q1023
LPOV,2017-10-26 04:00,-8.6459,40.9159,55.40,55.40,100.00,M,2.00,0.00,30.21,M,6.21,M,M,M,M,M,M,M,M,M,M,M,M,M,M,M,M,55.40,LPOV 260400Z VRB02KT CAVOK 13/13 Q1023
LPOV,2017-10-26 05:00,-8.6459,40.9159,55.40,53.60,93.65,M,1.00,0.00,30.21,M,6.21,M,M,M,M,M,M,M,M,M,M,M,M,M,M,M,M,55.40,LPOV 260500Z VRB01KT CAVOK 13/12 Q1023
LPOV,2017-10-26 06:00,-8.6459,40.9159,53.60,51.80,93.60,M,1.00,0.00,30.21,M,6.21,M,M,M,M,M,M,M,M,M,M,M,M,M,M,M,M,53.60,LPOV 260600Z VRB01KT CAVOK 12/11 Q1023
LPOV,2017-10-26 07:00,-8.6459,40.9159,53.60,51.80,93.60,M,1.00,0.00,30.21,M,6.21,M,M,M,M,M,M,M,M,M,M,M,M,M,M,M,M,53.60,LPOV 260700Z VRB01KT CAVOK 12/11 Q1023
LPOV,2017-10-26 08:00,-8.6459,40.9159,53.60,53.60,100.00,M,1.00,0.00,30.24,M,6.21,M,M,M,M,M,M,M,M,M,M,M,M,M,M,M,M,53.60,LPOV 260800Z VRB01KT CAVOK 12/12 Q1024
LPOV,2017-10-26 09:00,-8.6459,40.9159,60.80,59.00,93.79,M,1.00,0.00,30.24,M,6.21,M,M,M,M,M,M,M,M,M,M,M,M,M,M,M,M,60.80,LPOV 260900Z VRB01KT CAVOK 16/15 Q1024
LPOV,2017-10-26 10:00,-8.6459,40.9159,69.80,60.80,73.09,M,1.00,0.00,30.27,M,6.21,M,M,M,M,M,M,M,M,M,M,M,M,M,M,M,M,69.80,LPOV 261000Z VRB01KT CAVOK 21/16 Q1025
LPOV,2017-10-26 11:00,-8.6459,40.9159,75.20,57.20,53.55,M,2.00,0.00,30.27,M,6.21,M,M,M,M,M,M,M,M,M,M,M,M,M,M,M,M,75.20,LPOV 261100Z VRB02KT CAVOK 24/14 Q1025
LPOV,2017-10-26 12:00,-8.6459,40.9159,77.00,59.00,53.80,270.00,5.00,0.00,30.27,M,6.21,M,M,M,M,M,M,M,M,M,M,M,M,M,M,M,M,77.00,LPOV 261200Z 27005KT CAVOK 25/15 Q1025
LPOV,2017-10-26 13:00,-8.6459,40.9159,78.80,59.00,50.69,290.00,5.00,0.00,30.24,M,6.21,M,M,M,M,M,M,M,M,M,M,M,M,M,M,M,M,78.80,LPOV 261300Z 29005KT 250V340 CAVOK 26/15 Q1024
LPOV,2017-10-26 14:00,-8.6459,40.9159,77.00,59.00,53.80,310.00,6.00,0.00,30.24,M,6.21,M,M,M,M,M,M,M,M,M,M,M,M,M,M,M,M,77.00,LPOV 261400Z 31006KT CAVOK 25/15 Q1024
LPOV,2017-10-26 15:00,-8.6459,40.9159,77.00,59.00,53.80,340.00,5.00,0.00,30.24,M,6.21,M,M,M,M,M,M,M,M,M,M,M,M,M,M,M,M,77.00,LPOV 261500Z 34005KT 310V010 CAVOK 25/15 Q1024
LPOV,2017-10-26 16:00,-8.6459,40.9159,77.00,57.20,50.43,340.00,5.00,0.00,30.24,M,6.21,M,M,M,M,M,M,M,M,M,M,M,M,M,M,M,M,77.00,LPOV 261600Z 34005KT CAVOK 25/14 Q1024
LPOV,2017-10-26 17:00,-8.6459,40.9159,75.20,59.00,57.12,340.00,5.00,0.00,30.24,M,6.21,M,M,M,M,M,M,M,M,M,M,M,M,M,M,M,M,75.20,LPOV 261700Z 34005KT CAVOK 24/15 Q1024
LPOV,2017-10-26 18:00,-8.6459,40.9159,68.00,59.00,72.92,M,2.00,0.00,30.27,M,6.21,M,M,M,M,M,M,M,M,M,M,M,M,M,M,M,M,68.00,LPOV 261800Z VRB02KT CAVOK 20/15 Q1025
LPOV,2017-10-26 19:00,-8.6459,40.9159,66.20,57.20,72.74,M,2.00,0.00,30.27,M,6.21,M,M,M,M,M,M,M,M,M,M,M,M,M,M,M,M,66.20,LPOV 261900Z VRB02KT CAVOK 19/14 Q1025
LPOV,2017-10-26 20:00,-8.6459,40.9159,64.40,57.20,77.45,0.00,0.00,0.00,30.30,M,6.21,M,M,M,M,M,M,M,M,M,M,M,M,M,M,M,M,64.40,LPOV 262000Z 00000KT CAVOK 18/14 Q1026
LPOV,2017-10-26 21:00,-8.6459,40.9159,62.60,57.20,82.50,M,1.00,0.00,30.30,M,6.21,M,M,M,M,M,M,M,M,M,M,M,M,M,M,M,M,62.60,LPOV 262100Z VRB01KT CAVOK 17/14 Q1026
LPOV,2017-10-26 22:00,-8.6459,40.9159,60.80,59.00,93.79,M,1.00,0.00,30.30,M,6.21,M,M,M,M,M,M,M,M,M,M,M,M,M,M,M,M,60.80,LPOV 262200Z VRB01KT CAVOK 16/15 Q1026
LPOV,2017-10-26 23:00,-8.6459,40.9159,60.80,57.20,87.92,M,1.00,0.00,30.30,M,6.21,M,M,M,M,M,M,M,M,M,M,M,M,M,M,M,M,60.80,LPOV 262300Z VRB01KT CAVOK 16/14 Q1026
LPOV,2017-10-27 00:00,-8.6459,40.9159,59.00,55.40,87.83,M,2.00,0.00,30.30,M,6.21,M,M,M,M,M,M,M,M,M,M,M,M,M,M,M,M,59.00,LPOV 270000Z VRB02KT CAVOK 15/13 Q1026
LPOV,2017-10-27 01:00,-8.6459,40.9159,57.20,55.40,93.69,190.00,3.00,0.00,30.27,M,6.21,M,M,M,M,M,M,M,M,M,M,M,M,M,M,M,M,57.20,LPOV 270100Z 19003KT 160V220 CAVOK 14/13 Q1025
LPOV,2017-10-27 02:00,-8.6459,40.9159,57.20,53.60,87.74,180.00,4.00,0.00,30.27,M,6.21,M,M,M,M,M,M,M,M,M,M,M,M,M,M,M,M,57.20,LPOV 270200Z 18004KT CAVOK 14/12 Q1025
LPOV,2017-10-27 03:00,-8.6459,40.9159,55.40,53.60,93.65,M,2.00,0.00,30.30,M,6.21,M,M,M,M,M,M,M,M,M,M,M,M,M,M,M,M,55.40,LPOV 270300Z VRB02KT CAVOK 13/12 Q1026
LPOV,2017-10-27 04:00,-8.6459,40.9159,55.40,53.60,93.65,M,2.00,0.00,30.30,M,6.21,M,M,M,M,M,M,M,M,M,M,M,M,M,M,M,M,55.40,LPOV 270400Z VRB02KT CAVOK 13/12 Q1026
LPOV,2017-10-27 05:00,-8.6459,40.9159,53.60,53.60,100.00,M,1.00,0.00,30.30,M,6.21,M,M,M,M,M,M,M,M,M,M,M,M,M,M,M,M,53.60,LPOV 270500Z VRB01KT CAVOK 12/12 Q1026
LPOV,2017-10-27 06:00,-8.6459,40.9159,55.40,51.80,87.65,M,1.00,0.00,30.30,M,6.21,M,M,M,M,M,M,M,M,M,M,M,M,M,M,M,M,55.40,LPOV 270600Z VRB01KT CAVOK 13/11 Q1026
LPOV,2017-10-27 07:00,-8.6459,40.9159,60.80,51.80,72.20,90.00,5.00,0.00,30.30,M,6.21,M,M,M,M,M,M,M,M,M,M,M,M,M,M,M,M,60.80,LPOV 270700Z 09005KT 050V120 CAVOK 16/11 Q1026
LPOV,2017-10-27 08:00,-8.6459,40.9159,64.40,51.80,63.60,40.00,4.00,0.00,30.33,M,6.21,M,M,M,M,M,M,M,M,M,M,M,M,M,M,M,M,64.40,LPOV 270800Z 04004KT CAVOK 18/11 Q1027
LPOV,2017-10-27 09:00,-8.6459,40.9159,69.80,53.60,56.38,M,1.00,0.00,30.33,M,6.21,M,M,M,M,M,M,M,M,M,M,M,M,M,M,M,M,69.80,LPOV 270900Z VRB01KT CAVOK 21/12 Q1027
LPOV,2017-10-27 10:00,-8.6459,40.9159,75.20,53.60,46.98,50.00,4.00,0.00,30.33,M,6.21,M,M,M,M,M,M,M,M,M,M,M,M,M,M,M,M,75.20,LPOV 271000Z 05004KT 010V090 CAVOK 24/12 Q1027
LPOV,2017-10-27 11:00,-8.6459,40.9159,80.60,55.40,41.97,60.00,9.00,0.00,30.33,M,6.21,M,M,M,M,M,M,M,M,M,M,M,M,M,M,M,M,80.53,LPOV 271100Z 06009KT CAVOK 27/13 Q1027
LPOV,2017-10-27 12:00,-8.6459,40.9159,84.20,53.60,34.97,40.00,7.00,0.00,30.33,M,6.21,M,M,M,M,M,M,M,M,M,M,M,M,M,M,M,M,82.76,LPOV 271200Z 04007KT CAVOK 29/12 Q1027
LPOV,2017-10-27 13:00,-8.6459,40.9159,87.80,55.40,33.29,30.00,8.00,0.00,30.30,M,6.21,M,M,M,M,M,M,M,M,M,M,M,M,M,M,M,M,86.11,LPOV 271300Z 03008KT 350V070 CAVOK 31/13 Q1026
LPOV,2017-10-27 14:00,-8.6459,40.9159,84.20,57.20,39.86,350.00,9.00,0.00,30.30,M,6.21,M,M,M,M,M,M,M,M,M,M,M,M,M,M,M,M,84.20,LPOV 271400Z 35009KT 330V030 CAVOK 29/14 Q1026
LPOV,2017-10-27 15:00,-8.6459,40.9159,82.40,57.20,42.25,340.00,9.00,0.00,30.27,M,6.21,M,M,M,M,M,M,M,M,M,M,M,M,M,M,M,M,82.08,LPOV 271500Z 34009KT CAVOK 28/14 Q1025
LPOV,2017-10-27 16:00,-8.6459,40.9159,87.80,53.60,31.17,360.00,4.00,0.00,30.27,M,6.21,M,M,M,M,M,M,M,M,M,M,M,M,M,M,M,M,85.72,LPOV 271600Z 36004KT 320V030 CAVOK 31/12 Q1025
LPOV,2017-10-27 17:00,-8.6459,40.9159,84.20,51.80,32.73,350.00,9.00,0.00,30.27,M,6.21,M,M,M,M,M,M,M,M,M,M,M,M,M,M,M,M,82.48,LPOV 271700Z 35009KT CAVOK 29/11 Q1025
LPOV,2017-10-27 18:00,-8.6459,40.9159,71.60,59.00,64.48,350.00,4.00,0.00,30.27,M,6.21,M,M,M,M,M,M,M,M,M,M,M,M,M,M,M,M,71.60,LPOV 271800Z 35004KT CAVOK 22/15 Q1025
LPOV,2017-10-27 19:00,-8.6459,40.9159,69.80,59.00,68.55,M,1.00,0.00,30.27,M,6.21,M,M,M,M,M,M,M,M,M,M,M,M,M,M,M,M,69.80,LPOV 271900Z VRB01KT CAVOK 21/15 Q1025
LPOV,2017-10-27 20:00,-8.6459,40.9159,66.20,57.20,72.74,M,1.00,0.00,30.27,M,6.21,M,M,M,M,M,M,M,M,M,M,M,M,M,M,M,M,66.20,LPOV 272000Z VRB01KT CAVOK 19/14 Q1025
LPOV,2017-10-27 21:00,-8.6459,40.9159,66.20,57.20,72.74,M,2.00,0.00,30.27,M,6.21,M,M,M,M,M,M,M,M,M,M,M,M,M,M,M,M,66.20,LPOV 272100Z VRB02KT CAVOK 19/14 Q1025
LPOV,2017-10-27 23:00,-8.6459,40.9159,69.80,53.60,56.38,310.00,3.00,0.00,30.27,M,6.21,M,M,M,M,M,M,M,M,M,M,M,M,M,M,M,M,69.80,LPOV 272300Z 31003KT CAVOK 21/12 Q1025
LPOV,2017-10-28 00:00,-8.6459,40.9159,66.20,51.80,59.74,340.00,3.00,0.00,30.27,M,6.21,M,M,M,M,M,M,M,M,M,M,M,M,M,M,M,M,66.20,LPOV 280000Z 34003KT CAVOK 19/11 Q1025
LPOV,2017-10-28 01:00,-8.6459,40.9159,66.20,53.60,63.82,20.00,4.00,0.00,30.27,M,6.21,M,M,M,M,M,M,M,M,M,M,M,M,M,M,M,M,66.20,LPOV 280100Z 02004KT CAVOK 19/12 Q1025
LPOV,2017-10-28 02:00,-8.6459,40.9159,68.00,51.80,56.13,M,2.00,0.00,30.27,M,6.21,M,M,M,M,M,M,M,M,M,M,M,M,M,M,M,M,68.00,LPOV 280200Z VRB02KT CAVOK 20/11 Q1025
LPOV,2017-10-28 03:00,-8.6459,40.9159,68.00,50.00,52.51,60.00,4.00,0.00,30.24,M,6.21,M,M,M,M,M,M,M,M,M,M,M,M,M,M,M,M,68.00,LPOV 280300Z 06004KT CAVOK 20/10 Q1024
LPOV,2017-10-28 04:00,-8.6459,40.9159,68.00,50.00,52.51,70.00,4.00,0.00,30.24,M,6.21,M,M,M,M,M,M,M,M,M,M,M,M,M,M,M,M,68.00,LPOV 280400Z 07004KT CAVOK 20/10 Q1024
LPOV,2017-10-28 06:00,-8.6459,40.9159,66.20,50.00,55.88,80.00,4.00,0.00,30.24,M,6.21,M,M,M,M,M,M,M,M,M,M,M,M,M,M,M,M,66.20,LPOV 280600Z 08004KT 030V120 CAVOK 19/10 Q1024
LPOV,2017-10-28 07:00,-8.6459,40.9159,64.40,50.00,59.50,M,2.00,0.00,30.24,M,6.21,M,M,M,M,M,M,M,M,M,M,M,M,M,M,M,M,64.40,LPOV 280700Z VRB02KT CAVOK 18/10 Q1024
LPOV,2017-10-28 08:00,-8.6459,40.9159,66.20,48.20,52.25,M,2.00,0.00,30.24,M,6.21,M,M,M,M,M,M,M,M,M,M,M,M,M,M,M,M,66.20,LPOV 280800Z VRB02KT CAVOK 19/09 Q1024
LPOV,2017-10-28 09:00,-8.6459,40.9159,71.60,51.80,49.64,M,2.00,0.00,30.27,M,6.21,M,M,M,M,M,M,M,M,M,M,M,M,M,M,M,M,71.60,LPOV 280900Z VRB02KT CAVOK 22/11 Q1025
LPOV,2017-10-28 10:00,-8.6459,40.9159,73.40,50.00,43.69,70.00,4.00,0.00,30.24,M,6.21,M,M,M,M,M,M,M,M,M,M,M,M,M,M,M,M,73.40,LPOV 281000Z 07004KT 020V140 CAVOK 23/10 Q1024
LPOV,2017-10-28 11:00,-8.6459,40.9159,77.00,53.60,44.25,50.00,4.00,0.00,30.24,M,6.21,M,M,M,M,M,M,M,M,M,M,M,M,M,M,M,M,77.00,LPOV 281100Z 05004KT CAVOK 25/12 Q1024
LPOV,2017-10-28 13:00,-8.6459,40.9159,80.60,50.00,34.41,30.00,6.00,0.00,30.21,M,6.21,M,M,M,M,M,M,M,M,M,M,M,M,M,M,M,M,80.60,LPOV 281300Z 03006KT 350V090 CAVOK 27/10 Q1023
LPOV,2017-10-28 14:00,-8.6459,40.9159,82.40,53.60,37.07,40.00,8.00,0.00,30.18,M,6.21,M,M,M,M,M,M,M,M,M,M,M,M,M,M,M,M,82.40,LPOV 281400Z 04008KT 350V070 CAVOK 28/12 Q1022
LPOV,2017-10-28 15:00,-8.6459,40.9159,82.40,53.60,37.07,30.00,10.00,0.00,30.15,M,6.21,M,M,M,M,M,M,M,M,M,M,M,M,M,M,M,M,82.40,LPOV 281500Z 03010KT 350V060 CAVOK 28/12 Q1021
LPOV,2017-10-28 16:00,-8.6459,40.9159,82.40,51.80,34.69,40.00,11.00,0.00,30.15,M,6.21,M,M,M,M,M,M,M,M,M,M,M,M,M,M,M,M,81.20,LPOV 281600Z 04011KT 360V060 CAVOK 28/11 Q1021
LPOV,2017-10-28 17:00,-8.6459,40.9159,73.40,53.60,49.90,350.00,10.00,0.00,30.15,M,6.21,M,M,M,M,M,M,M,M,M,M,M,M,M,M,M,M,73.40,LPOV 281700Z 35010KT CAVOK 23/12 Q1021
LPOV,2017-10-28 18:00,-8.6459,40.9159,69.80,51.80,52.77,340.00,10.00,0.00,30.18,M,6.21,M,M,M,M,M,M,M,M,M,M,M,M,M,M,M,M,69.80,LPOV 281800Z 34010KT CAVOK 21/11 Q1022
LPOV,2017-10-28 19:00,-8.6459,40.9159,69.80,51.80,52.77,360.00,5.00,0.00,30.18,M,6.21,M,M,M,M,M,M,M,M,M,M,M,M,M,M,M,M,69.80,LPOV 281900Z 36005KT CAVOK 21/11 Q1022
LPOV,2017-10-28 20:00,-8.6459,40.9159,69.80,50.00,49.37,360.00,4.00,0.00,30.18,M,6.21,M,M,M,M,M,M,M,M,M,M,M,M,M,M,M,M,69.80,LPOV 282000Z 36004KT CAVOK 21/10 Q1022
LPOV,2017-10-28 21:00,-8.6459,40.9159,73.40,51.80,46.71,M,2.00,0.00,30.18,M,6.21,M,M,M,M,M,M,M,M,M,M,M,M,M,M,M,M,73.40,LPOV 282100Z VRB02KT CAVOK 23/11 Q1022
LPOV,2017-10-28 22:00,-8.6459,40.9159,68.00,51.80,56.13,30.00,3.00,0.00,30.18,M,6.21,M,M,M,M,M,M,M,M,M,M,M,M,M,M,M,M,68.00,LPOV 282200Z 03003KT CAVOK 20/11 Q1022
LPOV,2017-10-28 23:00,-8.6459,40.9159,69.80,50.00,49.37,110.00,4.00,0.00,30.18,M,6.21,M,M,M,M,M,M,M,M,M,M,M,M,M,M,M,M,69.80,LPOV 282300Z 11004KT 050V150 CAVOK 21/10 Q1022
LPOV,2017-10-29 00:00,-8.6459,40.9159,66.20,53.60,63.82,M,2.00,0.00,30.18,M,6.21,M,M,M,M,M,M,M,M,M,M,M,M,M,M,M,M,66.20,LPOV 290000Z VRB02KT CAVOK 19/12 Q1022
LPOV,2017-10-29 02:00,-8.6459,40.9159,59.00,53.60,82.25,350.00,3.00,0.00,30.18,M,6.21,M,M,M,M,M,M,M,M,M,M,M,M,M,M,M,M,59.00,LPOV 290200Z 35003KT CAVOK 15/12 Q1022
LPOV,2017-10-29 04:00,-8.6459,40.9159,57.20,48.20,71.83,30.00,4.00,0.00,30.15,M,6.21,M,M,M,M,M,M,M,M,M,M,M,M,M,M,M,M,57.20,LPOV 290400Z 03004KT CAVOK 14/09 Q1021
LPOV,2017-10-29 06:00,-8.6459,40.9159,62.60,48.20,59.26,60.00,6.00,0.00,30.18,M,6.21,M,M,M,M,M,M,M,M,M,M,M,M,M,M,M,M,62.60,LPOV 290600Z 06006KT CAVOK 17/09 Q1022
LPOV,2017-10-29 08:00,-8.6459,40.9159,62.60,48.20,59.26,70.00,4.00,0.00,30.18,M,6.21,M,M,M,M,M,M,M,M,M,M,M,M,M,M,M,M,62.60,LPOV 290800Z 07004KT CAVOK 17/09 Q1022
LPOV,2017-10-29 09:00,-8.6459,40.9159,68.00,48.20,49.10,60.00,4.00,0.00,30.18,M,6.21,M,M,M,M,M,M,M,M,M,M,M,M,M,M,M,M,68.00,LPOV 290900Z 06004KT 020V100 CAVOK 20/09 Q1022
LPOV,2017-10-29 10:00,-8.6459,40.9159,71.60,50.00,46.43,60.00,3.00,0.00,30.18,M,6.21,M,M,M,M,M,M,M,M,M,M,M,M,M,M,M,M,71.60,LPOV 291000Z 06003KT CAVOK 22/10 Q1022
LPOV,2017-10-29 11:00,-8.6459,40.9159,73.40,50.00,43.69,50.00,3.00,0.00,30.18,M,6.21,M,M,M,M,M,M,M,M,M,M,M,M,M,M,M,M,73.40,LPOV 291100Z 05003KT CAVOK 23/10 Q1022
LPOV,2017-10-29 12:00,-8.6459,40.9159,77.00,51.80,41.42,270.00,3.00,0.00,30.18,M,6.21,M,M,M,M,M,M,M,M,M,M,M,M,M,M,M,M,77.00,LPOV 291200Z 27003KT CAVOK 25/11 Q1022
LPOV,2017-10-29 13:00,-8.6459,40.9159,78.80,50.00,36.51,280.00,5.00,0.00,30.15,M,6.21,M,M,M,M,M,M,M,M,M,M,M,M,M,M,M,M,78.80,LPOV 291300Z 28005KT CAVOK 26/10 Q1021
LPOV,2017-10-29 14:00,-8.6459,40.9159,77.00,57.20,50.43,10.00,6.00,0.00,30.12,M,6.21,M,M,M,M,M,M,M,M,M,M,M,M,M,M,M,M,77.00,LPOV 291400Z 01006KT 290V060 CAVOK 25/14 Q1020
LPOV,2017-10-29 15:00,-8.6459,40.9159,73.40,55.40,53.29,330.00,8.00,0.00,30.09,M,6.21,M,M,M,M,M,M,M,M,M,M,M,M,M,M,M,M,73.40,LPOV 291500Z 33008KT CAVOK 23/13 Q1019
LPOV,2017-10-29 16:00,-8.6459,40.9159,69.80,53.60,56.38,350.00,14.00,0.00,30.09,M,6.21,M,M,M,M,M,M,M,M,M,M,M,M,M,M,M,M,69.80,LPOV 291600Z 35014KT CAVOK 21/12 Q1019
LPOV,2017-10-29 17:00,-8.6459,40.9159,69.80,51.80,52.77,350.00,11.00,0.00,30.09,M,6.21,M,M,M,M,M,M,M,M,M,M,M,M,M,M,M,M,69.80,LPOV 291700Z 35011KT CAVOK 21/11 Q1019
LPOV,2017-10-29 18:00,-8.6459,40.9159,66.20,53.60,63.82,360.00,10.00,0.00,30.09,M,6.21,M,M,M,M,M,M,M,M,M,M,M,M,M,M,M,M,66.20,LPOV 291800Z 36010KT CAVOK 19/12 Q1019
LPOV,2017-10-29 19:00,-8.6459,40.9159,64.40,51.80,63.60,350.00,5.00,0.00,30.09,M,6.21,M,M,M,M,M,M,M,M,M,M,M,M,M,M,M,M,64.40,LPOV 291900Z 35005KT CAVOK 18/11 Q1019
LPOV,2017-10-29 20:00,-8.6459,40.9159,60.80,50.00,67.54,M,2.00,0.00,30.06,M,6.21,M,M,M,M,M,M,M,M,M,M,M,M,M,M,M,M,60.80,LPOV 292000Z VRB02KT CAVOK 16/10 Q1018
LPOV,2017-10-29 21:00,-8.6459,40.9159,59.00,50.00,72.01,M,1.00,0.00,30.06,M,6.21,M,M,M,M,M,M,M,M,M,M,M,M,M,M,M,M,59.00,LPOV 292100Z VRB01KT CAVOK 15/10 Q1018
LPOV,2017-10-29 22:00,-8.6459,40.9159,66.20,44.60,45.60,M,2.00,0.00,30.06,M,6.21,M,M,M,M,M,M,M,M,M,M,M,M,M,M,M,M,66.20,LPOV 292200Z VRB02KT CAVOK 19/07 Q1018
LPOV,2017-10-29 23:00,-8.6459,40.9159,66.20,44.60,45.60,50.00,3.00,0.00,30.06,M,6.21,M,M,M,M,M,M,M,M,M,M,M,M,M,M,M,M,66.20,LPOV 292300Z 05003KT 010V080 CAVOK 19/07 Q1018
LPOV,2017-10-30 00:00,-8.6459,40.9159,66.20,44.60,45.60,60.00,4.00,0.00,30.06,M,6.21,M,M,M,M,M,M,M,M,M,M,M,M,M,M,M,M,66.20,LPOV 300000Z 06004KT CAVOK 19/07 Q1018
LPOV,2017-10-30 01:00,-8.6459,40.9159,66.20,55.40,68.15,90.00,3.00,0.00,30.06,M,6.21,M,M,M,M,M,M,M,M,M,M,M,M,M,M,M,M,66.20,LPOV 300100Z 09003KT CAVOK 19/13 Q1018
LPOV,2017-10-30 02:00,-8.6459,40.9159,66.20,46.40,48.83,70.00,4.00,0.00,30.06,M,6.21,M,M,M,M,M,M,M,M,M,M,M,M,M,M,M,M,66.20,LPOV 300200Z 07004KT CAVOK 19/08 Q1018
LPOV,2017-10-30 04:00,-8.6459,40.9159,66.20,48.20,52.25,80.00,6.00,0.00,30.03,M,6.21,M,M,M,M,M,M,M,M,M,M,M,M,M,M,M,M,66.20,LPOV 300400Z 08006KT 020V170 CAVOK 19/09 Q1017
LPOV,2017-10-30 05:00,-8.6459,40.9159,66.20,48.20,52.25,80.00,6.00,0.00,30.03,M,6.21,M,M,M,M,M,M,M,M,M,M,M,M,M,M,M,M,66.20,LPOV 300500Z 08006KT 020V170 CAVOK 19/09 Q1017
LPOV,2017-10-30 06:00,-8.6459,40.9159,64.40,48.20,55.63,70.00,7.00,0.00,30.06,M,6.21,M,M,M,M,M,M,M,M,M,M,M,M,M,M,M,M,64.40,LPOV 300600Z 07007KT 020V140 CAVOK 18/09 Q1018
LPOV,2017-10-30 07:00,-8.6459,40.9159,62.60,46.40,55.37,100.00,4.00,0.00,30.06,M,6.21,M,M,M,M,M,M,M,M,M,M,M,M,M,M,M,M,62.60,LPOV 300700Z 10004KT CAVOK 17/08 Q1018
LPOV,2017-10-30 08:00,-8.6459,40.9159,62.60,48.20,59.26,60.00,4.00,0.00,30.06,M,6.21,M,M,M,M,M,M,M,M,M,M,M,M,M,M,M,M,62.60,LPOV 300800Z 06004KT CAVOK 17/09 Q1018
LPOV,2017-10-30 09:00,-8.6459,40.9159,62.60,50.00,63.38,M,2.00,0.00,30.09,M,6.21,M,M,M,M,M,M,M,M,M,M,M,M,M,M,M,M,62.60,LPOV 300900Z VRB02KT CAVOK 17/10 Q1019
LPOV,2017-10-30 10:00,-8.6459,40.9159,66.20,50.00,55.88,70.00,7.00,0.00,30.06,M,6.21,M,M,M,M,M,M,M,M,M,M,M,M,M,M,M,M,66.20,LPOV 301000Z 07007KT CAVOK 19/10 Q1018
LPOV,2017-10-30 11:00,-8.6459,40.9159,71.60,50.00,46.43,90.00,6.00,0.00,30.06,M,6.21,M,M,M,M,M,M,M,M,M,M,M,M,M,M,M,M,71.60,LPOV 301100Z 09006KT CAVOK 22/10 Q1018
LPOV,2017-10-30 12:00,-8.6459,40.9159,73.40,51.80,46.71,60.00,5.00,0.00,30.03,M,6.21,M,M,M,M,M,M,M,M,M,M,M,M,M,M,M,M,73.40,LPOV 301200Z 06005KT 350V150 CAVOK 23/11 Q1017
LPOV,2017-10-30 13:00,-8.6459,40.9159,73.40,51.80,46.71,30.00,11.00,0.00,30.00,M,6.21,M,M,M,M,M,M,M,M,M,M,M,M,M,M,M,M,73.40,LPOV 301300Z 03011KT 010V070 CAVOK 23/11 Q1016
LPOV,2017-10-30 14:00,-8.6459,40.9159,75.20,51.80,43.97,30.00,11.00,0.00,30.00,M,6.21,M,M,M,M,M,M,M,M,M,M,M,M,M,M,M,M,75.20,LPOV 301400Z 03011KT 350V070 CAVOK 24/11 Q1016
LPOV,2017-10-30 15:00,-8.6459,40.9159,75.20,51.80,43.97,40.00,9.00,0.00,29.97,M,6.21,M,M,M,M,M,M,M,M,M,M,M,M,M,M,M,M,75.20,LPOV 301500Z 04009KT 360V080 CAVOK 24/11 Q1015
LPOV,2017-10-30 16:00,-8.6459,40.9159,75.20,51.80,43.97,70.00,7.00,0.00,29.97,M,6.21,M,M,M,M,M,M,M,M,M,M,M,M,M,M,M,M,75.20,LPOV 301600Z 07007KT CAVOK 24/11 Q1015
LPOV,2017-10-30 17:00,-8.6459,40.9159,71.60,51.80,49.64,340.00,8.00,0.00,29.97,M,6.21,M,M,M,M,M,M,M,M,M,M,M,M,M,M,M,M,71.60,LPOV 301700Z 34008KT CAVOK 22/11 Q1015
LPOV,2017-10-30 18:00,-8.6459,40.9159,66.20,53.60,63.82,350.00,4.00,0.00,29.97,M,6.21,M,M,M,M,M,M,M,M,M,M,M,M,M,M,M,M,66.20,LPOV 301800Z 35004KT 320V050 CAVOK 19/12 Q1015
LPOV,2017-10-30 19:00,-8.6459,40.9159,68.00,50.00,52.51,50.00,4.00,0.00,29.97,M,6.21,M,M,M,M,M,M,M,M,M,M,M,M,M,M,M,M,68.00,LPOV 301900Z 05004KT CAVOK 20/10 Q1015
LPOV,2017-10-30 20:00,-8.6459,40.9159,64.40,51.80,63.60,60.00,3.00,0.00,30.00,M,6.21,M,M,M,M,M,M,M,M,M,M,M,M,M,M,M,M,64.40,LPOV 302000Z 06003KT 030V100 CAVOK 18/11 Q1016
LPOV,2017-10-30 21:00,-8.6459,40.9159,59.00,50.00,72.01,20.00,3.00,0.00,30.00,M,6.21,M,M,M,M,M,M,M,M,M,M,M,M,M,M,M,M,59.00,LPOV 302100Z 02003KT CAVOK 15/10 Q1016
LPOV,2017-10-30 22:00,-8.6459,40.9159,57.20,48.20,71.83,M,2.00,0.00,30.03,M,6.21,M,M,M,M,M,M,M,M,M,M,M,M,M,M,M,M,57.20,LPOV 302200Z VRB02KT CAVOK 14/09 Q1017
LPOV,2017-10-30 23:00,-8.6459,40.9159,53.60,46.40,76.50,180.00,4.00,0.00,30.00,M,6.21,M,M,M,M,M,M,M,M,M,M,M,M,M,M,M,M,53.60,LPOV 302300Z 18004KT CAVOK 12/08 Q1016
LPOV,2017-10-31 00:00,-8.6459,40.9159,53.60,46.40,76.50,M,1.00,0.00,30.00,M,6.21,M,M,M,M,M,M,M,M,M,M,M,M,M,M,M,M,53.60,LPOV 310000Z VRB01KT CAVOK 12/08 Q1016
LPOV,2017-10-31 01:00,-8.6459,40.9159,55.40,48.20,76.66,50.00,3.00,0.00,30.00,M,6.21,M,M,M,M,M,M,M,M,M,M,M,M,M,M,M,M,55.40,LPOV 310100Z 05003KT 020V090 CAVOK 13/09 Q1016
LPOV,2017-10-31 02:00,-8.6459,40.9159,60.80,48.20,63.15,50.00,5.00,0.00,30.00,M,6.21,M,M,M,M,M,M,M,M,M,M,M,M,M,M,M,M,60.80,LPOV 310200Z 05005KT CAVOK 16/09 Q1016
LPOV,2017-10-31 03:00,-8.6459,40.9159,60.80,48.20,63.15,60.00,5.00,0.00,30.00,M,6.21,M,M,M,M,M,M,M,M,M,M,M,M,M,M,M,M,60.80,LPOV 310300Z 06005KT CAVOK 16/09 Q1016
LPOV,2017-10-31 04:00,-8.6459,40.9159,57.20,46.40,67.12,40.00,5.00,0.00,30.00,M,6.21,M,M,M,M,M,M,M,M,M,M,M,M,M,M,M,M,57.20,LPOV 310400Z 04005KT CAVOK 14/08 Q1016
LPOV,2017-10-31 05:00,-8.6459,40.9159,59.00,46.40,62.92,60.00,7.00,0.00,30.00,M,6.21,M,M,M,M,M,M,M,M,M,M,M,M,M,M,M,M,59.00,LPOV 310500Z 06007KT 030V100 CAVOK 15/08 Q1016
LPOV,2017-10-31 06:00,-8.6459,40.9159,57.20,44.60,62.69,60.00,4.00,0.00,30.00,M,6.21,M,M,M,M,M,M,M,M,M,M,M,M,M,M,M,M,57.20,LPOV 310600Z 06004KT 030V100 CAVOK 14/07 Q1016
LPOV,2017-10-31 07:00,-8.6459,40.9159,57.20,46.40,67.12,70.00,3.00,0.00,30.00,M,6.21,M,M,M,M,M,M,M,M,M,M,M,M,M,M,M,M,57.20,LPOV 310700Z 07003KT CAVOK 14/08 Q1016
LPOV,2017-10-31 08:00,-8.6459,40.9159,57.20,44.60,62.69,70.00,4.00,0.00,30.03,M,6.21,M,M,M,M,M,M,M,M,M,M,M,M,M,M,M,M,57.20,LPOV 310800Z 07004KT CAVOK 14/07 Q1017
LPOV,2017-10-31 09:00,-8.6459,40.9159,62.60,46.40,55.37,40.00,3.00,0.00,30.06,M,6.21,M,M,M,M,M,M,M,M,M,M,M,M,M,M,M,M,62.60,LPOV 310900Z 04003KT CAVOK 17/08 Q1018
LPOV,2017-10-31 10:00,-8.6459,40.9159,66.20,50.00,55.88,80.00,3.00,0.00,30.03,M,6.21,M,M,M,M,M,M,M,M,M,M,M,M,M,M,M,M,66.20,LPOV 311000Z 08003KT 020V150 CAVOK 19/10 Q1017
LPOV,2017-10-31 11:00,-8.6459,40.9159,69.80,50.00,49.37,M,3.00,0.00,30.03,M,6.21,M,M,M,M,M,M,M,M,M,M,M,M,M,M,M,M,69.80,LPOV 311100Z VRB03KT CAVOK 21/10 Q1017
LPOV,2017-10-31 12:00,-8.6459,40.9159,68.00,48.20,49.10,280.00,6.00,0.00,30.03,M,6.21,M,M,M,M,M,M,M,M,M,M,M,M,M,M,M,M,68.00,LPOV 311200Z 28006KT 250V320 CAVOK 20/09 Q1017
LPOV,2017-10-31 13:00,-8.6459,40.9159,73.40,50.00,43.69,300.00,4.00,0.00,30.03,M,6.21,M,M,M,M,M,M,M,M,M,M,M,M,M,M,M,M,73.40,LPOV 311300Z 30004KT CAVOK 23/10 Q1017
LPOV,2017-10-31 14:00,-8.6459,40.9159,75.20,51.80,43.97,M,2.00,0.00,30.06,M,6.21,M,M,M,M,M,M,M,M,M,M,M,M,M,M,M,M,75.20,LPOV 311400Z VRB02KT CAVOK 24/11 Q1018
LPOV,2017-10-31 15:00,-8.6459,40.9159,75.20,51.80,43.97,280.00,5.00,0.00,30.00,M,6.21,M,M,M,M,M,M,M,M,M,M,M,M,M,M,M,M,75.20,LPOV 311500Z 28005KT CAVOK 24/11 Q1016
LPOV,2017-10-31 16:00,-8.6459,40.9159,73.40,53.60,49.90,M,2.00,0.00,30.00,M,6.21,M,M,M,M,M,M,M,M,M,M,M,M,M,M,M,M,73.40,LPOV 311600Z VRB02KT CAVOK 23/12 Q1016
LPOV,2017-10-31 17:00,-8.6459,40.9159,69.80,55.40,60.21,320.00,3.00,0.00,30.00,M,6.21,M,M,M,M,M,M,M,M,M,M,M,M,M,M,M,M,69.80,LPOV 311700Z 32003KT CAVOK 21/13 Q1016
LPOV,2017-10-31 18:00,-8.6459,40.9159,64.40,53.60,67.95,M,1.00,0.00,30.00,M,6.21,M,M,M,M,M,M,M,M,M,M,M,M,M,M,M,M,64.40,LPOV 311800Z VRB01KT CAVOK 18/12 Q1016
LPOV,2017-10-31 19:00,-8.6459,40.9159,60.80,51.80,72.20,0.00,0.00,0.00,30.03,M,6.21,M,M,M,M,M,M,M,M,M,M,M,M,M,M,M,M,60.80,LPOV 311900Z 00000KT CAVOK 16/11 Q1017
LPOV,2017-10-31 20:00,-8.6459,40.9159,55.40,48.20,76.66,180.00,3.00,0.00,30.03,M,6.21,M,M,M,M,M,M,M,M,M,M,M,M,M,M,M,M,55.40,LPOV 312000Z 18003KT CAVOK 13/09 Q1017
LPOV,2017-10-31 21:00,-8.6459,40.9159,53.60,48.20,81.87,M,1.00,0.00,30.06,M,6.21,M,M,M,M,M,M,M,M,M,M,M,M,M,M,M,M,53.60,LPOV 312100Z VRB01KT CAVOK 12/09 Q1018
LPOV,2017-10-31 22:00,-8.6459,40.9159,53.60,48.20,81.87,M,1.00,0.00,30.06,M,6.21,M,M,M,M,M,M,M,M,M,M,M,M,M,M,M,M,53.60,LPOV 312200Z VRB01KT CAVOK 12/09 Q1018
LPOV,2017-10-31 23:00,-8.6459,40.9159,53.60,48.20,81.87,M,2.00,0.00,30.03,M,6.21,M,M,M,M,M,M,M,M,M,M,M,M,M,M,M,M,53.60,LPOV 312300Z VRB02KT CAVOK 12/09 Q1017
LPOV,2017-11-01 00:00,-8.6459,40.9159,51.80,46.40,81.74,M,1.00,0.00,30.03,M,6.21,M,M,M,M,M,M,M,M,M,M,M,M,M,M,M,M,51.80,LPOV 010000Z VRB01KT CAVOK 11/08 Q1017
LPOV,2017-11-01 01:00,-8.6459,40.9159,51.80,46.40,81.74,M,1.00,0.00,30.03,M,6.21,M,M,M,M,M,M,M,M,M,M,M,M,M,M,M,M,51.80,LPOV 010100Z VRB01KT CAVOK 11/08 Q1017
LPOV,2017-11-01 02:00,-8.6459,40.9159,50.00,46.40,87.37,M,1.00,0.00,30.03,M,6.21,M,M,M,M,M,M,M,M,M,M,M,M,M,M,M,M,50.00,LPOV 010200Z VRB01KT CAVOK 10/08 Q1017
LPOV,2017-11-01 03:00,-8.6459,40.9159,48.20,46.40,93.45,M,2.00,0.00,30.03,M,6.21,M,M,M,M,M,M,M,M,M,M,M,M,M,M,M,M,48.20,LPOV 010300Z VRB02KT CAVOK 09/08 Q1017
LPOV,2017-11-01 04:00,-8.6459,40.9159,48.20,46.40,93.45,M,2.00,0.00,30.03,M,6.21,M,M,M,M,M,M,M,M,M,M,M,M,M,M,M,M,48.20,LPOV 010400Z VRB02KT CAVOK 09/08 Q1017
LPOV,2017-11-01 05:00,-8.6459,40.9159,48.20,46.40,93.45,170.00,4.00,0.00,30.00,M,6.21,M,M,M,M,M,M,M,M,M,M,M,M,M,M,M,M,46.34,LPOV 010500Z 17004KT CAVOK 09/08 Q1016
LPOV,2017-11-01 06:00,-8.6459,40.9159,51.80,46.40,81.74,170.00,3.00,0.00,30.00,M,6.21,M,M,M,M,M,M,M,M,M,M,M,M,M,M,M,M,51.80,LPOV 010600Z 17003KT CAVOK 11/08 Q1016
LPOV,2017-11-01 07:00,-8.6459,40.9159,50.00,46.40,87.37,180.00,4.00,0.00,30.03,M,6.21,M,M,M,M,M,M,M,M,M,M,M,M,M,M,M,M,48.44,LPOV 010700Z 18004KT CAVOK 10/08 Q1017
LPOV,2017-11-01 08:00,-8.6459,40.9159,53.60,48.20,81.87,170.00,3.00,0.00,30.03,M,6.21,M,M,M,M,M,M,M,M,M,M,M,M,M,M,M,M,53.60,LPOV 010800Z 17003KT CAVOK 12/09 Q1017
LPOV,2017-11-01 09:00,-8.6459,40.9159,55.40,50.00,81.99,170.00,5.00,0.00,30.06,M,6.21,M,FEW,M,M,M,3000.00,M,M,M,M,M,M,M,M,M,M,55.40,LPOV 010900Z 17005KT 9999 FEW030 13/10 Q1018
LPOV,2017-11-01 10:00,-8.6459,40.9159,62.60,50.00,63.38,170.00,5.00,0.00,30.03,M,6.21,M,SCT,M,M,M,3000.00,M,M,M,M,M,M,M,M,M,M,62.60,LPOV 011000Z 17005KT 9999 SCT030 17/10 Q1017
LPOV,2017-11-01 11:00,-8.6459,40.9159,69.80,53.60,56.38,160.00,9.00,0.00,30.03,M,6.21,M,SCT,M,M,M,3000.00,M,M,M,M,M,M,M,M,M,M,69.80,LPOV 011100Z 16009KT 9999 SCT030 21/12 Q1017
LPOV,2017-11-01 12:00,-8.6459,40.9159,69.80,57.20,64.26,170.00,13.00,0.00,30.00,M,6.21,M,SCT,M,M,M,3000.00,M,M,M,M,M,M,M,M,M,M,69.80,LPOV 011200Z 17013KT 9999 SCT030 21/14 Q1016
LPOV,2017-11-01 13:00,-8.6459,40.9159,69.80,57.20,64.26,170.00,12.00,0.00,30.00,M,6.21,M,SCT,M,M,M,3000.00,M,M,M,M,M,M,M,M,M,M,69.80,LPOV 011300Z 17012KT 9999 SCT030 21/14 Q1016
LPOV,2017-11-01 14:00,-8.6459,40.9159,71.60,55.40,56.63,170.00,10.00,0.00,29.97,M,6.21,M,FEW,SCT,M,M,2500.00,3000.00,M,M,M,M,M,M,M,M,M,71.60,LPOV 011400Z 17010KT 9999 FEW025 SCT030 22/13 Q1015
LPOV,2017-11-01 16:00,-8.6459,40.9159,71.60,55.40,56.63,190.00,8.00,0.00,29.94,M,6.21,M,SCT,M,M,M,3000.00,M,M,M,M,M,M,M,M,M,M,71.60,LPOV 011600Z 19008KT 9999 SCT030 22/13 Q1014
LPOV,2017-11-01 17:00,-8.6459,40.9159,69.80,55.40,60.21,190.00,3.00,0.00,29.94,M,6.21,M,SCT,M,M,M,3000.00,M,M,M,M,M,M,M,M,M,M,69.80,LPOV 011700Z 19003KT 170V230 9999 SCT030 21/13 Q1014
LPOV,2017-11-01 18:00,-8.6459,40.9159,66.20,59.00,77.60,240.00,5.00,0.00,29.94,M,6.21,M,SCT,M,M,M,2500.00,M,M,M,M,M,M,M,M,M,M,66.20,LPOV 011800Z 24005KT 210V270 9999 SCT025 19/15 Q1014
LPOV,2017-11-01 19:00,-8.6459,40.9159,66.20,59.00,77.60,180.00,7.00,0.00,29.94,M,5.59,M,SCT,M,M,M,2500.00,M,M,M,-SHRA,M,M,M,M,M,M,66.20,LPOV 011900Z 18007KT 150V210 9000 -SHRA SCT025 19/15 Q1014
LPOV,2017-11-01 20:00,-8.6459,40.9159,64.40,60.80,88.09,140.00,3.00,0.00,29.94,M,6.21,M,FEW,M,M,M,2000.00,M,M,M,M,M,M,M,M,M,M,64.40,LPOV 012000Z 14003KT 100V160 9999 FEW020 18/16 Q1014
LPOV,2017-11-01 21:00,-8.6459,40.9159,64.40,60.80,88.09,130.00,3.00,0.00,29.97,M,6.21,M,FEW,M,M,M,2000.00,M,M,M,M,M,M,M,M,M,M,64.40,LPOV 012100Z 13003KT 100V160 9999 FEW020 18/16 Q1015
LPOV,2017-11-01 22:00,-8.6459,40.9159,64.40,60.80,88.09,190.00,3.00,0.00,29.97,M,6.21,M,SCT,M,M,M,2000.00,M,M,M,M,M,M,M,M,M,M,64.40,LPOV 012200Z 19003KT 150V210 9999 SCT020 18/16 Q1015
LPOV,2017-11-01 23:00,-8.6459,40.9159,64.40,60.80,88.09,150.00,4.00,0.00,29.97,M,6.21,M,SCT,M,M,M,2000.00,M,M,M,M,M,M,M,M,M,M,64.40,LPOV 012300Z 15004KT 9999 SCT020 18/16 Q1015
LPOV,2017-11-02 00:00,-8.6459,40.9159,64.40,59.00,82.62,170.00,6.00,0.00,29.97,M,6.21,M,SCT,M,M,M,2000.00,M,M,M,M,M,M,M,M,M,M,64.40,LPOV 020000Z 17006KT 9999 SCT020 18/15 Q1015
LPOV,2017-11-02 01:00,-8.6459,40.9159,64.40,60.80,88.09,190.00,6.00,0.00,29.97,M,6.21,M,SCT,M,M,M,2000.00,M,M,M,M,M,M,M,M,M,M,64.40,LPOV 020100Z 19006KT 9999 SCT020 18/16 Q1015
LPOV,2017-11-02 02:00,-8.6459,40.9159,64.40,57.20,77.45,190.00,9.00,0.00,29.94,M,6.21,M,SCT,M,M,M,2000.00,M,M,M,M,M,M,M,M,M,M,64.40,LPOV 020200Z 19009KT 9999 SCT020 18/14 Q1014
LPOV,2017-11-02 03:00,-8.6459,40.9159,62.60,57.20,82.50,170.00,7.00,0.00,29.94,M,6.21,M,FEW,M,M,M,2000.00,M,M,M,M,M,M,M,M,M,M,62.60,LPOV 020300Z 17007KT 9999 FEW020 17/14 Q1014
LPOV,2017-11-02 04:00,-8.6459,40.9159,62.60,57.20,82.50,170.00,8.00,0.00,29.91,M,6.21,M,FEW,M,M,M,2000.00,M,M,M,M,M,M,M,M,M,M,62.60,LPOV 020400Z 17008KT 9999 FEW020 17/14 Q1013
LPOV,2017-11-02 05:00,-8.6459,40.9159,62.60,57.20,82.50,160.00,8.00,0.00,29.91,M,6.21,M,FEW,M,M,M,2000.00,M,M,M,M,M,M,M,M,M,M,62.60,LPOV 020500Z 16008KT 9999 FEW020 17/14 Q1013
LPOV,2017-11-02 06:00,-8.6459,40.9159,62.60,57.20,82.50,160.00,9.00,0.00,29.91,M,6.21,M,FEW,M,M,M,2000.00,M,M,M,M,M,M,M,M,M,M,62.60,LPOV 020600Z 16009KT 9999 FEW020 17/14 Q1013
LPOV,2017-11-02 07:00,-8.6459,40.9159,64.40,57.20,77.45,170.00,12.00,0.00,29.91,M,6.21,M,FEW,BKN,M,M,2000.00,2500.00,M,M,M,M,M,M,M,M,M,64.40,LPOV 020700Z 17012KT 9999 FEW020 BKN025 18/14 Q1013
LPOV,2017-11-02 08:00,-8.6459,40.9159,64.40,57.20,77.45,170.00,12.00,0.00,29.91,M,6.21,M,SCT,SCT,M,M,2000.00,3000.00,M,M,M,M,M,M,M,M,M,64.40,LPOV 020800Z 17012KT 9999 SCT020 SCT030 18/14 Q1013
LPOV,2017-11-02 09:00,-8.6459,40.9159,64.40,57.20,77.45,160.00,8.00,0.00,29.94,M,6.21,M,BKN,M,M,M,3000.00,M,M,M,-SHRA,M,M,M,M,M,M,64.40,LPOV 020900Z 16008KT 130V190 9999 -SHRA BKN030 18/14 Q1014
LPOV,2017-11-02 10:00,-8.6459,40.9159,62.60,59.00,88.00,160.00,8.00,0.00,29.94,M,6.21,M,FEW,SCT,FEW,BKN,900.00,1500.00,2000.00,3000.00,M,M,M,M,M,M,M,62.60,LPOV 021000Z 16008KT 9999 FEW009 SCT015 FEW020CB BKN030 17/15 Q1014
LPOV,2017-11-02 11:00,-8.6459,40.9159,64.40,60.80,88.09,180.00,10.00,0.00,29.94,M,6.21,M,FEW,SCT,FEW,BKN,900.00,1800.00,2500.00,3000.00,M,M,M,M,M,M,M,64.40,LPOV 021100Z 18010KT 9999 FEW009 SCT018 FEW025CB BKN030 18/16 Q1014
LPOV,2017-11-02 12:00,-8.6459,40.9159,64.40,59.00,82.62,170.00,12.00,0.00,29.91,M,6.21,M,FEW,BKN,M,M,800.00,1800.00,M,M,M,M,M,M,M,M,M,64.40,LPOV 021200Z 17012KT 9999 FEW008 BKN018 18/15 Q1013
LPOV,2017-11-02 13:00,-8.6459,40.9159,64.40,59.00,82.62,190.00,11.00,0.00,29.91,M,6.21,M,FEW,BKN,FEW,M,800.00,1800.00,2500.00,M,M,M,M,M,M,M,M,64.40,LPOV 021300Z 19011KT 150V230 9999 FEW008 BKN018 FEW025CB 18/15 Q1013
LPOV,2017-11-02 14:00,-8.6459,40.9159,64.40,60.80,88.09,180.00,11.00,0.00,29.91,M,6.21,M,FEW,BKN,FEW,M,800.00,1500.00,2500.00,M,M,M,M,M,M,M,M,64.40,LPOV 021400Z 18011KT 9999 FEW008 BKN015 FEW025CB 18/16 Q1013
LPOV,2017-11-02 15:00,-8.6459,40.9159,64.40,59.00,82.62,150.00,3.00,0.00,29.88,M,6.21,M,FEW,BKN,FEW,M,800.00,1500.00,2500.00,M,M,M,M,M,M,M,M,64.40,LPOV 021500Z 15003KT 9999 FEW008 BKN015 FEW025CB 18/15 Q1012
LPOV,2017-11-02 16:00,-8.6459,40.9159,66.20,60.80,82.74,170.00,6.00,0.00,29.88,M,6.21,M,FEW,SCT,M,M,800.00,2000.00,M,M,M,M,M,M,M,M,M,66.20,LPOV 021600Z 17006KT 120V230 9999 FEW008 SCT020 19/16 Q1012
LPOV,2017-11-02 17:00,-8.6459,40.9159,64.40,60.80,88.09,220.00,7.00,0.00,29.88,M,6.21,M,SCT,FEW,SCT,M,2000.00,2500.00,3000.00,M,M,M,M,M,M,M,M,64.40,LPOV 021700Z 22007KT 190V250 9999 SCT020 FEW025CB SCT030 18/16 Q1012
LPOV,2017-11-02 18:00,-8.6459,40.9159,62.60,59.00,88.00,210.00,7.00,0.00,29.88,M,6.21,M,FEW,M,M,M,2000.00,M,M,M,M,M,M,M,M,M,M,62.60,LPOV 021800Z 21007KT 180V240 9999 FEW020 17/15 Q1012
LPOV,2017-11-02 19:00,-8.6459,40.9159,60.80,59.00,93.79,190.00,4.00,0.00,29.91,M,6.21,M,FEW,M,M,M,1500.00,M,M,M,M,M,M,M,M,M,M,60.80,LPOV 021900Z 19004KT 9999 FEW015 16/15 Q1013
LPOV,2017-11-02 20:00,-8.6459,40.9159,59.00,57.20,93.74,180.00,3.00,0.00,29.91,M,6.21,M,FEW,M,M,M,1500.00,M,M,M,M,M,M,M,M,M,M,59.00,LPOV 022000Z 18003KT 9999 FEW015 15/14 Q1013
LPOV,2017-11-02 21:00,-8.6459,40.9159,59.00,57.20,93.74,170.00,4.00,0.00,29.91,M,6.21,M,FEW,M,M,M,1500.00,M,M,M,M,M,M,M,M,M,M,59.00,LPOV 022100Z 17004KT 9999 FEW015 15/14 Q1013
LPOV,2017-11-02 22:00,-8.6459,40.9159,59.00,57.20,93.74,180.00,4.00,0.00,29.91,M,6.21,M,FEW,M,M,M,1500.00,M,M,M,M,M,M,M,M,M,M,59.00,LPOV 022200Z 18004KT 9999 FEW015 15/14 Q1013
LPOV,2017-11-02 23:00,-8.6459,40.9159,59.00,55.40,87.83,180.00,3.00,0.00,29.88,M,6.21,M,FEW,M,M,M,1500.00,M,M,M,M,M,M,M,M,M,M,59.00,LPOV 022300Z 18003KT 9999 FEW015 15/13 Q1012
LPOV,2017-11-03 00:00,-8.6459,40.9159,57.20,55.40,93.69,M,2.00,0.00,29.88,M,6.21,M,FEW,M,M,M,1500.00,M,M,M,M,M,M,M,M,M,M,57.20,LPOV 030000Z VRB02KT 9999 FEW015 14/13 Q1012
LPOV,2017-11-03 01:00,-8.6459,40.9159,57.20,55.40,93.69,M,2.00,0.00,29.85,M,6.21,M,FEW,M,M,M,1500.00,M,M,M,M,M,M,M,M,M,M,57.20,LPOV 030100Z VRB02KT 9999 FEW015 14/13 Q1011
LPOV,2017-11-03 02:00,-8.6459,40.9159,59.00,55.40,87.83,170.00,5.00,0.00,29.85,M,6.21,M,FEW,M,M,M,1500.00,M,M,M,M,M,M,M,M,M,M,59.00,LPOV 030200Z 17005KT 140V200 9999 FEW015 15/13 Q1011
LPOV,2017-11-03 03:00,-8.6459,40.9159,60.80,57.20,87.92,150.00,7.00,0.00,29.85,M,6.21,M,FEW,M,M,M,1500.00,M,M,M,M,M,M,M,M,M,M,60.80,LPOV 030300Z 15007KT 120V180 9999 FEW015 16/14 Q1011
LPOV,2017-11-03 04:00,-8.6459,40.9159,60.80,55.40,82.37,150.00,6.00,0.00,29.83,M,6.21,M,FEW,FEW,SCT,M,1500.00,2500.00,4000.00,M,M,M,M,M,M,M,M,60.80,LPOV 030400Z 15006KT 120V180 9999 FEW015 FEW025CB SCT040 16/13 Q1010
LPOV,2017-11-03 05:00,-8.6459,40.9159,60.80,55.40,82.37,170.00,9.00,0.00,29.83,M,6.21,M,FEW,FEW,M,M,1500.00,2500.00,M,M,M,M,M,M,M,M,M,60.80,LPOV 030500Z 17009KT 9999 FEW015 FEW025CB 16/13 Q1010
LPOV,2017-11-03 06:00,-8.6459,40.9159,60.80,55.40,82.37,160.00,9.00,0.00,29.83,M,6.21,M,SCT,M,M,M,1500.00,M,M,M,M,M,M,M,M,M,M,60.80,LPOV 030600Z 16009KT 140V200 9999 SCT015 16/13 Q1010
LPOV,2017-11-03 07:00,-8.6459,40.9159,60.80,55.40,82.37,170.00,11.00,0.00,29.83,M,6.21,M,FEW,FEW,M,M,1500.00,2500.00,M,M,M,M,M,M,M,M,M,60.80,LPOV 030700Z 17011KT 9999 FEW015 FEW025CB 16/13 Q1010
LPOV,2017-11-03 08:00,-8.6459,40.9159,60.80,55.40,82.37,170.00,10.00,0.00,29.83,M,6.21,M,FEW,M,M,M,1500.00,M,M,M,M,M,M,M,M,M,M,60.80,LPOV 030800Z 17010KT 9999 FEW015 16/13 Q1010
LPOV,2017-11-03 09:00,-8.6459,40.9159,60.80,55.40,82.37,160.00,10.00,0.00,29.85,M,6.21,M,FEW,BKN,M,M,1500.00,4500.00,M,M,M,M,M,M,M,M,M,60.80,LPOV 030900Z 16010KT 9999 FEW015 BKN045 16/13 Q1011
LPOV,2017-11-03 10:00,-8.6459,40.9159,62.60,55.40,77.29,160.00,10.00,0.00,29.85,M,6.21,M,FEW,BKN,M,M,2000.00,4500.00,M,M,M,M,M,M,M,M,M,62.60,LPOV 031000Z 16010KT 130V190 9999 FEW020 BKN045 17/13 Q1011
LPOV,2017-11-03 11:00,-8.6459,40.9159,64.40,57.20,77.45,160.00,11.00,0.00,29.85,M,5.59,M,FEW,FEW,BKN,M,2000.00,2200.00,4000.00,M,-SHRA,M,M,M,M,M,M,64.40,LPOV 031100Z 16011KT 130V190 9000 -SHRA FEW020 FEW022CB BKN040 18/14 Q1011
LPOV,2017-11-03 12:00,-8.6459,40.9159,59.00,53.60,82.25,160.00,8.00,0.00,29.83,M,5.59,M,FEW,BKN,M,M,2000.00,4000.00,M,M,-RA,M,M,M,M,M,M,59.00,LPOV 031200Z 16008KT 130V190 9000 -RA FEW020 BKN040 15/12 Q1010
LPOV,2017-11-03 13:00,-8.6459,40.9159,64.40,59.00,82.62,160.00,6.00,0.00,29.80,M,5.59,M,FEW,BKN,M,M,2000.00,4000.00,M,M,-RA,M,M,M,M,M,M,64.40,LPOV 031300Z 16006KT 130V190 9000 -RA FEW020 BKN040 18/15 Q1009
LPOV,2017-11-03 14:00,-8.6459,40.9159,64.40,59.00,82.62,190.00,7.00,0.00,29.80,M,5.59,M,SCT,BKN,M,M,2000.00,4000.00,M,M,-RA,M,M,M,M,M,M,64.40,LPOV 031400Z 19007KT 160V220 9000 -RA SCT020 BKN040 18/15 Q1009
LPOV,2017-11-03 15:00,-8.6459,40.9159,60.80,59.00,93.79,130.00,4.00,0.00,29.77,M,5.59,M,SCT,BKN,M,M,2000.00,4000.00,M,M,-RA,M,M,M,M,M,M,60.80,LPOV 031500Z 13004KT 9000 -RA SCT020 BKN040 16/15 Q1008
LPOV,2017-11-03 17:00,-8.6459,40.9159,59.00,57.20,93.74,130.00,4.00,0.00,29.77,M,5.59,M,FEW,SCT,BKN,M,900.00,1800.00,3500.00,M,-RA,M,M,M,M,M,M,59.00,LPOV 031700Z 13004KT 9000 -RA FEW009 SCT018 BKN035 15/14 Q1008
LPOV,2017-11-03 18:00,-8.6459,40.9159,59.00,57.20,93.74,160.00,5.00,0.00,29.77,M,6.21,M,SCT,BKN,M,M,1800.00,3500.00,M,M,M,M,M,M,M,M,M,59.00,LPOV 031800Z 16005KT 100V160 9999 SCT018 BKN035 15/14 Q1008
LPOV,2017-11-03 19:00,-8.6459,40.9159,59.00,55.40,87.83,140.00,6.00,0.00,29.77,M,5.59,M,SCT,BKN,M,M,1800.00,3500.00,M,M,-RA,M,M,M,M,M,M,59.00,LPOV 031900Z 14006KT 9000 -RA SCT018 BKN035 15/13 Q1008
LPOV,2017-11-03 20:00,-8.6459,40.9159,59.00,55.40,87.83,130.00,3.00,0.00,29.74,M,6.21,M,SCT,BKN,M,M,1800.00,3500.00,M,M,M,M,M,M,M,M,M,59.00,LPOV 032000Z 13003KT 9999 SCT018 BKN035 15/13 Q1007
LPOV,2017-11-03 21:00,-8.6459,40.9159,60.80,55.40,82.37,150.00,5.00,0.00,29.74,M,6.21,M,SCT,BKN,M,M,2000.00,3500.00,M,M,M,M,M,M,M,M,M,60.80,LPOV 032100Z 15005KT 9999 SCT020 BKN035 16/13 Q1007
LPOV,2017-11-03 22:00,-8.6459,40.9159,60.80,53.60,77.14,130.00,5.00,0.00,29.74,M,5.59,M,SCT,BKN,M,M,1800.00,3500.00,M,M,-RA,M,M,M,M,M,M,60.80,LPOV 032200Z 13005KT 090V160 9000 -RA SCT018 BKN035 16/12 Q1007
LPOV,2017-11-03 23:00,-8.6459,40.9159,59.00,55.40,87.83,M,2.00,0.00,29.74,M,4.97,M,SCT,SCT,BKN,M,800.00,1600.00,3000.00,M,-RADZ,M,M,M,M,M,M,59.00,LPOV 032300Z VRB02KT 8000 -RADZ SCT008 SCT016 BKN030 15/13 Q1007
LPOV,2017-11-04 00:00,-8.6459,40.9159,57.20,55.40,93.69,100.00,3.00,0.00,29.74,M,6.21,M,FEW,SCT,BKN,M,800.00,1600.00,3000.00,M,M,M,M,M,M,M,M,57.20,LPOV 040000Z 10003KT 060V140 9999 FEW008 SCT016 BKN030 14/13 Q1007
LPOV,2017-11-04 01:00,-8.6459,40.9159,57.20,55.40,93.69,70.00,4.00,0.00,29.71,M,5.59,M,FEW,SCT,BKN,M,800.00,1600.00,3000.00,M,-SHRA,M,M,M,M,M,M,57.20,LPOV 040100Z 07004KT 030V100 9000 -SHRA FEW008 SCT016 BKN030 14/13 Q1006
LPOV,2017-11-04 02:00,-8.6459,40.9159,57.20,55.40,93.69,100.00,6.00,0.00,29.71,M,5.59,M,FEW,SCT,BKN,M,800.00,1600.00,3000.00,M,-SHRA,M,M,M,M,M,M,57.20,LPOV 040200Z 10006KT 060V140 9000 -SHRA FEW008 SCT016 BKN030 14/13 Q1006
LPOV,2017-11-04 03:00,-8.6459,40.9159,57.20,57.20,100.00,100.00,3.00,0.00,29.71,M,5.59,M,SCT,SCT,BKN,M,800.00,1600.00,3000.00,M,-SHRA,M,M,M,M,M,M,57.20,LPOV 040300Z 10003KT 060V130 9000 -SHRA SCT008 SCT016 BKN030 14/14 Q1006
LPOV,2017-11-04 04:00,-8.6459,40.9159,57.20,55.40,93.69,M,2.00,0.00,29.74,M,4.97,M,SCT,BKN,BKN,M,800.00,1600.00,3000.00,M,-RA,M,M,M,M,M,M,57.20,LPOV 040400Z VRB02KT 8000 -RA SCT008 BKN016 BKN030 14/13 Q1007
LPOV,2017-11-04 05:00,-8.6459,40.9159,57.20,55.40,93.69,30.00,4.00,0.00,29.74,M,5.59,M,SCT,BKN,BKN,M,800.00,1600.00,3000.00,M,-RA,M,M,M,M,M,M,57.20,LPOV 040500Z 03004KT 9000 -RA SCT008 BKN016 BKN030 14/13 Q1007
LPOV,2017-11-04 06:00,-8.6459,40.9159,57.20,55.40,93.69,350.00,6.00,0.00,29.77,M,5.59,M,SCT,BKN,BKN,M,800.00,1600.00,3000.00,M,-RA,M,M,M,M,M,M,57.20,LPOV 040600Z 35006KT 9000 -RA SCT008 BKN016 BKN030 14/13 Q1008
LPOV,2017-11-04 07:00,-8.6459,40.9159,57.20,55.40,93.69,330.00,4.00,0.00,29.80,M,6.21,M,FEW,SCT,BKN,M,800.00,1600.00,3000.00,M,M,M,M,M,M,M,M,57.20,LPOV 040700Z 33004KT 9999 FEW008 SCT016 BKN030 14/13 Q1009
LPOV,2017-11-04 08:00,-8.6459,40.9159,57.20,55.40,93.69,M,2.00,0.00,29.83,M,6.21,M,FEW,BKN,M,M,1600.00,3000.00,M,M,M,M,M,M,M,M,M,57.20,LPOV 040800Z VRB02KT 9999 FEW016 BKN030 14/13 Q1010
LPOV,2017-11-04 09:00,-8.6459,40.9159,59.00,57.20,93.74,M,2.00,0.00,29.85,M,6.21,M,FEW,BKN,M,M,1600.00,3000.00,M,M,M,M,M,M,M,M,M,59.00,LPOV 040900Z VRB02KT 9999 FEW016 BKN030 15/14 Q1011
LPOV,2017-11-04 10:00,-8.6459,40.9159,60.80,57.20,87.92,330.00,3.00,0.00,29.88,M,6.21,M,FEW,SCT,M,M,1800.00,3200.00,M,M,M,M,M,M,M,M,M,60.80,LPOV 041000Z 33003KT 290V010 9999 FEW018 SCT032 16/14 Q1012
LPOV,2017-11-04 11:00,-8.6459,40.9159,62.60,59.00,88.00,340.00,6.00,0.00,29.88,M,6.21,M,SCT,M,M,M,1800.00,M,M,M,M,M,M,M,M,M,M,62.60,LPOV 041100Z 34006KT 290V020 9999 SCT018 17/15 Q1012
LPOV,2017-11-04 12:00,-8.6459,40.9159,62.60,59.00,88.00,340.00,8.00,0.00,29.91,M,6.21,M,FEW,M,M,M,1800.00,M,M,M,M,M,M,M,M,M,M,62.60,LPOV 041200Z 34008KT 290V010 9999 FEW018 17/15 Q1013
LPOV,2017-11-04 13:00,-8.6459,40.9159,64.40,57.20,77.45,330.00,8.00,0.00,29.91,M,6.21,M,FEW,M,M,M,1800.00,M,M,M,M,M,M,M,M,M,M,64.40,LPOV 041300Z 33008KT 9999 FEW018 18/14 Q1013
LPOV,2017-11-04 14:00,-8.6459,40.9159,64.40,57.20,77.45,340.00,11.00,0.00,29.91,M,6.21,M,FEW,M,M,M,1800.00,M,M,M,M,M,M,M,M,M,M,64.40,LPOV 041400Z 34011KT 310V010 9999 FEW018 18/14 Q1013
LPOV,2017-11-04 15:00,-8.6459,40.9159,64.40,57.20,77.45,340.00,14.00,0.00,29.94,M,6.21,M,FEW,M,M,M,2000.00,M,M,M,M,M,M,M,M,M,M,64.40,LPOV 041500Z 34014KT 320V020 9999 FEW020 18/14 Q1014
LPOV,2017-11-04 16:00,-8.6459,40.9159,62.60,57.20,82.50,350.00,13.00,0.00,29.97,M,6.21,M,FEW,M,M,M,1200.00,M,M,M,M,M,M,M,M,M,M,62.60,LPOV 041600Z 35013KT 320V020 9999 FEW012 17/14 Q1015
LPOV,2017-11-04 17:00,-8.6459,40.9159,62.60,57.20,82.50,350.00,17.00,0.00,30.00,M,6.21,M,FEW,M,M,M,1200.00,M,M,M,M,M,M,M,M,M,M,62.60,LPOV 041700Z 35017KT 9999 FEW012 17/14 Q1016
LPOV,2017-11-04 18:00,-8.6459,40.9159,60.80,57.20,87.92,350.00,15.00,0.00,30.03,M,6.21,M,FEW,M,M,M,1200.00,M,M,M,M,M,M,M,M,M,M,60.80,LPOV 041800Z 35015KT 9999 FEW012 16/14 Q1017
LPOV,2017-11-04 19:00,-8.6459,40.9159,60.80,57.20,87.92,350.00,14.00,0.00,30.03,M,6.21,M,FEW,SCT,M,M,1200.00,3000.00,M,M,M,M,M,M,M,M,M,60.80,LPOV 041900Z 35014KT 330V030 9999 FEW012 SCT030 16/14 Q1017
LPOV,2017-11-04 20:00,-8.6459,40.9159,59.00,55.40,87.83,360.00,13.00,0.00,30.06,M,6.21,M,FEW,SCT,M,M,1200.00,1500.00,M,M,M,M,M,M,M,M,M,59.00,LPOV 042000Z 36013KT 330V030 9999 FEW012 SCT015 15/13 Q1018
LPOV,2017-11-04 21:00,-8.6459,40.9159,59.00,57.20,93.74,360.00,10.00,0.00,30.09,M,6.21,M,FEW,M,M,M,1500.00,M,M,M,M,M,M,M,M,M,M,59.00,LPOV 042100Z 36010KT 330V030 9999 FEW015 15/14 Q1019
LPOV,2017-11-04 22:00,-8.6459,40.9159,59.00,53.60,82.25,360.00,11.00,0.00,30.12,M,6.21,M,FEW,M,M,M,1500.00,M,M,M,M,M,M,M,M,M,M,59.00,LPOV 042200Z 36011KT 9999 FEW015 15/12 Q1020
LPOV,2017-11-04 23:00,-8.6459,40.9159,57.20,50.00,76.82,10.00,8.00,0.00,30.15,M,6.21,M,FEW,M,M,M,3000.00,M,M,M,M,M,M,M,M,M,M,57.20,LPOV 042300Z 01008KT 340V040 9999 FEW030 14/10 Q1021
LPOV,2017-11-05 00:00,-8.6459,40.9159,57.20,48.20,71.83,350.00,10.00,0.00,30.15,M,6.21,M,FEW,M,M,M,3000.00,M,M,M,M,M,M,M,M,M,M,57.20,LPOV 050000Z 35010KT 9999 FEW030 14/09 Q1021
LPOV,2017-11-05 01:00,-8.6459,40.9159,55.40,50.00,81.99,10.00,8.00,0.00,30.18,M,6.21,M,M,M,M,M,M,M,M,M,M,M,M,M,M,M,M,55.40,LPOV 050100Z 01008KT 330V040 CAVOK 13/10 Q1022
LPOV,2017-11-05 02:00,-8.6459,40.9159,55.40,48.20,76.66,30.00,6.00,0.00,30.21,M,6.21,M,M,M,M,M,M,M,M,M,M,M,M,M,M,M,M,55.40,LPOV 050200Z 03006KT 350V060 CAVOK 13/09 Q1023
LPOV,2017-11-05 03:00,-8.6459,40.9159,53.60,46.40,M,M,M,0.00,30.21,M,6.21,M,M,M,M,M,M,M,M,M,M,M,M,M,M,M,M,M,LPOV 050300Z 060K04T 020V110 CAVOK 12/08 Q1023
LPOV,2017-11-05 04:00,-8.6459,40.9159,51.80,46.40,81.74,40.00,4.00,0.00,30.21,M,6.21,M,M,M,M,M,M,M,M,M,M,M,M,M,M,M,M,51.80,LPOV 050400Z 04004T CAVOK 11/08 Q1023
LPOV,2017-11-05 05:00,-8.6459,40.9159,50.00,44.60,81.61,10.00,4.00,0.00,30.24,M,6.21,M,M,M,M,M,M,M,M,M,M,M,M,M,M,M,M,48.44,LPOV 050500Z 01004KT CAVOK 10/07 Q1024
LPOV,2017-11-05 06:00,-8.6459,40.9159,51.80,46.40,81.74,10.00,7.00,0.00,30.24,M,6.21,M,M,M,M,M,M,M,M,M,M,M,M,M,M,M,M,51.80,LPOV 050600Z 01007KT CAVOK 11/08 Q1024
LPOV,2017-11-05 07:00,-8.6459,40.9159,50.00,46.40,87.37,10.00,7.00,0.00,30.27,M,6.21,M,M,M,M,M,M,M,M,M,M,M,M,M,M,M,M,46.72,LPOV 050700Z 01007KT CAVOK 10/08 Q1025
LPOV,2017-11-05 08:00,-8.6459,40.9159,51.80,46.40,81.74,40.00,3.00,0.00,30.30,M,6.21,M,M,M,M,M,M,M,M,M,M,M,M,M,M,M,M,51.80,LPOV 050800Z 04003KT CAVOK 11/08 Q1026
LPOV,2017-11-05 09:00,-8.6459,40.9159,53.60,44.60,71.45,10.00,5.00,0.00,30.30,M,6.21,M,M,M,M,M,M,M,M,M,M,M,M,M,M,M,M,53.60,LPOV 050900Z 01005KT 340V040 CAVOK 12/07 Q1026
LPOV,2017-11-05 10:00,-8.6459,40.9159,57.20,44.60,62.69,10.00,8.00,0.00,30.33,M,6.21,M,M,M,M,M,M,M,M,M,M,M,M,M,M,M,M,57.20,LPOV 051000Z 01008KT 340V040 CAVOK 14/07 Q1027
LPOV,2017-11-05 11:00,-8.6459,40.9159,59.00,44.60,58.77,360.00,10.00,0.00,30.33,M,6.21,M,M,M,M,M,M,M,M,M,M,M,M,M,M,M,M,59.00,LPOV 051100Z 36010KT 320V030 CAVOK 15/07 Q1027
LPOV,2017-11-05 12:00,-8.6459,40.9159,69.80,57.20,64.26,10.00,10.00,0.00,30.33,M,6.21,M,M,M,M,M,M,M,M,M,M,M,M,M,M,M,M,69.80,LPOV 051200Z 01010KT 340V050 CAVOK 21/14 Q1027
LPOV,2017-11-05 13:00,-8.6459,40.9159,64.40,44.60,48.55,360.00,10.00,0.00,30.33,M,6.21,M,FEW,M,M,M,2500.00,M,M,M,M,M,M,M,M,M,M,64.40,LPOV 051300Z 36010KT 330V030 9999 FEW025 18/07 Q1027
LPOV,2017-11-05 14:00,-8.6459,40.9159,64.40,48.20,55.63,350.00,15.00,0.00,30.30,M,6.21,M,FEW,M,M,M,2500.00,M,M,M,M,M,M,M,M,M,M,64.40,LPOV 051400Z 35015KT 310V010 9999 FEW025 18/09 Q1026
LPOV,2017-11-05 15:00,-8.6459,40.9159,60.80,51.80,72.20,350.00,16.00,0.00,30.30,M,6.21,M,FEW,M,M,M,2500.00,M,M,M,M,M,M,M,M,M,M,60.80,LPOV 051500Z 35016KT 9999 FEW025 16/11 Q1026
LPOV,2017-11-05 16:00,-8.6459,40.9159,60.80,51.80,72.20,350.00,14.00,0.00,30.30,M,6.21,M,FEW,M,M,M,2500.00,M,M,M,M,M,M,M,M,M,M,60.80,LPOV 051600Z 35014KT 9999 FEW025 16/11 Q1026
LPOV,2017-11-05 17:00,-8.6459,40.9159,59.00,51.80,76.98,350.00,13.00,0.00,30.30,M,6.21,M,FEW,M,M,M,2500.00,M,M,M,M,M,M,M,M,M,M,59.00,LPOV 051700Z 35013KT 9999 FEW025 15/11 Q1026
LPOV,2017-11-05 18:00,-8.6459,40.9159,59.00,51.80,76.98,330.00,13.00,0.00,30.30,M,6.21,M,FEW,M,M,M,2500.00,M,M,M,M,M,M,M,M,M,M,59.00,LPOV 051800Z 33013KT 330V030 9999 FEW025 15/11 Q1026
LPOV,2017-11-05 19:00,-8.6459,40.9159,57.20,48.20,71.83,360.00,9.00,0.00,30.33,M,6.21,M,M,M,M,M,M,M,M,M,M,M,M,M,M,M,M,57.20,LPOV 051900Z 36009KT CAVOK 14/09 Q1027
LPOV,2017-11-05 20:00,-8.6459,40.9159,55.40,46.40,71.64,360.00,7.00,0.00,30.33,M,6.21,M,M,M,M,M,M,M,M,M,M,M,M,M,M,M,M,55.40,LPOV 052000Z 36007KT CAVOK 13/08 Q1027
LPOV,2017-11-05 21:00,-8.6459,40.9159,53.60,46.40,76.50,20.00,4.00,0.00,30.33,M,6.21,M,M,M,M,M,M,M,M,M,M,M,M,M,M,M,M,53.60,LPOV 052100Z 02004KT 330V070 CAVOK 12/08 Q1027
LPOV,2017-11-05 22:00,-8.6459,40.9159,53.60,46.40,76.50,20.00,5.00,0.00,30.36,M,6.21,M,M,M,M,M,M,M,M,M,M,M,M,M,M,M,M,53.60,LPOV 052200Z 02005KT CAVOK 12/08 Q1028
LPOV,2017-11-05 23:00,-8.6459,40.9159,50.00,44.60,81.61,M,2.00,0.00,30.36,M,6.21,M,M,M,M,M,M,M,M,M,M,M,M,M,M,M,M,50.00,LPOV 052300Z VRB02KT CAVOK 10/07 Q1028
LPOV,2017-11-06 00:00,-8.6459,40.9159,46.40,44.60,93.40,360.00,3.00,0.00,30.36,M,6.21,M,M,M,M,M,M,M,M,M,M,M,M,M,M,M,M,45.15,LPOV 060000Z 36003KT CAVOK 08/07 Q1028
LPOV,2017-11-06 01:00,-8.6459,40.9159,46.40,42.80,87.19,10.00,3.00,0.00,30.33,M,6.21,M,M,M,M,M,M,M,M,M,M,M,M,M,M,M,M,45.15,LPOV 060100Z 01003KT CAVOK 08/06 Q1027
LPOV,2017-11-06 02:00,-8.6459,40.9159,44.60,41.00,87.09,350.00,6.00,0.00,30.33,M,6.21,M,M,M,M,M,M,M,M,M,M,M,M,M,M,M,M,40.71,LPOV 060200Z 35006KT CAVOK 07/05 Q1027
LPOV,2017-11-06 03:00,-8.6459,40.9159,44.60,42.80,93.35,360.00,6.00,0.00,30.33,M,6.21,M,M,M,M,M,M,M,M,M,M,M,M,M,M,M,M,40.71,LPOV 060300Z 36006KT CAVOK 07/06 Q1027
LPOV,2017-11-06 04:00,-8.6459,40.9159,42.80,42.80,100.00,10.00,6.00,0.00,30.30,M,6.21,M,M,M,M,M,M,M,M,M,M,M,M,M,M,M,M,38.54,LPOV 060400Z 01006KT CAVOK 06/06 Q1026
LPOV,2017-11-06 05:00,-8.6459,40.9159,44.60,41.00,87.09,10.00,4.00,0.00,30.30,M,6.21,M,M,M,M,M,M,M,M,M,M,M,M,M,M,M,M,42.13,LPOV 060500Z 01004KT CAVOK 07/05 Q1026
LPOV,2017-11-06 06:00,-8.6459,40.9159,44.60,41.00,87.09,350.00,6.00,0.00,30.27,M,6.21,M,M,M,M,M,M,M,M,M,M,M,M,M,M,M,M,40.71,LPOV 060600Z 35006KT CAVOK 07/05 Q1025
LPOV,2017-11-06 07:00,-8.6459,40.9159,42.80,41.00,93.30,M,2.00,0.00,30.30,M,6.21,M,M,M,M,M,M,M,M,M,M,M,M,M,M,M,M,42.80,LPOV 060700Z VRB02KT CAVOK 06/05 Q1026
LPOV,2017-11-06 08:00,-8.6459,40.9159,44.60,41.00,87.09,350.00,3.00,0.00,30.30,M,6.21,M,M,M,M,M,M,M,M,M,M,M,M,M,M,M,M,43.09,LPOV 060800Z 35003KT CAVOK 07/05 Q1026
LPOV,2017-11-06 09:00,-8.6459,40.9159,50.00,44.60,81.61,350.00,4.00,0.00,30.30,M,6.21,M,M,M,M,M,M,M,M,M,M,M,M,M,M,M,M,48.44,LPOV 060900Z 35004KT CAVOK 10/07 Q1026
LPOV,2017-11-06 10:00,-8.6459,40.9159,57.20,46.40,67.12,50.00,3.00,0.00,30.30,M,6.21,M,M,M,M,M,M,M,M,M,M,M,M,M,M,M,M,57.20,LPOV 061000Z 05003KT CAVOK 14/08 Q1026
LPOV,2017-11-06 11:00,-8.6459,40.9159,60.80,46.40,59.01,M,2.00,0.00,30.30,M,6.21,M,M,M,M,M,M,M,M,M,M,M,M,M,M,M,M,60.80,LPOV 061100Z VRB02KT CAVOK 16/08 Q1026
LPOV,2017-11-06 12:00,-8.6459,40.9159,62.60,48.20,59.26,M,2.00,0.00,30.27,M,6.21,M,M,M,M,M,M,M,M,M,M,M,M,M,M,M,M,62.60,LPOV 061200Z VRB02KT CAVOK 17/09 Q1025
LPOV,2017-11-06 13:00,-8.6459,40.9159,64.40,48.20,55.63,330.00,6.00,0.00,30.24,M,6.21,M,M,M,M,M,M,M,M,M,M,M,M,M,M,M,M,64.40,LPOV 061300Z 33006KT 280V020 CAVOK 18/09 Q1024
LPOV,2017-11-06 14:00,-8.6459,40.9159,64.40,50.00,59.50,310.00,7.00,0.00,30.21,M,6.21,M,M,M,M,M,M,M,M,M,M,M,M,M,M,M,M,64.40,LPOV 061400Z 31007KT 280V340 CAVOK 18/10 Q1023
LPOV,2017-11-06 15:00,-8.6459,40.9159,62.60,51.80,67.75,340.00,9.00,0.00,30.18,M,6.21,M,M,M,M,M,M,M,M,M,M,M,M,M,M,M,M,62.60,LPOV 061500Z 34009KT 300V360 CAVOK 17/11 Q1022
LPOV,2017-11-06 16:00,-8.6459,40.9159,60.80,53.60,77.14,340.00,9.00,0.00,30.18,M,6.21,M,M,M,M,M,M,M,M,M,M,M,M,M,M,M,M,60.80,LPOV 061600Z 34009KT 300V010 CAVOK 16/12 Q1022
LPOV,2017-11-06 17:00,-8.6459,40.9159,59.00,50.00,72.01,350.00,10.00,0.00,30.18,M,6.21,M,M,M,M,M,M,M,M,M,M,M,M,M,M,M,M,59.00,LPOV 061700Z 35010KT CAVOK 15/10 Q1022
LPOV,2017-11-06 18:00,-8.6459,40.9159,57.20,51.80,82.12,360.00,7.00,0.00,30.18,M,6.21,M,M,M,M,M,M,M,M,M,M,M,M,M,M,M,M,57.20,LPOV 061800Z 36007KT CAVOK 14/11 Q1022
LPOV,2017-11-06 19:00,-8.6459,40.9159,55.40,50.00,81.99,360.00,4.00,0.00,30.18,M,6.21,M,M,M,M,M,M,M,M,M,M,M,M,M,M,M,M,55.40,LPOV 061900Z 36004KT CAVOK 13/10 Q1022
LPOV,2017-11-06 20:00,-8.6459,40.9159,51.80,46.40,81.74,M,2.00,0.00,30.18,M,6.21,M,M,M,M,M,M,M,M,M,M,M,M,M,M,M,M,51.80,LPOV 062000Z VRB02KT CAVOK 11/08 Q1022
LPOV,2017-11-06 21:00,-8.6459,40.9159,48.20,46.40,93.45,M,2.00,0.00,30.18,M,6.21,M,M,M,M,M,M,M,M,M,M,M,M,M,M,M,M,48.20,LPOV 062100Z VRB02KT CAVOK 09/08 Q1022
LPOV,2017-11-06 22:00,-8.6459,40.9159,46.40,44.60,93.40,M,1.00,0.00,30.18,M,6.21,M,M,M,M,M,M,M,M,M,M,M,M,M,M,M,M,46.40,LPOV 062200Z VRB01KT CAVOK 08/07 Q1022
LPOV,2017-11-06 23:00,-8.6459,40.9159,44.60,42.80,93.35,M,1.00,0.00,30.18,M,6.21,M,M,M,M,M,M,M,M,M,M,M,M,M,M,M,M,44.60,LPOV 062300Z VRB01KT CAVOK 07/06 Q1022
LPOV,2017-11-07 00:00,-8.6459,40.9159,44.60,42.80,93.35,M,1.00,0.00,30.18,M,6.21,M,M,M,M,M,M,M,M,M,M,M,M,M,M,M,M,44.60,LPOV 070000Z VRB01KT CAVOK 07/06 Q1022
LPOV,2017-11-07 01:00,-8.6459,40.9159,42.80,42.80,100.00,M,1.00,0.00,30.15,M,6.21,M,M,M,M,M,M,M,M,M,M,M,M,M,M,M,M,42.80,LPOV 070100Z VRB01KT CAVOK 06/06 Q1021
LPOV,2017-11-07 02:00,-8.6459,40.9159,41.00,39.20,93.24,M,2.00,0.00,30.15,M,6.21,M,M,M,M,M,M,M,M,M,M,M,M,M,M,M,M,41.00,LPOV 070200Z VRB02KT CAVOK 05/04 Q1021
LPOV,2017-11-07 03:00,-8.6459,40.9159,39.20,39.20,100.00,M,1.00,0.00,30.15,M,6.21,M,M,M,M,M,M,M,M,M,M,M,M,M,M,M,M,39.20,LPOV 070300Z VRB01KT CAVOK 04/04 Q1021
LPOV,2017-11-07 04:00,-8.6459,40.9159,41.00,39.20,93.24,M,1.00,0.00,30.15,M,6.21,M,M,M,M,M,M,M,M,M,M,M,M,M,M,M,M,41.00,LPOV 070400Z VRB01KT CAVOK 05/04 Q1021
LPOV,2017-11-07 05:00,-8.6459,40.9159,39.20,39.20,100.00,M,2.00,0.00,30.15,M,6.21,M,M,M,M,M,M,M,M,M,M,M,M,M,M,M,M,39.20,LPOV 070500Z VRB02KT CAVOK 04/04 Q1021
LPOV,2017-11-07 06:00,-8.6459,40.9159,39.20,37.40,93.19,M,1.00,0.00,30.18,M,6.21,M,M,M,M,M,M,M,M,M,M,M,M,M,M,M,M,39.20,LPOV 070600Z VRB01KT CAVOK 04/03 Q1022
LPOV,2017-11-07 07:00,-8.6459,40.9159,37.40,37.40,100.00,M,1.00,0.00,30.18,M,6.21,M,M,M,M,M,M,M,M,M,M,M,M,M,M,M,M,37.40,LPOV 070700Z VRB01KT CAVOK 03/03 Q1022
LPOV,2017-11-07 08:00,-8.6459,40.9159,42.80,41.00,93.30,M,2.00,0.00,30.21,M,6.21,M,M,M,M,M,M,M,M,M,M,M,M,M,M,M,M,42.80,LPOV 070800Z VRB02KT CAVOK 06/05 Q1023
LPOV,2017-11-07 09:00,-8.6459,40.9159,50.00,46.40,87.37,M,2.00,0.00,30.21,M,6.21,M,M,M,M,M,M,M,M,M,M,M,M,M,M,M,M,50.00,LPOV 070900Z VRB02KT CAVOK 10/08 Q1023
LPOV,2017-11-07 10:00,-8.6459,40.9159,55.40,46.40,71.64,350.00,3.00,0.00,30.21,M,6.21,M,M,M,M,M,M,M,M,M,M,M,M,M,M,M,M,55.40,LPOV 071000Z 35003KT 310V030 CAVOK 13/08 Q1023
LPOV,2017-11-07 11:00,-8.6459,40.9159,59.00,44.60,58.77,360.00,5.00,0.00,30.21,M,6.21,M,M,M,M,M,M,M,M,M,M,M,M,M,M,M,M,59.00,LPOV 071100Z 36005KT 330V040 CAVOK 15/07 Q1023
LPOV,2017-11-07 12:00,-8.6459,40.9159,60.80,46.40,59.01,330.00,6.00,0.00,30.21,M,6.21,M,M,M,M,M,M,M,M,M,M,M,M,M,M,M,M,60.80,LPOV 071200Z 33006KT 290V010 CAVOK 16/08 Q1023
LPOV,2017-11-07 13:00,-8.6459,40.9159,60.80,48.20,63.15,330.00,8.00,0.00,30.21,M,6.21,M,M,M,M,M,M,M,M,M,M,M,M,M,M,M,M,60.80,LPOV 071300Z 33008KT 290V360 CAVOK 16/09 Q1023
LPOV,2017-11-07 14:00,-8.6459,40.9159,62.60,50.00,63.38,340.00,7.00,0.00,30.18,M,6.21,M,M,M,M,M,M,M,M,M,M,M,M,M,M,M,M,62.60,LPOV 071400Z 34007KT 300V010 CAVOK 17/10 Q1022
LPOV,2017-11-07 15:00,-8.6459,40.9159,62.60,51.80,67.75,340.00,8.00,0.00,30.18,M,6.21,M,FEW,M,M,M,3000.00,M,M,M,M,M,M,M,M,M,M,62.60,LPOV 071500Z 34008KT 300V010 9999 FEW030 17/11 Q1022
LPOV,2017-11-07 16:00,-8.6459,40.9159,60.80,51.80,72.20,350.00,9.00,0.00,30.18,M,6.21,M,FEW,M,M,M,3000.00,M,M,M,M,M,M,M,M,M,M,60.80,LPOV 071600Z 35009KT 320V020 9999 FEW030 16/11 Q1022
LPOV,2017-11-07 17:00,-8.6459,40.9159,59.00,53.60,82.25,350.00,10.00,0.00,30.18,M,6.21,M,FEW,BKN,M,M,1500.00,2800.00,M,M,M,M,M,M,M,M,M,59.00,LPOV 071700Z 35010KT 320V020 9999 FEW015 BKN028 15/12 Q1022
LPOV,2017-11-07 18:00,-8.6459,40.9159,57.20,53.60,87.74,350.00,10.00,0.00,30.21,M,6.21,M,FEW,BKN,M,M,1500.00,3000.00,M,M,M,M,M,M,M,M,M,57.20,LPOV 071800Z 35010KT 9999 FEW015 BKN030 14/12 Q1023
LPOV,2017-11-07 19:00,-8.6459,40.9159,57.20,53.60,87.74,350.00,10.00,0.00,30.21,M,6.21,M,M,M,M,M,M,M,M,M,M,M,M,M,M,M,M,57.20,LPOV 071900Z 35010KT CAVOK 14/12 Q1023
LPOV,2017-11-07 20:00,-8.6459,40.9159,55.40,51.80,87.65,10.00,5.00,0.00,30.21,M,6.21,M,M,M,M,M,M,M,M,M,M,M,M,M,M,M,M,55.40,LPOV 072000Z 01005KT 330V050 CAVOK 13/11 Q1023
LPOV,2017-11-07 21:00,-8.6459,40.9159,51.80,48.20,87.47,360.00,4.00,0.00,30.24,M,6.21,M,M,M,M,M,M,M,M,M,M,M,M,M,M,M,M,51.80,LPOV 072100Z 36004KT CAVOK 11/09 Q1024
LPOV,2017-11-07 22:00,-8.6459,40.9159,53.60,48.20,81.87,10.00,7.00,0.00,30.24,M,6.21,M,M,M,M,M,M,M,M,M,M,M,M,M,M,M,M,53.60,LPOV 072200Z 01007KT CAVOK 12/09 Q1024
LPOV,2017-11-07 23:00,-8.6459,40.9159,51.80,48.20,87.47,20.00,5.00,0.00,30.24,M,6.21,M,M,M,M,M,M,M,M,M,M,M,M,M,M,M,M,51.80,LPOV 072300Z 02005KT CAVOK 11/09 Q1024
LPOV,2017-11-08 00:00,-8.6459,40.9159,50.00,46.40,87.37,10.00,5.00,0.00,30.27,M,6.21,M,M,M,M,M,M,M,M,M,M,M,M,M,M,M,M,47.77,LPOV 080000Z 01005KT CAVOK 10/08 Q1025
LPOV,2017-11-08 01:00,-8.6459,40.9159,50.00,44.60,81.61,10.00,5.00,0.00,30.27,M,6.21,M,M,M,M,M,M,M,M,M,M,M,M,M,M,M,M,47.77,LPOV 080100Z 01005KT CAVOK 10/07 Q1025
LPOV,2017-11-08 02:00,-8.6459,40.9159,50.00,42.80,76.18,10.00,5.00,0.00,30.27,M,6.21,M,M,M,M,M,M,M,M,M,M,M,M,M,M,M,M,47.77,LPOV 080200Z 01005KT CAVOK 10/06 Q1025
LPOV,2017-11-08 03:00,-8.6459,40.9159,50.00,42.80,76.18,360.00,6.00,0.00,30.27,M,6.21,M,M,M,M,M,M,M,M,M,M,M,M,M,M,M,M,47.21,LPOV 080300Z 36006KT CAVOK 10/06 Q1025
LPOV,2017-11-08 04:00,-8.6459,40.9159,46.40,42.80,87.19,10.00,5.00,0.00,30.27,M,6.21,M,M,M,M,M,M,M,M,M,M,M,M,M,M,M,M,43.50,LPOV 080400Z 01005KT CAVOK 08/06 Q1025
LPOV,2017-11-08 05:00,-8.6459,40.9159,46.40,41.00,81.34,360.00,3.00,0.00,30.27,M,6.21,M,M,M,M,M,M,M,M,M,M,M,M,M,M,M,M,45.15,LPOV 080500Z 36003KT CAVOK 08/05 Q1025
LPOV,2017-11-08 06:00,-8.6459,40.9159,46.40,42.80,87.19,360.00,5.00,0.00,30.27,M,6.21,M,M,M,M,M,M,M,M,M,M,M,M,M,M,M,M,43.50,LPOV 080600Z 36005KT CAVOK 08/06 Q1025
LPOV,2017-11-08 07:00,-8.6459,40.9159,42.80,41.00,93.30,360.00,5.00,0.00,30.30,M,6.21,M,M,M,M,M,M,M,M,M,M,M,M,M,M,M,M,39.22,LPOV 080700Z 36005KT CAVOK 06/05 Q1026
LPOV,2017-11-08 08:00,-8.6459,40.9159,48.20,41.00,76.01,360.00,8.00,0.00,30.30,M,6.21,M,M,M,M,M,M,M,M,M,M,M,M,M,M,M,M,44.07,LPOV 080800Z 36008KT CAVOK 09/05 Q1026
LPOV,2017-11-08 09:00,-8.6459,40.9159,51.80,42.80,71.26,360.00,7.00,0.00,30.33,M,6.21,M,M,M,M,M,M,M,M,M,M,M,M,M,M,M,M,51.80,LPOV 080900Z 36007KT CAVOK 11/06 Q1027
LPOV,2017-11-08 10:00,-8.6459,40.9159,53.60,42.80,66.70,10.00,4.00,0.00,30.33,M,6.21,M,M,M,M,M,M,M,M,M,M,M,M,M,M,M,M,53.60,LPOV 081000Z 01004KT CAVOK 12/06 Q1027
LPOV,2017-11-08 11:00,-8.6459,40.9159,57.20,41.00,54.60,10.00,10.00,0.00,30.33,M,6.21,M,M,M,M,M,M,M,M,M,M,M,M,M,M,M,M,57.20,LPOV 081100Z 01010KT 340V050 CAVOK 14/05 Q1027
LPOV,2017-11-08 12:00,-8.6459,40.9159,60.80,42.80,51.45,360.00,10.00,0.00,30.33,M,6.21,M,M,M,M,M,M,M,M,M,M,M,M,M,M,M,M,60.80,LPOV 081200Z 36010KT 330V040 CAVOK 16/06 Q1027
LPOV,2017-11-08 13:00,-8.6459,40.9159,62.60,42.80,48.28,360.00,10.00,0.00,30.30,M,6.21,M,M,M,M,M,M,M,M,M,M,M,M,M,M,M,M,62.60,LPOV 081300Z 36010KT 330V050 CAVOK 17/06 Q1026
LPOV,2017-11-08 14:00,-8.6459,40.9159,62.60,46.40,55.37,340.00,13.00,0.00,30.27,M,6.21,M,FEW,M,M,M,3000.00,M,M,M,M,M,M,M,M,M,M,62.60,LPOV 081400Z 34013KT 320V020 9999 FEW030 17/08 Q1025
LPOV,2017-11-08 15:00,-8.6459,40.9159,59.00,48.20,67.33,350.00,13.00,0.00,30.27,M,6.21,M,FEW,M,M,M,3000.00,M,M,M,M,M,M,M,M,M,M,59.00,LPOV 081500Z 35013KT 9999 FEW030 15/09 Q1025
LPOV,2017-11-08 16:00,-8.6459,40.9159,60.80,44.60,55.12,350.00,12.00,0.00,30.27,M,6.21,M,FEW,M,M,M,3000.00,M,M,M,M,M,M,M,M,M,M,60.80,LPOV 081600Z 35012KT 310V020 9999 FEW030 16/07 Q1025
LPOV,2017-11-08 17:00,-8.6459,40.9159,59.00,44.60,58.77,340.00,13.00,0.00,30.30,M,6.21,M,M,M,M,M,M,M,M,M,M,M,M,M,M,M,M,59.00,LPOV 081700Z 34013KT CAVOK 15/07 Q1026
LPOV,2017-11-08 18:00,-8.6459,40.9159,57.20,46.40,67.12,360.00,9.00,0.00,30.30,M,6.21,M,M,M,M,M,M,M,M,M,M,M,M,M,M,M,M,57.20,LPOV 081800Z 36009KT CAVOK 14/08 Q1026
LPOV,2017-11-08 19:00,-8.6459,40.9159,57.20,44.60,62.69,350.00,8.00,0.00,30.33,M,6.21,M,M,M,M,M,M,M,M,M,M,M,M,M,M,M,M,57.20,LPOV 081900Z 35008KT 320V020 CAVOK 14/07 Q1027
LPOV,2017-11-08 20:00,-8.6459,40.9159,55.40,42.80,62.46,360.00,5.00,0.00,30.33,M,6.21,M,M,M,M,M,M,M,M,M,M,M,M,M,M,M,M,55.40,LPOV 082000Z 36005KT CAVOK 13/06 Q1027
LPOV,2017-11-08 21:00,-8.6459,40.9159,53.60,44.60,71.45,M,1.00,0.00,30.33,M,6.21,M,M,M,M,M,M,M,M,M,M,M,M,M,M,M,M,53.60,LPOV 082100Z VRB01KT CAVOK 12/07 Q1027
LPOV,2017-11-08 22:00,-8.6459,40.9159,46.40,41.00,81.34,360.00,4.00,0.00,30.36,M,6.21,M,M,M,M,M,M,M,M,M,M,M,M,M,M,M,M,44.24,LPOV 082200Z 36004KT CAVOK 08/05 Q1028
LPOV,2017-11-08 23:00,-8.6459,40.9159,51.80,41.00,66.48,360.00,7.00,0.00,30.36,M,6.21,M,M,M,M,M,M,M,M,M,M,M,M,M,M,M,M,51.80,LPOV 082300Z 36007KT CAVOK 11/05 Q1028
LPOV,2017-11-09 00:00,-8.6459,40.9159,48.20,44.60,87.28,20.00,5.00,0.00,30.36,M,6.21,M,M,M,M,M,M,M,M,M,M,M,M,M,M,M,M,45.63,LPOV 090000Z 02005KT 350V050 CAVOK 09/07 Q1028
LPOV,2017-11-09 01:00,-8.6459,40.9159,50.00,46.40,87.37,10.00,8.00,0.00,30.36,M,6.21,M,M,M,M,M,M,M,M,M,M,M,M,M,M,M,M,46.29,LPOV 090100Z 01008KT CAVOK 10/08 Q1028
LPOV,2017-11-09 02:00,-8.6459,40.9159,50.00,41.00,71.07,360.00,6.00,0.00,30.36,M,6.21,M,M,M,M,M,M,M,M,M,M,M,M,M,M,M,M,47.21,LPOV 090200Z 36006KT CAVOK 10/05 Q1028
LPOV,2017-11-09 03:00,-8.6459,40.9159,46.40,41.00,81.34,40.00,3.00,0.00,30.36,M,6.21,M,M,M,M,M,M,M,M,M,M,M,M,M,M,M,M,45.15,LPOV 090300Z 04003KT CAVOK 08/05 Q1028
LPOV,2017-11-09 04:00,-8.6459,40.9159,41.00,39.20,93.24,10.00,3.00,0.00,30.36,M,6.21,M,M,M,M,M,M,M,M,M,M,M,M,M,M,M,M,38.98,LPOV 090400Z 01003KT CAVOK 05/04 Q1028
LPOV,2017-11-09 05:00,-8.6459,40.9159,41.00,39.20,93.24,360.00,6.00,0.00,30.39,M,6.21,M,M,M,M,M,M,M,M,M,M,M,M,M,M,M,M,36.37,LPOV 090500Z 36006KT CAVOK 05/04 Q1029
LPOV,2017-11-09 06:00,-8.6459,40.9159,42.80,41.00,93.30,20.00,3.00,0.00,30.39,M,6.21,M,M,M,M,M,M,M,M,M,M,M,M,M,M,M,M,41.03,LPOV 090600Z 02003KT 350V050 CAVOK 06/05 Q1029
LPOV,2017-11-09 07:00,-8.6459,40.9159,44.60,39.20,81.20,20.00,3.00,0.00,30.39,M,6.21,M,M,M,M,M,M,M,M,M,M,M,M,M,M,M,M,43.09,LPOV 090700Z 02003KT 350V060 CAVOK 07/04 Q1029
LPOV,2017-11-09 08:00,-8.6459,40.9159,42.80,39.20,86.99,10.00,5.00,0.00,30.42,M,6.21,M,M,M,M,M,M,M,M,M,M,M,M,M,M,M,M,39.22,LPOV 090800Z 01005KT CAVOK 06/04 Q1030
LPOV,2017-11-09 09:00,-8.6459,40.9159,48.20,39.20,70.88,M,1.00,0.00,30.42,M,6.21,M,M,M,M,M,M,M,M,M,M,M,M,M,M,M,M,48.20,LPOV 090900Z VRB01KT CAVOK 09/04 Q1030
LPOV,2017-11-09 10:00,-8.6459,40.9159,53.60,41.00,62.23,20.00,6.00,0.00,30.42,M,6.21,M,M,M,M,M,M,M,M,M,M,M,M,M,M,M,M,53.60,LPOV 091000Z 02006KT 350V060 CAVOK 12/05 Q1030
LPOV,2017-11-09 11:00,-8.6459,40.9159,57.20,41.00,54.60,60.00,5.00,0.00,30.42,M,6.21,M,M,M,M,M,M,M,M,M,M,M,M,M,M,M,M,57.20,LPOV 091100Z 06005KT 360V100 CAVOK 14/05 Q1030
LPOV,2017-11-09 12:00,-8.6459,40.9159,59.00,42.80,54.86,20.00,6.00,0.00,30.42,M,6.21,M,M,M,M,M,M,M,M,M,M,M,M,M,M,M,M,59.00,LPOV 091200Z 02006KT 340V060 CAVOK 15/06 Q1030
LPOV,2017-11-09 13:00,-8.6459,40.9159,59.00,44.60,58.77,320.00,6.00,0.00,30.39,M,6.21,M,M,M,M,M,M,M,M,M,M,M,M,M,M,M,M,59.00,LPOV 091300Z 32006KT 280V020 CAVOK 15/07 Q1029
LPOV,2017-11-09 14:00,-8.6459,40.9159,59.00,48.20,67.33,350.00,9.00,0.00,30.39,M,6.21,M,FEW,M,M,M,2000.00,M,M,M,M,M,M,M,M,M,M,59.00,LPOV 091400Z 35009KT 9999 FEW020 15/09 Q1029
LPOV,2017-11-09 15:00,-8.6459,40.9159,59.00,50.00,72.01,350.00,12.00,0.00,30.36,M,6.21,M,FEW,M,M,M,2000.00,M,M,M,M,M,M,M,M,M,M,59.00,LPOV 091500Z 35012KT 310V010 9999 FEW020 15/10 Q1028
LPOV,2017-11-09 16:00,-8.6459,40.9159,59.00,50.00,72.01,360.00,14.00,0.00,30.36,M,6.21,M,FEW,M,M,M,2000.00,M,M,M,M,M,M,M,M,M,M,59.00,LPOV 091600Z 36014KT 9999 FEW020 15/10 Q1028
LPOV,2017-11-09 17:00,-8.6459,40.9159,59.00,50.00,72.01,340.00,9.00,0.00,30.36,M,6.21,M,FEW,M,M,M,4000.00,M,M,M,M,M,M,M,M,M,M,59.00,LPOV 091700Z 34009KT 310V010 9999 FEW040 15/10 Q1028
LPOV,2017-11-09 18:00,-8.6459,40.9159,57.20,51.80,82.12,350.00,10.00,0.00,30.36,M,6.21,M,FEW,M,M,M,3500.00,M,M,M,M,M,M,M,M,M,M,57.20,LPOV 091800Z 35010KT 9999 FEW035 14/11 Q1028
LPOV,2017-11-09 19:00,-8.6459,40.9159,55.40,51.80,87.65,360.00,9.00,0.00,30.39,M,6.21,M,FEW,M,M,M,3500.00,M,M,M,M,M,M,M,M,M,M,55.40,LPOV 091900Z 36009KT 9999 FEW035 13/11 Q1029
LPOV,2017-11-09 20:00,-8.6459,40.9159,55.40,51.80,87.65,10.00,6.00,0.00,30.39,M,6.21,M,M,M,M,M,M,M,M,M,M,M,M,M,M,M,M,55.40,LPOV 092000Z 01006KT 330V040 CAVOK 13/11 Q1029
LPOV,2017-11-09 21:00,-8.6459,40.9159,55.40,48.20,76.66,10.00,5.00,0.00,30.42,M,6.21,M,M,M,M,M,M,M,M,M,M,M,M,M,M,M,M,55.40,LPOV 092100Z 01005KT CAVOK 13/09 Q1030
LPOV,2017-11-09 22:00,-8.6459,40.9159,57.20,46.40,67.12,30.00,5.00,0.00,30.42,M,6.21,M,M,M,M,M,M,M,M,M,M,M,M,M,M,M,M,57.20,LPOV 092200Z 03005KT 360V060 CAVOK 14/08 Q1030
LPOV,2017-11-09 23:00,-8.6459,40.9159,53.60,46.40,76.50,360.00,4.00,0.00,30.42,M,6.21,M,M,M,M,M,M,M,M,M,M,M,M,M,M,M,M,53.60,LPOV 092300Z 36004KT CAVOK 12/08 Q1030
LPOV,2017-11-10 00:00,-8.6459,40.9159,53.60,46.40,76.50,20.00,3.00,0.00,30.42,M,6.21,M,M,M,M,M,M,M,M,M,M,M,M,M,M,M,M,53.60,LPOV 100000Z 02003KT CAVOK 12/08 Q1030
LPOV,2017-11-10 01:00,-8.6459,40.9159,48.20,44.60,87.28,350.00,4.00,0.00,30.42,M,6.21,M,M,M,M,M,M,M,M,M,M,M,M,M,M,M,M,46.34,LPOV 100100Z 35004KT CAVOK 09/07 Q1030
LPOV,2017-11-10 02:00,-8.6459,40.9159,48.20,44.60,87.28,M,2.00,0.00,30.42,M,6.21,M,M,M,M,M,M,M,M,M,M,M,M,M,M,M,M,48.20,LPOV 100200Z VRB02KT CAVOK 09/07 Q1030
LPOV,2017-11-10 03:00,-8.6459,40.9159,46.40,44.60,93.40,40.00,4.00,0.00,30.42,M,6.21,M,M,M,M,M,M,M,M,M,M,M,M,M,M,M,M,44.24,LPOV 100300Z 04004KT CAVOK 08/07 Q1030
LPOV,2017-11-10 04:00,-8.6459,40.9159,46.40,44.60,93.40,60.00,3.00,0.00,30.42,M,6.21,M,M,M,M,M,M,M,M,M,M,M,M,M,M,M,M,45.15,LPOV 100400Z 06003KT 020V090 CAVOK 08/07 Q1030
LPOV,2017-11-10 05:00,-8.6459,40.9159,44.60,42.80,93.35,320.00,3.00,0.00,30.42,M,6.21,M,M,M,M,M,M,M,M,M,M,M,M,M,M,M,M,43.09,LPOV 100500Z 32003KT CAVOK 07/06 Q1030
LPOV,2017-11-10 06:00,-8.6459,40.9159,44.60,41.00,87.09,50.00,5.00,0.00,30.45,M,6.21,M,M,M,M,M,M,M,M,M,M,M,M,M,M,M,M,41.36,LPOV 100600Z 05005KT 030V090 CAVOK 07/05 Q1031
LPOV,2017-11-10 07:00,-8.6459,40.9159,46.40,42.80,87.19,300.00,4.00,0.00,30.45,M,6.21,M,M,M,M,M,M,M,M,M,M,M,M,M,M,M,M,44.24,LPOV 100700Z 30004KT CAVOK 08/06 Q1031
LPOV,2017-11-10 08:00,-8.6459,40.9159,44.60,41.00,87.09,340.00,4.00,0.00,30.47,M,6.21,M,M,M,M,M,M,M,M,M,M,M,M,M,M,M,M,42.13,LPOV 100800Z 34004KT CAVOK 07/05 Q1032
LPOV,2017-11-10 09:00,-8.6459,40.9159,51.80,46.40,81.74,M,2.00,0.00,30.47,M,6.21,M,M,M,M,M,M,M,M,M,M,M,M,M,M,M,M,51.80,LPOV 100900Z VRB02KT CAVOK 11/08 Q1032
LPOV,2017-11-10 10:00,-8.6459,40.9159,57.20,48.20,71.83,350.00,6.00,0.00,30.47,M,6.21,M,M,M,M,M,M,M,M,M,M,M,M,M,M,M,M,57.20,LPOV 101000Z 35006KT CAVOK 14/09 Q1032
LPOV,2017-11-10 11:00,-8.6459,40.9159,59.00,50.00,72.01,350.00,5.00,0.00,30.47,M,6.21,M,M,M,M,M,M,M,M,M,M,M,M,M,M,M,M,59.00,LPOV 101100Z 35005KT CAVOK 15/10 Q1032
LPOV,2017-11-10 13:00,-8.6459,40.9159,62.60,53.60,72.38,340.00,11.00,0.00,30.45,M,6.21,M,M,M,M,M,M,M,M,M,M,M,M,M,M,M,M,62.60,LPOV 101300Z 34011KT CAVOK 17/12 Q1031
LPOV,2017-11-10 14:00,-8.6459,40.9159,62.60,55.40,77.29,350.00,13.00,0.00,30.42,M,6.21,M,FEW,M,M,M,2000.00,M,M,M,M,M,M,M,M,M,M,62.60,LPOV 101400Z 35013KT 9999 FEW020 17/13 Q1030
LPOV,2017-11-10 15:00,-8.6459,40.9159,62.60,55.40,77.29,360.00,10.00,0.00,30.42,M,6.21,M,FEW,M,M,M,2000.00,M,M,M,M,M,M,M,M,M,M,62.60,LPOV 101500Z 36010KT 9999 FEW020 17/13 Q1030
LPOV,2017-11-10 16:00,-8.6459,40.9159,62.60,53.60,72.38,360.00,15.00,0.00,30.42,M,6.21,M,FEW,M,M,M,2000.00,M,M,M,M,M,M,M,M,M,M,62.60,LPOV 101600Z 36015KT 9999 FEW020 17/12 Q1030
LPOV,2017-11-10 17:00,-8.6459,40.9159,59.00,55.40,87.83,350.00,14.00,0.00,30.42,M,6.21,M,M,M,M,M,M,M,M,M,M,M,M,M,M,M,M,59.00,LPOV 101700Z 35014KT CAVOK 15/13 Q1030
LPOV,2017-11-10 18:00,-8.6459,40.9159,57.20,53.60,87.74,350.00,11.00,0.00,30.42,M,6.21,M,M,M,M,M,M,M,M,M,M,M,M,M,M,M,M,57.20,LPOV 101800Z 35011KT CAVOK 14/12 Q1030
LPOV,2017-11-10 19:00,-8.6459,40.9159,55.40,51.80,87.65,360.00,7.00,0.00,30.42,M,6.21,M,M,M,M,M,M,M,M,M,M,M,M,M,M,M,M,55.40,LPOV 101900Z 36007KT CAVOK 13/11 Q1030
LPOV,2017-11-10 20:00,-8.6459,40.9159,53.60,50.00,87.56,M,2.00,0.00,30.42,M,6.21,M,M,M,M,M,M,M,M,M,M,M,M,M,M,M,M,53.60,LPOV 102000Z VRB02KT CAVOK 12/10 Q1030
LPOV,2017-11-10 21:00,-8.6459,40.9159,50.00,50.00,100.00,340.00,4.00,0.00,30.42,M,6.21,M,M,M,M,M,M,M,M,M,M,M,M,M,M,M,M,48.44,LPOV 102100Z 34004KT CAVOK 10/10 Q1030
LPOV,2017-11-10 22:00,-8.6459,40.9159,50.00,50.00,100.00,340.00,4.00,0.00,30.42,M,6.21,M,M,M,M,M,M,M,M,M,M,M,M,M,M,M,M,48.44,LPOV 102200Z 34004KT CAVOK 10/10 Q1030
LPOV,2017-11-10 23:00,-8.6459,40.9159,50.00,50.00,100.00,350.00,4.00,0.00,30.42,M,6.21,M,M,M,M,M,M,M,M,M,M,M,M,M,M,M,M,48.44,LPOV 102300Z 35004KT CAVOK 10/10 Q1030
LPOV,2017-11-11 00:00,-8.6459,40.9159,50.00,48.20,93.50,M,2.00,0.00,30.42,M,6.21,M,M,M,M,M,M,M,M,M,M,M,M,M,M,M,M,50.00,LPOV 110000Z VRB02KT CAVOK 10/09 Q1030
LPOV,2017-11-11 01:00,-8.6459,40.9159,48.20,46.40,93.45,M,2.00,0.00,30.42,M,6.21,M,M,M,M,M,M,M,M,M,M,M,M,M,M,M,M,48.20,LPOV 110100Z VRB02KT CAVOK 09/08 Q1030
LPOV,2017-11-11 02:00,-8.6459,40.9159,46.40,44.60,93.40,350.00,4.00,0.00,30.42,M,6.21,M,M,M,M,M,M,M,M,M,M,M,M,M,M,M,M,44.24,LPOV 110200Z 35004KT CAVOK 08/07 Q1030
LPOV,2017-11-11 03:00,-8.6459,40.9159,42.80,41.00,93.30,M,1.00,0.00,30.39,M,4.97,M,NSC,M,M,M,M,M,M,M,M,M,M,M,M,M,M,42.80,LPOV 110300Z VRB01KT 8000 NSC 06/05 Q1029
LPOV,2017-11-11 04:00,-8.6459,40.9159,41.00,41.00,100.00,M,1.00,0.00,30.39,M,4.97,M,NSC,M,M,M,M,M,M,M,M,M,M,M,M,M,M,41.00,LPOV 110400Z VRB01KT 8000 NSC 05/05 Q1029
LPOV,2017-11-11 05:00,-8.6459,40.9159,39.20,39.20,100.00,M,1.00,0.00,30.39,M,3.11,M,NSC,M,M,M,M,M,M,M,MIFG BR,M,M,M,M,M,M,39.20,LPOV 110500Z VRB01KT 5000 MIFG BR NSC 04/04 Q1029
LPOV,2017-11-11 06:00,-8.6459,40.9159,39.20,39.20,100.00,M,1.00,0.00,30.39,M,4.35,M,NSC,M,M,M,M,M,M,M,MIFG,M,M,M,M,M,M,39.20,LPOV 110600Z VRB01KT 7000 MIFG NSC 04/04 Q1029
LPOV,2017-11-11 07:00,-8.6459,40.9159,37.40,37.40,100.00,M,2.00,0.00,30.39,M,2.49,M,NSC,M,M,M,M,M,M,M,MIFG BR,M,M,M,M,M,M,37.40,LPOV 110700Z VRB02KT 4000 MIFG BR NSC 03/03 Q1029
LPOV,2017-11-11 08:00,-8.6459,40.9159,39.20,37.40,93.19,M,2.00,0.00,30.39,M,4.35,M,NSC,M,M,M,M,M,M,M,MIFG,M,M,M,M,M,M,39.20,LPOV 110800Z VRB02KT 7000 MIFG NSC 04/03 Q1029
LPOV,2017-11-11 09:00,-8.6459,40.9159,44.60,44.60,100.00,M,1.00,0.00,30.39,M,5.59,M,NSC,M,M,M,M,M,M,M,M,M,M,M,M,M,M,44.60,LPOV 110900Z VRB01KT 9000 NSC 07/07 Q1029
LPOV,2017-11-11 10:00,-8.6459,40.9159,51.80,48.20,87.47,M,2.00,0.00,30.36,M,6.21,M,M,M,M,M,M,M,M,M,M,M,M,M,M,M,M,51.80,LPOV 111000Z VRB02KT CAVOK 11/09 Q1028
LPOV,2017-11-11 11:00,-8.6459,40.9159,59.00,50.00,72.01,20.00,3.00,0.00,30.36,M,6.21,M,M,M,M,M,M,M,M,M,M,M,M,M,M,M,M,59.00,LPOV 111100Z 02003KT CAVOK 15/10 Q1028
LPOV,2017-11-11 12:00,-8.6459,40.9159,60.80,50.00,67.54,340.00,8.00,0.00,30.36,M,6.21,M,M,M,M,M,M,M,M,M,M,M,M,M,M,M,M,60.80,LPOV 111200Z 34008KT CAVOK 16/10 Q1028
LPOV,2017-11-11 13:00,-8.6459,40.9159,60.80,50.00,67.54,340.00,9.00,0.00,30.33,M,6.21,M,M,M,M,M,M,M,M,M,M,M,M,M,M,M,M,60.80,LPOV 111300Z 34009KT CAVOK 16/10 Q1027
LPOV,2017-11-11 14:00,-8.6459,40.9159,60.80,50.00,67.54,340.00,9.00,0.00,30.33,M,6.21,M,M,M,M,M,M,M,M,M,M,M,M,M,M,M,M,60.80,LPOV 111400Z 34009KT CAVOK 16/10 Q1027
LPOV,2017-11-11 15:00,-8.6459,40.9159,60.80,50.00,67.54,340.00,9.00,0.00,30.33,M,6.21,M,M,M,M,M,M,M,M,M,M,M,M,M,M,M,M,60.80,LPOV 111500Z 34009KT CAVOK 16/10 Q1027
LPOV,2017-11-11 16:00,-8.6459,40.9159,60.80,51.80,72.20,350.00,10.00,0.00,30.33,M,6.21,M,M,M,M,M,M,M,M,M,M,M,M,M,M,M,M,60.80,LPOV 111600Z 35010KT CAVOK 16/11 Q1027
LPOV,2017-11-11 17:00,-8.6459,40.9159,59.00,51.80,76.98,350.00,9.00,0.00,30.30,M,6.21,M,M,M,M,M,M,M,M,M,M,M,M,M,M,M,M,59.00,LPOV 111700Z 35009KT CAVOK 15/11 Q1026
LPOV,2017-11-11 18:00,-8.6459,40.9159,55.40,51.80,87.65,340.00,6.00,0.00,30.30,M,6.21,M,M,M,M,M,M,M,M,M,M,M,M,M,M,M,M,55.40,LPOV 111800Z 34006KT CAVOK 13/11 Q1026
LPOV,2017-11-11 19:00,-8.6459,40.9159,55.40,51.80,87.65,360.00,4.00,0.00,30.30,M,6.21,M,M,M,M,M,M,M,M,M,M,M,M,M,M,M,M,55.40,LPOV 111900Z 36004KT CAVOK 13/11 Q1026
LPOV,2017-11-11 20:00,-8.6459,40.9159,51.80,50.00,93.55,M,2.00,0.00,30.30,M,6.21,M,M,M,M,M,M,M,M,M,M,M,M,M,M,M,M,51.80,LPOV 112000Z VRB02KT CAVOK 11/10 Q1026
LPOV,2017-11-11 21:00,-8.6459,40.9159,50.00,48.20,93.50,M,1.00,0.00,30.30,M,4.97,M,NSC,M,M,M,M,M,M,M,MIFG,M,M,M,M,M,M,50.00,LPOV 112100Z VRB01KT 8000 MIFG NSC 10/09 Q1026
LPOV,2017-11-11 22:00,-8.6459,40.9159,44.60,44.60,100.00,M,2.00,0.00,30.30,M,5.59,M,NSC,M,M,M,M,M,M,M,M,M,M,M,M,M,M,44.60,LPOV 112200Z VRB02KT 9000 NSC 07/07 Q1026
LPOV,2017-11-11 23:00,-8.6459,40.9159,44.60,42.80,93.35,M,1.00,0.00,30.33,M,5.59,M,NSC,M,M,M,M,M,M,M,M,M,M,M,M,M,M,44.60,LPOV 112300Z VRB01KT 9000 NSC 07/06 Q1027
LPOV,2017-11-12 00:00,-8.6459,40.9159,42.80,41.00,93.30,M,1.00,0.00,30.30,M,4.35,M,NSC,M,M,M,M,M,M,M,M,M,M,M,M,M,M,42.80,LPOV 120000Z VRB01KT 7000 NSC 06/05 Q1026
LPOV,2017-11-12 01:00,-8.6459,40.9159,42.80,41.00,93.30,M,1.00,0.00,30.30,M,3.11,M,NSC,M,M,M,M,M,M,M,BR,M,M,M,M,M,M,42.80,LPOV 120100Z VRB01KT 5000 BR NSC 06/05 Q1026
LPOV,2017-11-12 02:00,-8.6459,40.9159,41.00,39.20,93.24,M,1.00,0.00,30.30,M,3.73,M,NSC,M,M,M,M,M,M,M,M,M,M,M,M,M,M,41.00,LPOV 120200Z VRB01KT 6000 NSC 05/04 Q1026
LPOV,2017-11-12 03:00,-8.6459,40.9159,41.00,39.20,93.24,M,2.00,0.00,30.27,M,4.97,M,NSC,M,M,M,M,M,M,M,M,M,M,M,M,M,M,41.00,LPOV 120300Z VRB02KT 8000 NSC 05/04 Q1025
LPOV,2017-11-12 04:00,-8.6459,40.9159,41.00,39.20,93.24,M,1.00,0.00,30.27,M,5.59,M,NSC,M,M,M,M,M,M,M,M,M,M,M,M,M,M,41.00,LPOV 120400Z VRB01KT 9000 NSC 05/04 Q1025
LPOV,2017-11-12 05:00,-8.6459,40.9159,41.00,39.20,M,M,M,0.00,30.27,M,6.21,M,M,M,M,M,M,M,M,M,M,M,M,M,M,M,M,M,LPOV 120500Z /////KT CAVOK 05/04 Q1025
LPOV,2017-11-12 06:00,-8.6459,40.9159,39.20,39.20,M,M,M,0.00,30.27,M,6.21,M,M,M,M,M,M,M,M,M,M,M,M,M,M,M,M,M,LPOV 120600Z /////KT CAVOK 04/04 Q1025
LPOV,2017-11-12 07:00,-8.6459,40.9159,39.20,35.60,M,M,M,0.00,30.27,M,4.97,M,NSC,M,M,M,M,M,M,M,M,M,M,M,M,M,M,M,LPOV 120700Z /////KT 8000 NSC 04/02 Q1025
LPOV,2017-11-12 08:00,-8.6459,40.9159,39.20,37.40,M,M,M,0.00,30.30,M,4.97,M,NSC,M,M,M,M,M,M,M,MIFG,M,M,M,M,M,M,M,LPOV 120800Z /////KT 8000 MIFG NSC 04/03 Q1026
LPOV,2017-11-12 09:00,-8.6459,40.9159,44.60,41.00,M,M,M,0.00,30.30,M,6.21,M,M,M,M,M,M,M,M,M,M,M,M,M,M,M,M,M,LPOV 120900Z /////KT CAVOK 07/05 Q1026
LPOV,2017-11-12 10:00,-8.6459,40.9159,55.40,48.20,76.66,20.00,3.00,0.00,30.30,M,6.21,M,M,M,M,M,M,M,M,M,M,M,M,M,M,M,M,55.40,LPOV 121000Z 02003KT 340V050 CAVOK 13/09 Q1026
LPOV,2017-11-12 11:00,-8.6459,40.9159,57.20,48.20,71.83,20.00,7.00,0.00,30.30,M,6.21,M,M,M,M,M,M,M,M,M,M,M,M,M,M,M,M,57.20,LPOV 121100Z 02007KT 330V050 CAVOK 14/09 Q1026
LPOV,2017-11-12 12:00,-8.6459,40.9159,60.80,48.20,63.15,360.00,10.00,0.00,30.27,M,6.21,M,M,M,M,M,M,M,M,M,M,M,M,M,M,M,M,60.80,LPOV 121200Z 36010KT 320V040 CAVOK 16/09 Q1025
LPOV,2017-11-12 13:00,-8.6459,40.9159,60.80,50.00,67.54,340.00,8.00,0.00,30.27,M,6.21,M,M,M,M,M,M,M,M,M,M,M,M,M,M,M,M,60.80,LPOV 121300Z 34008KT 290V010 CAVOK 16/10 Q1025
LPOV,2017-11-12 14:00,-8.6459,40.9159,62.60,51.80,67.75,350.00,12.00,0.00,30.24,M,6.21,M,M,M,M,M,M,M,M,M,M,M,M,M,M,M,M,62.60,LPOV 121400Z 35012KT 320V020 CAVOK 17/11 Q1024
LPOV,2017-11-12 15:00,-8.6459,40.9159,60.80,53.60,77.14,350.00,13.00,0.00,30.21,M,6.21,M,M,M,M,M,M,M,M,M,M,M,M,M,M,M,M,60.80,LPOV 121500Z 35013KT 320V020 CAVOK 16/12 Q1023
LPOV,2017-11-12 16:00,-8.6459,40.9159,60.80,50.00,67.54,350.00,14.00,0.00,30.21,M,6.21,M,M,M,M,M,M,M,M,M,M,M,M,M,M,M,M,60.80,LPOV 121600Z 35014KT 320V020 CAVOK 16/10 Q1023
LPOV,2017-11-12 17:00,-8.6459,40.9159,59.00,50.00,72.01,350.00,12.00,0.00,30.21,M,6.21,M,M,M,M,M,M,M,M,M,M,M,M,M,M,M,M,59.00,LPOV 121700Z 35012KT CAVOK 15/10 Q1023
LPOV,2017-11-12 18:00,-8.6459,40.9159,57.20,53.60,87.74,350.00,15.00,0.00,30.21,M,6.21,M,M,M,M,M,M,M,M,M,M,M,M,M,M,M,M,57.20,LPOV 121800Z 35015KT CAVOK 14/12 Q1023
LPOV,2017-11-12 19:00,-8.6459,40.9159,57.20,53.60,87.74,360.00,9.00,0.00,30.21,M,6.21,M,FEW,M,M,M,3000.00,M,M,M,M,M,M,M,M,M,M,57.20,LPOV 121900Z 36009KT 9999 FEW030 14/12 Q1023
LPOV,2017-11-12 20:00,-8.6459,40.9159,53.60,51.80,93.60,360.00,5.00,0.00,30.24,M,6.21,M,FEW,M,M,M,3000.00,M,M,M,M,M,M,M,M,M,M,53.60,LPOV 122000Z 36005KT 330V040 9999 FEW030 12/11 Q1024
LPOV,2017-11-12 21:00,-8.6459,40.9159,53.60,50.00,87.56,M,2.00,0.00,30.24,M,6.21,M,FEW,M,M,M,3000.00,M,M,M,M,M,M,M,M,M,M,53.60,LPOV 122100Z VRB02KT 9999 FEW030 12/10 Q1024
LPOV,2017-11-12 22:00,-8.6459,40.9159,50.00,48.20,93.50,M,2.00,0.00,30.24,M,6.21,M,FEW,M,M,M,3000.00,M,M,M,M,M,M,M,M,M,M,50.00,LPOV 122200Z VRB02KT 9999 FEW030 10/09 Q1024
LPOV,2017-11-12 23:00,-8.6459,40.9159,51.80,50.00,93.55,M,1.00,0.00,30.24,M,6.21,M,SCT,M,M,M,500.00,M,M,M,M,M,M,M,M,M,M,51.80,LPOV 122300Z VRB01KT 9999 SCT005 11/10 Q1024
LPOV,2017-11-13 00:00,-8.6459,40.9159,55.40,53.60,93.65,30.00,2.00,0.00,30.21,M,6.21,M,FEW,OVC,M,M,200.00,500.00,M,M,M,M,M,M,M,M,M,55.40,LPOV 130000Z 03002KT 9999 FEW002 OVC005 13/12 Q1023
LPOV,2017-11-13 01:00,-8.6459,40.9159,55.40,53.60,93.65,360.00,3.00,0.00,30.21,M,4.97,M,SCT,OVC,M,M,200.00,500.00,M,M,M,M,M,M,M,M,M,55.40,LPOV 130100Z 36003KT 8000 SCT002 OVC005 13/12 Q1023
LPOV,2017-11-13 02:00,-8.6459,40.9159,53.60,53.60,100.00,360.00,5.00,0.00,30.21,M,4.35,M,FEW,BKN,M,M,200.00,500.00,M,M,M,M,M,M,M,M,M,53.60,LPOV 130200Z 36005KT 7000 FEW002 BKN005 12/12 Q1023
LPOV,2017-11-13 03:00,-8.6459,40.9159,50.00,50.00,100.00,10.00,3.00,0.00,30.21,M,4.35,M,BKN,M,M,M,500.00,M,M,M,M,M,M,M,M,M,M,49.27,LPOV 130300Z 01003KT 7000 BKN005 10/10 Q1023
LPOV,2017-11-13 04:00,-8.6459,40.9159,51.80,50.00,93.55,40.00,3.00,0.00,30.18,M,3.11,M,BKN,M,M,M,500.00,M,M,M,BR,M,M,M,M,M,M,51.80,LPOV 130400Z 04003KT 5000 BR BKN005 11/10 Q1022
LPOV,2017-11-13 05:00,-8.6459,40.9159,51.80,50.00,93.55,M,2.00,0.00,30.18,M,1.86,M,BKN,M,M,M,500.00,M,M,M,BR,M,M,M,M,M,M,51.80,LPOV 130500Z VRB02KT 3000 BR BKN005 11/10 Q1022
LPOV,2017-11-13 06:00,-8.6459,40.9159,48.20,48.20,100.00,M,1.00,0.00,30.18,M,1.24,M,SCT,M,M,M,500.00,M,M,M,BR,M,M,M,M,M,M,48.20,LPOV 130600Z VRB01KT 2000 BR SCT005 09/09 Q1022
LPOV,2017-11-13 07:00,-8.6459,40.9159,46.40,46.40,100.00,M,1.00,0.00,30.18,M,1.24,M,FEW,M,M,M,500.00,M,M,M,BR,M,M,M,M,M,M,46.40,LPOV 130700Z VRB01KT 2000 BR FEW005 08/08 Q1022
LPOV,2017-11-13 08:00,-8.6459,40.9159,44.60,42.80,93.35,M,1.00,0.00,30.18,M,0.50,M,FEW,M,M,M,500.00,M,M,M,FG,M,M,M,M,M,M,44.60,LPOV 130800Z VRB01KT 0800 FG FEW005 07/06 Q1022
LPOV,2017-11-13 09:00,-8.6459,40.9159,46.40,46.40,100.00,M,2.00,0.00,30.21,M,0.93,M,FEW,M,M,M,500.00,M,M,M,BR,M,M,M,M,M,M,46.40,LPOV 130900Z VRB02KT 1500 BR FEW005 08/08 Q1023
LPOV,2017-11-13 10:00,-8.6459,40.9159,53.60,50.00,87.56,M,1.00,0.00,30.21,M,6.21,M,FEW,M,M,M,500.00,M,M,M,M,M,M,M,M,M,M,53.60,LPOV 131000Z VRB01KT 9999 FEW005 12/10 Q1023
LPOV,2017-11-13 11:00,-8.6459,40.9159,59.00,51.80,76.98,350.00,5.00,0.00,30.21,M,6.21,M,M,M,M,M,M,M,M,M,M,M,M,M,M,M,M,59.00,LPOV 131100Z 35005KT CAVOK 15/11 Q1023
LPOV,2017-11-13 12:00,-8.6459,40.9159,59.00,51.80,76.98,310.00,6.00,0.00,30.18,M,6.21,M,M,M,M,M,M,M,M,M,M,M,M,M,M,M,M,59.00,LPOV 131200Z 31006KT CAVOK 15/11 Q1022
LPOV,2017-11-13 13:00,-8.6459,40.9159,60.80,51.80,72.20,340.00,7.00,0.00,30.15,M,6.21,M,M,M,M,M,M,M,M,M,M,M,M,M,M,M,M,60.80,LPOV 131300Z 34007KT 310V020 CAVOK 16/11 Q1021
LPOV,2017-11-13 14:00,-8.6459,40.9159,60.80,50.00,67.54,340.00,10.00,0.00,30.12,M,6.21,M,M,M,M,M,M,M,M,M,M,M,M,M,M,M,M,60.80,LPOV 131400Z 34010KT CAVOK 16/10 Q1020
LPOV,2017-11-13 15:00,-8.6459,40.9159,60.80,51.80,72.20,340.00,10.00,0.00,30.12,M,6.21,M,M,M,M,M,M,M,M,M,M,M,M,M,M,M,M,60.80,LPOV 131500Z 34010KT CAVOK 16/11 Q1020
LPOV,2017-11-13 16:00,-8.6459,40.9159,60.80,50.00,67.54,360.00,7.00,0.00,30.12,M,6.21,M,M,M,M,M,M,M,M,M,M,M,M,M,M,M,M,60.80,LPOV 131600Z 36007KT 330V040 CAVOK 16/10 Q1020
LPOV,2017-11-13 17:00,-8.6459,40.9159,59.00,51.80,76.98,350.00,6.00,0.00,30.12,M,6.21,M,M,M,M,M,M,M,M,M,M,M,M,M,M,M,M,59.00,LPOV 131700Z 35006KT CAVOK 15/11 Q1020
LPOV,2017-11-13 18:00,-8.6459,40.9159,55.40,51.80,87.65,M,1.00,0.00,30.12,M,6.21,M,M,M,M,M,M,M,M,M,M,M,M,M,M,M,M,55.40,LPOV 131800Z VRB01KT CAVOK 13/11 Q1020
LPOV,2017-11-13 19:00,-8.6459,40.9159,51.80,50.00,93.55,M,2.00,0.00,30.12,M,6.21,M,M,M,M,M,M,M,M,M,M,M,M,M,M,M,M,51.80,LPOV 131900Z VRB02KT CAVOK 11/10 Q1020
LPOV,2017-11-13 20:00,-8.6459,40.9159,48.20,48.20,100.00,M,1.00,0.00,30.12,M,6.21,M,M,M,M,M,M,M,M,M,M,M,M,M,M,M,M,48.20,LPOV 132000Z VRB01KT CAVOK 09/09 Q1020
LPOV,2017-11-13 21:00,-8.6459,40.9159,46.40,46.40,100.00,M,2.00,0.00,30.12,M,6.21,M,M,M,M,M,M,M,M,M,M,M,M,M,M,M,M,46.40,LPOV 132100Z VRB02KT CAVOK 08/08 Q1020
LPOV,2017-11-13 22:00,-8.6459,40.9159,44.60,42.80,93.35,M,2.00,0.00,30.12,M,6.21,M,M,M,M,M,M,M,M,M,M,M,M,M,M,M,M,44.60,LPOV 132200Z VRB02KT CAVOK 07/06 Q1020
LPOV,2017-11-13 23:00,-8.6459,40.9159,42.80,42.80,100.00,M,2.00,0.00,30.12,M,6.21,M,M,M,M,M,M,M,M,M,M,M,M,M,M,M,M,42.80,LPOV 132300Z VRB02KT CAVOK 06/06 Q1020
LPOV,2017-11-14 00:00,-8.6459,40.9159,42.80,41.00,93.30,M,2.00,0.00,30.12,M,6.21,M,M,M,M,M,M,M,M,M,M,M,M,M,M,M,M,42.80,LPOV 140000Z VRB02KT CAVOK 06/05 Q1020
LPOV,2017-11-14 01:00,-8.6459,40.9159,42.80,39.20,86.99,M,1.00,0.00,30.12,M,6.21,M,M,M,M,M,M,M,M,M,M,M,M,M,M,M,M,42.80,LPOV 140100Z VRB01KT CAVOK 06/04 Q1020
LPOV,2017-11-14 02:00,-8.6459,40.9159,42.80,39.20,86.99,M,1.00,0.00,30.12,M,6.21,M,M,M,M,M,M,M,M,M,M,M,M,M,M,M,M,42.80,LPOV 140200Z VRB01KT CAVOK 06/04 Q1020
LPOV,2017-11-14 03:00,-8.6459,40.9159,44.60,39.20,M,M,M,0.00,30.12,M,6.21,M,M,M,M,M,M,M,M,M,M,M,M,M,M,M,M,M,LPOV 140300Z /////KT CAVOK 07/04 Q1020
LPOV,2017-11-14 04:00,-8.6459,40.9159,41.00,35.60,M,M,M,0.00,30.12,M,6.21,M,M,M,M,M,M,M,M,M,M,M,M,M,M,M,M,M,LPOV 140400Z /////KT CAVOK 05/02 Q1020
LPOV,2017-11-14 05:00,-8.6459,40.9159,39.20,35.60,M,M,M,0.00,30.15,M,6.21,M,M,M,M,M,M,M,M,M,M,M,M,M,M,M,M,M,LPOV 140500Z /////KT CAVOK 04/02 Q1021
LPOV,2017-11-14 06:00,-8.6459,40.9159,39.20,35.60,M,M,M,0.00,30.15,M,6.21,M,M,M,M,M,M,M,M,M,M,M,M,M,M,M,M,M,LPOV 140600Z /////KT CAVOK 04/02 Q1021
LPOV,2017-11-14 07:00,-8.6459,40.9159,35.60,33.80,M,M,M,0.00,30.15,M,6.21,M,M,M,M,M,M,M,M,M,M,M,M,M,M,M,M,M,LPOV 140700Z /////KT CAVOK 02/01 Q1021
LPOV,2017-11-14 08:00,-8.6459,40.9159,37.40,33.80,M,M,M,0.00,30.15,M,6.21,M,M,M,M,M,M,M,M,M,M,M,M,M,M,M,M,M,LPOV 140800Z /////KT CAVOK 03/01 Q1021
LPOV,2017-11-14 09:00,-8.6459,40.9159,44.60,37.40,M,M,M,0.00,30.15,M,6.21,M,M,M,M,M,M,M,M,M,M,M,M,M,M,M,M,M,LPOV 140900Z /////KT CAVOK 07/03 Q1021
LPOV,2017-11-14 10:00,-8.6459,40.9159,53.60,41.00,62.23,M,2.00,0.00,30.15,M,6.21,M,M,M,M,M,M,M,M,M,M,M,M,M,M,M,M,53.60,LPOV 141000Z VRB02KT CAVOK 12/05 Q1021
LPOV,2017-11-14 11:00,-8.6459,40.9159,57.20,41.00,54.60,M,2.00,0.00,30.15,M,6.21,M,M,M,M,M,M,M,M,M,M,M,M,M,M,M,M,57.20,LPOV 141100Z VRB02KT CAVOK 14/05 Q1021
LPOV,2017-11-14 12:00,-8.6459,40.9159,60.80,42.80,51.45,270.00,4.00,0.00,30.12,M,6.21,M,M,M,M,M,M,M,M,M,M,M,M,M,M,M,M,60.80,LPOV 141200Z 27004KT 240V310 CAVOK 16/06 Q1020
LPOV,2017-11-14 13:00,-8.6459,40.9159,62.60,42.80,48.28,280.00,3.00,0.00,30.09,M,6.21,M,M,M,M,M,M,M,M,M,M,M,M,M,M,M,M,62.60,LPOV 141300Z 28003KT 230V330 CAVOK 17/06 Q1019
LPOV,2017-11-14 14:00,-8.6459,40.9159,60.80,44.60,55.12,280.00,5.00,0.00,30.09,M,6.21,M,M,M,M,M,M,M,M,M,M,M,M,M,M,M,M,60.80,LPOV 141400Z 28005KT 250V340 CAVOK 16/07 Q1019
LPOV,2017-11-14 15:00,-8.6459,40.9159,60.80,44.60,55.12,270.00,6.00,0.00,30.06,M,6.21,M,M,M,M,M,M,M,M,M,M,M,M,M,M,M,M,60.80,LPOV 141500Z 27006KT CAVOK 16/07 Q1018
LPOV,2017-11-14 16:00,-8.6459,40.9159,60.80,42.80,51.45,280.00,5.00,0.00,30.06,M,6.21,M,M,M,M,M,M,M,M,M,M,M,M,M,M,M,M,60.80,LPOV 141600Z 28005KT 240V330 CAVOK 16/06 Q1018
LPOV,2017-11-14 17:00,-8.6459,40.9159,59.00,50.00,72.01,280.00,3.00,0.00,30.06,M,6.21,M,M,M,M,M,M,M,M,M,M,M,M,M,M,M,M,59.00,LPOV 141700Z 28003KT CAVOK 15/10 Q1018
LPOV,2017-11-14 18:00,-8.6459,40.9159,55.40,48.20,76.66,350.00,8.00,0.00,30.06,M,6.21,M,M,M,M,M,M,M,M,M,M,M,M,M,M,M,M,55.40,LPOV 141800Z 35008KT CAVOK 13/09 Q1018
LPOV,2017-11-14 19:00,-8.6459,40.9159,53.60,46.40,76.50,10.00,4.00,0.00,30.06,M,6.21,M,M,M,M,M,M,M,M,M,M,M,M,M,M,M,M,53.60,LPOV 141900Z 01004KT 340V050 CAVOK 12/08 Q1018
LPOV,2017-11-14 20:00,-8.6459,40.9159,46.40,42.80,87.19,M,2.00,0.00,30.06,M,6.21,M,M,M,M,M,M,M,M,M,M,M,M,M,M,M,M,46.40,LPOV 142000Z VRB02KT CAVOK 08/06 Q1018
LPOV,2017-11-14 21:00,-8.6459,40.9159,46.40,44.60,93.40,M,1.00,0.00,30.06,M,6.21,M,M,M,M,M,M,M,M,M,M,M,M,M,M,M,M,46.40,LPOV 142100Z VRB01KT CAVOK 08/07 Q1018
LPOV,2017-11-14 22:00,-8.6459,40.9159,42.80,41.00,93.30,M,2.00,0.00,30.06,M,6.21,M,M,M,M,M,M,M,M,M,M,M,M,M,M,M,M,42.80,LPOV 142200Z VRB02KT CAVOK 06/05 Q1018
LPOV,2017-11-14 23:00,-8.6459,40.9159,41.00,39.20,93.24,M,1.00,0.00,30.06,M,6.21,M,M,M,M,M,M,M,M,M,M,M,M,M,M,M,M,41.00,LPOV 142300Z VRB01KT CAVOK 05/04 Q1018
LPOV,2017-11-15 00:00,-8.6459,40.9159,41.00,39.20,93.24,M,2.00,0.00,30.06,M,6.21,M,M,M,M,M,M,M,M,M,M,M,M,M,M,M,M,41.00,LPOV 150000Z VRB02KT CAVOK 05/04 Q1018
LPOV,2017-11-15 01:00,-8.6459,40.9159,39.20,37.40,93.19,M,2.00,0.00,30.06,M,6.21,M,M,M,M,M,M,M,M,M,M,M,M,M,M,M,M,39.20,LPOV 150100Z VRB02KT CAVOK 04/03 Q1018
LPOV,2017-11-15 02:00,-8.6459,40.9159,37.40,37.40,100.00,M,1.00,0.00,30.06,M,6.21,M,M,M,M,M,M,M,M,M,M,M,M,M,M,M,M,37.40,LPOV 150200Z VRB01KT CAVOK 03/03 Q1018
LPOV,2017-11-15 03:00,-8.6459,40.9159,39.20,33.80,80.79,M,2.00,0.00,30.06,M,6.21,M,M,M,M,M,M,M,M,M,M,M,M,M,M,M,M,39.20,LPOV 150300Z VRB02KT CAVOK 04/01 Q1018
LPOV,2017-11-15 04:00,-8.6459,40.9159,39.20,37.40,93.19,M,2.00,0.00,30.06,M,6.21,M,M,M,M,M,M,M,M,M,M,M,M,M,M,M,M,39.20,LPOV 150400Z VRB02KT CAVOK 04/03 Q1018
LPOV,2017-11-15 05:00,-8.6459,40.9159,39.20,37.40,93.19,M,2.00,0.00,30.06,M,6.21,M,M,M,M,M,M,M,M,M,M,M,M,M,M,M,M,39.20,LPOV 150500Z VRB02KT CAVOK 04/03 Q1018
LPOV,2017-11-15 06:00,-8.6459,40.9159,39.20,37.40,93.19,M,1.00,0.00,30.06,M,6.21,M,M,M,M,M,M,M,M,M,M,M,M,M,M,M,M,39.20,LPOV 150600Z VRB01KT CAVOK 04/03 Q1018
LPOV,2017-11-15 07:00,-8.6459,40.9159,39.20,37.40,93.19,M,1.00,0.00,30.09,M,6.21,M,M,M,M,M,M,M,M,M,M,M,M,M,M,M,M,39.20,LPOV 150700Z VRB01KT CAVOK 04/03 Q1019
LPOV,2017-11-15 08:00,-8.6459,40.9159,37.40,37.40,100.00,M,1.00,0.00,30.09,M,6.21,M,M,M,M,M,M,M,M,M,M,M,M,M,M,M,M,37.40,LPOV 150800Z VRB01KT CAVOK 03/03 Q1019
LPOV,2017-11-15 09:00,-8.6459,40.9159,42.80,39.20,86.99,M,1.00,0.00,30.09,M,6.21,M,M,M,M,M,M,M,M,M,M,M,M,M,M,M,M,42.80,LPOV 150900Z VRB01KT CAVOK 06/04 Q1019
LPOV,2017-11-15 10:00,-8.6459,40.9159,55.40,50.00,81.99,0.00,0.00,0.00,30.12,M,6.21,M,M,M,M,M,M,M,M,M,M,M,M,M,M,M,M,55.40,LPOV 151000Z 00000KT CAVOK 13/10 Q1020
LPOV,2017-11-15 11:00,-8.6459,40.9159,62.60,44.60,51.72,M,2.00,0.00,30.12,M,6.21,M,M,M,M,M,M,M,M,M,M,M,M,M,M,M,M,62.60,LPOV 151100Z VRB02KT CAVOK 17/07 Q1020
LPOV,2017-11-15 12:00,-8.6459,40.9159,68.00,42.80,40.00,280.00,3.00,0.00,30.09,M,6.21,M,M,M,M,M,M,M,M,M,M,M,M,M,M,M,M,68.00,LPOV 151200Z 28003KT 240V340 CAVOK 20/06 Q1019
LPOV,2017-11-15 13:00,-8.6459,40.9159,62.60,48.20,59.26,270.00,6.00,0.00,30.09,M,6.21,M,M,M,M,M,M,M,M,M,M,M,M,M,M,M,M,62.60,LPOV 151300Z 27006KT 240V300 CAVOK 17/09 Q1019
LPOV,2017-11-15 14:00,-8.6459,40.9159,60.80,48.20,63.15,280.00,5.00,0.00,30.06,M,6.21,M,M,M,M,M,M,M,M,M,M,M,M,M,M,M,M,60.80,LPOV 151400Z 28005KT 250V310 CAVOK 16/09 Q1018
LPOV,2017-11-15 15:00,-8.6459,40.9159,60.80,48.20,63.15,310.00,5.00,0.00,30.06,M,6.21,M,M,M,M,M,M,M,M,M,M,M,M,M,M,M,M,60.80,LPOV 151500Z 31005KT 280V350 CAVOK 16/09 Q1018
LPOV,2017-11-15 22:00,-8.6459,40.9159,42.80,41.00,93.30,M,1.00,0.00,30.09,M,6.21,M,M,M,M,M,M,M,M,M,M,M,M,M,M,M,M,42.80,LPOV 152200Z VRB01KT CAVOK 06/05 Q1019
LPOV,2017-11-15 23:00,-8.6459,40.9159,41.00,39.20,93.24,M,1.00,0.00,30.09,M,6.21,M,M,M,M,M,M,M,M,M,M,M,M,M,M,M,M,41.00,LPOV 152300Z VRB01KT CAVOK 05/04 Q1019
LPOV,2017-11-16 00:00,-8.6459,40.9159,39.20,37.40,93.19,M,1.00,0.00,30.09,M,6.21,M,M,M,M,M,M,M,M,M,M,M,M,M,M,M,M,39.20,LPOV 160000Z VRB01KT CAVOK 04/03 Q1019
LPOV,2017-11-16 01:00,-8.6459,40.9159,39.20,37.40,93.19,M,2.00,0.00,30.09,M,6.21,M,M,M,M,M,M,M,M,M,M,M,M,M,M,M,M,39.20,LPOV 160100Z VRB02KT CAVOK 04/03 Q1019
LPOV,2017-11-16 02:00,-8.6459,40.9159,37.40,37.40,M,M,M,0.00,30.09,M,6.21,M,M,M,M,M,M,M,M,M,M,M,M,M,M,M,M,M,LPOV 160200Z /////KT CAVOK 03/03 Q1019
LPOV,2017-11-16 03:00,-8.6459,40.9159,37.40,35.60,M,M,M,0.00,30.09,M,6.21,M,M,M,M,M,M,M,M,M,M,M,M,M,M,M,M,M,LPOV 160300Z /////KT CAVOK 03/02 Q1019
LPOV,2017-11-16 05:00,-8.6459,40.9159,37.40,35.60,M,M,M,0.00,30.09,M,6.21,M,M,M,M,M,M,M,M,M,M,M,M,M,M,M,M,M,LPOV 160500Z /////KT CAVOK 03/02 Q1019
LPOV,2017-11-16 06:00,-8.6459,40.9159,35.60,35.60,M,M,M,0.00,30.12,M,6.21,M,M,M,M,M,M,M,M,M,M,M,M,M,M,M,M,M,LPOV 160600Z /////KT CAVOK 02/02 Q1020
LPOV,2017-11-16 07:00,-8.6459,40.9159,35.60,35.60,M,M,M,0.00,30.09,M,6.21,M,M,M,M,M,M,M,M,M,M,M,M,M,M,M,M,M,LPOV 160700Z /////KT CAVOK 02/02 Q1019
LPOV,2017-11-16 08:00,-8.6459,40.9159,37.40,35.60,M,M,M,0.00,30.12,M,6.21,M,M,M,M,M,M,M,M,M,M,M,M,M,M,M,M,M,LPOV 160800Z /////KT CAVOK 03/02 Q1020
LPOV,2017-11-16 09:00,-8.6459,40.9159,41.00,39.20,M,M,M,0.00,30.15,M,6.21,M,M,M,M,M,M,M,M,M,M,M,M,M,M,M,M,M,LPOV 160900Z /////KT CAVOK 05/04 Q1021
LPOV,2017-11-16 10:00,-8.6459,40.9159,51.80,42.80,71.26,M,2.00,0.00,30.15,M,6.21,M,M,M,M,M,M,M,M,M,M,M,M,M,M,M,M,51.80,LPOV 161000Z VRB02KT CAVOK 11/06 Q1021
LPOV,2017-11-16 11:00,-8.6459,40.9159,57.20,46.40,67.12,270.00,3.00,0.00,30.15,M,6.21,M,M,M,M,M,M,M,M,M,M,M,M,M,M,M,M,57.20,LPOV 161100Z 27003KT CAVOK 14/08 Q1021
LPOV,2017-11-16 12:00,-8.6459,40.9159,57.20,48.20,71.83,280.00,5.00,0.00,30.15,M,6.21,M,M,M,M,M,M,M,M,M,M,M,M,M,M,M,M,57.20,LPOV 161200Z 28005KT CAVOK 14/09 Q1021
LPOV,2017-11-16 13:00,-8.6459,40.9159,59.00,50.00,72.01,290.00,5.00,0.00,30.12,M,6.21,M,M,M,M,M,M,M,M,M,M,M,M,M,M,M,M,59.00,LPOV 161300Z 29005KT CAVOK 15/10 Q1020
LPOV,2017-11-16 14:00,-8.6459,40.9159,59.00,46.40,62.92,340.00,6.00,0.00,30.12,M,6.21,M,M,M,M,M,M,M,M,M,M,M,M,M,M,M,M,59.00,LPOV 161400Z 34006KT 310V020 CAVOK 15/08 Q1020
LPOV,2017-11-16 16:00,-8.6459,40.9159,59.00,48.20,67.33,350.00,7.00,0.00,30.12,M,6.21,M,M,M,M,M,M,M,M,M,M,M,M,M,M,M,M,59.00,LPOV 161600Z 35007KT CAVOK 15/09 Q1020
LPOV,2017-11-16 17:00,-8.6459,40.9159,57.20,50.00,76.82,350.00,6.00,0.00,30.12,M,6.21,M,M,M,M,M,M,M,M,M,M,M,M,M,M,M,M,57.20,LPOV 161700Z 35006KT CAVOK 14/10 Q1020
LPOV,2017-11-16 18:00,-8.6459,40.9159,53.60,48.20,81.87,350.00,3.00,0.00,30.12,M,6.21,M,M,M,M,M,M,M,M,M,M,M,M,M,M,M,M,53.60,LPOV 161800Z 35003KT CAVOK 12/09 Q1020
LPOV,2017-11-16 19:00,-8.6459,40.9159,51.80,50.00,93.55,350.00,3.00,0.00,30.12,M,6.21,M,M,M,M,M,M,M,M,M,M,M,M,M,M,M,M,51.80,LPOV 161900Z 35003KT CAVOK 11/10 Q1020
LPOV,2017-11-16 20:00,-8.6459,40.9159,48.20,46.40,93.45,M,2.00,0.00,30.12,M,6.21,M,M,M,M,M,M,M,M,M,M,M,M,M,M,M,M,48.20,LPOV 162000Z VRB02KT CAVOK 09/08 Q1020
LPOV,2017-11-16 21:00,-8.6459,40.9159,46.40,44.60,93.40,M,2.00,0.00,30.12,M,6.21,M,M,M,M,M,M,M,M,M,M,M,M,M,M,M,M,46.40,LPOV 162100Z VRB02KT CAVOK 08/07 Q1020
LPOV,2017-11-16 22:00,-8.6459,40.9159,41.00,41.00,100.00,M,2.00,0.00,30.15,M,6.21,M,M,M,M,M,M,M,M,M,M,M,M,M,M,M,M,41.00,LPOV 162200Z VRB02KT CAVOK 05/05 Q1021
LPOV,2017-11-16 23:00,-8.6459,40.9159,41.00,39.20,93.24,M,2.00,0.00,30.12,M,6.21,M,M,M,M,M,M,M,M,M,M,M,M,M,M,M,M,41.00,LPOV 162300Z VRB02KT CAVOK 05/04 Q1020
LPOV,2017-11-17 00:00,-8.6459,40.9159,41.00,41.00,100.00,M,2.00,0.00,30.15,M,6.21,M,M,M,M,M,M,M,M,M,M,M,M,M,M,M,M,41.00,LPOV 170000Z VRB02KT CAVOK 05/05 Q1021
LPOV,2017-11-17 01:00,-8.6459,40.9159,39.20,39.20,100.00,M,2.00,0.00,30.15,M,6.21,M,M,M,M,M,M,M,M,M,M,M,M,M,M,M,M,39.20,LPOV 170100Z VRB02KT CAVOK 04/04 Q1021
LPOV,2017-11-17 02:00,-8.6459,40.9159,39.20,37.40,93.19,M,2.00,0.00,30.15,M,6.21,M,M,M,M,M,M,M,M,M,M,M,M,M,M,M,M,39.20,LPOV 170200Z VRB02KT CAVOK 04/03 Q1021
LPOV,2017-11-17 03:00,-8.6459,40.9159,39.20,39.20,100.00,M,2.00,0.00,30.12,M,6.21,M,M,M,M,M,M,M,M,M,M,M,M,M,M,M,M,39.20,LPOV 170300Z VRB02KT CAVOK 04/04 Q1020
LPOV,2017-11-17 04:00,-8.6459,40.9159,39.20,37.40,93.19,M,1.00,0.00,30.12,M,6.21,M,M,M,M,M,M,M,M,M,M,M,M,M,M,M,M,39.20,LPOV 170400Z VRB01KT CAVOK 04/03 Q1020
LPOV,2017-11-17 05:00,-8.6459,40.9159,39.20,39.20,100.00,M,2.00,0.00,30.12,M,6.21,M,M,M,M,M,M,M,M,M,M,M,M,M,M,M,M,39.20,LPOV 170500Z VRB02KT CAVOK 04/04 Q1020
LPOV,2017-11-17 06:00,-8.6459,40.9159,39.20,39.20,100.00,M,2.00,0.00,30.12,M,4.35,M,NSC,M,M,M,M,M,M,M,M,M,M,M,M,M,M,39.20,LPOV 170600Z VRB02KT 7000 NSC 04/04 Q1020
LPOV,2017-11-17 07:00,-8.6459,40.9159,39.20,37.40,93.19,M,2.00,0.00,30.12,M,3.11,M,FEW,M,M,M,200.00,M,M,M,MIFG BR,M,M,M,M,M,M,39.20,LPOV 170700Z VRB02KT 5000 MIFG BR FEW002 04/03 Q1020
LPOV,2017-11-17 08:00,-8.6459,40.9159,39.20,37.40,93.19,M,2.00,0.00,30.15,M,3.11,M,BKN,M,M,M,200.00,M,M,M,MIFG BR,M,M,M,M,M,M,39.20,LPOV 170800Z VRB02KT 5000 MIFG BR BKN002 04/03 Q1021
LPOV,2017-11-17 09:00,-8.6459,40.9159,42.80,41.00,93.30,M,2.00,0.00,30.15,M,2.49,M,FEW,M,M,M,100.00,M,M,M,MIFG BR,M,M,M,M,M,M,42.80,LPOV 170900Z VRB02KT 4000 MIFG BR FEW001 06/05 Q1021
LPOV,2017-11-17 10:00,-8.6459,40.9159,51.80,48.20,87.47,M,2.00,0.00,30.15,M,3.11,M,FEW,M,M,M,100.00,M,M,M,BR,M,M,M,M,M,M,51.80,LPOV 171000Z VRB02KT 5000 BR FEW001 11/09 Q1021
LPOV,2017-11-17 11:00,-8.6459,40.9159,57.20,50.00,76.82,M,2.00,0.00,30.15,M,4.35,M,NSC,M,M,M,M,M,M,M,M,M,M,M,M,M,M,57.20,LPOV 171100Z VRB02KT 7000 NSC 14/10 Q1021
LPOV,2017-11-17 12:00,-8.6459,40.9159,59.00,51.80,76.98,280.00,4.00,0.00,30.15,M,4.97,M,NSC,M,M,M,M,M,M,M,M,M,M,M,M,M,M,59.00,LPOV 171200Z 28004KT 8000 NSC 15/11 Q1021
LPOV,2017-11-17 13:00,-8.6459,40.9159,60.80,50.00,67.54,280.00,4.00,0.00,30.12,M,4.97,M,NSC,M,M,M,M,M,M,M,M,M,M,M,M,M,M,60.80,LPOV 171300Z 28004KT 8000 NSC 16/10 Q1020
LPOV,2017-11-17 14:00,-8.6459,40.9159,60.80,50.00,67.54,270.00,5.00,0.00,30.12,M,5.59,M,NSC,M,M,M,M,M,M,M,M,M,M,M,M,M,M,60.80,LPOV 171400Z 27005KT 9000 NSC 16/10 Q1020
LPOV,2017-11-17 15:00,-8.6459,40.9159,59.00,50.00,72.01,270.00,4.00,0.00,30.09,M,5.59,M,FEW,M,M,M,800.00,M,M,M,M,M,M,M,M,M,M,59.00,LPOV 171500Z 27004KT 240V310 9000 FEW008 15/10 Q1019
LPOV,2017-11-17 16:00,-8.6459,40.9159,59.00,50.00,72.01,330.00,3.00,0.00,30.09,M,5.59,M,NSC,M,M,M,M,M,M,M,M,M,M,M,M,M,M,59.00,LPOV 171600Z 33003KT 290V360 9000 NSC 15/10 Q1019
LPOV,2017-11-17 17:00,-8.6459,40.9159,55.40,50.00,81.99,340.00,4.00,0.00,30.09,M,4.97,M,NSC,M,M,M,M,M,M,M,M,M,M,M,M,M,M,55.40,LPOV 171700Z 34004KT 8000 NSC 13/10 Q1019
LPOV,2017-11-17 18:00,-8.6459,40.9159,51.80,50.00,93.55,M,2.00,0.00,30.09,M,3.11,M,NSC,M,M,M,M,M,M,M,BR,M,M,M,M,M,M,51.80,LPOV 171800Z VRB02KT 5000 BR NSC 11/10 Q1019
LPOV,2017-11-17 19:00,-8.6459,40.9159,50.00,48.20,93.50,M,1.00,0.00,30.09,M,2.49,M,NSC,M,M,M,M,M,M,M,MIFG BR,M,M,M,M,M,M,50.00,LPOV 171900Z VRB01KT 4000 MIFG BR NSC 10/09 Q1019
LPOV,2017-11-17 20:00,-8.6459,40.9159,48.20,46.40,93.45,M,1.00,0.00,30.12,M,1.24,M,NSC,M,M,M,M,M,M,M,MIFG BR,M,M,M,M,M,M,48.20,LPOV 172000Z VRB01KT 2000 MIFG BR NSC 09/08 Q1020
LPOV,2017-11-17 21:00,-8.6459,40.9159,44.60,42.80,93.35,M,1.00,0.00,30.09,M,1.24,M,NSC,M,M,M,M,M,M,M,MIFG BR,M,M,M,M,M,M,44.60,LPOV 172100Z VRB01KT 2000 MIFG BR NSC 07/06 Q1019
LPOV,2017-11-17 22:00,-8.6459,40.9159,42.80,42.80,100.00,170.00,4.00,0.00,30.09,M,0.62,M,NSC,M,M,M,M,M,M,M,BR,M,M,M,M,M,M,40.03,LPOV 172200Z 17004KT 1000 BR NSC 06/06 Q1019
LPOV,2017-11-17 23:00,-8.6459,40.9159,42.80,42.80,100.00,M,2.00,0.00,30.12,M,0.43,M,FEW,M,M,M,100.00,M,M,M,FG,M,M,M,M,M,M,42.80,LPOV 172300Z VRB02KT 0700 FG FEW001 06/06 Q1020
LPOV,2017-11-18 00:00,-8.6459,40.9159,41.00,41.00,100.00,M,2.00,0.00,30.12,M,0.43,M,FEW,M,M,M,100.00,M,M,M,FG,M,M,M,M,M,M,41.00,LPOV 180000Z VRB02KT 0700 FG FEW001 05/05 Q1020
LPOV,2017-11-18 01:00,-8.6459,40.9159,39.20,39.20,100.00,M,1.00,0.00,30.12,M,0.37,M,FEW,M,M,M,100.00,M,M,M,FG,M,M,M,M,M,M,39.20,LPOV 180100Z VRB01KT 0600 FG FEW001 04/04 Q1020
LPOV,2017-11-18 02:00,-8.6459,40.9159,39.20,39.20,100.00,M,1.00,0.00,30.09,M,0.37,M,FEW,M,M,M,100.00,M,M,M,FG,M,M,M,M,M,M,39.20,LPOV 180200Z VRB01KT 0600 FG FEW001 04/04 Q1019
LPOV,2017-11-18 03:00,-8.6459,40.9159,39.20,37.40,93.19,M,2.00,0.00,30.09,M,0.56,M,FEW,M,M,M,100.00,M,M,M,FG,M,M,M,M,M,M,39.20,LPOV 180300Z VRB02KT 0900 FG FEW001 04/03 Q1019
LPOV,2017-11-18 04:00,-8.6459,40.9159,37.40,37.40,100.00,M,1.00,0.00,30.09,M,0.56,M,FEW,M,M,M,200.00,M,M,M,FG,M,M,M,M,M,M,37.40,LPOV 180400Z VRB01KT 0900 FG FEW002 03/03 Q1019
LPOV,2017-11-18 05:00,-8.6459,40.9159,37.40,35.60,93.14,0.00,0.00,0.00,30.09,M,0.62,M,SCT,M,M,M,200.00,M,M,M,BR,M,M,M,M,M,M,37.40,LPOV 180500Z 00000KT 1000 BR SCT002 03/02 Q1019
LPOV,2017-11-18 06:00,-8.6459,40.9159,41.00,39.20,93.24,M,1.00,0.00,30.09,M,0.19,M,BKN,M,M,M,100.00,M,M,M,FG,M,M,M,M,M,M,41.00,LPOV 180600Z VRB01KT 0300 FG BKN001 05/04 Q1019
LPOV,2017-11-18 07:00,-8.6459,40.9159,41.00,41.00,100.00,M,1.00,0.00,30.09,M,0.06,M,BKN,M,M,M,100.00,M,M,M,FG,M,M,M,M,M,M,41.00,LPOV 180700Z VRB01KT 0100 FG BKN001 05/05 Q1019
LPOV,2017-11-18 08:00,-8.6459,40.9159,41.00,41.00,100.00,M,2.00,0.00,30.09,M,0.06,M,BKN,M,M,M,100.00,M,M,M,FG,M,M,M,M,M,M,41.00,LPOV 180800Z VRB02KT 0100 FG BKN001 05/05 Q1019
LPOV,2017-11-18 09:00,-8.6459,40.9159,42.80,41.00,93.30,M,1.00,0.00,30.12,M,0.50,M,FEW,M,M,M,100.00,M,M,M,FG,M,M,M,M,M,M,42.80,LPOV 180900Z VRB01KT 0800 FG FEW001 06/05 Q1020
LPOV,2017-11-18 10:00,-8.6459,40.9159,48.20,48.20,100.00,M,2.00,0.00,30.12,M,1.86,M,FEW,M,M,M,200.00,M,M,M,BR,M,M,M,M,M,M,48.20,LPOV 181000Z VRB02KT 3000 BR FEW002 09/09 Q1020
LPOV,2017-11-18 11:00,-8.6459,40.9159,53.60,50.00,87.56,270.00,3.00,0.00,30.12,M,3.11,M,FEW,M,M,M,200.00,M,M,M,BR,M,M,M,M,M,M,53.60,LPOV 181100Z 27003KT 250V310 5000 BR FEW002 12/10 Q1020
LPOV,2017-11-18 12:00,-8.6459,40.9159,57.20,51.80,82.12,270.00,3.00,0.00,30.12,M,3.73,M,FEW,M,M,M,200.00,M,M,M,M,M,M,M,M,M,M,57.20,LPOV 181200Z 27003KT 230V300 6000 FEW002 14/11 Q1020
LPOV,2017-11-18 13:00,-8.6459,40.9159,59.00,51.80,76.98,290.00,4.00,0.00,30.09,M,3.73,M,NSC,M,M,M,M,M,M,M,M,M,M,M,M,M,M,59.00,LPOV 181300Z 29004KT 240V350 6000 NSC 15/11 Q1019
LPOV,2017-11-18 14:00,-8.6459,40.9159,60.80,50.00,67.54,310.00,4.00,0.00,30.09,M,4.97,M,NSC,M,M,M,M,M,M,M,M,M,M,M,M,M,M,60.80,LPOV 181400Z 31004KT 270V360 8000 NSC 16/10 Q1019
LPOV,2017-11-18 15:00,-8.6459,40.9159,60.80,50.00,67.54,320.00,4.00,0.00,30.06,M,5.59,M,NSC,M,M,M,M,M,M,M,M,M,M,M,M,M,M,60.80,LPOV 181500Z 32004KT 9000 NSC 16/10 Q1018
LPOV,2017-11-18 16:00,-8.6459,40.9159,62.60,51.80,67.75,330.00,4.00,0.00,30.06,M,6.21,M,M,M,M,M,M,M,M,M,M,M,M,M,M,M,M,62.60,LPOV 181600Z 33004KT 280V360 CAVOK 17/11 Q1018
LPOV,2017-11-18 17:00,-8.6459,40.9159,57.20,53.60,87.74,340.00,3.00,0.00,30.09,M,6.21,M,M,M,M,M,M,M,M,M,M,M,M,M,M,M,M,57.20,LPOV 181700Z 34003KT CAVOK 14/12 Q1019
LPOV,2017-11-18 18:00,-8.6459,40.9159,51.80,50.00,93.55,M,1.00,0.00,30.09,M,4.97,M,NSC,M,M,M,M,M,M,M,M,M,M,M,M,M,M,51.80,LPOV 181800Z VRB01KT 8000 NSC 11/10 Q1019
LPOV,2017-11-18 19:00,-8.6459,40.9159,48.20,48.20,100.00,M,1.00,0.00,30.09,M,4.97,M,NSC,M,M,M,M,M,M,M,M,M,M,M,M,M,M,48.20,LPOV 181900Z VRB01KT 8000 NSC 09/09 Q1019
LPOV,2017-11-18 20:00,-8.6459,40.9159,46.40,44.60,93.40,M,2.00,0.00,30.09,M,3.73,M,NSC,M,M,M,M,M,M,M,M,M,M,M,M,M,M,46.40,LPOV 182000Z VRB02KT 6000 NSC 08/07 Q1019
LPOV,2017-11-18 21:00,-8.6459,40.9159,44.60,44.60,100.00,M,2.00,0.00,30.09,M,3.11,M,NSC,M,M,M,M,M,M,M,BR,M,M,M,M,M,M,44.60,LPOV 182100Z VRB02KT 5000 BR NSC 07/07 Q1019
LPOV,2017-11-18 22:00,-8.6459,40.9159,44.60,42.80,93.35,M,1.00,0.00,30.09,M,3.73,M,NSC,M,M,M,M,M,M,M,M,M,M,M,M,M,M,44.60,LPOV 182200Z VRB01KT 6000 NSC 07/06 Q1019
LPOV,2017-11-18 23:00,-8.6459,40.9159,44.60,42.80,93.35,M,1.00,0.00,30.09,M,3.73,M,NSC,M,M,M,M,M,M,M,M,M,M,M,M,M,M,44.60,LPOV 182300Z VRB01KT 6000 NSC 07/06 Q1019
LPOV,2017-11-19 00:00,-8.6459,40.9159,42.80,41.00,93.30,M,1.00,0.00,30.09,M,4.35,M,NSC,M,M,M,M,M,M,M,M,M,M,M,M,M,M,42.80,LPOV 190000Z VRB01KT 7000 NSC 06/05 Q1019
LPOV,2017-11-19 01:00,-8.6459,40.9159,42.80,41.00,93.30,M,1.00,0.00,30.09,M,4.97,M,NSC,M,M,M,M,M,M,M,M,M,M,M,M,M,M,42.80,LPOV 190100Z VRB01KT 8000 NSC 06/05 Q1019
LPOV,2017-11-19 02:00,-8.6459,40.9159,41.00,39.20,93.24,M,1.00,0.00,30.09,M,6.21,M,M,M,M,M,M,M,M,M,M,M,M,M,M,M,M,41.00,LPOV 190200Z VRB01KT CAVOK 05/04 Q1019
LPOV,2017-11-19 03:00,-8.6459,40.9159,39.20,37.40,93.19,M,1.00,0.00,30.09,M,6.21,M,M,M,M,M,M,M,M,M,M,M,M,M,M,M,M,39.20,LPOV 190300Z VRB01KT CAVOK 04/03 Q1019
LPOV,2017-11-19 04:00,-8.6459,40.9159,39.20,37.40,93.19,M,1.00,0.00,30.09,M,6.21,M,M,M,M,M,M,M,M,M,M,M,M,M,M,M,M,39.20,LPOV 190400Z VRB01KT CAVOK 04/03 Q1019
LPOV,2017-11-19 05:00,-8.6459,40.9159,39.20,37.40,93.19,200.00,3.00,0.00,30.09,M,6.21,M,M,M,M,M,M,M,M,M,M,M,M,M,M,M,M,36.92,LPOV 190500Z 20003KT 130V190 CAVOK 04/03 Q1019
LPOV,2017-11-19 06:00,-8.6459,40.9159,37.40,35.60,93.14,170.00,4.00,0.00,30.09,M,6.21,M,M,M,M,M,M,M,M,M,M,M,M,M,M,M,M,33.73,LPOV 190600Z 17004KT CAVOK 03/02 Q1019
LPOV,2017-11-19 07:00,-8.6459,40.9159,37.40,35.60,93.14,M,2.00,0.00,30.12,M,6.21,M,M,M,M,M,M,M,M,M,M,M,M,M,M,M,M,37.40,LPOV 190700Z VRB02KT CAVOK 03/02 Q1020
LPOV,2017-11-19 08:00,-8.6459,40.9159,35.60,35.60,100.00,M,2.00,0.00,30.12,M,6.21,M,M,M,M,M,M,M,M,M,M,M,M,M,M,M,M,35.60,LPOV 190800Z VRB02KT CAVOK 02/02 Q1020
LPOV,2017-11-19 09:00,-8.6459,40.9159,42.80,41.00,93.30,M,1.00,0.00,30.15,M,6.21,M,M,M,M,M,M,M,M,M,M,M,M,M,M,M,M,42.80,LPOV 190900Z VRB01KT CAVOK 06/05 Q1021
LPOV,2017-11-19 10:00,-8.6459,40.9159,53.60,44.60,71.45,M,1.00,0.00,30.15,M,6.21,M,M,M,M,M,M,M,M,M,M,M,M,M,M,M,M,53.60,LPOV 191000Z VRB01KT CAVOK 12/07 Q1021
LPOV,2017-11-19 11:00,-8.6459,40.9159,62.60,46.40,55.37,M,1.00,0.00,30.15,M,6.21,M,M,M,M,M,M,M,M,M,M,M,M,M,M,M,M,62.60,LPOV 191100Z VRB01KT CAVOK 17/08 Q1021
LPOV,2017-11-19 12:00,-8.6459,40.9159,62.60,48.20,59.26,280.00,4.00,0.00,30.15,M,6.21,M,M,M,M,M,M,M,M,M,M,M,M,M,M,M,M,62.60,LPOV 191200Z 28004KT 240V300 CAVOK 17/09 Q1021
LPOV,2017-11-19 13:00,-8.6459,40.9159,62.60,50.00,63.38,280.00,4.00,0.00,30.15,M,6.21,M,M,M,M,M,M,M,M,M,M,M,M,M,M,M,M,62.60,LPOV 191300Z 28004KT CAVOK 17/10 Q1021
LPOV,2017-11-19 14:00,-8.6459,40.9159,64.40,48.20,55.63,310.00,4.00,0.00,30.12,M,6.21,M,M,M,M,M,M,M,M,M,M,M,M,M,M,M,M,64.40,LPOV 191400Z 31004KT CAVOK 18/09 Q1020
LPOV,2017-11-19 15:00,-8.6459,40.9159,62.60,50.00,63.38,320.00,5.00,0.00,30.12,M,6.21,M,M,M,M,M,M,M,M,M,M,M,M,M,M,M,M,62.60,LPOV 191500Z 32005KT 300V360 CAVOK 17/10 Q1020
LPOV,2017-11-19 16:00,-8.6459,40.9159,62.60,46.40,55.37,340.00,5.00,0.00,30.12,M,6.21,M,M,M,M,M,M,M,M,M,M,M,M,M,M,M,M,62.60,LPOV 191600Z 34005KT CAVOK 17/08 Q1020
LPOV,2017-11-19 17:00,-8.6459,40.9159,59.00,46.40,62.92,350.00,3.00,0.00,30.12,M,6.21,M,M,M,M,M,M,M,M,M,M,M,M,M,M,M,M,59.00,LPOV 191700Z 35003KT CAVOK 15/08 Q1020
LPOV,2017-11-19 18:00,-8.6459,40.9159,53.60,46.40,76.50,M,1.00,0.00,30.12,M,6.21,M,M,M,M,M,M,M,M,M,M,M,M,M,M,M,M,53.60,LPOV 191800Z VRB01KT CAVOK 12/08 Q1020
LPOV,2017-11-19 19:00,-8.6459,40.9159,50.00,42.80,76.18,M,1.00,0.00,30.15,M,6.21,M,M,M,M,M,M,M,M,M,M,M,M,M,M,M,M,50.00,LPOV 191900Z VRB01KT CAVOK 10/06 Q1021
LPOV,2017-11-19 20:00,-8.6459,40.9159,46.40,42.80,87.19,0.00,0.00,0.00,30.15,M,6.21,M,M,M,M,M,M,M,M,M,M,M,M,M,M,M,M,46.40,LPOV 192000Z 00000KT CAVOK 08/06 Q1021
LPOV,2017-11-19 21:00,-8.6459,40.9159,44.60,42.80,93.35,M,1.00,0.00,30.15,M,6.21,M,M,M,M,M,M,M,M,M,M,M,M,M,M,M,M,44.60,LPOV 192100Z VRB01KT CAVOK 07/06 Q1021
LPOV,2017-11-19 22:00,-8.6459,40.9159,42.80,41.00,93.30,170.00,3.00,0.00,30.15,M,6.21,M,M,M,M,M,M,M,M,M,M,M,M,M,M,M,M,41.03,LPOV 192200Z 17003KT CAVOK 06/05 Q1021
LPOV,2017-11-19 23:00,-8.6459,40.9159,41.00,39.20,93.24,M,1.00,0.00,30.15,M,6.21,M,M,M,M,M,M,M,M,M,M,M,M,M,M,M,M,41.00,LPOV 192300Z VRB01KT CAVOK 05/04 Q1021
LPOV,2017-11-20 00:00,-8.6459,40.9159,41.00,39.20,93.24,M,1.00,0.00,30.15,M,6.21,M,M,M,M,M,M,M,M,M,M,M,M,M,M,M,M,41.00,LPOV 200000Z VRB01KT CAVOK 05/04 Q1021
LPOV,2017-11-20 01:00,-8.6459,40.9159,41.00,37.40,86.89,M,2.00,0.00,30.15,M,6.21,M,M,M,M,M,M,M,M,M,M,M,M,M,M,M,M,41.00,LPOV 200100Z VRB02KT CAVOK 05/03 Q1021
LPOV,2017-11-20 02:00,-8.6459,40.9159,39.20,37.40,93.19,M,2.00,0.00,30.15,M,6.21,M,M,M,M,M,M,M,M,M,M,M,M,M,M,M,M,39.20,LPOV 200200Z VRB02KT CAVOK 04/03 Q1021
LPOV,2017-11-20 03:00,-8.6459,40.9159,39.20,37.40,93.19,M,2.00,0.00,30.15,M,6.21,M,M,M,M,M,M,M,M,M,M,M,M,M,M,M,M,39.20,LPOV 200300Z VRB02KT CAVOK 04/03 Q1021
LPOV,2017-11-20 04:00,-8.6459,40.9159,39.20,37.40,93.19,M,1.00,0.00,30.15,M,6.21,M,M,M,M,M,M,M,M,M,M,M,M,M,M,M,M,39.20,LPOV 200400Z VRB01KT CAVOK 04/03 Q1021
LPOV,2017-11-20 05:00,-8.6459,40.9159,37.40,37.40,100.00,0.00,0.00,0.00,30.15,M,6.21,M,M,M,M,M,M,M,M,M,M,M,M,M,M,M,M,37.40,LPOV 200500Z 00000KT CAVOK 03/03 Q1021
LPOV,2017-11-20 06:00,-8.6459,40.9159,37.40,37.40,100.00,M,1.00,0.00,30.15,M,6.21,M,M,M,M,M,M,M,M,M,M,M,M,M,M,M,M,37.40,LPOV 200600Z VRB01KT CAVOK 03/03 Q1021
LPOV,2017-11-20 07:00,-8.6459,40.9159,35.60,35.60,100.00,M,1.00,0.00,30.15,M,6.21,M,M,M,M,M,M,M,M,M,M,M,M,M,M,M,M,35.60,LPOV 200700Z VRB01KT CAVOK 02/02 Q1021
LPOV,2017-11-20 08:00,-8.6459,40.9159,37.40,35.60,93.14,M,1.00,0.00,30.18,M,6.21,M,M,M,M,M,M,M,M,M,M,M,M,M,M,M,M,37.40,LPOV 200800Z VRB01KT CAVOK 03/02 Q1022
LPOV,2017-11-20 09:00,-8.6459,40.9159,42.80,41.00,93.30,M,2.00,0.00,30.18,M,6.21,M,M,M,M,M,M,M,M,M,M,M,M,M,M,M,M,42.80,LPOV 200900Z VRB02KT CAVOK 06/05 Q1022
LPOV,2017-11-20 10:00,-8.6459,40.9159,55.40,44.60,66.91,M,1.00,0.00,30.21,M,6.21,M,M,M,M,M,M,M,M,M,M,M,M,M,M,M,M,55.40,LPOV 201000Z VRB01KT CAVOK 13/07 Q1023
LPOV,2017-11-20 11:00,-8.6459,40.9159,62.60,48.20,59.26,M,2.00,0.00,30.21,M,6.21,M,M,M,M,M,M,M,M,M,M,M,M,M,M,M,M,62.60,LPOV 201100Z VRB02KT CAVOK 17/09 Q1023
LPOV,2017-11-20 12:00,-8.6459,40.9159,68.00,46.40,45.88,M,2.00,0.00,30.18,M,6.21,M,M,M,M,M,M,M,M,M,M,M,M,M,M,M,M,68.00,LPOV 201200Z VRB02KT CAVOK 20/08 Q1022
LPOV,2017-11-20 13:00,-8.6459,40.9159,68.00,51.80,56.13,280.00,5.00,0.00,30.15,M,6.21,M,M,M,M,M,M,M,M,M,M,M,M,M,M,M,M,68.00,LPOV 201300Z 28005KT CAVOK 20/11 Q1021
LPOV,2017-11-20 14:00,-8.6459,40.9159,71.60,48.20,43.42,300.00,3.00,0.00,30.15,M,6.21,M,M,M,M,M,M,M,M,M,M,M,M,M,M,M,M,70.50,LPOV 201400Z 30003KT 270V330 CAVOK 22/09 Q1021
LPOV,2017-11-20 15:00,-8.6459,40.9159,69.80,50.00,49.37,280.00,6.00,0.00,30.12,M,6.21,M,M,M,M,M,M,M,M,M,M,M,M,M,M,M,M,69.80,LPOV 201500Z 28006KT CAVOK 21/10 Q1020
LPOV,2017-11-20 16:00,-8.6459,40.9159,68.00,50.00,52.51,M,2.00,0.00,30.12,M,6.21,M,M,M,M,M,M,M,M,M,M,M,M,M,M,M,M,68.00,LPOV 201600Z VRB02KT CAVOK 20/10 Q1020
LPOV,2017-11-20 17:00,-8.6459,40.9159,60.80,51.80,72.20,M,2.00,0.00,30.12,M,6.21,M,M,M,M,M,M,M,M,M,M,M,M,M,M,M,M,60.80,LPOV 201700Z VRB02KT CAVOK 16/11 Q1020
LPOV,2017-11-20 18:00,-8.6459,40.9159,57.20,50.00,76.82,M,1.00,0.00,30.12,M,6.21,M,M,M,M,M,M,M,M,M,M,M,M,M,M,M,M,57.20,LPOV 201800Z VRB01KT CAVOK 14/10 Q1020
LPOV,2017-11-20 19:00,-8.6459,40.9159,53.60,48.20,81.87,0.00,0.00,0.00,30.15,M,6.21,M,M,M,M,M,M,M,M,M,M,M,M,M,M,M,M,53.60,LPOV 201900Z 00000KT CAVOK 12/09 Q1021
LPOV,2017-11-20 20:00,-8.6459,40.9159,50.00,46.40,87.37,M,1.00,0.00,30.15,M,6.21,M,M,M,M,M,M,M,M,M,M,M,M,M,M,M,M,50.00,LPOV 202000Z VRB01KT CAVOK 10/08 Q1021
LPOV,2017-11-20 21:00,-8.6459,40.9159,48.20,44.60,87.28,M,1.00,0.00,30.15,M,6.21,M,M,M,M,M,M,M,M,M,M,M,M,M,M,M,M,48.20,LPOV 202100Z VRB01KT CAVOK 09/07 Q1021
LPOV,2017-11-20 22:00,-8.6459,40.9159,44.60,41.00,87.09,M,1.00,0.00,30.15,M,6.21,M,M,M,M,M,M,M,M,M,M,M,M,M,M,M,M,44.60,LPOV 202200Z VRB01KT CAVOK 07/05 Q1021
LPOV,2017-11-20 23:00,-8.6459,40.9159,44.60,41.00,87.09,M,1.00,0.00,30.15,M,6.21,M,M,M,M,M,M,M,M,M,M,M,M,M,M,M,M,44.60,LPOV 202300Z VRB01KT CAVOK 07/05 Q1021
LPOV,2017-11-21 00:00,-8.6459,40.9159,42.80,39.20,86.99,M,1.00,0.00,30.15,M,6.21,M,M,M,M,M,M,M,M,M,M,M,M,M,M,M,M,42.80,LPOV 210000Z VRB01KT CAVOK 06/04 Q1021
LPOV,2017-11-21 01:00,-8.6459,40.9159,42.80,39.20,86.99,M,1.00,0.00,30.12,M,6.21,M,M,M,M,M,M,M,M,M,M,M,M,M,M,M,M,42.80,LPOV 210100Z VRB01KT CAVOK 06/04 Q1020
LPOV,2017-11-21 02:00,-8.6459,40.9159,41.00,39.20,93.24,M,1.00,0.00,30.12,M,6.21,M,M,M,M,M,M,M,M,M,M,M,M,M,M,M,M,41.00,LPOV 210200Z VRB01KT CAVOK 05/04 Q1020
LPOV,2017-11-21 03:00,-8.6459,40.9159,41.00,39.20,93.24,M,2.00,0.00,30.12,M,6.21,M,M,M,M,M,M,M,M,M,M,M,M,M,M,M,M,41.00,LPOV 210300Z VRB02KT CAVOK 05/04 Q1020
LPOV,2017-11-21 04:00,-8.6459,40.9159,39.20,37.40,93.19,M,1.00,0.00,30.12,M,6.21,M,M,M,M,M,M,M,M,M,M,M,M,M,M,M,M,39.20,LPOV 210400Z VRB01KT CAVOK 04/03 Q1020
LPOV,2017-11-21 05:00,-8.6459,40.9159,39.20,37.40,93.19,M,2.00,0.00,30.09,M,6.21,M,M,M,M,M,M,M,M,M,M,M,M,M,M,M,M,39.20,LPOV 210500Z VRB02KT CAVOK 04/03 Q1019
LPOV,2017-11-21 06:00,-8.6459,40.9159,39.20,37.40,93.19,0.00,0.00,0.00,30.09,M,6.21,M,M,M,M,M,M,M,M,M,M,M,M,M,M,M,M,39.20,LPOV 210600Z 00000KT CAVOK 04/03 Q1019
LPOV,2017-11-21 07:00,-8.6459,40.9159,37.40,35.60,93.14,170.00,3.00,0.00,30.09,M,6.21,M,M,M,M,M,M,M,M,M,M,M,M,M,M,M,M,34.86,LPOV 210700Z 17003KT CAVOK 03/02 Q1019
LPOV,2017-11-21 08:00,-8.6459,40.9159,39.20,35.60,86.79,M,2.00,0.00,30.09,M,6.21,M,M,M,M,M,M,M,M,M,M,M,M,M,M,M,M,39.20,LPOV 210800Z VRB02KT CAVOK 04/02 Q1019
LPOV,2017-11-21 09:00,-8.6459,40.9159,46.40,39.20,75.84,M,1.00,0.00,30.09,M,6.21,M,M,M,M,M,M,M,M,M,M,M,M,M,M,M,M,46.40,LPOV 210900Z VRB01KT CAVOK 08/04 Q1019
LPOV,2017-11-21 10:00,-8.6459,40.9159,55.40,46.40,71.64,290.00,3.00,0.00,30.09,M,6.21,M,M,M,M,M,M,M,M,M,M,M,M,M,M,M,M,55.40,LPOV 211000Z 29003KT CAVOK 13/08 Q1019
LPOV,2017-11-21 11:00,-8.6459,40.9159,60.80,46.40,59.01,270.00,4.00,0.00,30.09,M,6.21,M,M,M,M,M,M,M,M,M,M,M,M,M,M,M,M,60.80,LPOV 211100Z 27004KT CAVOK 16/08 Q1019
LPOV,2017-11-21 12:00,-8.6459,40.9159,62.60,50.00,63.38,260.00,5.00,0.00,30.09,M,6.21,M,M,M,M,M,M,M,M,M,M,M,M,M,M,M,M,62.60,LPOV 211200Z 26005KT CAVOK 17/10 Q1019
LPOV,2017-11-21 13:00,-8.6459,40.9159,64.40,46.40,51.98,200.00,4.00,0.00,30.06,M,6.21,M,M,M,M,M,M,M,M,M,M,M,M,M,M,M,M,64.40,LPOV 211300Z 20004KT CAVOK 18/08 Q1018
LPOV,2017-11-21 14:00,-8.6459,40.9159,66.20,44.60,45.60,210.00,7.00,0.00,30.06,M,6.21,M,M,M,M,M,M,M,M,M,M,M,M,M,M,M,M,66.20,LPOV 211400Z 21007KT CAVOK 19/07 Q1018
LPOV,2017-11-21 15:00,-8.6459,40.9159,68.00,46.40,45.88,210.00,7.00,0.00,30.03,M,6.21,M,M,M,M,M,M,M,M,M,M,M,M,M,M,M,M,68.00,LPOV 211500Z 21007KT CAVOK 20/08 Q1017
LPOV,2017-11-21 16:00,-8.6459,40.9159,62.60,50.00,63.38,240.00,5.00,0.00,30.03,M,6.21,M,M,M,M,M,M,M,M,M,M,M,M,M,M,M,M,62.60,LPOV 211600Z 24005KT CAVOK 17/10 Q1017
LPOV,2017-11-21 17:00,-8.6459,40.9159,60.80,51.80,M,M,M,0.00,30.03,M,6.21,M,M,M,M,M,M,M,M,M,M,M,M,M,M,M,M,M,LPOV 211700Z VRBK02T CAVOK 16/11 Q1017
LPOV,2017-11-21 18:00,-8.6459,40.9159,57.20,50.00,76.82,M,2.00,0.00,30.03,M,6.21,M,M,M,M,M,M,M,M,M,M,M,M,M,M,M,M,57.20,LPOV 211800Z VRB02KT CAVOK 14/10 Q1017
LPOV,2017-11-21 19:00,-8.6459,40.9159,51.80,48.20,87.47,M,2.00,0.00,30.03,M,6.21,M,M,M,M,M,M,M,M,M,M,M,M,M,M,M,M,51.80,LPOV 211900Z VRB02KT CAVOK 11/09 Q1017
LPOV,2017-11-21 20:00,-8.6459,40.9159,50.00,48.20,93.50,M,2.00,0.00,30.03,M,6.21,M,M,M,M,M,M,M,M,M,M,M,M,M,M,M,M,50.00,LPOV 212000Z VRB02KT CAVOK 10/09 Q1017
LPOV,2017-11-21 22:00,-8.6459,40.9159,50.00,48.20,93.50,M,2.00,0.00,30.00,M,6.21,M,M,M,M,M,M,M,M,M,M,M,M,M,M,M,M,50.00,LPOV 212200Z VRB02KT CAVOK 10/09 Q1016
LPOV,2017-11-21 23:00,-8.6459,40.9159,50.00,48.20,93.50,M,2.00,0.00,30.00,M,6.21,M,M,M,M,M,M,M,M,M,M,M,M,M,M,M,M,50.00,LPOV 212300Z VRB02KT CAVOK 10/09 Q1016
LPOV,2017-11-22 00:00,-8.6459,40.9159,50.00,48.20,93.50,M,2.00,0.00,30.00,M,6.21,M,M,M,M,M,M,M,M,M,M,M,M,M,M,M,M,50.00,LPOV 220000Z VRB02KT CAVOK 10/09 Q1016
LPOV,2017-11-22 01:00,-8.6459,40.9159,48.20,44.60,87.28,M,2.00,0.00,29.94,M,6.21,M,M,M,M,M,M,M,M,M,M,M,M,M,M,M,M,48.20,LPOV 220100Z VRB02KT CAVOK 09/07 Q1014
LPOV,2017-11-22 02:00,-8.6459,40.9159,46.40,44.60,93.40,190.00,4.00,0.00,29.94,M,6.21,M,M,M,M,M,M,M,M,M,M,M,M,M,M,M,M,44.24,LPOV 220200Z 19004KT CAVOK 08/07 Q1014
LPOV,2017-11-22 03:00,-8.6459,40.9159,50.00,44.60,81.61,180.00,6.00,0.00,29.91,M,6.21,M,M,M,M,M,M,M,M,M,M,M,M,M,M,M,M,47.21,LPOV 220300Z 18006KT CAVOK 10/07 Q1013
LPOV,2017-11-22 04:00,-8.6459,40.9159,46.40,41.00,81.34,180.00,5.00,0.00,29.91,M,6.21,M,M,M,M,M,M,M,M,M,M,M,M,M,M,M,M,43.50,LPOV 220400Z 18005KT CAVOK 08/05 Q1013
LPOV,2017-11-22 05:00,-8.6459,40.9159,42.80,41.00,93.30,190.00,6.00,0.00,29.91,M,6.21,M,M,M,M,M,M,M,M,M,M,M,M,M,M,M,M,38.54,LPOV 220500Z 19006KT CAVOK 06/05 Q1013
LPOV,2017-11-22 06:00,-8.6459,40.9159,44.60,42.80,93.35,170.00,8.00,0.00,29.85,M,6.21,M,M,M,M,M,M,M,M,M,M,M,M,M,M,M,M,39.63,LPOV 220600Z 17008KT CAVOK 07/06 Q1011
LPOV,2017-11-22 07:00,-8.6459,40.9159,51.80,44.60,76.34,160.00,10.00,0.00,29.85,M,6.21,M,SCT,M,M,M,1200.00,M,M,M,M,M,M,M,M,M,M,51.80,LPOV 220700Z 16010KT 9999 SCT012 11/07 Q1011
LPOV,2017-11-22 08:00,-8.6459,40.9159,57.20,44.60,62.69,170.00,10.00,0.00,29.85,M,6.21,M,FEW,SCT,M,M,200.00,1200.00,M,M,M,M,M,M,M,M,M,57.20,LPOV 220800Z 17010KT 9999 FEW002 SCT012 14/07 Q1011
LPOV,2017-11-22 09:00,-8.6459,40.9159,60.80,42.80,51.45,190.00,9.00,0.00,29.88,M,6.21,M,FEW,M,M,M,3000.00,M,M,M,M,M,M,M,M,M,M,60.80,LPOV 220900Z 19009KT 9999 FEW030 16/06 Q1012
LPOV,2017-11-22 10:00,-8.6459,40.9159,62.60,42.80,48.28,160.00,13.00,0.00,29.88,M,6.21,M,FEW,M,M,M,3000.00,M,M,M,M,M,M,M,M,M,M,62.60,LPOV 221000Z 16013KT 9999 FEW030 17/06 Q1012
LPOV,2017-11-22 11:00,-8.6459,40.9159,64.40,44.60,48.55,170.00,13.00,0.00,29.85,M,6.21,M,FEW,M,M,M,4000.00,M,M,M,M,M,M,M,M,M,M,64.40,LPOV 221100Z 17013KT 9999 FEW040 18/07 Q1011
LPOV,2017-11-22 12:00,-8.6459,40.9159,66.20,44.60,45.60,160.00,15.00,0.00,29.83,M,6.21,M,FEW,M,M,M,4000.00,M,M,M,M,M,M,M,M,M,M,66.20,LPOV 221200Z 16015KT 9999 FEW040 19/07 Q1010
LPOV,2017-11-22 13:00,-8.6459,40.9159,66.20,44.60,45.60,170.00,15.00,0.00,29.80,M,6.21,M,FEW,M,M,M,4000.00,M,M,M,M,M,M,M,M,M,M,66.20,LPOV 221300Z 17015KT 9999 FEW040 19/07 Q1009
LPOV,2017-11-22 14:00,-8.6459,40.9159,68.00,44.60,42.85,160.00,14.00,0.00,29.77,M,6.21,M,FEW,M,M,M,4000.00,M,M,M,M,M,M,M,M,M,M,68.00,LPOV 221400Z 16014KT 120V190 9999 FEW040 20/07 Q1008
LPOV,2017-11-22 15:00,-8.6459,40.9159,68.00,46.40,45.88,170.00,17.00,0.00,29.77,M,6.21,M,FEW,M,M,M,4000.00,M,M,M,M,M,M,M,M,M,M,68.00,LPOV 221500Z 17017KT 9999 FEW040 20/08 Q1008
LPOV,2017-11-22 16:00,-8.6459,40.9159,68.00,44.60,42.85,170.00,16.00,0.00,29.77,M,6.21,M,FEW,M,M,M,4000.00,M,M,M,M,M,M,M,M,M,M,68.00,LPOV 221600Z 17016KT 9999 FEW040 20/07 Q1008
LPOV,2017-11-22 17:00,-8.6459,40.9159,68.00,46.40,45.88,180.00,14.00,0.00,29.77,M,6.21,M,FEW,M,M,M,2000.00,M,M,M,M,M,M,M,M,M,M,68.00,LPOV 221700Z 18014KT 9999 FEW020 20/08 Q1008
LPOV,2017-11-22 18:00,-8.6459,40.9159,66.20,44.60,45.60,180.00,14.00,0.00,29.77,M,6.21,M,FEW,M,M,M,2000.00,M,M,M,M,M,M,M,M,M,M,66.20,LPOV 221800Z 18014KT 9999 FEW020 19/07 Q1008
LPOV,2017-11-22 19:00,-8.6459,40.9159,66.20,46.40,48.83,180.00,13.00,0.00,29.80,M,6.21,M,FEW,M,M,M,2000.00,M,M,M,M,M,M,M,M,M,M,66.20,LPOV 221900Z 18013KT 9999 FEW020 19/08 Q1009
LPOV,2017-11-22 20:00,-8.6459,40.9159,66.20,48.20,52.25,190.00,14.00,0.00,29.80,M,6.21,M,FEW,M,M,M,3000.00,M,M,M,M,M,M,M,M,M,M,66.20,LPOV 222000Z 19014KT 9999 FEW030 19/09 Q1009
LPOV,2017-11-22 21:00,-8.6459,40.9159,66.20,48.20,52.25,180.00,12.00,0.00,29.77,M,6.21,M,FEW,BKN,M,M,2000.00,4000.00,M,M,M,M,M,M,M,M,M,66.20,LPOV 222100Z 18012KT 9999 FEW020 BKN040 19/09 Q1008
LPOV,2017-11-22 22:00,-8.6459,40.9159,66.20,50.00,55.88,190.00,13.00,0.00,29.77,M,6.21,M,FEW,SCT,M,M,2000.00,4000.00,M,M,M,M,M,M,M,M,M,66.20,LPOV 222200Z 19013KT 9999 FEW020 SCT040 19/10 Q1008
LPOV,2017-11-22 23:00,-8.6459,40.9159,66.20,51.80,59.74,190.00,13.00,0.00,29.77,M,6.21,M,FEW,SCT,M,M,2000.00,4000.00,M,M,M,M,M,M,M,M,M,66.20,LPOV 222300Z 19013KT 9999 FEW020 SCT040 19/11 Q1008
LPOV,2017-11-23 00:00,-8.6459,40.9159,60.80,55.40,82.37,180.00,14.00,0.00,29.77,M,6.21,M,FEW,BKN,M,M,2000.00,3000.00,M,M,M,M,M,M,M,M,M,60.80,LPOV 230000Z 18014KT 9999 FEW020 BKN030 16/13 Q1008 RESHRA
LPOV,2017-11-23 01:00,-8.6459,40.9159,60.80,57.20,87.92,180.00,12.00,0.00,29.80,M,6.21,M,FEW,BKN,M,M,2000.00,3000.00,M,M,M,M,M,M,M,M,M,60.80,LPOV 230100Z 18012KT 9999 FEW020 BKN030 16/14 Q1009
LPOV,2017-11-23 02:00,-8.6459,40.9159,60.80,59.00,93.79,180.00,11.00,0.00,29.80,M,6.21,M,FEW,BKN,M,M,1500.00,3000.00,M,M,M,M,M,M,M,M,M,60.80,LPOV 230200Z 18011KT 9999 FEW015 BKN030 16/15 Q1009
LPOV,2017-11-23 03:00,-8.6459,40.9159,60.80,59.00,93.79,180.00,10.00,0.00,29.83,M,6.21,M,FEW,SCT,BKN,M,800.00,1500.00,3000.00,M,M,M,M,M,M,M,M,60.80,LPOV 230300Z 18010KT 9999 FEW008 SCT015 BKN030 16/15 Q1010
LPOV,2017-11-23 04:00,-8.6459,40.9159,60.80,59.00,93.79,190.00,8.00,0.00,29.83,M,6.21,M,FEW,SCT,BKN,M,800.00,1500.00,3000.00,M,M,M,M,M,M,M,M,60.80,LPOV 230400Z 19008KT 9999 FEW008 SCT015 BKN030 16/15 Q1010
LPOV,2017-11-23 05:00,-8.6459,40.9159,60.80,59.00,93.79,180.00,5.00,0.00,29.83,M,6.21,M,SCT,SCT,BKN,M,600.00,1500.00,3000.00,M,M,M,M,M,M,M,M,60.80,LPOV 230500Z 18005KT 9999 SCT006 SCT015 BKN030 16/15 Q1010
LPOV,2017-11-23 06:00,-8.6459,40.9159,60.80,59.00,93.79,160.00,5.00,0.00,29.85,M,6.21,M,BKN,BKN,M,M,600.00,2000.00,M,M,M,M,M,M,M,M,M,60.80,LPOV 230600Z 16005KT 9999 BKN006 BKN020 16/15 Q1011
LPOV,2017-11-23 07:00,-8.6459,40.9159,60.80,59.00,93.79,160.00,6.00,0.00,29.85,M,6.21,M,SCT,BKN,M,M,600.00,2000.00,M,M,M,M,M,M,M,M,M,60.80,LPOV 230700Z 16006KT 9999 SCT006 BKN020 16/15 Q1011
LPOV,2017-11-23 08:00,-8.6459,40.9159,60.80,59.00,93.79,170.00,7.00,0.00,29.88,M,6.21,M,SCT,BKN,M,M,600.00,2000.00,M,M,M,M,M,M,M,M,M,60.80,LPOV 230800Z 17007KT 9999 SCT006 BKN020 16/15 Q1012
LPOV,2017-11-23 09:00,-8.6459,40.9159,60.80,57.20,87.92,160.00,6.00,0.00,29.91,M,6.21,M,FEW,SCT,BKN,M,400.00,600.00,2500.00,M,M,M,M,M,M,M,M,60.80,LPOV 230900Z 16006KT 9999 FEW004 SCT006 BKN025 16/14 Q1013
LPOV,2017-11-23 10:00,-8.6459,40.9159,60.80,59.00,93.79,160.00,11.00,0.00,29.91,M,6.21,M,FEW,SCT,BKN,M,400.00,600.00,2500.00,M,M,M,M,M,M,M,M,60.80,LPOV 231000Z 16011KT 9999 FEW004 SCT006 BKN025 16/15 Q1013
LPOV,2017-11-23 11:00,-8.6459,40.9159,60.80,59.00,93.79,170.00,11.00,0.00,29.94,M,3.73,M,FEW,SCT,BKN,M,300.00,600.00,2000.00,M,-RADZ,M,M,M,M,M,M,60.80,LPOV 231100Z 17011KT 6000 -RADZ FEW003 SCT006 BKN020 16/15 Q1014
LPOV,2017-11-23 12:00,-8.6459,40.9159,62.60,60.80,93.83,170.00,8.00,0.00,29.91,M,4.97,M,FEW,SCT,BKN,M,300.00,600.00,2000.00,M,-SHRA,M,M,M,M,M,M,62.60,LPOV 231200Z 17008KT 8000 -SHRA FEW003 SCT006 BKN020 17/16 Q1013
LPOV,2017-11-23 13:00,-8.6459,40.9159,64.40,60.80,88.09,170.00,9.00,0.00,29.91,M,6.21,M,SCT,BKN,M,M,600.00,2000.00,M,M,M,M,M,M,M,M,M,64.40,LPOV 231300Z 17009KT 9999 SCT006 BKN020 18/16 Q1013
LPOV,2017-11-23 14:00,-8.6459,40.9159,66.20,60.80,82.74,170.00,7.00,0.00,29.91,M,6.21,M,FEW,SCT,M,M,2000.00,2200.00,M,M,M,M,M,M,M,M,M,66.20,LPOV 231400Z 17007KT 9999 FEW020 SCT022 19/16 Q1013
LPOV,2017-11-23 15:00,-8.6459,40.9159,68.00,59.00,72.92,190.00,6.00,0.00,29.91,M,6.21,M,FEW,SCT,M,M,2000.00,2200.00,M,M,M,M,M,M,M,M,M,68.00,LPOV 231500Z 19006KT 9999 FEW020 SCT022 20/15 Q1013
LPOV,2017-11-23 16:00,-8.6459,40.9159,68.00,57.20,68.35,200.00,6.00,0.00,29.88,M,6.21,M,FEW,M,M,M,2000.00,M,M,M,M,M,M,M,M,M,M,68.00,LPOV 231600Z 20006KT 9999 FEW020 20/14 Q1012
LPOV,2017-11-23 17:00,-8.6459,40.9159,66.20,59.00,77.60,150.00,4.00,0.00,29.88,M,6.21,M,FEW,SCT,M,M,2000.00,2200.00,M,M,M,M,M,M,M,M,M,66.20,LPOV 231700Z 15004KT 9999 FEW020 SCT022 19/15 Q1012
LPOV,2017-11-23 18:00,-8.6459,40.9159,66.20,55.40,68.15,130.00,4.00,0.00,29.91,M,6.21,M,FEW,SCT,M,M,2000.00,2200.00,M,M,M,M,M,M,M,M,M,66.20,LPOV 231800Z 13004KT 090V170 9999 FEW020 SCT022 19/13 Q1013
LPOV,2017-11-23 19:00,-8.6459,40.9159,64.40,53.60,67.95,160.00,12.00,0.00,29.91,M,6.21,M,FEW,SCT,M,M,2000.00,2200.00,M,M,M,M,M,M,M,M,M,64.40,LPOV 231900Z 16012KT 9999 FEW020 SCT022 18/12 Q1013
LPOV,2017-11-23 20:00,-8.6459,40.9159,62.60,57.20,82.50,M,2.00,0.00,29.88,M,6.21,M,FEW,SCT,M,M,2000.00,2200.00,M,M,M,M,M,M,M,M,M,62.60,LPOV 232000Z VRB02KT 9999 FEW020 SCT022 17/14 Q1012
LPOV,2017-11-23 21:00,-8.6459,40.9159,66.20,53.60,63.82,150.00,6.00,0.00,29.88,M,6.21,M,FEW,SCT,M,M,2200.00,2500.00,M,M,M,M,M,M,M,M,M,66.20,LPOV 232100Z 15006KT 9999 FEW022 SCT025 19/12 Q1012
LPOV,2017-11-23 22:00,-8.6459,40.9159,64.40,55.40,72.56,130.00,3.00,0.00,29.91,M,6.21,M,SCT,M,M,M,2500.00,M,M,M,M,M,M,M,M,M,M,64.40,LPOV 232200Z 13003KT 060V180 9999 SCT025 18/13 Q1013
LPOV,2017-11-23 23:00,-8.6459,40.9159,60.80,57.20,87.92,140.00,6.00,0.00,29.91,M,5.59,M,FEW,BKN,BKN,M,600.00,800.00,2500.00,M,-RADZ,M,M,M,M,M,M,60.80,LPOV 232300Z 14006KT 100V180 9000 -RADZ FEW006 BKN008 BKN025 16/14 Q1013
LPOV,2017-11-24 00:00,-8.6459,40.9159,60.80,59.00,93.79,170.00,11.00,0.00,29.91,M,5.59,M,FEW,BKN,BKN,M,600.00,800.00,2500.00,M,-RADZ,M,M,M,M,M,M,60.80,LPOV 240000Z 17011KT 9000 -RADZ FEW006 BKN008 BKN025 16/15 Q1013
LPOV,2017-11-24 01:00,-8.6459,40.9159,60.80,60.80,100.00,200.00,13.00,0.00,29.94,M,6.21,M,BKN,BKN,M,M,800.00,2500.00,M,M,M,M,M,M,M,M,M,60.80,LPOV 240100Z 20013KT 9999 BKN008 BKN025 16/16 Q1014
LPOV,2017-11-24 02:00,-8.6459,40.9159,60.80,59.00,93.79,200.00,14.00,0.00,29.97,M,6.21,24.00,BKN,BKN,M,M,800.00,2500.00,M,M,M,M,M,M,M,M,M,60.80,LPOV 240200Z 20014G24KT 9999 BKN008 BKN025 16/15 Q1015
LPOV,2017-11-24 03:00,-8.6459,40.9159,60.80,59.00,93.79,200.00,12.00,0.00,29.97,M,6.21,M,BKN,BKN,M,M,800.00,2500.00,M,M,M,M,M,M,M,M,M,60.80,LPOV 240300Z 20012KT 9999 BKN008 BKN025 16/15 Q1015
LPOV,2017-11-24 04:00,-8.6459,40.9159,60.80,59.00,93.79,190.00,10.00,0.00,30.00,M,6.21,M,BKN,BKN,M,M,700.00,2500.00,M,M,M,M,M,M,M,M,M,60.80,LPOV 240400Z 19010KT 9999 BKN007 BKN025 16/15 Q1016
LPOV,2017-11-24 05:00,-8.6459,40.9159,60.80,59.00,93.79,180.00,8.00,0.00,30.00,M,6.21,M,BKN,BKN,M,M,700.00,2500.00,M,M,M,M,M,M,M,M,M,60.80,LPOV 240500Z 18008KT 9999 BKN007 BKN025 16/15 Q1016
LPOV,2017-11-24 06:00,-8.6459,40.9159,60.80,59.00,93.79,180.00,6.00,0.00,30.00,M,6.21,M,BKN,BKN,M,M,700.00,2500.00,M,M,M,M,M,M,M,M,M,60.80,LPOV 240600Z 18006KT 9999 BKN007 BKN025 16/15 Q1016
LPOV,2017-11-24 07:00,-8.6459,40.9159,60.80,59.00,93.79,180.00,10.00,0.00,30.00,M,6.21,M,BKN,BKN,M,M,700.00,2500.00,M,M,M,M,M,M,M,M,M,60.80,LPOV 240700Z 18010KT 9999 BKN007 BKN025 16/15 Q1016
LPOV,2017-11-24 08:00,-8.6459,40.9159,60.80,59.00,93.79,170.00,7.00,0.00,30.03,M,6.21,M,BKN,BKN,M,M,700.00,2500.00,M,M,M,M,M,M,M,M,M,60.80,LPOV 240800Z 17007KT 9999 BKN007 BKN025 16/15 Q1017
LPOV,2017-11-24 09:00,-8.6459,40.9159,60.80,57.20,87.92,170.00,8.00,0.00,30.03,M,6.21,M,SCT,SCT,BKN,M,700.00,1800.00,2500.00,M,M,M,M,M,M,M,M,60.80,LPOV 240900Z 17008KT 9999 SCT007 SCT018 BKN025 16/14 Q1017
LPOV,2017-11-24 10:00,-8.6459,40.9159,62.60,57.20,82.50,180.00,10.00,0.00,30.03,M,6.21,M,FEW,BKN,M,M,700.00,2500.00,M,M,M,M,M,M,M,M,M,62.60,LPOV 241000Z 18010KT 9999 FEW007 BKN025 17/14 Q1017
LPOV,2017-11-24 11:00,-8.6459,40.9159,64.40,57.20,77.45,180.00,9.00,0.00,30.03,M,6.21,M,FEW,SCT,M,M,700.00,4000.00,M,M,M,M,M,M,M,M,M,64.40,LPOV 241100Z 18009KT 9999 FEW007 SCT040 18/14 Q1017
LPOV,2017-11-24 12:00,-8.6459,40.9159,64.40,59.00,82.62,180.00,10.00,0.00,30.03,M,6.21,M,FEW,BKN,M,M,1800.00,4000.00,M,M,M,M,M,M,M,M,M,64.40,LPOV 241200Z 18010KT 150V210 9999 FEW018 BKN040 18/15 Q1017
LPOV,2017-11-24 13:00,-8.6459,40.9159,66.20,59.00,77.60,200.00,7.00,0.00,30.00,M,6.21,M,FEW,SCT,BKN,M,1200.00,1800.00,4000.00,M,-SHRA,M,M,M,M,M,M,66.20,LPOV 241300Z 20007KT 170V240 9999 -SHRA FEW012 SCT018 BKN040 19/15 Q1016
LPOV,2017-11-24 14:00,-8.6459,40.9159,66.20,60.80,82.74,210.00,13.00,0.00,30.00,M,6.21,M,FEW,BKN,M,M,1200.00,2000.00,M,M,M,M,M,M,M,M,M,66.20,LPOV 241400Z 21013KT 170V250 9999 FEW012 BKN020 19/16 Q1016
LPOV,2017-11-24 15:00,-8.6459,40.9159,64.40,59.00,82.62,210.00,14.00,0.00,30.00,M,6.21,24.00,FEW,SCT,BKN,M,900.00,1200.00,2000.00,M,M,M,M,M,M,M,M,64.40,LPOV 241500Z 21014G24KT 9999 FEW009 SCT012 BKN020 18/15 Q1016
LPOV,2017-11-24 16:00,-8.6459,40.9159,62.60,60.80,93.83,210.00,13.00,0.00,30.00,M,3.11,M,SCT,BKN,M,M,900.00,1200.00,M,M,BR,M,M,M,M,M,M,62.60,LPOV 241600Z 21013KT 170V240 5000 BR SCT009 BKN012 17/16 Q1016
LPOV,2017-11-24 17:00,-8.6459,40.9159,62.60,60.80,93.83,200.00,9.00,0.00,30.00,M,4.35,M,SCT,BKN,M,M,900.00,1000.00,M,M,M,M,M,M,M,M,M,62.60,LPOV 241700Z 20009KT 7000 SCT009 BKN010 17/16 Q1016
LPOV,2017-11-24 18:00,-8.6459,40.9159,62.60,60.80,93.83,210.00,9.00,0.00,30.00,M,5.59,M,FEW,BKN,BKN,M,700.00,1000.00,2000.00,M,M,M,M,M,M,M,M,62.60,LPOV 241800Z 21009KT 170V250 9000 FEW007 BKN010 BKN020 17/16 Q1016
LPOV,2017-11-24 19:00,-8.6459,40.9159,62.60,60.80,93.83,200.00,9.00,0.00,30.00,M,6.21,M,SCT,BKN,M,M,700.00,1000.00,M,M,M,M,M,M,M,M,M,62.60,LPOV 241900Z 20009KT 170V240 9999 SCT007 BKN010 17/16 Q1016
LPOV,2017-11-24 20:00,-8.6459,40.9159,62.60,60.80,93.83,210.00,9.00,0.00,30.00,M,4.97,M,SCT,BKN,M,M,700.00,1000.00,M,M,-RA,M,M,M,M,M,M,62.60,LPOV 242000Z 21009KT 8000 -RA SCT007 BKN010 17/16 Q1016
LPOV,2017-11-24 21:00,-8.6459,40.9159,60.80,59.00,93.79,200.00,8.00,0.00,30.03,M,3.11,M,BKN,BKN,M,M,400.00,800.00,M,M,RA,M,M,M,M,M,M,60.80,LPOV 242100Z 20008KT 5000 RA BKN004 BKN008 16/15 Q1017
LPOV,2017-11-24 22:00,-8.6459,40.9159,60.80,60.80,100.00,280.00,6.00,0.00,30.03,M,4.35,M,BKN,BKN,M,M,400.00,800.00,M,M,-RA,M,M,M,M,M,M,60.80,LPOV 242200Z 28006KT 7000 -RA BKN004 BKN008 16/16 Q1017
LPOV,2017-11-24 23:00,-8.6459,40.9159,60.80,60.80,100.00,240.00,7.00,0.00,30.03,M,6.21,M,BKN,BKN,M,M,400.00,800.00,M,M,-RA,M,M,M,M,M,M,60.80,LPOV 242300Z 24007KT 190V320 9999 -RA BKN004 BKN008 16/16 Q1017
LPOV,2017-11-25 00:00,-8.6459,40.9159,60.80,60.80,100.00,250.00,6.00,0.00,30.06,M,4.97,M,BKN,BKN,FEW,M,400.00,800.00,2000.00,M,M,M,M,M,M,M,M,60.80,LPOV 250000Z 25006KT 220V320 8000 BKN004 BKN008 FEW020CB 16/16 Q1018
LPOV,2017-11-25 01:00,-8.6459,40.9159,60.80,60.80,100.00,280.00,3.00,0.00,30.06,M,5.59,M,BKN,BKN,M,M,400.00,800.00,M,M,M,M,M,M,M,M,M,60.80,LPOV 250100Z 28003KT 220V310 9000 BKN004 BKN008 16/16 Q1018
LPOV,2017-11-25 02:00,-8.6459,40.9159,59.00,59.00,100.00,360.00,4.00,0.00,30.06,M,6.21,M,FEW,SCT,BKN,M,400.00,800.00,3500.00,M,M,M,M,M,M,M,M,59.00,LPOV 250200Z 36004KT 9999 FEW004 SCT008 BKN035 15/15 Q1018
LPOV,2017-11-25 03:00,-8.6459,40.9159,59.00,59.00,100.00,360.00,3.00,0.00,30.06,M,3.73,M,FEW,BKN,M,M,800.00,3500.00,M,M,M,M,M,M,M,M,M,59.00,LPOV 250300Z 36003KT 6000 FEW008 BKN035 15/15 Q1018
LPOV,2017-11-25 04:00,-8.6459,40.9159,59.00,59.00,100.00,M,2.00,0.00,30.03,M,5.59,M,FEW,BKN,M,M,800.00,3500.00,M,M,M,M,M,M,M,M,M,59.00,LPOV 250400Z VRB02KT 9000 FEW008 BKN035 15/15 Q1017
LPOV,2017-11-25 06:00,-8.6459,40.9159,57.20,55.40,93.69,360.00,7.00,0.00,30.06,M,6.21,M,SCT,M,M,M,3500.00,M,M,M,M,M,M,M,M,M,M,57.20,LPOV 250600Z 36007KT 310V020 9999 SCT035 14/13 Q1018
LPOV,2017-11-25 09:00,-8.6459,40.9159,55.40,53.60,93.65,M,1.00,0.00,30.12,M,4.97,M,SCT,M,M,M,3500.00,M,M,M,M,M,M,M,M,M,M,55.40,LPOV 250900Z VRB01KT 8000 SCT035 13/12 Q1020
LPOV,2017-11-25 10:00,-8.6459,40.9159,59.00,57.20,93.74,10.00,4.00,0.00,30.12,M,6.21,M,SCT,M,M,M,3500.00,M,M,M,M,M,M,M,M,M,M,59.00,LPOV 251000Z 01004KT 330V040 9999 SCT035 15/14 Q1020
LPOV,2017-11-25 11:00,-8.6459,40.9159,62.60,57.20,82.50,340.00,5.00,0.00,30.15,M,6.21,M,FEW,M,M,M,3500.00,M,M,M,M,M,M,M,M,M,M,62.60,LPOV 251100Z 34005KT 290V010 9999 FEW035 17/14 Q1021
LPOV,2017-11-25 12:00,-8.6459,40.9159,60.80,55.40,82.37,330.00,8.00,0.00,30.12,M,6.21,M,FEW,M,M,M,3500.00,M,M,M,M,M,M,M,M,M,M,60.80,LPOV 251200Z 33008KT 9999 FEW035 16/13 Q1020
LPOV,2017-11-25 13:00,-8.6459,40.9159,60.80,55.40,82.37,340.00,8.00,0.00,30.15,M,6.21,M,FEW,FEW,M,M,3000.00,3500.00,M,M,M,M,M,M,M,M,M,60.80,LPOV 251300Z 34008KT 9999 FEW030CB FEW035 16/13 Q1021
LPOV,2017-11-25 14:00,-8.6459,40.9159,60.80,55.40,82.37,350.00,8.00,0.00,30.12,M,6.21,M,FEW,FEW,M,M,3000.00,3500.00,M,M,M,M,M,M,M,M,M,60.80,LPOV 251400Z 35008KT 9999 FEW030CB FEW035 16/13 Q1020
LPOV,2017-11-25 15:00,-8.6459,40.9159,60.80,55.40,82.37,340.00,8.00,0.00,30.15,M,6.21,M,FEW,M,M,M,3000.00,M,M,M,M,M,M,M,M,M,M,60.80,LPOV 251500Z 34008KT 9999 FEW030CB 16/13 Q1021
LPOV,2017-11-25 16:00,-8.6459,40.9159,60.80,55.40,82.37,340.00,7.00,0.00,30.15,M,6.21,M,FEW,M,M,M,3000.00,M,M,M,M,M,M,M,M,M,M,60.80,LPOV 251600Z 34007KT 9999 FEW030CB 16/13 Q1021
LPOV,2017-11-25 17:00,-8.6459,40.9159,59.00,55.40,87.83,330.00,3.00,0.00,30.15,M,6.21,M,FEW,SCT,M,M,2500.00,3000.00,M,M,M,M,M,M,M,M,M,59.00,LPOV 251700Z 33003KT 9999 FEW025CB SCT030 15/13 Q1021
LPOV,2017-11-25 18:00,-8.6459,40.9159,57.20,53.60,87.74,M,2.00,0.00,30.18,M,6.21,M,SCT,M,M,M,2500.00,M,M,M,M,M,M,M,M,M,M,57.20,LPOV 251800Z VRB02KT 9999 SCT025 14/12 Q1022
LPOV,2017-11-25 19:00,-8.6459,40.9159,55.40,53.60,93.65,0.00,0.00,0.00,30.18,M,5.59,M,SCT,M,M,M,2500.00,M,M,M,M,M,M,M,M,M,M,55.40,LPOV 251900Z 00000KT 9000 SCT025 13/12 Q1022
LPOV,2017-11-25 20:00,-8.6459,40.9159,53.60,51.80,93.60,M,1.00,0.00,30.21,M,4.97,M,SCT,M,M,M,2500.00,M,M,M,M,M,M,M,M,M,M,53.60,LPOV 252000Z VRB01KT 8000 SCT025 12/11 Q1023
LPOV,2017-11-25 21:00,-8.6459,40.9159,51.80,51.80,100.00,M,1.00,0.00,30.21,M,4.97,M,FEW,M,M,M,2500.00,M,M,M,M,M,M,M,M,M,M,51.80,LPOV 252100Z VRB01KT 8000 FEW025 11/11 Q1023
LPOV,2017-11-25 22:00,-8.6459,40.9159,51.80,50.00,93.55,M,1.00,0.00,30.24,M,2.49,M,FEW,M,M,M,2500.00,M,M,M,BR,M,M,M,M,M,M,51.80,LPOV 252200Z VRB01KT 4000 BR FEW025 11/10 Q1024
LPOV,2017-11-25 23:00,-8.6459,40.9159,50.00,48.20,93.50,M,2.00,0.00,30.24,M,1.86,M,FEW,M,M,M,2500.00,M,M,M,BR,M,M,M,M,M,M,50.00,LPOV 252300Z VRB02KT 3000 BR FEW025 10/09 Q1024
LPOV,2017-11-26 00:00,-8.6459,40.9159,48.20,48.20,100.00,M,2.00,0.00,30.24,M,3.73,M,NSC,M,M,M,M,M,M,M,M,M,M,M,M,M,M,48.20,LPOV 260000Z VRB02KT 6000 NSC 09/09 Q1024
LPOV,2017-11-26 01:00,-8.6459,40.9159,48.20,48.20,100.00,M,1.00,0.00,30.24,M,6.21,M,M,M,M,M,M,M,M,M,M,M,M,M,M,M,M,48.20,LPOV 260100Z VRB01KT CAVOK 09/09 Q1024
LPOV,2017-11-26 02:00,-8.6459,40.9159,46.40,48.20,M,M,2.00,0.00,30.27,M,6.21,M,M,M,M,M,M,M,M,M,M,M,M,M,M,M,M,M,LPOV 260200Z VRB02KT CAVOK 08/09 Q1025
LPOV,2017-11-26 03:00,-8.6459,40.9159,44.60,42.80,93.35,90.00,3.00,0.00,30.27,M,6.21,M,M,M,M,M,M,M,M,M,M,M,M,M,M,M,M,43.09,LPOV 260300Z 09003KT 200V360 CAVOK 07/06 Q1025
LPOV,2017-11-26 04:00,-8.6459,40.9159,53.60,41.00,62.23,M,5.00,0.00,30.27,M,6.21,M,M,M,M,M,M,M,M,M,M,M,M,M,M,M,M,53.60,LPOV 260400Z VRB05KT CAVOK 12/05 Q1025
LPOV,2017-11-26 05:00,-8.6459,40.9159,53.60,41.00,62.23,M,7.00,0.00,30.27,M,6.21,M,M,M,M,M,M,M,M,M,M,M,M,M,M,M,M,53.60,LPOV 260500Z VRB07KT CAVOK 12/05 Q1025
LPOV,2017-11-26 06:00,-8.6459,40.9159,53.60,42.80,66.70,M,5.00,0.00,30.30,M,6.21,M,M,M,M,M,M,M,M,M,M,M,M,M,M,M,M,53.60,LPOV 260600Z VRB05KT CAVOK 12/06 Q1026
LPOV,2017-11-26 07:00,-8.6459,40.9159,51.80,35.60,53.81,M,6.00,0.00,30.27,M,6.21,M,M,M,M,M,M,M,M,M,M,M,M,M,M,M,M,51.80,LPOV 260700Z VRB06KT CAVOK 11/02 Q1025
LPOV,2017-11-26 08:00,-8.6459,40.9159,50.00,37.40,61.76,M,5.00,0.00,30.33,M,6.21,M,M,M,M,M,M,M,M,M,M,M,M,M,M,M,M,47.77,LPOV 260800Z VRB05KT CAVOK 10/03 Q1027
LPOV,2017-11-26 09:00,-8.6459,40.9159,51.80,39.20,61.99,M,4.00,0.00,30.33,M,6.21,M,M,M,M,M,M,M,M,M,M,M,M,M,M,M,M,51.80,LPOV 260900Z VRB04KT CAVOK 11/04 Q1027
LPOV,2017-11-26 10:00,-8.6459,40.9159,55.40,39.20,54.34,M,2.00,0.00,30.36,M,6.21,M,M,M,M,M,M,M,M,M,M,M,M,M,M,M,M,55.40,LPOV 261000Z VRB02KT CAVOK 13/04 Q1028
LPOV,2017-11-26 11:00,-8.6459,40.9159,59.00,42.80,54.86,M,4.00,0.00,30.36,M,6.21,M,M,M,M,M,M,M,M,M,M,M,M,M,M,M,M,59.00,LPOV 261100Z VRB04KT CAVOK 15/06 Q1028
LPOV,2017-11-26 12:00,-8.6459,40.9159,60.80,42.80,51.45,M,4.00,0.00,30.36,M,6.21,M,M,M,M,M,M,M,M,M,M,M,M,M,M,M,M,60.80,LPOV 261200Z VRB04KT CAVOK 16/06 Q1028
LPOV,2017-11-26 13:00,-8.6459,40.9159,64.40,46.40,51.98,M,4.00,0.00,30.36,M,6.21,M,M,M,M,M,M,M,M,M,M,M,M,M,M,M,M,64.40,LPOV 261300Z VRB04KT CAVOK 18/08 Q1028
LPOV,2017-11-26 14:00,-8.6459,40.9159,62.60,44.60,51.72,M,7.00,0.00,30.33,M,6.21,M,M,M,M,M,M,M,M,M,M,M,M,M,M,M,M,62.60,LPOV 261400Z VRB07KT CAVOK 17/07 Q1027
LPOV,2017-11-26 15:00,-8.6459,40.9159,59.00,46.40,62.92,270.00,4.00,0.00,30.33,M,6.21,M,M,M,M,M,M,M,M,M,M,M,M,M,M,M,M,59.00,LPOV 261500Z 27004KT 230V290 CAVOK 15/08 Q1027
LPOV,2017-11-26 16:00,-8.6459,40.9159,57.20,48.20,71.83,M,2.00,0.00,30.33,M,6.21,M,M,M,M,M,M,M,M,M,M,M,M,M,M,M,M,57.20,LPOV 261600Z VRB02KT CAVOK 14/09 Q1027
LPOV,2017-11-26 17:00,-8.6459,40.9159,55.40,46.40,71.64,M,2.00,0.00,30.33,M,6.21,M,M,M,M,M,M,M,M,M,M,M,M,M,M,M,M,55.40,LPOV 261700Z VRB02KT CAVOK 13/08 Q1027
LPOV,2017-11-26 18:00,-8.6459,40.9159,53.60,44.60,71.45,M,2.00,0.00,30.33,M,6.21,M,M,M,M,M,M,M,M,M,M,M,M,M,M,M,M,53.60,LPOV 261800Z VRB02KT CAVOK 12/07 Q1027
LPOV,2017-11-26 19:00,-8.6459,40.9159,48.20,42.80,81.47,M,2.00,0.00,30.33,M,6.21,M,M,M,M,M,M,M,M,M,M,M,M,M,M,M,M,48.20,LPOV 261900Z VRB02KT CAVOK 09/06 Q1027
LPOV,2017-11-26 20:00,-8.6459,40.9159,44.60,41.00,87.09,M,2.00,0.00,30.33,M,6.21,M,M,M,M,M,M,M,M,M,M,M,M,M,M,M,M,44.60,LPOV 262000Z VRB02KT CAVOK 07/05 Q1027
LPOV,2017-11-26 21:00,-8.6459,40.9159,42.80,39.20,86.99,M,2.00,0.00,30.33,M,6.21,M,M,M,M,M,M,M,M,M,M,M,M,M,M,M,M,42.80,LPOV 262100Z VRB02KT CAVOK 06/04 Q1027
LPOV,2017-11-26 22:00,-8.6459,40.9159,41.00,39.20,93.24,M,2.00,0.00,30.33,M,6.21,M,M,M,M,M,M,M,M,M,M,M,M,M,M,M,M,41.00,LPOV 262200Z VRB02KT CAVOK 05/04 Q1027
LPOV,2017-11-26 23:00,-8.6459,40.9159,42.80,37.40,81.07,M,2.00,0.00,30.33,M,6.21,M,M,M,M,M,M,M,M,M,M,M,M,M,M,M,M,42.80,LPOV 262300Z VRB02KT CAVOK 06/03 Q1027
LPOV,2017-11-27 00:00,-8.6459,40.9159,42.80,39.20,86.99,M,1.00,0.00,30.33,M,6.21,M,M,M,M,M,M,M,M,M,M,M,M,M,M,M,M,42.80,LPOV 270000Z VRB01KT CAVOK 06/04 Q1027
LPOV,2017-11-27 01:00,-8.6459,40.9159,41.00,39.20,93.24,M,1.00,0.00,30.33,M,6.21,M,M,M,M,M,M,M,M,M,M,M,M,M,M,M,M,41.00,LPOV 270100Z VRB01KT CAVOK 05/04 Q1027
LPOV,2017-11-27 02:00,-8.6459,40.9159,39.20,37.40,93.19,M,2.00,0.00,30.33,M,6.21,M,M,M,M,M,M,M,M,M,M,M,M,M,M,M,M,39.20,LPOV 270200Z VRB02KT CAVOK 04/03 Q1027
LPOV,2017-11-27 04:00,-8.6459,40.9159,44.60,39.20,81.20,M,2.00,0.00,30.33,M,6.21,M,M,M,M,M,M,M,M,M,M,M,M,M,M,M,M,44.60,LPOV 270400Z VRB02KT CAVOK 07/04 Q1027
LPOV,2017-11-27 05:00,-8.6459,40.9159,46.40,39.20,75.84,60.00,3.00,0.00,30.30,M,6.21,M,M,M,M,M,M,M,M,M,M,M,M,M,M,M,M,45.15,LPOV 270500Z 06003KT 030V100 CAVOK 08/04 Q1026
LPOV,2017-11-27 06:00,-8.6459,40.9159,44.60,42.80,93.35,M,1.00,0.00,30.30,M,6.21,M,M,M,M,M,M,M,M,M,M,M,M,M,M,M,M,44.60,LPOV 270600Z VRB01KT CAVOK 07/06 Q1026
LPOV,2017-11-27 07:00,-8.6459,40.9159,42.80,39.20,86.99,M,2.00,0.00,30.30,M,6.21,M,M,M,M,M,M,M,M,M,M,M,M,M,M,M,M,42.80,LPOV 270700Z VRB02KT CAVOK 06/04 Q1026
LPOV,2017-11-27 08:00,-8.6459,40.9159,42.80,39.20,86.99,M,1.00,0.00,30.30,M,6.21,M,M,M,M,M,M,M,M,M,M,M,M,M,M,M,M,42.80,LPOV 270800Z VRB01KT CAVOK 06/04 Q1026
LPOV,2017-11-27 09:00,-8.6459,40.9159,44.60,39.20,81.20,M,2.00,0.00,30.33,M,6.21,M,M,M,M,M,M,M,M,M,M,M,M,M,M,M,M,44.60,LPOV 270900Z VRB02KT CAVOK 07/04 Q1027
LPOV,2017-11-27 10:00,-8.6459,40.9159,53.60,42.80,66.70,M,2.00,0.00,30.33,M,6.21,M,M,M,M,M,M,M,M,M,M,M,M,M,M,M,M,53.60,LPOV 271000Z VRB02KT CAVOK 12/06 Q1027
LPOV,2017-11-27 11:00,-8.6459,40.9159,60.80,44.60,55.12,M,2.00,0.00,30.30,M,6.21,M,M,M,M,M,M,M,M,M,M,M,M,M,M,M,M,60.80,LPOV 271100Z VRB02KT CAVOK 16/07 Q1026
LPOV,2017-11-27 12:00,-8.6459,40.9159,60.80,46.40,59.01,270.00,4.00,0.00,30.33,M,6.21,M,M,M,M,M,M,M,M,M,M,M,M,M,M,M,M,60.80,LPOV 271200Z 27004KT CAVOK 16/08 Q1027
LPOV,2017-11-27 13:00,-8.6459,40.9159,60.80,44.60,55.12,280.00,4.00,0.00,30.27,M,6.21,M,M,M,M,M,M,M,M,M,M,M,M,M,M,M,M,60.80,LPOV 271300Z 28004KT 250V310 CAVOK 16/07 Q1025
LPOV,2017-11-27 14:00,-8.6459,40.9159,59.00,51.80,76.98,310.00,4.00,0.00,30.27,M,6.21,M,M,M,M,M,M,M,M,M,M,M,M,M,M,M,M,59.00,LPOV 271400Z 31004KT 270V330 CAVOK 15/11 Q1025
LPOV,2017-11-27 15:00,-8.6459,40.9159,59.00,51.80,76.98,320.00,3.00,0.00,30.24,M,6.21,M,M,M,M,M,M,M,M,M,M,M,M,M,M,M,M,59.00,LPOV 271500Z 32003KT 280V350 CAVOK 15/11 Q1024
LPOV,2017-11-27 16:00,-8.6459,40.9159,57.20,50.00,76.82,M,2.00,0.00,30.24,M,6.21,M,M,M,M,M,M,M,M,M,M,M,M,M,M,M,M,57.20,LPOV 271600Z VRB02KT CAVOK 14/10 Q1024
LPOV,2017-11-27 17:00,-8.6459,40.9159,55.40,50.00,81.99,M,2.00,0.00,30.24,M,6.21,M,M,M,M,M,M,M,M,M,M,M,M,M,M,M,M,55.40,LPOV 271700Z VRB02KT CAVOK 13/10 Q1024
LPOV,2017-11-27 18:00,-8.6459,40.9159,53.60,50.00,87.56,M,2.00,0.00,30.24,M,6.21,M,M,M,M,M,M,M,M,M,M,M,M,M,M,M,M,53.60,LPOV 271800Z VRB02KT CAVOK 12/10 Q1024
LPOV,2017-11-27 19:00,-8.6459,40.9159,53.60,50.00,87.56,M,2.00,0.00,30.24,M,6.21,M,M,M,M,M,M,M,M,M,M,M,M,M,M,M,M,53.60,LPOV 271900Z VRB02KT CAVOK 12/10 Q1024
LPOV,2017-11-27 20:00,-8.6459,40.9159,53.60,50.00,87.56,M,1.00,0.00,30.21,M,6.21,M,NSC,M,M,M,M,M,M,M,-RA,M,M,M,M,M,M,53.60,LPOV 272000Z VRB01KT 9999 -RA NSC 12/10 Q1023
LPOV,2017-11-27 21:00,-8.6459,40.9159,51.80,50.00,93.55,M,2.00,0.00,30.21,M,6.21,M,M,M,M,M,M,M,M,M,M,M,M,M,M,M,M,51.80,LPOV 272100Z VRB02KT CAVOK 11/10 Q1023
LPOV,2017-11-27 22:00,-8.6459,40.9159,50.00,48.20,93.50,M,2.00,0.00,30.21,M,6.21,M,M,M,M,M,M,M,M,M,M,M,M,M,M,M,M,50.00,LPOV 272200Z VRB02KT CAVOK 10/09 Q1023
LPOV,2017-11-27 23:00,-8.6459,40.9159,50.00,48.20,93.50,M,2.00,0.00,30.21,M,6.21,M,M,M,M,M,M,M,M,M,M,M,M,M,M,M,M,50.00,LPOV 272300Z VRB02KT CAVOK 10/09 Q1023
LPOV,2017-11-28 00:00,-8.6459,40.9159,50.00,48.20,93.50,M,2.00,0.00,30.21,M,6.21,M,M,M,M,M,M,M,M,M,M,M,M,M,M,M,M,50.00,LPOV 280000Z VRB02KT CAVOK 10/09 Q1023
LPOV,2017-11-28 01:00,-8.6459,40.9159,50.00,48.20,93.50,M,2.00,0.00,30.18,M,4.97,M,NSC,M,M,M,M,M,M,M,M,M,M,M,M,M,M,50.00,LPOV 280100Z VRB02KT 8000 NSC 10/09 Q1022
LPOV,2017-11-28 02:00,-8.6459,40.9159,50.00,48.20,93.50,M,1.00,0.00,30.15,M,4.97,M,NSC,M,M,M,M,M,M,M,M,M,M,M,M,M,M,50.00,LPOV 280200Z VRB01KT 8000 NSC 10/09 Q1021
LPOV,2017-11-28 03:00,-8.6459,40.9159,50.00,48.20,93.50,M,1.00,0.00,30.15,M,5.59,M,NSC,M,M,M,M,M,M,M,M,M,M,M,M,M,M,50.00,LPOV 280300Z VRB01KT 9000 NSC 10/09 Q1021
LPOV,2017-11-28 04:00,-8.6459,40.9159,50.00,48.20,93.50,190.00,3.00,0.00,30.15,M,5.59,M,NSC,M,M,M,M,M,M,M,M,M,M,M,M,M,M,49.27,LPOV 280400Z 19003KT 9000 NSC 10/09 Q1021
LPOV,2017-11-28 05:00,-8.6459,40.9159,51.80,48.20,87.47,M,2.00,0.00,30.12,M,6.21,M,M,M,M,M,M,M,M,M,M,M,M,M,M,M,M,51.80,LPOV 280500Z VRB02KT CAVOK 11/09 Q1020
LPOV,2017-11-28 06:00,-8.6459,40.9159,51.80,48.20,87.47,M,2.00,0.00,30.12,M,6.21,M,FEW,M,M,M,4000.00,M,M,M,M,M,M,M,M,M,M,51.80,LPOV 280600Z VRB02KT 9999 FEW040 11/09 Q1020
LPOV,2017-11-28 07:00,-8.6459,40.9159,51.80,48.20,87.47,M,2.00,0.00,30.09,M,6.21,M,FEW,M,M,M,4000.00,M,M,M,M,M,M,M,M,M,M,51.80,LPOV 280700Z VRB02KT 9999 FEW040 11/09 Q1019
LPOV,2017-11-28 09:00,-8.6459,40.9159,51.80,50.00,93.55,M,2.00,0.00,30.09,M,6.21,M,SCT,M,M,M,2500.00,M,M,M,-RA,M,M,M,M,M,M,51.80,LPOV 280900Z VRB02KT 9999 -RA SCT025 11/10 Q1019
LPOV,2017-11-28 10:00,-8.6459,40.9159,53.60,51.80,93.60,M,1.00,0.00,30.09,M,5.59,M,SCT,M,M,M,3000.00,M,M,M,M,M,M,M,M,M,M,53.60,LPOV 281000Z VRB01KT 9000 SCT030 12/11 Q1019
LPOV,2017-11-28 11:00,-8.6459,40.9159,55.40,53.60,93.65,M,1.00,0.00,30.09,M,5.59,M,FEW,SCT,M,M,500.00,4000.00,M,M,-RA,M,M,M,M,M,M,55.40,LPOV 281100Z VRB01KT 9000 -RA FEW005 SCT040 13/12 Q1019
LPOV,2017-11-28 12:00,-8.6459,40.9159,55.40,51.80,87.65,20.00,3.00,0.00,30.03,M,5.59,M,FEW,SCT,M,M,500.00,4000.00,M,M,-RA,M,M,M,M,M,M,55.40,LPOV 281200Z 02003KT 9000 -RA FEW005 SCT040 13/11 Q1017
LPOV,2017-11-28 13:00,-8.6459,40.9159,57.20,51.80,82.12,M,2.00,0.00,30.00,M,6.21,M,SCT,M,M,M,4000.00,M,M,M,M,M,M,M,M,M,M,57.20,LPOV 281300Z VRB02KT 9999 SCT040 14/11 Q1016
LPOV,2017-11-28 14:00,-8.6459,40.9159,57.20,51.80,82.12,360.00,5.00,0.00,29.97,M,6.21,M,BKN,M,M,M,3500.00,M,M,M,M,M,M,M,M,M,M,57.20,LPOV 281400Z 36005KT 9999 BKN035 14/11 Q1015
LPOV,2017-11-28 15:00,-8.6459,40.9159,55.40,51.80,87.65,30.00,3.00,0.00,29.97,M,3.11,M,FEW,BKN,M,M,3000.00,3500.00,M,M,-RA BR,M,M,M,M,M,M,55.40,LPOV 281500Z 03003KT 5000 -RA BR FEW030 BKN035 13/11 Q1015
LPOV,2017-11-28 16:00,-8.6459,40.9159,55.40,53.60,93.65,60.00,3.00,0.00,29.94,M,4.35,M,FEW,BKN,M,M,600.00,4000.00,M,M,M,M,M,M,M,M,M,55.40,LPOV 281600Z 06003KT 020V100 7000 FEW006 BKN040 13/12 Q1014
LPOV,2017-11-28 17:00,-8.6459,40.9159,55.40,M,M,350.00,4.00,0.00,29.94,M,4.35,M,BKN,M,M,M,4000.00,M,M,M,M,M,M,M,M,M,M,M,LPOV 281700Z 35004KT 7000 BKN040 13/112 Q1014
LPOV,2017-11-28 18:00,-8.6459,40.9159,53.60,51.80,93.60,340.00,4.00,0.00,29.91,M,4.35,M,BKN,M,M,M,4000.00,M,M,M,M,M,M,M,M,M,M,53.60,LPOV 281800Z 34004KT 7000 BKN040 12/11 Q1013
LPOV,2017-11-28 19:00,-8.6459,40.9159,53.60,50.00,87.56,360.00,4.00,0.00,29.91,M,4.97,M,FEW,M,M,M,4000.00,M,M,M,M,M,M,M,M,M,M,53.60,LPOV 281900Z 36004KT 8000 FEW040 12/10 Q1013
LPOV,2017-11-28 20:00,-8.6459,40.9159,51.80,50.00,93.55,10.00,4.00,0.00,29.91,M,4.97,M,NSC,M,M,M,M,M,M,M,M,M,M,M,M,M,M,51.80,LPOV 282000Z 01004KT 8000 NSC 11/10 Q1013
LPOV,2017-11-28 21:00,-8.6459,40.9159,50.00,48.20,93.50,20.00,3.00,0.00,29.88,M,4.35,M,NSC,M,M,M,M,M,M,M,M,M,M,M,M,M,M,49.27,LPOV 282100Z 02003KT 7000 NSC 10/09 Q1012
LPOV,2017-11-28 22:00,-8.6459,40.9159,46.40,46.40,100.00,M,2.00,0.00,29.88,M,4.35,M,NSC,M,M,M,M,M,M,M,MIFG,M,M,M,M,M,M,46.40,LPOV 282200Z VRB02KT 7000 MIFG NSC 08/08 Q1012
LPOV,2017-11-28 23:00,-8.6459,40.9159,44.60,44.60,100.00,M,2.00,0.00,29.88,M,4.97,M,NSC,M,M,M,M,M,M,M,MIFG,M,M,M,M,M,M,44.60,LPOV 282300Z VRB02KT 8000 MIFG NSC 07/07 Q1012
LPOV,2017-11-29 00:00,-8.6459,40.9159,44.60,42.80,93.35,340.00,6.00,0.00,29.85,M,6.21,M,M,M,M,M,M,M,M,M,M,M,M,M,M,M,M,40.71,LPOV 290000Z 34006KT CAVOK 07/06 Q1011
LPOV,2017-11-29 01:00,-8.6459,40.9159,44.60,44.60,100.00,350.00,6.00,0.00,29.85,M,6.21,M,M,M,M,M,M,M,M,M,M,M,M,M,M,M,M,40.71,LPOV 290100Z 35006KT CAVOK 07/07 Q1011
LPOV,2017-11-29 02:00,-8.6459,40.9159,44.60,44.60,100.00,10.00,7.00,0.00,29.85,M,4.97,M,NSC,M,M,M,M,M,M,M,M,M,M,M,M,M,M,40.14,LPOV 290200Z 01007KT 8000 NSC 07/07 Q1011
LPOV,2017-11-29 03:00,-8.6459,40.9159,42.80,42.80,100.00,350.00,9.00,0.00,29.83,M,6.21,M,M,M,M,M,M,M,M,M,M,M,M,M,M,M,M,36.94,LPOV 290300Z 35009KT CAVOK 06/06 Q1010
LPOV,2017-11-29 04:00,-8.6459,40.9159,42.80,42.80,100.00,350.00,6.00,0.00,29.83,M,6.21,M,M,M,M,M,M,M,M,M,M,M,M,M,M,M,M,38.54,LPOV 290400Z 35006KT CAVOK 06/06 Q1010
LPOV,2017-11-29 05:00,-8.6459,40.9159,41.00,39.20,93.24,10.00,5.00,0.00,29.83,M,6.21,M,M,M,M,M,M,M,M,M,M,M,M,M,M,M,M,37.08,LPOV 290500Z 01005KT CAVOK 05/04 Q1010
LPOV,2017-11-29 06:00,-8.6459,40.9159,39.20,39.20,100.00,20.00,4.00,0.00,29.83,M,6.21,M,M,M,M,M,M,M,M,M,M,M,M,M,M,M,M,35.83,LPOV 290600Z 02004KT CAVOK 04/04 Q1010
LPOV,2017-11-29 07:00,-8.6459,40.9159,39.20,37.40,93.19,350.00,6.00,0.00,29.85,M,6.21,M,M,M,M,M,M,M,M,M,M,M,M,M,M,M,M,34.20,LPOV 290700Z 35006KT CAVOK 04/03 Q1011
LPOV,2017-11-29 08:00,-8.6459,40.9159,37.40,37.40,100.00,10.00,4.00,0.00,29.85,M,6.21,M,M,M,M,M,M,M,M,M,M,M,M,M,M,M,M,33.73,LPOV 290800Z 01004KT CAVOK 03/03 Q1011
LPOV,2017-11-29 09:00,-8.6459,40.9159,42.80,41.00,93.30,20.00,5.00,0.00,29.88,M,6.21,M,M,M,M,M,M,M,M,M,M,M,M,M,M,M,M,39.22,LPOV 290900Z 02005KT CAVOK 06/05 Q1012
LPOV,2017-11-29 10:00,-8.6459,40.9159,48.20,41.00,76.01,10.00,6.00,0.00,29.91,M,6.21,M,M,M,M,M,M,M,M,M,M,M,M,M,M,M,M,45.04,LPOV 291000Z 01006KT 340V040 CAVOK 09/05 Q1013
LPOV,2017-11-29 11:00,-8.6459,40.9159,51.80,41.00,66.48,20.00,5.00,0.00,29.91,M,6.21,M,M,M,M,M,M,M,M,M,M,M,M,M,M,M,M,51.80,LPOV 291100Z 02005KT 340V050 CAVOK 11/05 Q1013
LPOV,2017-11-29 12:00,-8.6459,40.9159,53.60,41.00,62.23,10.00,10.00,0.00,29.88,M,6.21,M,FEW,M,M,M,2000.00,M,M,M,M,M,M,M,M,M,M,53.60,LPOV 291200Z 01010KT 340V040 9999 FEW020 12/05 Q1012
LPOV,2017-11-29 13:00,-8.6459,40.9159,55.40,42.80,62.46,10.00,14.00,0.00,29.88,M,6.21,M,FEW,M,M,M,2000.00,M,M,M,M,M,M,M,M,M,M,55.40,LPOV 291300Z 01014KT 330V060 9999 FEW020 13/06 Q1012
LPOV,2017-11-29 14:00,-8.6459,40.9159,57.20,41.00,54.60,360.00,10.00,0.00,29.85,M,6.21,M,FEW,M,M,M,2000.00,M,M,M,M,M,M,M,M,M,M,57.20,LPOV 291400Z 36010KT 320V040 9999 FEW020 14/05 Q1011
LPOV,2017-11-29 15:00,-8.6459,40.9159,57.20,39.20,50.91,350.00,13.00,0.00,29.85,M,6.21,M,FEW,M,M,M,2000.00,M,M,M,M,M,M,M,M,M,M,57.20,LPOV 291500Z 35013KT 330V030 9999 FEW020 14/04 Q1011
LPOV,2017-11-29 16:00,-8.6459,40.9159,55.40,37.40,50.64,20.00,8.00,0.00,29.85,M,6.21,M,FEW,M,M,M,2000.00,M,M,M,M,M,M,M,M,M,M,55.40,LPOV 291600Z 02008KT 340V050 9999 FEW020 13/03 Q1011
LPOV,2017-11-29 17:00,-8.6459,40.9159,53.60,35.60,50.36,10.00,9.00,0.00,29.88,M,6.21,M,FEW,M,M,M,2000.00,M,M,M,M,M,M,M,M,M,M,53.60,LPOV 291700Z 01009KT 330V050 9999 FEW020 12/02 Q1012
LPOV,2017-11-29 18:00,-8.6459,40.9159,48.20,37.40,66.05,360.00,5.00,0.00,29.91,M,6.21,M,FEW,M,M,M,2000.00,M,M,M,M,M,M,M,M,M,M,45.63,LPOV 291800Z 36005KT 9999 FEW020 09/03 Q1013
LPOV,2017-11-29 19:00,-8.6459,40.9159,48.20,37.40,66.05,360.00,6.00,0.00,29.91,M,6.21,M,M,M,M,M,M,M,M,M,M,M,M,M,M,M,M,45.04,LPOV 291900Z 36006KT CAVOK 09/03 Q1013
LPOV,2017-11-29 20:00,-8.6459,40.9159,44.60,37.40,75.68,30.00,3.00,0.00,29.94,M,6.21,M,M,M,M,M,M,M,M,M,M,M,M,M,M,M,M,43.09,LPOV 292000Z 03003KT 350V080 CAVOK 07/03 Q1014
LPOV,2017-11-29 21:00,-8.6459,40.9159,46.40,35.60,65.83,10.00,6.00,0.00,29.94,M,6.21,M,M,M,M,M,M,M,M,M,M,M,M,M,M,M,M,42.87,LPOV 292100Z 01006KT CAVOK 08/02 Q1014
LPOV,2017-11-29 22:00,-8.6459,40.9159,44.60,35.60,70.48,10.00,6.00,0.00,29.97,M,6.21,M,M,M,M,M,M,M,M,M,M,M,M,M,M,M,M,40.71,LPOV 292200Z 01006KT CAVOK 07/02 Q1015
LPOV,2017-11-29 23:00,-8.6459,40.9159,44.60,35.60,70.48,10.00,7.00,0.00,29.97,M,6.21,M,M,M,M,M,M,M,M,M,M,M,M,M,M,M,M,40.14,LPOV 292300Z 01007KT CAVOK 07/02 Q1015
LPOV,2017-11-30 00:00,-8.6459,40.9159,42.80,33.80,70.28,10.00,7.00,0.00,29.97,M,6.21,M,M,M,M,M,M,M,M,M,M,M,M,M,M,M,M,37.94,LPOV 300000Z 01007KT CAVOK 06/01 Q1015
LPOV,2017-11-30 01:00,-8.6459,40.9159,42.80,33.80,70.28,330.00,4.00,0.00,29.97,M,6.21,M,M,M,M,M,M,M,M,M,M,M,M,M,M,M,M,40.03,LPOV 300100Z 33004KT CAVOK 06/01 Q1015
LPOV,2017-11-30 02:00,-8.6459,40.9159,42.80,35.60,75.50,350.00,3.00,0.00,30.00,M,6.21,M,M,M,M,M,M,M,M,M,M,M,M,M,M,M,M,41.03,LPOV 300200Z 35003KT CAVOK 06/02 Q1016
LPOV,2017-11-30 03:00,-8.6459,40.9159,37.40,33.80,86.69,M,2.00,0.00,30.03,M,6.21,M,M,M,M,M,M,M,M,M,M,M,M,M,M,M,M,37.40,LPOV 300300Z VRB02KT CAVOK 03/01 Q1017
LPOV,2017-11-30 04:00,-8.6459,40.9159,37.40,33.80,86.69,M,2.00,0.00,30.03,M,6.21,M,M,M,M,M,M,M,M,M,M,M,M,M,M,M,M,37.40,LPOV 300400Z VRB02KT CAVOK 03/01 Q1017
LPOV,2017-11-30 05:00,-8.6459,40.9159,37.40,33.80,86.69,20.00,3.00,0.00,30.03,M,6.21,M,M,M,M,M,M,M,M,M,M,M,M,M,M,M,M,34.86,LPOV 300500Z 02003KT CAVOK 03/01 Q1017
LPOV,2017-11-30 06:00,-8.6459,40.9159,37.40,32.00,80.65,M,2.00,0.00,30.03,M,6.21,M,M,M,M,M,M,M,M,M,M,M,M,M,M,M,M,37.40,LPOV 300600Z VRB02KT CAVOK 03/00 Q1017
LPOV,2017-11-30 07:00,-8.6459,40.9159,37.40,32.00,80.65,M,2.00,0.00,30.06,M,6.21,M,M,M,M,M,M,M,M,M,M,M,M,M,M,M,M,37.40,LPOV 300700Z VRB02KT CAVOK 03/00 Q1018
LPOV,2017-11-30 08:00,-8.6459,40.9159,35.60,30.20,80.51,M,2.00,0.00,30.09,M,6.21,M,M,M,M,M,M,M,M,M,M,M,M,M,M,M,M,35.60,LPOV 300800Z VRB02KT CAVOK 02/M01 Q1019
LPOV,2017-11-30 09:00,-8.6459,40.9159,37.40,33.80,86.69,M,2.00,0.00,30.12,M,6.21,M,M,M,M,M,M,M,M,M,M,M,M,M,M,M,M,37.40,LPOV 300900Z VRB02KT CAVOK 03/01 Q1020
LPOV,2017-11-30 10:00,-8.6459,40.9159,46.40,33.80,61.28,10.00,6.00,0.00,30.12,M,6.21,M,M,M,M,M,M,M,M,M,M,M,M,M,M,M,M,42.87,LPOV 301000Z 01006KT CAVOK 08/01 Q1020
LPOV,2017-11-30 11:00,-8.6459,40.9159,50.00,35.60,57.52,30.00,8.00,0.00,30.15,M,6.21,M,M,M,M,M,M,M,M,M,M,M,M,M,M,M,M,46.29,LPOV 301100Z 03008KT 350V060 CAVOK 10/02 Q1021
LPOV,2017-11-30 12:00,-8.6459,40.9159,53.60,35.60,50.36,10.00,6.00,0.00,30.15,M,6.21,M,M,M,M,M,M,M,M,M,M,M,M,M,M,M,M,53.60,LPOV 301200Z 01006KT 330V060 CAVOK 12/02 Q1021
LPOV,2017-11-30 13:00,-8.6459,40.9159,55.40,37.40,50.64,20.00,8.00,0.00,30.15,M,6.21,M,M,M,M,M,M,M,M,M,M,M,M,M,M,M,M,55.40,LPOV 301300Z 02008KT 340V050 CAVOK 13/03 Q1021
LPOV,2017-11-30 14:00,-8.6459,40.9159,55.40,37.40,50.64,340.00,9.00,0.00,30.15,M,6.21,M,M,M,M,M,M,M,M,M,M,M,M,M,M,M,M,55.40,LPOV 301400Z 34009KT CAVOK 13/03 Q1021
LPOV,2017-11-30 15:00,-8.6459,40.9159,55.40,41.00,58.27,340.00,9.00,0.00,30.12,M,6.21,M,M,M,M,M,M,M,M,M,M,M,M,M,M,M,M,55.40,LPOV 301500Z 34009KT 300V010 CAVOK 13/05 Q1020
LPOV,2017-11-30 16:00,-8.6459,40.9159,53.60,41.00,62.23,340.00,8.00,0.00,30.15,M,6.21,M,M,M,M,M,M,M,M,M,M,M,M,M,M,M,M,53.60,LPOV 301600Z 34008KT CAVOK 12/05 Q1021
LPOV,2017-11-30 17:00,-8.6459,40.9159,51.80,42.80,71.26,350.00,6.00,0.00,30.15,M,6.21,M,M,M,M,M,M,M,M,M,M,M,M,M,M,M,M,51.80,LPOV 301700Z 35006KT CAVOK 11/06 Q1021
LPOV,2017-11-30 18:00,-8.6459,40.9159,48.20,39.20,70.88,360.00,6.00,0.00,30.18,M,6.21,M,M,M,M,M,M,M,M,M,M,M,M,M,M,M,M,45.04,LPOV 301800Z 36006KT CAVOK 09/04 Q1022
LPOV,2017-11-30 19:00,-8.6459,40.9159,50.00,37.40,61.76,20.00,5.00,0.00,30.21,M,6.21,M,M,M,M,M,M,M,M,M,M,M,M,M,M,M,M,47.77,LPOV 301900Z 02005KT CAVOK 10/03 Q1023
LPOV,2017-11-30 20:00,-8.6459,40.9159,46.40,35.60,65.83,360.00,4.00,0.00,30.21,M,6.21,M,M,M,M,M,M,M,M,M,M,M,M,M,M,M,M,44.24,LPOV 302000Z 36004KT CAVOK 08/02 Q1023
LPOV,2017-11-30 21:00,-8.6459,40.9159,46.40,37.40,70.68,360.00,6.00,0.00,30.24,M,6.21,M,M,M,M,M,M,M,M,M,M,M,M,M,M,M,M,42.87,LPOV 302100Z 36006KT CAVOK 08/03 Q1024
LPOV,2017-11-30 22:00,-8.6459,40.9159,42.80,35.60,75.50,360.00,5.00,0.00,30.24,M,6.21,M,M,M,M,M,M,M,M,M,M,M,M,M,M,M,M,39.22,LPOV 302200Z 36005KT CAVOK 06/02 Q1024
LPOV,2017-11-30 23:00,-8.6459,40.9159,41.00,35.60,80.93,340.00,4.00,0.00,30.24,M,6.21,M,M,M,M,M,M,M,M,M,M,M,M,M,M,M,M,37.93,LPOV 302300Z 34004KT CAVOK 05/02 Q1024
LPOV,2017-12-01 00:00,-8.6459,40.9159,39.20,33.80,80.79,M,2.00,0.00,30.27,M,6.21,M,M,M,M,M,M,M,M,M,M,M,M,M,M,M,M,39.20,LPOV 010000Z VRB02KT CAVOK 04/01 Q1025
LPOV,2017-12-01 02:00,-8.6459,40.9159,37.40,33.80,86.69,0.00,0.00,0.00,30.24,M,6.21,M,M,M,M,M,M,M,M,M,M,M,M,M,M,M,M,37.40,LPOV 010200Z 00000KT CAVOK 03/01 Q1024
LPOV,2017-12-01 03:00,-8.6459,40.9159,33.80,32.00,93.03,M,2.00,0.00,30.24,M,6.21,M,M,M,M,M,M,M,M,M,M,M,M,M,M,M,M,33.80,LPOV 010300Z VRB02KT CAVOK 01/M00 Q1024
LPOV,2017-12-01 04:00,-8.6459,40.9159,32.00,30.20,92.97,0.00,0.00,0.00,30.24,M,6.21,M,M,M,M,M,M,M,M,M,M,M,M,M,M,M,M,32.00,LPOV 010400Z 00000KT CAVOK 00/M01 Q1024
LPOV,2017-12-01 05:00,-8.6459,40.9159,32.00,30.20,92.97,M,1.00,0.00,30.24,M,6.21,M,M,M,M,M,M,M,M,M,M,M,M,M,M,M,M,32.00,LPOV 010500Z VRB01KT CAVOK 00/M01 Q1024
LPOV,2017-12-01 06:00,-8.6459,40.9159,33.80,32.00,93.03,M,1.00,0.00,30.27,M,6.21,M,M,M,M,M,M,M,M,M,M,M,M,M,M,M,M,33.80,LPOV 010600Z VRB01KT CAVOK 01/00 Q1025
LPOV,2017-12-01 07:00,-8.6459,40.9159,33.80,32.00,93.03,M,1.00,0.00,30.24,M,6.21,M,FEW,M,M,M,3500.00,M,M,M,M,M,M,M,M,M,M,33.80,LPOV 010700Z VRB01KT 9999 FEW035 01/00 Q1024
LPOV,2017-12-01 08:00,-8.6459,40.9159,32.00,30.20,92.97,M,1.00,0.00,30.24,M,6.21,M,FEW,M,M,M,3500.00,M,M,M,M,M,M,M,M,M,M,32.00,LPOV 010800Z VRB01KT 9999 FEW035 00/M01 Q1024
LPOV,2017-12-01 09:00,-8.6459,40.9159,35.60,33.80,93.08,M,1.00,0.00,30.24,M,6.21,M,FEW,M,M,M,1500.00,M,M,M,M,M,M,M,M,M,M,35.60,LPOV 010900Z VRB01KT 9999 FEW015 02/01 Q1024
LPOV,2017-12-01 10:00,-8.6459,40.9159,44.60,39.20,81.20,M,1.00,0.00,30.24,M,6.21,M,FEW,M,M,M,1500.00,M,M,M,M,M,M,M,M,M,M,44.60,LPOV 011000Z VRB01KT 9999 FEW015 07/04 Q1024
LPOV,2017-12-01 11:00,-8.6459,40.9159,51.80,42.80,71.26,340.00,5.00,0.00,30.24,M,6.21,M,FEW,M,M,M,1500.00,M,M,M,M,M,M,M,M,M,M,51.80,LPOV 011100Z 34005KT 310V030 9999 FEW015 11/06 Q1024
LPOV,2017-12-01 12:00,-8.6459,40.9159,53.60,44.60,71.45,350.00,6.00,0.00,30.24,M,6.21,M,FEW,M,M,M,1500.00,M,M,M,M,M,M,M,M,M,M,53.60,LPOV 011200Z 35006KT 9999 FEW015 12/07 Q1024
LPOV,2017-12-01 13:00,-8.6459,40.9159,53.60,46.40,76.50,350.00,10.00,0.00,30.24,M,6.21,M,FEW,M,M,M,1500.00,M,M,M,M,M,M,M,M,M,M,53.60,LPOV 011300Z 35010KT 9999 FEW015 12/08 Q1024
LPOV,2017-12-01 14:00,-8.6459,40.9159,55.40,46.40,71.64,330.00,9.00,0.00,30.21,M,6.21,M,FEW,SCT,M,M,1500.00,2500.00,M,M,M,M,M,M,M,M,M,55.40,LPOV 011400Z 33009KT 9999 FEW015 SCT025 13/08 Q1023
LPOV,2017-12-01 15:00,-8.6459,40.9159,57.20,46.40,67.12,340.00,12.00,0.00,30.18,M,6.21,M,SCT,M,M,M,2500.00,M,M,M,M,M,M,M,M,M,M,57.20,LPOV 011500Z 34012KT 9999 SCT025 14/08 Q1022
LPOV,2017-12-01 16:00,-8.6459,40.9159,55.40,46.40,71.64,340.00,10.00,0.00,30.18,M,6.21,M,FEW,M,M,M,2500.00,M,M,M,M,M,M,M,M,M,M,55.40,LPOV 011600Z 34010KT 310V010 9999 FEW025 13/08 Q1022
LPOV,2017-12-01 17:00,-8.6459,40.9159,53.60,44.60,71.45,350.00,11.00,0.00,30.18,M,6.21,M,FEW,M,M,M,2500.00,M,M,M,M,M,M,M,M,M,M,53.60,LPOV 011700Z 35011KT 9999 FEW025 12/07 Q1022
LPOV,2017-12-01 18:00,-8.6459,40.9159,51.80,42.80,71.26,360.00,7.00,0.00,30.21,M,6.21,M,FEW,M,M,M,2200.00,M,M,M,M,M,M,M,M,M,M,51.80,LPOV 011800Z 36007KT 320V030 9999 FEW022 11/06 Q1023
LPOV,2017-12-01 19:00,-8.6459,40.9159,50.00,41.00,71.07,10.00,6.00,0.00,30.21,M,6.21,M,FEW,M,M,M,2200.00,M,M,M,M,M,M,M,M,M,M,47.21,LPOV 011900Z 01006KT 9999 FEW022 10/05 Q1023
LPOV,2017-12-01 20:00,-8.6459,40.9159,48.20,39.20,70.88,M,2.00,0.00,30.24,M,6.21,M,M,M,M,M,M,M,M,M,M,M,M,M,M,M,M,48.20,LPOV 012000Z VRB02KT CAVOK 09/04 Q1024
LPOV,2017-12-01 21:00,-8.6459,40.9159,46.40,37.40,70.68,M,2.00,0.00,30.27,M,6.21,M,M,M,M,M,M,M,M,M,M,M,M,M,M,M,M,46.40,LPOV 012100Z VRB02KT CAVOK 08/03 Q1025
LPOV,2017-12-01 22:00,-8.6459,40.9159,44.60,37.40,75.68,10.00,4.00,0.00,30.30,M,6.21,M,M,M,M,M,M,M,M,M,M,M,M,M,M,M,M,42.13,LPOV 012200Z 01004KT CAVOK 07/03 Q1026
LPOV,2017-12-01 23:00,-8.6459,40.9159,42.80,33.80,70.28,10.00,5.00,0.00,30.30,M,6.21,M,M,M,M,M,M,M,M,M,M,M,M,M,M,M,M,39.22,LPOV 012300Z 01005KT CAVOK 06/01 Q1026
LPOV,2017-12-02 00:00,-8.6459,40.9159,42.80,33.80,70.28,360.00,5.00,0.00,30.30,M,6.21,M,M,M,M,M,M,M,M,M,M,M,M,M,M,M,M,39.22,LPOV 020000Z 36005KT CAVOK 06/01 Q1026
LPOV,2017-12-02 01:00,-8.6459,40.9159,42.80,33.80,70.28,30.00,5.00,0.00,30.30,M,6.21,M,M,M,M,M,M,M,M,M,M,M,M,M,M,M,M,39.22,LPOV 020100Z 03005KT CAVOK 06/01 Q1026
LPOV,2017-12-02 02:00,-8.6459,40.9159,41.00,33.80,75.33,20.00,3.00,0.00,30.30,M,6.21,M,M,M,M,M,M,M,M,M,M,M,M,M,M,M,M,38.98,LPOV 020200Z 02003KT CAVOK 05/01 Q1026
LPOV,2017-12-02 03:00,-8.6459,40.9159,41.00,32.00,70.08,50.00,6.00,0.00,30.30,M,6.21,M,M,M,M,M,M,M,M,M,M,M,M,M,M,M,M,36.37,LPOV 020300Z 05006KT CAVOK 05/00 Q1026
LPOV,2017-12-02 04:00,-8.6459,40.9159,39.20,32.00,75.16,M,2.00,0.00,30.30,M,6.21,M,M,M,M,M,M,M,M,M,M,M,M,M,M,M,M,39.20,LPOV 020400Z VRB02KT CAVOK 04/00 Q1026
LPOV,2017-12-02 05:00,-8.6459,40.9159,37.40,32.00,80.65,60.00,4.00,0.00,30.33,M,6.21,M,M,M,M,M,M,M,M,M,M,M,M,M,M,M,M,33.73,LPOV 020500Z 06004KT CAVOK 03/00 Q1027
LPOV,2017-12-02 06:00,-8.6459,40.9159,35.60,32.00,86.59,M,2.00,0.00,30.33,M,6.21,M,M,M,M,M,M,M,M,M,M,M,M,M,M,M,M,35.60,LPOV 020600Z VRB02KT CAVOK 02/M00 Q1027
LPOV,2017-12-02 07:00,-8.6459,40.9159,33.80,30.20,86.49,M,1.00,0.00,30.33,M,6.21,M,M,M,M,M,M,M,M,M,M,M,M,M,M,M,M,33.80,LPOV 020700Z VRB01KT CAVOK 01/M01 Q1027
LPOV,2017-12-02 08:00,-8.6459,40.9159,32.00,28.40,86.39,0.00,0.00,0.00,30.33,M,6.21,M,M,M,M,M,M,M,M,M,M,M,M,M,M,M,M,32.00,LPOV 020800Z 00000KT CAVOK M00/M02 Q1027
LPOV,2017-12-02 09:00,-8.6459,40.9159,39.20,33.80,80.79,20.00,5.00,0.00,30.36,M,6.21,M,M,M,M,M,M,M,M,M,M,M,M,M,M,M,M,34.95,LPOV 020900Z 02005KT CAVOK 04/01 Q1028
LPOV,2017-12-02 10:00,-8.6459,40.9159,44.60,33.80,65.61,350.00,4.00,0.00,30.36,M,6.21,M,M,M,M,M,M,M,M,M,M,M,M,M,M,M,M,42.13,LPOV 021000Z 35004KT CAVOK 07/01 Q1028
LPOV,2017-12-02 11:00,-8.6459,40.9159,46.40,33.80,61.28,30.00,7.00,0.00,30.36,M,6.21,M,M,M,M,M,M,M,M,M,M,M,M,M,M,M,M,42.33,LPOV 021100Z 03007KT CAVOK 08/01 Q1028
LPOV,2017-12-02 12:00,-8.6459,40.9159,50.00,35.60,57.52,10.00,7.00,0.00,30.36,M,6.21,M,M,M,M,M,M,M,M,M,M,M,M,M,M,M,M,46.72,LPOV 021200Z 01007KT CAVOK 10/02 Q1028
LPOV,2017-12-02 13:00,-8.6459,40.9159,51.80,37.40,57.77,340.00,8.00,0.00,30.33,M,6.21,M,M,M,M,M,M,M,M,M,M,M,M,M,M,M,M,51.80,LPOV 021300Z 34008KT CAVOK 11/03 Q1027
LPOV,2017-12-02 14:00,-8.6459,40.9159,53.60,37.40,54.07,340.00,8.00,0.00,30.30,M,6.21,M,M,M,M,M,M,M,M,M,M,M,M,M,M,M,M,53.60,LPOV 021400Z 34008KT CAVOK 12/03 Q1026
LPOV,2017-12-02 15:00,-8.6459,40.9159,55.40,37.40,50.64,330.00,8.00,0.00,30.30,M,6.21,M,M,M,M,M,M,M,M,M,M,M,M,M,M,M,M,55.40,LPOV 021500Z 33008KT CAVOK 13/03 Q1026
LPOV,2017-12-02 16:00,-8.6459,40.9159,53.60,41.00,62.23,10.00,5.00,0.00,30.30,M,6.21,M,M,M,M,M,M,M,M,M,M,M,M,M,M,M,M,53.60,LPOV 021600Z 01005KT CAVOK 12/05 Q1026
LPOV,2017-12-02 17:00,-8.6459,40.9159,51.80,41.00,66.48,350.00,7.00,0.00,30.30,M,6.21,M,M,M,M,M,M,M,M,M,M,M,M,M,M,M,M,51.80,LPOV 021700Z 35007KT CAVOK 11/05 Q1026
LPOV,2017-12-02 18:00,-8.6459,40.9159,50.00,39.20,66.27,360.00,6.00,0.00,30.30,M,6.21,M,M,M,M,M,M,M,M,M,M,M,M,M,M,M,M,47.21,LPOV 021800Z 36006KT CAVOK 10/04 Q1026
LPOV,2017-12-02 19:00,-8.6459,40.9159,46.40,37.40,70.68,10.00,4.00,0.00,30.30,M,6.21,M,M,M,M,M,M,M,M,M,M,M,M,M,M,M,M,44.24,LPOV 021900Z 01004KT CAVOK 08/03 Q1026
LPOV,2017-12-02 20:00,-8.6459,40.9159,46.40,35.60,65.83,M,2.00,0.00,30.30,M,6.21,M,M,M,M,M,M,M,M,M,M,M,M,M,M,M,M,46.40,LPOV 022000Z VRB02KT CAVOK 08/02 Q1026
LPOV,2017-12-02 21:00,-8.6459,40.9159,44.60,35.60,70.48,10.00,5.00,0.00,30.33,M,6.21,M,M,M,M,M,M,M,M,M,M,M,M,M,M,M,M,41.36,LPOV 022100Z 01005KT CAVOK 07/02 Q1027
LPOV,2017-12-02 22:00,-8.6459,40.9159,39.20,35.60,86.79,M,2.00,0.00,30.33,M,6.21,M,M,M,M,M,M,M,M,M,M,M,M,M,M,M,M,39.20,LPOV 022200Z VRB02KT CAVOK 04/02 Q1027
LPOV,2017-12-02 23:00,-8.6459,40.9159,41.00,35.60,80.93,360.00,6.00,0.00,30.33,M,6.21,M,M,M,M,M,M,M,M,M,M,M,M,M,M,M,M,36.37,LPOV 022300Z 36006KT CAVOK 05/02 Q1027
LPOV,2017-12-03 00:00,-8.6459,40.9159,35.60,32.00,86.59,190.00,4.00,0.00,30.33,M,6.21,M,M,M,M,M,M,M,M,M,M,M,M,M,M,M,M,31.62,LPOV 030000Z 19004KT CAVOK 02/00 Q1027
LPOV,2017-12-03 01:00,-8.6459,40.9159,35.60,32.00,86.59,M,2.00,0.00,30.36,M,6.21,M,M,M,M,M,M,M,M,M,M,M,M,M,M,M,M,35.60,LPOV 030100Z VRB02KT CAVOK 02/00 Q1028
LPOV,2017-12-03 02:00,-8.6459,40.9159,33.80,32.00,93.03,M,2.00,0.00,30.36,M,6.21,M,M,M,M,M,M,M,M,M,M,M,M,M,M,M,M,33.80,LPOV 030200Z VRB02KT CAVOK 01/M00 Q1028
LPOV,2017-12-03 03:00,-8.6459,40.9159,32.00,28.40,86.39,180.00,3.00,0.00,30.36,M,6.21,M,M,M,M,M,M,M,M,M,M,M,M,M,M,M,M,28.69,LPOV 030300Z 18003KT CAVOK 00/M02 Q1028
LPOV,2017-12-03 04:00,-8.6459,40.9159,32.00,28.40,86.39,M,2.00,0.00,30.36,M,6.21,M,M,M,M,M,M,M,M,M,M,M,M,M,M,M,M,32.00,LPOV 030400Z VRB02KT CAVOK 00/M02 Q1028
LPOV,2017-12-03 05:00,-8.6459,40.9159,32.00,28.40,86.39,M,2.00,0.00,30.36,M,6.21,M,M,M,M,M,M,M,M,M,M,M,M,M,M,M,M,32.00,LPOV 030500Z VRB02KT CAVOK 00/M02 Q1028
LPOV,2017-12-03 06:00,-8.6459,40.9159,32.00,28.40,86.39,M,2.00,0.00,30.36,M,6.21,M,M,M,M,M,M,M,M,M,M,M,M,M,M,M,M,32.00,LPOV 030600Z VRB02KT CAVOK M00/M02 Q1028
LPOV,2017-12-03 07:00,-8.6459,40.9159,30.20,28.40,92.92,M,2.00,0.00,30.39,M,6.21,M,M,M,M,M,M,M,M,M,M,M,M,M,M,M,M,30.20,LPOV 030700Z VRB02KT CAVOK M01/M02 Q1029
LPOV,2017-12-03 08:00,-8.6459,40.9159,30.20,28.40,92.92,M,2.00,0.00,30.39,M,6.21,M,M,M,M,M,M,M,M,M,M,M,M,M,M,M,M,30.20,LPOV 030800Z VRB02KT CAVOK M01/M02 Q1029
LPOV,2017-12-03 09:00,-8.6459,40.9159,33.80,32.00,93.03,M,2.00,0.00,30.42,M,6.21,M,M,M,M,M,M,M,M,M,M,M,M,M,M,M,M,33.80,LPOV 030900Z VRB02KT CAVOK 01/M00 Q1030
LPOV,2017-12-03 10:00,-8.6459,40.9159,42.80,37.40,81.07,M,1.00,0.00,30.42,M,6.21,M,M,M,M,M,M,M,M,M,M,M,M,M,M,M,M,42.80,LPOV 031000Z VRB01KT CAVOK 06/03 Q1030
LPOV,2017-12-03 11:00,-8.6459,40.9159,51.80,39.20,61.99,M,3.00,0.00,30.42,M,6.21,M,M,M,M,M,M,M,M,M,M,M,M,M,M,M,M,51.80,LPOV 031100Z VRB03KT CAVOK 11/04 Q1030
LPOV,2017-12-03 12:00,-8.6459,40.9159,53.60,39.20,58.02,M,2.00,0.00,30.42,M,6.21,M,M,M,M,M,M,M,M,M,M,M,M,M,M,M,M,53.60,LPOV 031200Z VRB02KT CAVOK 12/04 Q1030
LPOV,2017-12-03 13:00,-8.6459,40.9159,55.40,37.40,50.64,250.00,6.00,0.00,30.42,M,6.21,M,M,M,M,M,M,M,M,M,M,M,M,M,M,M,M,55.40,LPOV 031300Z 25006KT 210V300 CAVOK 13/03 Q1030
LPOV,2017-12-03 14:00,-8.6459,40.9159,55.40,39.20,54.34,270.00,5.00,0.00,30.42,M,6.21,M,M,M,M,M,M,M,M,M,M,M,M,M,M,M,M,55.40,LPOV 031400Z 27005KT 210V300 CAVOK 13/04 Q1030
LPOV,2017-12-03 15:00,-8.6459,40.9159,57.20,39.20,50.91,230.00,4.00,0.00,30.42,M,6.21,M,M,M,M,M,M,M,M,M,M,M,M,M,M,M,M,57.20,LPOV 031500Z 23004KT CAVOK 14/04 Q1030
LPOV,2017-12-03 16:00,-8.6459,40.9159,55.40,41.00,58.27,M,2.00,0.00,30.42,M,6.21,M,M,M,M,M,M,M,M,M,M,M,M,M,M,M,M,55.40,LPOV 031600Z VRB02KT CAVOK 13/05 Q1030
LPOV,2017-12-03 17:00,-8.6459,40.9159,53.60,37.40,54.07,20.00,5.00,0.00,30.42,M,6.21,M,M,M,M,M,M,M,M,M,M,M,M,M,M,M,M,53.60,LPOV 031700Z 02005KT 360V060 CAVOK 12/03 Q1030
LPOV,2017-12-03 19:00,-8.6459,40.9159,46.40,35.60,65.83,60.00,5.00,0.00,30.42,M,6.21,M,M,M,M,M,M,M,M,M,M,M,M,M,M,M,M,43.50,LPOV 031900Z 06005KT CAVOK 08/02 Q1030
LPOV,2017-12-03 20:00,-8.6459,40.9159,44.60,35.60,70.48,60.00,4.00,0.00,30.45,M,6.21,M,M,M,M,M,M,M,M,M,M,M,M,M,M,M,M,42.13,LPOV 032000Z 06004KT CAVOK 07/02 Q1031
LPOV,2017-12-03 21:00,-8.6459,40.9159,44.60,35.60,70.48,M,2.00,0.00,30.45,M,6.21,M,M,M,M,M,M,M,M,M,M,M,M,M,M,M,M,44.60,LPOV 032100Z VRB02KT CAVOK 07/02 Q1031
LPOV,2017-12-03 22:00,-8.6459,40.9159,44.60,35.60,70.48,M,2.00,0.00,30.45,M,6.21,M,M,M,M,M,M,M,M,M,M,M,M,M,M,M,M,44.60,LPOV 032200Z VRB02KT CAVOK 07/02 Q1031
LPOV,2017-12-03 23:00,-8.6459,40.9159,41.00,32.00,70.08,80.00,3.00,0.00,30.47,M,6.21,M,M,M,M,M,M,M,M,M,M,M,M,M,M,M,M,38.98,LPOV 032300Z 08003KT CAVOK 05/M00 Q1032
LPOV,2017-12-04 00:00,-8.6459,40.9159,35.60,32.00,86.59,M,1.00,0.00,30.47,M,6.21,M,M,M,M,M,M,M,M,M,M,M,M,M,M,M,M,35.60,LPOV 040000Z VRB01KT CAVOK 02/M00 Q1032
LPOV,2017-12-04 01:00,-8.6459,40.9159,35.60,30.20,80.51,M,1.00,0.00,30.47,M,6.21,M,M,M,M,M,M,M,M,M,M,M,M,M,M,M,M,35.60,LPOV 040100Z VRB01KT CAVOK 02/M01 Q1032
LPOV,2017-12-04 03:00,-8.6459,40.9159,35.60,30.20,80.51,M,1.00,0.00,30.47,M,6.21,M,M,M,M,M,M,M,M,M,M,M,M,M,M,M,M,35.60,LPOV 040300Z VRB01KT CAVOK 02/M01 Q1032
LPOV,2017-12-04 04:00,-8.6459,40.9159,35.60,30.20,80.51,M,1.00,0.00,30.47,M,6.21,M,M,M,M,M,M,M,M,M,M,M,M,M,M,M,M,35.60,LPOV 040400Z VRB01KT CAVOK 02/M01 Q1032
LPOV,2017-12-04 05:00,-8.6459,40.9159,33.80,30.20,86.49,M,1.00,0.00,30.47,M,6.21,M,M,M,M,M,M,M,M,M,M,M,M,M,M,M,M,33.80,LPOV 040500Z VRB01KT CAVOK 01/M01 Q1032
LPOV,2017-12-04 06:00,-8.6459,40.9159,33.80,30.20,86.49,M,1.00,0.00,30.47,M,6.21,M,M,M,M,M,M,M,M,M,M,M,M,M,M,M,M,33.80,LPOV 040600Z VRB01KT CAVOK 01/M01 Q1032
LPOV,2017-12-04 07:00,-8.6459,40.9159,33.80,30.20,86.49,M,1.00,0.00,30.47,M,6.21,M,M,M,M,M,M,M,M,M,M,M,M,M,M,M,M,33.80,LPOV 040700Z VRB01KT CAVOK 01/M01 Q1032
LPOV,2017-12-04 08:00,-8.6459,40.9159,32.00,30.20,92.97,M,1.00,0.00,30.50,M,6.21,M,M,M,M,M,M,M,M,M,M,M,M,M,M,M,M,32.00,LPOV 040800Z VRB01KT CAVOK 00/M01 Q1033
LPOV,2017-12-04 09:00,-8.6459,40.9159,35.60,32.00,86.59,M,2.00,0.00,30.53,M,6.21,M,M,M,M,M,M,M,M,M,M,M,M,M,M,M,M,35.60,LPOV 040900Z VRB02KT CAVOK 02/00 Q1034
LPOV,2017-12-04 10:00,-8.6459,40.9159,50.00,41.00,71.07,M,1.00,0.00,30.53,M,6.21,M,M,M,M,M,M,M,M,M,M,M,M,M,M,M,M,50.00,LPOV 041000Z VRB01KT CAVOK 10/05 Q1034
LPOV,2017-12-04 11:00,-8.6459,40.9159,53.60,41.00,62.23,M,1.00,0.00,30.56,M,6.21,M,M,M,M,M,M,M,M,M,M,M,M,M,M,M,M,53.60,LPOV 041100Z VRB01KT CAVOK 12/05 Q1035
LPOV,2017-12-04 12:00,-8.6459,40.9159,55.40,41.00,58.27,320.00,3.00,0.00,30.53,M,6.21,M,M,M,M,M,M,M,M,M,M,M,M,M,M,M,M,55.40,LPOV 041200Z 32003KT 270V010 CAVOK 13/05 Q1034
LPOV,2017-12-04 13:00,-8.6459,40.9159,57.20,39.20,50.91,310.00,5.00,0.00,30.50,M,6.21,M,M,M,M,M,M,M,M,M,M,M,M,M,M,M,M,57.20,LPOV 041300Z 31005KT 280V340 CAVOK 14/04 Q1033
LPOV,2017-12-04 14:00,-8.6459,40.9159,57.20,39.20,50.91,330.00,5.00,0.00,30.50,M,6.21,M,M,M,M,M,M,M,M,M,M,M,M,M,M,M,M,57.20,LPOV 041400Z 33005KT 290V360 CAVOK 14/04 Q1033
LPOV,2017-12-04 15:00,-8.6459,40.9159,59.00,41.00,51.18,340.00,5.00,0.00,30.50,M,6.21,M,M,M,M,M,M,M,M,M,M,M,M,M,M,M,M,59.00,LPOV 041500Z 34005KT CAVOK 15/05 Q1033
LPOV,2017-12-04 16:00,-8.6459,40.9159,57.20,42.80,58.52,330.00,5.00,0.00,30.50,M,6.21,M,M,M,M,M,M,M,M,M,M,M,M,M,M,M,M,57.20,LPOV 041600Z 33005KT CAVOK 14/06 Q1033
LPOV,2017-12-04 17:00,-8.6459,40.9159,55.40,42.80,62.46,360.00,3.00,0.00,30.50,M,6.21,M,M,M,M,M,M,M,M,M,M,M,M,M,M,M,M,55.40,LPOV 041700Z 36003KT CAVOK 13/06 Q1033
LPOV,2017-12-04 18:00,-8.6459,40.9159,48.20,42.80,81.47,350.00,3.00,0.00,30.50,M,6.21,M,M,M,M,M,M,M,M,M,M,M,M,M,M,M,M,47.21,LPOV 041800Z 35003KT 330V030 CAVOK 09/06 Q1033
LPOV,2017-12-04 19:00,-8.6459,40.9159,44.60,41.00,87.09,M,2.00,0.00,30.50,M,6.21,M,M,M,M,M,M,M,M,M,M,M,M,M,M,M,M,44.60,LPOV 041900Z VRB02KT CAVOK 07/05 Q1033
LPOV,2017-12-04 20:00,-8.6459,40.9159,41.00,37.40,86.89,M,2.00,0.00,30.53,M,6.21,M,M,M,M,M,M,M,M,M,M,M,M,M,M,M,M,41.00,LPOV 042000Z VRB02KT CAVOK 05/03 Q1034
LPOV,2017-12-04 21:00,-8.6459,40.9159,41.00,37.40,86.89,M,2.00,0.00,30.53,M,6.21,M,M,M,M,M,M,M,M,M,M,M,M,M,M,M,M,41.00,LPOV 042100Z VRB02KT CAVOK 05/03 Q1034
LPOV,2017-12-04 22:00,-8.6459,40.9159,39.20,37.40,93.19,M,2.00,0.00,30.53,M,6.21,M,M,M,M,M,M,M,M,M,M,M,M,M,M,M,M,39.20,LPOV 042200Z VRB02KT CAVOK 04/03 Q1034
LPOV,2017-12-04 23:00,-8.6459,40.9159,37.40,35.60,93.14,M,1.00,0.00,30.53,M,6.21,M,M,M,M,M,M,M,M,M,M,M,M,M,M,M,M,37.40,LPOV 042300Z VRB01KT CAVOK 03/02 Q1034
LPOV,2017-12-05 00:00,-8.6459,40.9159,35.60,33.80,93.08,M,1.00,0.00,30.53,M,6.21,M,M,M,M,M,M,M,M,M,M,M,M,M,M,M,M,35.60,LPOV 050000Z VRB01KT CAVOK 02/01 Q1034
LPOV,2017-12-05 01:00,-8.6459,40.9159,33.80,32.00,M,M,M,0.00,30.53,M,6.21,M,M,M,M,M,M,M,M,M,M,M,M,M,M,M,M,M,LPOV 050100Z VRB2KT CAVOK 01/M00 Q1034
LPOV,2017-12-05 02:00,-8.6459,40.9159,32.00,32.00,M,M,M,0.00,30.53,M,6.21,M,M,M,M,M,M,M,M,M,M,M,M,M,M,M,M,M,LPOV 050200Z VRB2KT CAVOK 00/M00 Q1034
LPOV,2017-12-05 03:00,-8.6459,40.9159,32.00,30.20,92.97,M,1.00,0.00,30.53,M,6.21,M,M,M,M,M,M,M,M,M,M,M,M,M,M,M,M,32.00,LPOV 050300Z VRB01KT CAVOK 00/M01 Q1034
LPOV,2017-12-05 04:00,-8.6459,40.9159,32.00,30.20,92.97,M,1.00,0.00,30.50,M,6.21,M,M,M,M,M,M,M,M,M,M,M,M,M,M,M,M,32.00,LPOV 050400Z VRB01KT CAVOK 00/M01 Q1033
LPOV,2017-12-05 05:00,-8.6459,40.9159,32.00,32.00,100.00,M,1.00,0.00,30.50,M,6.21,M,M,M,M,M,M,M,M,M,M,M,M,M,M,M,M,32.00,LPOV 050500Z VRB01KT CAVOK 00/M00 Q1033
LPOV,2017-12-05 06:00,-8.6459,40.9159,32.00,32.00,100.00,M,2.00,0.00,30.50,M,6.21,M,M,M,M,M,M,M,M,M,M,M,M,M,M,M,M,32.00,LPOV 050600Z VRB02KT CAVOK 00/00 Q1033
LPOV,2017-12-05 07:00,-8.6459,40.9159,32.00,30.20,92.97,M,2.00,0.00,30.50,M,6.21,M,M,M,M,M,M,M,M,M,M,M,M,M,M,M,M,32.00,LPOV 050700Z VRB02KT CAVOK M00/M01 Q1033
LPOV,2017-12-05 08:00,-8.6459,40.9159,33.80,33.80,100.00,M,2.00,0.00,30.53,M,6.21,M,M,M,M,M,M,M,M,M,M,M,M,M,M,M,M,33.80,LPOV 050800Z VRB02KT CAVOK 01/01 Q1034
LPOV,2017-12-05 09:00,-8.6459,40.9159,39.20,35.60,86.79,M,2.00,0.00,30.53,M,6.21,M,M,M,M,M,M,M,M,M,M,M,M,M,M,M,M,39.20,LPOV 050900Z VRB02KT CAVOK 04/02 Q1034
LPOV,2017-12-05 10:00,-8.6459,40.9159,50.00,41.00,71.07,M,2.00,0.00,30.56,M,6.21,M,M,M,M,M,M,M,M,M,M,M,M,M,M,M,M,50.00,LPOV 051000Z VRB02KT CAVOK 10/05 Q1035
LPOV,2017-12-05 11:00,-8.6459,40.9159,53.60,41.00,62.23,M,2.00,0.00,30.56,M,6.21,M,M,M,M,M,M,M,M,M,M,M,M,M,M,M,M,53.60,LPOV 051100Z VRB02KT CAVOK 12/05 Q1035
LPOV,2017-12-05 12:00,-8.6459,40.9159,57.20,41.00,54.60,M,2.00,0.00,30.53,M,6.21,M,M,M,M,M,M,M,M,M,M,M,M,M,M,M,M,57.20,LPOV 051200Z VRB02KT CAVOK 14/05 Q1034
LPOV,2017-12-05 13:00,-8.6459,40.9159,59.00,42.80,54.86,270.00,5.00,0.00,30.53,M,6.21,M,M,M,M,M,M,M,M,M,M,M,M,M,M,M,M,59.00,LPOV 051300Z 27005KT CAVOK 15/06 Q1034
LPOV,2017-12-05 14:00,-8.6459,40.9159,59.00,42.80,54.86,270.00,4.00,0.00,30.50,M,6.21,M,M,M,M,M,M,M,M,M,M,M,M,M,M,M,M,59.00,LPOV 051400Z 27004KT 230V300 CAVOK 15/06 Q1033
LPOV,2017-12-05 15:00,-8.6459,40.9159,57.20,42.80,58.52,270.00,4.00,0.00,30.50,M,6.21,M,M,M,M,M,M,M,M,M,M,M,M,M,M,M,M,57.20,LPOV 051500Z 27004KT 230V300 CAVOK 14/06 Q1033
LPOV,2017-12-05 16:00,-8.6459,40.9159,57.20,46.40,67.12,M,2.00,0.00,30.50,M,6.21,M,M,M,M,M,M,M,M,M,M,M,M,M,M,M,M,57.20,LPOV 051600Z VRB02KT CAVOK 14/08 Q1033
LPOV,2017-12-05 17:00,-8.6459,40.9159,53.60,46.40,76.50,M,2.00,0.00,30.50,M,6.21,M,M,M,M,M,M,M,M,M,M,M,M,M,M,M,M,53.60,LPOV 051700Z VRB02KT CAVOK 12/08 Q1033
LPOV,2017-12-05 18:00,-8.6459,40.9159,48.20,44.60,87.28,M,2.00,0.00,30.50,M,6.21,M,NSC,M,M,M,M,M,M,M,MIFG,M,M,M,M,M,M,48.20,LPOV 051800Z VRB02KT 9999 MIFG NSC 09/07 Q1033
LPOV,2017-12-05 19:00,-8.6459,40.9159,44.60,42.80,93.35,M,1.00,0.00,30.50,M,6.21,M,NSC,M,M,M,M,M,M,M,MIFG,M,M,M,M,M,M,44.60,LPOV 051900Z VRB01KT 9999 MIFG NSC 07/06 Q1033
LPOV,2017-12-05 20:00,-8.6459,40.9159,42.80,41.00,93.30,0.00,0.00,0.00,30.50,M,4.97,M,NSC,M,M,M,M,M,M,M,MIFG,M,M,M,M,M,M,42.80,LPOV 052000Z 00000KT 8000 MIFG NSC 06/05 Q1033
LPOV,2017-12-05 21:00,-8.6459,40.9159,39.20,37.40,93.19,M,1.00,0.00,30.50,M,4.97,M,NSC,M,M,M,M,M,M,M,MIFG,M,M,M,M,M,M,39.20,LPOV 052100Z VRB01KT 8000 MIFG NSC 04/03 Q1033
LPOV,2017-12-05 22:00,-8.6459,40.9159,37.40,35.60,93.14,M,1.00,0.00,30.50,M,5.59,M,NSC,M,M,M,M,M,M,M,MIFG,M,M,M,M,M,M,37.40,LPOV 052200Z VRB01KT 9000 MIFG NSC 03/02 Q1033
LPOV,2017-12-05 23:00,-8.6459,40.9159,35.60,35.60,100.00,0.00,0.00,0.00,30.50,M,5.59,M,NSC,M,M,M,M,M,M,M,MIFG,M,M,M,M,M,M,35.60,LPOV 052300Z 00000KT 9000 MIFG NSC 02/02 Q1033
LPOV,2017-12-06 00:00,-8.6459,40.9159,35.60,33.80,93.08,M,2.00,0.00,30.50,M,5.59,M,NSC,M,M,M,M,M,M,M,MIFG,M,M,M,M,M,M,35.60,LPOV 060000Z VRB02KT 9000 MIFG NSC 02/01 Q1033
LPOV,2017-12-06 01:00,-8.6459,40.9159,33.80,32.00,93.03,M,1.00,0.00,30.50,M,5.59,M,NSC,M,M,M,M,M,M,M,MIFG,M,M,M,M,M,M,33.80,LPOV 060100Z VRB01KT 9000 MIFG NSC 01/00 Q1033
LPOV,2017-12-06 02:00,-8.6459,40.9159,33.80,32.00,93.03,M,2.00,0.00,30.50,M,4.97,M,NSC,M,M,M,M,M,M,M,MIFG,M,M,M,M,M,M,33.80,LPOV 060200Z VRB02KT 8000 MIFG NSC 01/00 Q1033
LPOV,2017-12-06 03:00,-8.6459,40.9159,32.00,30.20,92.97,M,2.00,0.00,30.50,M,6.21,M,NSC,M,M,M,M,M,M,M,MIFG,M,M,M,M,M,M,32.00,LPOV 060300Z VRB02KT 9999 MIFG NSC M00/M01 Q1033
LPOV,2017-12-06 04:00,-8.6459,40.9159,30.20,30.20,100.00,M,1.00,0.00,30.47,M,6.21,M,NSC,M,M,M,M,M,M,M,MIFG,M,M,M,M,M,M,30.20,LPOV 060400Z VRB01KT 9999 MIFG NSC M01/M01 Q1032
LPOV,2017-12-06 05:00,-8.6459,40.9159,30.20,28.40,92.92,M,1.00,0.00,30.47,M,6.21,M,NSC,M,M,M,M,M,M,M,MIFG,M,M,M,M,M,M,30.20,LPOV 060500Z VRB01KT 9999 MIFG NSC M01/M02 Q1032
LPOV,2017-12-06 06:00,-8.6459,40.9159,30.20,30.20,100.00,M,2.00,0.00,30.47,M,6.21,M,NSC,M,M,M,M,M,M,M,MIFG,M,M,M,M,M,M,30.20,LPOV 060600Z VRB02KT 9999 MIFG NSC M01/M01 Q1032
LPOV,2017-12-06 07:00,-8.6459,40.9159,28.40,28.40,100.00,M,1.00,0.00,30.47,M,6.21,M,NSC,M,M,M,M,M,M,M,MIFG,M,M,M,M,M,M,28.40,LPOV 060700Z VRB01KT 9999 MIFG NSC M02/M02 Q1032
LPOV,2017-12-06 08:00,-8.6459,40.9159,28.40,28.40,100.00,M,2.00,0.00,30.47,M,6.21,M,NSC,M,M,M,M,M,M,M,MIFG,M,M,M,M,M,M,28.40,LPOV 060800Z VRB02KT 9999 MIFG NSC M02/M02 Q1032
LPOV,2017-12-06 09:00,-8.6459,40.9159,32.00,30.20,92.97,M,1.00,0.00,30.47,M,6.21,M,NSC,M,M,M,M,M,M,M,MIFG,M,M,M,M,M,M,32.00,LPOV 060900Z VRB01KT 9999 MIFG NSC 00/M01 Q1032
LPOV,2017-12-06 10:00,-8.6459,40.9159,39.20,37.40,93.19,M,1.00,0.00,30.50,M,6.21,M,M,M,M,M,M,M,M,M,M,M,M,M,M,M,M,39.20,LPOV 061000Z VRB01KT CAVOK 04/03 Q1033
LPOV,2017-12-06 11:00,-8.6459,40.9159,46.40,41.00,81.34,M,2.00,0.00,30.50,M,6.21,M,M,M,M,M,M,M,M,M,M,M,M,M,M,M,M,46.40,LPOV 061100Z VRB02KT CAVOK 08/05 Q1033
LPOV,2017-12-06 12:00,-8.6459,40.9159,55.40,42.80,62.46,M,2.00,0.00,30.47,M,6.21,M,M,M,M,M,M,M,M,M,M,M,M,M,M,M,M,55.40,LPOV 061200Z VRB02KT CAVOK 13/06 Q1032
LPOV,2017-12-06 13:00,-8.6459,40.9159,59.00,44.60,58.77,M,2.00,0.00,30.47,M,6.21,M,M,M,M,M,M,M,M,M,M,M,M,M,M,M,M,59.00,LPOV 061300Z VRB02KT CAVOK 15/07 Q1032
LPOV,2017-12-06 14:00,-8.6459,40.9159,57.20,46.40,67.12,280.00,5.00,0.00,30.45,M,6.21,M,M,M,M,M,M,M,M,M,M,M,M,M,M,M,M,57.20,LPOV 061400Z 28005KT CAVOK 14/08 Q1031
LPOV,2017-12-06 15:00,-8.6459,40.9159,59.00,44.60,58.77,310.00,3.00,0.00,30.45,M,6.21,M,M,M,M,M,M,M,M,M,M,M,M,M,M,M,M,59.00,LPOV 061500Z 31003KT CAVOK 15/07 Q1031
LPOV,2017-12-06 16:00,-8.6459,40.9159,55.40,46.40,71.64,310.00,4.00,0.00,30.45,M,6.21,M,M,M,M,M,M,M,M,M,M,M,M,M,M,M,M,55.40,LPOV 061600Z 31004KT CAVOK 13/08 Q1031
LPOV,2017-12-06 17:00,-8.6459,40.9159,50.00,46.40,87.37,M,2.00,0.00,30.45,M,6.21,M,M,M,M,M,M,M,M,M,M,M,M,M,M,M,M,50.00,LPOV 061700Z VRB02KT CAVOK 10/08 Q1031
LPOV,2017-12-06 18:00,-8.6459,40.9159,46.40,42.80,87.19,M,2.00,0.00,30.45,M,6.21,M,M,M,M,M,M,M,M,M,M,M,M,M,M,M,M,46.40,LPOV 061800Z VRB02KT CAVOK 08/06 Q1031
LPOV,2017-12-06 19:00,-8.6459,40.9159,46.40,42.80,87.19,M,2.00,0.00,30.45,M,6.21,M,M,M,M,M,M,M,M,M,M,M,M,M,M,M,M,46.40,LPOV 061900Z VRB02KT CAVOK 08/06 Q1031
LPOV,2017-12-06 20:00,-8.6459,40.9159,44.60,42.80,93.35,M,2.00,0.00,30.45,M,6.21,M,M,M,M,M,M,M,M,M,M,M,M,M,M,M,M,44.60,LPOV 062000Z VRB02KT CAVOK 07/06 Q1031
LPOV,2017-12-06 21:00,-8.6459,40.9159,42.80,41.00,93.30,M,2.00,0.00,30.45,M,6.21,M,M,M,M,M,M,M,M,M,M,M,M,M,M,M,M,42.80,LPOV 062100Z VRB02KT CAVOK 06/05 Q1031
LPOV,2017-12-06 22:00,-8.6459,40.9159,42.80,41.00,93.30,M,2.00,0.00,30.45,M,6.21,M,M,M,M,M,M,M,M,M,M,M,M,M,M,M,M,42.80,LPOV 062200Z VRB02KT CAVOK 06/05 Q1031
LPOV,2017-12-06 23:00,-8.6459,40.9159,42.80,41.00,93.30,M,2.00,0.00,30.45,M,6.21,M,M,M,M,M,M,M,M,M,M,M,M,M,M,M,M,42.80,LPOV 062300Z VRB02KT CAVOK 06/05 Q1031
LPOV,2017-12-07 00:00,-8.6459,40.9159,42.80,41.00,93.30,M,2.00,0.00,30.45,M,6.21,M,M,M,M,M,M,M,M,M,M,M,M,M,M,M,M,42.80,LPOV 070000Z VRB02KT CAVOK 06/05 Q1031
LPOV,2017-12-07 01:00,-8.6459,40.9159,41.00,41.00,100.00,M,2.00,0.00,30.45,M,6.21,M,M,M,M,M,M,M,M,M,M,M,M,M,M,M,M,41.00,LPOV 070100Z VRB02KT CAVOK 05/05 Q1031
LPOV,2017-12-07 02:00,-8.6459,40.9159,39.20,39.20,100.00,M,2.00,0.00,30.45,M,6.21,M,M,M,M,M,M,M,M,M,M,M,M,M,M,M,M,39.20,LPOV 070200Z VRB02KT CAVOK 04/04 Q1031
LPOV,2017-12-07 03:00,-8.6459,40.9159,37.40,35.60,93.14,M,2.00,0.00,30.42,M,6.21,M,M,M,M,M,M,M,M,M,M,M,M,M,M,M,M,37.40,LPOV 070300Z VRB02KT CAVOK 03/02 Q1030
LPOV,2017-12-07 04:00,-8.6459,40.9159,39.20,35.60,86.79,M,2.00,0.00,30.42,M,6.21,M,M,M,M,M,M,M,M,M,M,M,M,M,M,M,M,39.20,LPOV 070400Z VRB02KT CAVOK 04/02 Q1030
LPOV,2017-12-07 05:00,-8.6459,40.9159,39.20,37.40,93.19,M,2.00,0.00,30.42,M,6.21,M,M,M,M,M,M,M,M,M,M,M,M,M,M,M,M,39.20,LPOV 070500Z VRB02KT CAVOK 04/03 Q1030
LPOV,2017-12-07 06:00,-8.6459,40.9159,41.00,39.20,93.24,M,2.00,0.00,30.42,M,6.21,M,M,M,M,M,M,M,M,M,M,M,M,M,M,M,M,41.00,LPOV 070600Z VRB02KT CAVOK 05/04 Q1030
LPOV,2017-12-07 07:00,-8.6459,40.9159,41.00,39.20,93.24,M,2.00,0.00,30.47,M,6.21,M,M,M,M,M,M,M,M,M,M,M,M,M,M,M,M,41.00,LPOV 070700Z VRB02KT CAVOK 05/04 Q1032
LPOV,2017-12-07 08:00,-8.6459,40.9159,39.20,37.40,93.19,M,2.00,0.00,30.45,M,6.21,M,M,M,M,M,M,M,M,M,M,M,M,M,M,M,M,39.20,LPOV 070800Z VRB02KT CAVOK 04/03 Q1031
LPOV,2017-12-07 09:00,-8.6459,40.9159,41.00,37.40,86.89,M,2.00,0.00,30.45,M,6.21,M,FEW,M,M,M,1500.00,M,M,M,M,M,M,M,M,M,M,41.00,LPOV 070900Z VRB02KT 9999 FEW015 05/03 Q1031
LPOV,2017-12-07 10:00,-8.6459,40.9159,51.80,41.00,66.48,170.00,3.00,0.00,30.45,M,6.21,M,FEW,M,M,M,3000.00,M,M,M,M,M,M,M,M,M,M,51.80,LPOV 071000Z 17003KT 9999 FEW030 11/05 Q1031
LPOV,2017-12-07 11:00,-8.6459,40.9159,55.40,41.00,58.27,170.00,7.00,0.00,30.45,M,6.21,M,FEW,M,M,M,3000.00,M,M,M,M,M,M,M,M,M,M,55.40,LPOV 071100Z 17007KT 9999 FEW030 13/05 Q1031
LPOV,2017-12-07 12:00,-8.6459,40.9159,57.20,39.20,50.91,180.00,8.00,0.00,30.45,M,6.21,M,SCT,M,M,M,3000.00,M,M,M,M,M,M,M,M,M,M,57.20,LPOV 071200Z 18008KT 9999 SCT030 14/04 Q1031
LPOV,2017-12-07 13:00,-8.6459,40.9159,59.00,39.20,47.72,200.00,7.00,0.00,30.42,M,6.21,M,SCT,M,M,M,3000.00,M,M,M,M,M,M,M,M,M,M,59.00,LPOV 071300Z 20007KT 9999 SCT030 15/04 Q1030
LPOV,2017-12-07 14:00,-8.6459,40.9159,59.00,39.20,47.72,210.00,7.00,0.00,30.42,M,6.21,M,SCT,M,M,M,3000.00,M,M,M,M,M,M,M,M,M,M,59.00,LPOV 071400Z 21007KT 9999 SCT030 15/04 Q1030
LPOV,2017-12-07 15:00,-8.6459,40.9159,59.00,44.60,58.77,220.00,6.00,0.00,30.42,M,6.21,M,FEW,BKN,M,M,2500.00,3000.00,M,M,M,M,M,M,M,M,M,59.00,LPOV 071500Z 22006KT 9999 FEW025 BKN030 15/07 Q1030
LPOV,2017-12-07 16:00,-8.6459,40.9159,57.20,44.60,62.69,200.00,6.00,0.00,30.42,M,6.21,M,FEW,BKN,M,M,2500.00,3000.00,M,M,M,M,M,M,M,M,M,57.20,LPOV 071600Z 20006KT 9999 FEW025 BKN030 14/07 Q1030
LPOV,2017-12-07 17:00,-8.6459,40.9159,57.20,42.80,58.52,190.00,4.00,0.00,30.39,M,6.21,M,FEW,BKN,M,M,2500.00,3000.00,M,M,M,M,M,M,M,M,M,57.20,LPOV 071700Z 19004KT 160V220 9999 FEW025 BKN030 14/06 Q1029
LPOV,2017-12-07 18:00,-8.6459,40.9159,55.40,46.40,71.64,190.00,3.00,0.00,30.42,M,6.21,M,FEW,BKN,M,M,2500.00,3000.00,M,M,M,M,M,M,M,M,M,55.40,LPOV 071800Z 19003KT 9999 FEW025 BKN030 13/08 Q1030
LPOV,2017-12-07 19:00,-8.6459,40.9159,53.60,44.60,71.45,170.00,4.00,0.00,30.42,M,6.21,M,SCT,BKN,M,M,2500.00,3000.00,M,M,M,M,M,M,M,M,M,53.60,LPOV 071900Z 17004KT 9999 SCT025 BKN030 12/07 Q1030
LPOV,2017-12-07 20:00,-8.6459,40.9159,55.40,44.60,66.91,170.00,7.00,0.00,30.42,M,6.21,M,FEW,SCT,BKN,M,1800.00,2500.00,3000.00,M,M,M,M,M,M,M,M,55.40,LPOV 072000Z 17007KT 9999 FEW018 SCT025 BKN030 13/07 Q1030
LPOV,2017-12-07 21:00,-8.6459,40.9159,55.40,44.60,66.91,160.00,6.00,0.00,30.42,M,6.21,M,FEW,SCT,BKN,M,1800.00,2500.00,3000.00,M,M,M,M,M,M,M,M,55.40,LPOV 072100Z 16006KT 9999 FEW018 SCT025 BKN030 13/07 Q1030
LPOV,2017-12-07 22:00,-8.6459,40.9159,55.40,44.60,66.91,170.00,9.00,0.00,30.42,M,6.21,M,FEW,SCT,BKN,M,1800.00,2500.00,3000.00,M,M,M,M,M,M,M,M,55.40,LPOV 072200Z 17009KT 9999 FEW018 SCT025 BKN030 13/07 Q1030
LPOV,2017-12-07 23:00,-8.6459,40.9159,55.40,46.40,71.64,160.00,7.00,0.00,30.42,M,6.21,M,FEW,BKN,M,M,1800.00,3000.00,M,M,M,M,M,M,M,M,M,55.40,LPOV 072300Z 16007KT 9999 FEW018 BKN030 13/08 Q1030
LPOV,2017-12-08 00:00,-8.6459,40.9159,55.40,48.20,76.66,160.00,8.00,0.00,30.39,M,6.21,M,SCT,BKN,M,M,1800.00,3000.00,M,M,M,M,M,M,M,M,M,55.40,LPOV 080000Z 16008KT 9999 SCT018 BKN030 13/09 Q1029
LPOV,2017-12-08 01:00,-8.6459,40.9159,53.60,50.00,87.56,160.00,6.00,0.00,30.39,M,6.21,M,SCT,BKN,M,M,1800.00,3000.00,M,M,M,M,M,M,M,M,M,53.60,LPOV 080100Z 16006KT 9999 SCT018 BKN030 12/10 Q1029
LPOV,2017-12-08 02:00,-8.6459,40.9159,55.40,50.00,81.99,180.00,6.00,0.00,30.39,M,6.21,M,SCT,BKN,M,M,1800.00,3000.00,M,M,M,M,M,M,M,M,M,55.40,LPOV 080200Z 18006KT 9999 SCT018 BKN030 13/10 Q1029
LPOV,2017-12-08 04:00,-8.6459,40.9159,53.60,50.00,87.56,160.00,8.00,0.00,30.36,M,5.59,M,SCT,BKN,M,M,1500.00,2500.00,M,M,-RA,M,M,M,M,M,M,53.60,LPOV 080400Z 16008KT 9000 -RA SCT015 BKN025 12/10 Q1028
LPOV,2017-12-08 05:00,-8.6459,40.9159,55.40,50.00,81.99,160.00,8.00,0.00,30.39,M,5.59,M,SCT,BKN,M,M,1500.00,2500.00,M,M,-RA,M,M,M,M,M,M,55.40,LPOV 080500Z 16008KT 9000 -RA SCT015 BKN025 13/10 Q1029
LPOV,2017-12-08 06:00,-8.6459,40.9159,53.60,51.80,93.60,160.00,8.00,0.00,30.36,M,5.59,M,SCT,SCT,BKN,M,600.00,1500.00,2500.00,M,-RADZ,M,M,M,M,M,M,53.60,LPOV 080600Z 16008KT 9000 -RADZ SCT006 SCT015 BKN025 12/11 Q1028
LPOV,2017-12-08 07:00,-8.6459,40.9159,53.60,50.00,87.56,160.00,8.00,0.00,30.36,M,6.21,M,SCT,SCT,BKN,M,600.00,1500.00,2500.00,M,M,M,M,M,M,M,M,53.60,LPOV 080700Z 16008KT 9999 SCT006 SCT015 BKN025 12/10 Q1028
LPOV,2017-12-08 08:00,-8.6459,40.9159,55.40,51.80,87.65,170.00,6.00,0.00,30.36,M,6.21,M,FEW,SCT,BKN,M,600.00,1500.00,2500.00,M,M,M,M,M,M,M,M,55.40,LPOV 080800Z 17006KT 9999 FEW006 SCT015 BKN025 13/11 Q1028
LPOV,2017-12-08 09:00,-8.6459,40.9159,55.40,53.60,93.65,170.00,6.00,0.00,30.39,M,6.21,M,FEW,OVC,M,M,1500.00,2500.00,M,M,M,M,M,M,M,M,M,55.40,LPOV 080900Z 17006KT 9999 FEW015 OVC025 13/12 Q1029
LPOV,2017-12-08 10:00,-8.6459,40.9159,57.20,53.60,87.74,170.00,6.00,0.00,30.39,M,4.35,M,SCT,OVC,M,M,600.00,2500.00,M,M,-RA,M,M,M,M,M,M,57.20,LPOV 081000Z 17006KT 7000 -RA SCT006 OVC025 14/12 Q1029
LPOV,2017-12-08 11:00,-8.6459,40.9159,57.20,53.60,87.74,160.00,5.00,0.00,30.39,M,4.97,M,SCT,OVC,M,M,600.00,2500.00,M,M,M,M,M,M,M,M,M,57.20,LPOV 081100Z 16005KT 8000 SCT006 OVC025 14/12 Q1029
LPOV,2017-12-08 12:00,-8.6459,40.9159,57.20,55.40,93.69,180.00,6.00,0.00,30.39,M,5.59,M,FEW,SCT,OVC,M,600.00,1200.00,2500.00,M,M,M,M,M,M,M,M,57.20,LPOV 081200Z 18006KT 9000 FEW006 SCT012 OVC025 14/13 Q1029
LPOV,2017-12-08 13:00,-8.6459,40.9159,59.00,55.40,87.83,180.00,5.00,0.00,30.39,M,5.59,M,FEW,BKN,BKN,M,600.00,1200.00,2500.00,M,M,M,M,M,M,M,M,59.00,LPOV 081300Z 18005KT 9000 FEW006 BKN012 BKN025 15/13 Q1029
LPOV,2017-12-08 14:00,-8.6459,40.9159,59.00,57.20,93.74,200.00,3.00,0.00,30.36,M,5.59,M,SCT,BKN,M,M,800.00,1400.00,M,M,M,M,M,M,M,M,M,59.00,LPOV 081400Z 20003KT 9000 SCT008 BKN014 15/14 Q1028
LPOV,2017-12-08 15:00,-8.6459,40.9159,59.00,57.20,93.74,260.00,3.00,0.00,30.36,M,4.35,M,SCT,BKN,M,M,800.00,1400.00,M,M,M,M,M,M,M,M,M,59.00,LPOV 081500Z 26003KT 170V310 7000 SCT008 BKN014 15/14 Q1028
LPOV,2017-12-08 16:00,-8.6459,40.9159,59.00,57.20,93.74,220.00,3.00,0.00,30.36,M,3.11,M,SCT,BKN,M,M,800.00,1400.00,M,M,BR,M,M,M,M,M,M,59.00,LPOV 081600Z 22003KT 170V250 5000 BR SCT008 BKN014 15/14 Q1028
LPOV,2017-12-08 17:00,-8.6459,40.9159,57.20,57.20,100.00,190.00,3.00,0.00,30.36,M,1.86,M,BKN,BKN,M,M,600.00,1200.00,M,M,-DZ BR,M,M,M,M,M,M,57.20,LPOV 081700Z 19003KT 3000 -DZ BR BKN006 BKN012 14/14 Q1028
LPOV,2017-12-08 18:00,-8.6459,40.9159,57.20,57.20,100.00,180.00,3.00,0.00,30.36,M,0.93,M,OVC,M,M,M,600.00,M,M,M,BR,M,M,M,M,M,M,57.20,LPOV 081800Z 18003KT 1500 BR OVC006 14/14 Q1028
LPOV,2017-12-08 19:00,-8.6459,40.9159,59.00,57.20,93.74,M,2.00,0.00,30.36,M,3.11,M,FEW,OVC,M,M,400.00,600.00,M,M,BR,M,M,M,M,M,M,59.00,LPOV 081900Z VRB02KT 5000 BR FEW004 OVC006 15/14 Q1028
LPOV,2017-12-08 20:00,-8.6459,40.9159,59.00,59.00,100.00,300.00,3.00,0.00,30.36,M,4.97,M,FEW,OVC,M,M,400.00,600.00,M,M,M,M,M,M,M,M,M,59.00,LPOV 082000Z 30003KT 260V340 8000 FEW004 OVC006 15/15 Q1028
LPOV,2017-12-08 21:00,-8.6459,40.9159,59.00,57.20,93.74,320.00,5.00,0.00,30.36,M,5.59,M,FEW,BKN,BKN,M,400.00,600.00,1200.00,M,M,M,M,M,M,M,M,59.00,LPOV 082100Z 32005KT 290V350 9000 FEW004 BKN006 BKN012 15/14 Q1028
LPOV,2017-12-08 22:00,-8.6459,40.9159,59.00,57.20,93.74,350.00,5.00,0.00,30.36,M,6.21,M,FEW,BKN,BKN,M,400.00,600.00,1200.00,M,M,M,M,M,M,M,M,59.00,LPOV 082200Z 35005KT 9999 FEW004 BKN006 BKN012 15/14 Q1028
LPOV,2017-12-08 23:00,-8.6459,40.9159,57.20,55.40,93.69,20.00,3.00,0.00,30.36,M,6.21,M,SCT,BKN,M,M,600.00,1200.00,M,M,M,M,M,M,M,M,M,57.20,LPOV 082300Z 02003KT 9999 SCT006 BKN012 14/13 Q1028
LPOV,2017-12-09 00:00,-8.6459,40.9159,57.20,55.40,93.69,M,2.00,0.00,30.36,M,6.21,M,SCT,BKN,BKN,M,600.00,1200.00,2000.00,M,M,M,M,M,M,M,M,57.20,LPOV 090000Z VRB02KT 9999 SCT006 BKN012 BKN020 14/13 Q1028
LPOV,2017-12-09 01:00,-8.6459,40.9159,55.40,55.40,100.00,M,1.00,0.00,30.36,M,4.97,M,SCT,BKN,M,M,1200.00,2000.00,M,M,M,M,M,M,M,M,M,55.40,LPOV 090100Z VRB01KT 8000 SCT012 BKN020 13/13 Q1028
LPOV,2017-12-09 02:00,-8.6459,40.9159,55.40,55.40,100.00,M,2.00,0.00,30.36,M,5.59,M,SCT,BKN,M,M,1200.00,2000.00,M,M,M,M,M,M,M,M,M,55.40,LPOV 090200Z VRB02KT 9000 SCT012 BKN020 13/13 Q1028
LPOV,2017-12-09 03:00,-8.6459,40.9159,55.40,55.40,100.00,M,1.00,0.00,30.36,M,5.59,M,FEW,BKN,M,M,900.00,2000.00,M,M,M,M,M,M,M,M,M,55.40,LPOV 090300Z VRB01KT 9000 FEW009 BKN020 13/13 Q1028
LPOV,2017-12-09 04:00,-8.6459,40.9159,55.40,55.40,100.00,M,1.00,0.00,30.33,M,6.21,M,FEW,BKN,M,M,900.00,2000.00,M,M,M,M,M,M,M,M,M,55.40,LPOV 090400Z VRB01KT 9999 FEW009 BKN020 13/13 Q1027
LPOV,2017-12-09 06:00,-8.6459,40.9159,55.40,53.60,93.65,M,1.00,0.00,30.33,M,6.21,M,FEW,BKN,M,M,900.00,2000.00,M,M,M,M,M,M,M,M,M,55.40,LPOV 090600Z VRB01KT 9999 FEW009 BKN020 13/12 Q1027
LPOV,2017-12-09 07:00,-8.6459,40.9159,55.40,53.60,93.65,M,1.00,0.00,30.33,M,6.21,M,FEW,BKN,M,M,900.00,2000.00,M,M,M,M,M,M,M,M,M,55.40,LPOV 090700Z VRB01KT 9999 FEW009 BKN020 13/12 Q1027
LPOV,2017-12-09 08:00,-8.6459,40.9159,53.60,53.60,100.00,M,1.00,0.00,30.33,M,3.73,M,FEW,BKN,M,M,900.00,2000.00,M,M,M,M,M,M,M,M,M,53.60,LPOV 090800Z VRB01KT 6000 FEW009 BKN020 12/12 Q1027
LPOV,2017-12-09 09:00,-8.6459,40.9159,55.40,53.60,93.65,M,2.00,0.00,30.33,M,3.73,M,FEW,BKN,M,M,900.00,2000.00,M,M,M,M,M,M,M,M,M,55.40,LPOV 090900Z VRB02KT 6000 FEW009 BKN020 13/12 Q1027
LPOV,2017-12-09 10:00,-8.6459,40.9159,57.20,55.40,93.69,160.00,3.00,0.00,30.33,M,5.59,M,FEW,BKN,M,M,900.00,2000.00,M,M,M,M,M,M,M,M,M,57.20,LPOV 091000Z 16003KT 9000 FEW009 BKN020 14/13 Q1027
LPOV,2017-12-09 11:00,-8.6459,40.9159,57.20,55.40,93.69,210.00,4.00,0.00,30.36,M,5.59,M,FEW,BKN,M,M,900.00,2000.00,M,M,M,M,M,M,M,M,M,57.20,LPOV 091100Z 21004KT 9000 FEW009 BKN020 14/13 Q1028
LPOV,2017-12-09 12:00,-8.6459,40.9159,59.00,55.40,87.83,180.00,6.00,0.00,30.36,M,5.59,M,FEW,BKN,M,M,900.00,2000.00,M,M,M,M,M,M,M,M,M,59.00,LPOV 091200Z 18006KT 9000 FEW009 BKN020 15/13 Q1028
LPOV,2017-12-09 13:00,-8.6459,40.9159,59.00,57.20,93.74,180.00,5.00,0.00,30.33,M,5.59,M,SCT,BKN,M,M,900.00,2000.00,M,M,M,M,M,M,M,M,M,59.00,LPOV 091300Z 18005KT 9000 SCT009 BKN020 15/14 Q1027
LPOV,2017-12-09 14:00,-8.6459,40.9159,60.80,59.00,93.79,210.00,4.00,0.00,30.30,M,5.59,M,SCT,BKN,M,M,900.00,2000.00,M,M,M,M,M,M,M,M,M,60.80,LPOV 091400Z 21004KT 9000 SCT009 BKN020 16/15 Q1026
LPOV,2017-12-09 15:00,-8.6459,40.9159,60.80,59.00,93.79,240.00,4.00,0.00,30.30,M,6.21,M,FEW,BKN,M,M,900.00,2000.00,M,M,M,M,M,M,M,M,M,60.80,LPOV 091500Z 24004KT 9999 FEW009 BKN020 16/15 Q1026
LPOV,2017-12-09 16:00,-8.6459,40.9159,60.80,59.00,93.79,250.00,3.00,0.00,30.27,M,6.21,M,FEW,BKN,M,M,900.00,2000.00,M,M,M,M,M,M,M,M,M,60.80,LPOV 091600Z 25003KT 9999 FEW009 BKN020 16/15 Q1025
LPOV,2017-12-09 17:00,-8.6459,40.9159,60.80,59.00,93.79,230.00,5.00,0.00,30.27,M,6.21,M,SCT,BKN,M,M,900.00,2000.00,M,M,M,M,M,M,M,M,M,60.80,LPOV 091700Z 23005KT 9999 SCT009 BKN020 16/15 Q1025
LPOV,2017-12-09 18:00,-8.6459,40.9159,59.00,59.00,100.00,230.00,5.00,0.00,30.27,M,6.21,M,FEW,BKN,M,M,900.00,2000.00,M,M,M,M,M,M,M,M,M,59.00,LPOV 091800Z 23005KT 9999 FEW009 BKN020 15/15 Q1025
LPOV,2017-12-09 19:00,-8.6459,40.9159,59.00,57.20,93.74,240.00,4.00,0.00,30.27,M,6.21,M,FEW,BKN,M,M,1200.00,1800.00,M,M,M,M,M,M,M,M,M,59.00,LPOV 091900Z 24004KT 9999 FEW012 BKN018 15/14 Q1025
LPOV,2017-12-09 20:00,-8.6459,40.9159,59.00,57.20,93.74,230.00,4.00,0.00,30.27,M,6.21,M,FEW,BKN,M,M,1200.00,1800.00,M,M,M,M,M,M,M,M,M,59.00,LPOV 092000Z 23004KT 9999 FEW012 BKN018 15/14 Q1025
LPOV,2017-12-09 21:00,-8.6459,40.9159,59.00,57.20,93.74,210.00,4.00,0.00,30.27,M,6.21,M,BKN,M,M,M,1800.00,M,M,M,M,M,M,M,M,M,M,59.00,LPOV 092100Z 21004KT 9999 BKN018 15/14 Q1025
LPOV,2017-12-09 22:00,-8.6459,40.9159,57.20,57.20,100.00,180.00,5.00,0.00,30.27,M,6.21,M,BKN,M,M,M,1800.00,M,M,M,M,M,M,M,M,M,M,57.20,LPOV 092200Z 18005KT 9999 BKN018 14/14 Q1025
LPOV,2017-12-09 23:00,-8.6459,40.9159,59.00,57.20,93.74,220.00,7.00,0.00,30.24,M,6.21,M,BKN,M,M,M,1800.00,M,M,M,M,M,M,M,M,M,M,59.00,LPOV 092300Z 22007KT 9999 BKN018 15/14 Q1024
LPOV,2017-12-10 00:00,-8.6459,40.9159,59.00,57.20,93.74,210.00,7.00,0.00,30.24,M,6.21,M,BKN,M,M,M,1800.00,M,M,M,M,M,M,M,M,M,M,59.00,LPOV 100000Z 21007KT 9999 BKN018 15/14 Q1024
LPOV,2017-12-10 01:00,-8.6459,40.9159,59.00,57.20,93.74,210.00,7.00,0.00,30.21,M,6.21,M,BKN,M,M,M,1800.00,M,M,M,M,M,M,M,M,M,M,59.00,LPOV 100100Z 21007KT 9999 BKN018 15/14 Q1023
LPOV,2017-12-10 02:00,-8.6459,40.9159,59.00,57.20,93.74,210.00,8.00,0.00,30.18,M,6.21,M,BKN,M,M,M,1800.00,M,M,M,M,M,M,M,M,M,M,59.00,LPOV 100200Z 21008KT 9999 BKN018 15/14 Q1022
LPOV,2017-12-10 03:00,-8.6459,40.9159,59.00,57.20,93.74,210.00,7.00,0.00,30.18,M,6.21,M,FEW,BKN,M,M,400.00,1800.00,M,M,M,M,M,M,M,M,M,59.00,LPOV 100300Z 21007KT 9999 FEW004 BKN018 15/14 Q1022
LPOV,2017-12-10 04:00,-8.6459,40.9159,59.00,57.20,93.74,210.00,6.00,0.00,30.12,M,6.21,M,SCT,BKN,M,M,400.00,1800.00,M,M,M,M,M,M,M,M,M,59.00,LPOV 100400Z 21006KT 9999 SCT004 BKN018 15/14 Q1020
LPOV,2017-12-10 05:00,-8.6459,40.9159,59.00,57.20,93.74,210.00,9.00,0.00,30.12,M,6.21,M,SCT,BKN,M,M,400.00,1800.00,M,M,M,M,M,M,M,M,M,59.00,LPOV 100500Z 21009KT 9999 SCT004 BKN018 15/14 Q1020
LPOV,2017-12-10 06:00,-8.6459,40.9159,59.00,57.20,93.74,200.00,7.00,0.00,30.09,M,6.21,M,SCT,BKN,M,M,400.00,1800.00,M,M,M,M,M,M,M,M,M,59.00,LPOV 100600Z 20007KT 9999 SCT004 BKN018 15/14 Q1019
LPOV,2017-12-10 07:00,-8.6459,40.9159,59.00,57.20,93.74,200.00,8.00,0.00,30.06,M,6.21,M,FEW,SCT,BKN,M,400.00,800.00,1800.00,M,M,M,M,M,M,M,M,59.00,LPOV 100700Z 20008KT 9999 FEW004 SCT008 BKN018 15/14 Q1018
LPOV,2017-12-10 08:00,-8.6459,40.9159,59.00,57.20,93.74,210.00,9.00,0.00,30.06,M,6.21,M,SCT,SCT,BKN,M,400.00,800.00,1800.00,M,M,M,M,M,M,M,M,59.00,LPOV 100800Z 21009KT 9999 SCT004 SCT008 BKN018 15/14 Q1018
LPOV,2017-12-10 09:00,-8.6459,40.9159,59.00,59.00,100.00,210.00,10.00,0.00,30.00,M,6.21,M,SCT,SCT,BKN,M,200.00,400.00,1800.00,M,M,M,M,M,M,M,M,59.00,LPOV 100900Z 21010KT 9999 SCT002 SCT004 BKN018 15/15 Q1016
LPOV,2017-12-10 10:00,-8.6459,40.9159,60.80,57.20,87.92,210.00,10.00,0.00,30.00,M,6.21,M,FEW,SCT,BKN,M,200.00,400.00,1800.00,M,M,M,M,M,M,M,M,60.80,LPOV 101000Z 21010KT 9999 FEW002 SCT004 BKN018 16/14 Q1016
LPOV,2017-12-10 11:00,-8.6459,40.9159,60.80,59.00,93.79,210.00,10.00,0.00,29.97,M,6.21,M,SCT,SCT,BKN,M,600.00,1000.00,1800.00,M,M,M,M,M,M,M,M,60.80,LPOV 101100Z 21010KT 160V250 9999 SCT006 SCT010 BKN018 16/15 Q1015
LPOV,2017-12-10 12:00,-8.6459,40.9159,60.80,59.00,93.79,210.00,12.00,0.00,29.94,M,6.21,M,BKN,BKN,M,M,1000.00,1600.00,M,M,M,M,M,M,M,M,M,60.80,LPOV 101200Z 21012KT 180V250 9999 BKN010 BKN016 16/15 Q1014
LPOV,2017-12-10 13:00,-8.6459,40.9159,60.80,59.00,93.79,210.00,13.00,0.00,29.85,M,6.21,M,FEW,BKN,BKN,M,600.00,1000.00,1600.00,M,M,M,M,M,M,M,M,60.80,LPOV 101300Z 21013KT 180V240 9999 FEW006 BKN010 BKN016 16/15 Q1011
LPOV,2017-12-10 14:00,-8.6459,40.9159,60.80,57.20,87.92,210.00,16.00,0.00,29.80,M,6.21,26.00,FEW,BKN,BKN,M,600.00,800.00,1600.00,M,M,M,M,M,M,M,M,60.80,LPOV 101400Z 21016G26KT 180V240 9999 FEW006 BKN008 BKN016 16/14 Q1009
LPOV,2017-12-10 15:00,-8.6459,40.9159,59.00,57.20,93.74,210.00,18.00,0.00,29.74,M,3.73,31.00,BKN,BKN,M,M,500.00,800.00,M,M,-RA,M,M,M,M,M,M,59.00,LPOV 101500Z 21018G31KT 170V240 6000 -RA BKN005 BKN008 15/14 Q1007
LPOV,2017-12-10 16:00,-8.6459,40.9159,59.00,57.20,93.74,210.00,17.00,0.00,29.68,M,2.49,27.00,BKN,BKN,M,M,500.00,800.00,M,M,-RADZ BR,M,M,M,M,M,M,59.00,LPOV 101600Z 21017G27KT 170V240 4000 -RADZ BR BKN005 BKN008 15/14 Q1005
LPOV,2017-12-10 20:00,-8.6459,40.9159,59.00,57.20,93.74,210.00,20.00,0.00,29.41,M,3.11,33.00,BKN,BKN,M,M,700.00,1000.00,M,M,-RADZ BR,M,M,M,M,M,M,59.00,LPOV 102000Z 21020G33KT 5000 -RADZ BR BKN007 BKN010 15/14 Q0996
LPOV,2017-12-10 21:00,-8.6459,40.9159,59.00,57.20,93.74,210.00,22.00,0.00,29.35,M,3.11,36.00,BKN,BKN,M,M,700.00,1000.00,M,M,RADZ BR,M,M,M,M,M,M,59.00,LPOV 102100Z 21022G36KT 5000 RADZ BR BKN007 BKN010 15/14 Q0994
LPOV,2017-12-10 22:00,-8.6459,40.9159,55.40,55.40,100.00,310.00,12.00,0.00,29.38,M,3.73,22.00,BKN,BKN,M,M,600.00,800.00,M,M,-RADZ,M,M,M,M,M,M,55.40,LPOV 102200Z 31012G22KT 6000 -RADZ BKN006 BKN008 13/13 Q0995
LPOV,2017-12-10 23:00,-8.6459,40.9159,53.60,51.80,93.60,280.00,10.00,0.00,29.35,M,3.73,M,SCT,BKN,M,M,700.00,1000.00,M,M,-RADZ,M,M,M,M,M,M,53.60,LPOV 102300Z 28010KT 210V310 6000 -RADZ SCT007 BKN010 12/11 Q0994
LPOV,2017-12-11 00:00,-8.6459,40.9159,53.60,50.00,87.56,270.00,13.00,0.00,29.35,M,4.97,26.00,FEW,BKN,BKN,M,700.00,1000.00,1500.00,M,-RA,M,M,M,M,M,M,53.60,LPOV 110000Z 27013G26KT 230V320 8000 -RA FEW007 BKN010 BKN015 12/10 Q0994
LPOV,2017-12-11 01:00,-8.6459,40.9159,55.40,46.40,71.64,300.00,13.00,0.00,29.35,M,6.21,26.00,SCT,BKN,BKN,M,1000.00,1800.00,3000.00,M,M,M,M,M,M,M,M,55.40,LPOV 110100Z 30013G26KT 260V350 9999 SCT010 BKN018 BKN030 13/08 Q0994
LPOV,2017-12-11 02:00,-8.6459,40.9159,53.60,44.60,71.45,300.00,15.00,0.00,29.35,M,6.21,33.00,SCT,SCT,M,M,1800.00,3000.00,M,M,M,M,M,M,M,M,M,53.60,LPOV 110200Z 30015G33KT 9999 SCT018 SCT030 12/07 Q0994
LPOV,2017-12-11 03:00,-8.6459,40.9159,51.80,44.60,76.34,330.00,15.00,0.00,29.35,M,6.21,27.00,SCT,BKN,M,M,1600.00,2500.00,M,M,M,M,M,M,M,M,M,51.80,LPOV 110300Z 33015G27KT 9999 SCT016 BKN025 11/07 Q0994
LPOV,2017-12-11 04:00,-8.6459,40.9159,51.80,44.60,76.34,330.00,15.00,0.00,29.35,M,6.21,M,SCT,BKN,M,M,1600.00,2500.00,M,M,M,M,M,M,M,M,M,51.80,LPOV 110400Z 33015KT 310V010 9999 SCT016 BKN025 11/07 Q0994
LPOV,2017-12-11 05:00,-8.6459,40.9159,48.20,42.80,81.47,360.00,8.00,0.00,29.38,M,6.21,M,SCT,FEW,SCT,M,1700.00,1800.00,3000.00,M,M,M,M,M,M,M,M,44.07,LPOV 110500Z 36008KT 330V040 9999 SCT017 FEW018CB SCT030 09/06 Q0995
LPOV,2017-12-11 06:00,-8.6459,40.9159,44.60,42.80,93.35,30.00,4.00,0.00,29.44,M,4.35,M,SCT,FEW,BKN,M,1700.00,1800.00,3000.00,M,-SHRA,M,M,M,M,M,M,42.13,LPOV 110600Z 03004KT 7000 -SHRA SCT017 FEW018CB BKN030 07/06 Q0997
LPOV,2017-12-11 07:00,-8.6459,40.9159,46.40,42.80,87.19,350.00,8.00,0.00,29.44,M,6.21,M,SCT,FEW,BKN,M,1700.00,2500.00,3000.00,M,M,M,M,M,M,M,M,41.85,LPOV 110700Z 35008KT 9999 SCT017 FEW025CB BKN030 08/06 Q0997
LPOV,2017-12-11 08:00,-8.6459,40.9159,51.80,44.60,76.34,330.00,8.00,0.00,29.44,M,4.35,M,BKN,FEW,SCT,M,1500.00,2500.00,3000.00,M,-SHRAGS,M,M,M,M,M,M,51.80,LPOV 110800Z 33008KT 7000 -SHRAGS BKN015 FEW025CB SCT030 11/07 Q0997
LPOV,2017-12-11 09:00,-8.6459,40.9159,53.60,44.60,71.45,290.00,7.00,0.00,29.44,M,4.35,M,FEW,BKN,FEW,M,1300.00,1500.00,2500.00,M,-SHRA,M,M,M,M,M,M,53.60,LPOV 110900Z 29007KT 7000 -SHRA FEW013 BKN015 FEW025CB 12/07 Q0997
LPOV,2017-12-11 10:00,-8.6459,40.9159,53.60,46.40,76.50,260.00,6.00,0.00,29.44,M,6.21,M,FEW,BKN,FEW,M,1300.00,1500.00,2500.00,M,M,M,M,M,M,M,M,53.60,LPOV 111000Z 26006KT 9999 FEW013 BKN015 FEW025CB 12/08 Q0997
LPOV,2017-12-11 11:00,-8.6459,40.9159,53.60,50.00,87.56,330.00,13.00,0.00,29.44,M,6.21,24.00,FEW,SCT,FEW,M,1300.00,1500.00,2500.00,M,M,M,M,M,M,M,M,53.60,LPOV 111100Z 33013G24KT 9999 FEW013 SCT015 FEW025CB 12/10 Q0997
LPOV,2017-12-11 12:00,-8.6459,40.9159,51.80,48.20,87.47,350.00,14.00,0.00,29.50,M,6.21,M,FEW,SCT,FEW,M,1300.00,1500.00,2500.00,M,M,M,M,M,M,M,M,51.80,LPOV 111200Z 35014KT 9999 FEW013 SCT015 FEW025CB 11/09 Q0999
LPOV,2017-12-11 13:00,-8.6459,40.9159,50.00,46.40,87.37,350.00,17.00,0.00,29.53,M,6.21,28.00,FEW,SCT,M,M,800.00,1500.00,M,M,M,M,M,M,M,M,M,43.66,LPOV 111300Z 35017G28KT 9999 FEW008 SCT015 10/08 Q1000 RESHRAGS
LPOV,2017-12-11 14:00,-8.6459,40.9159,50.00,44.60,81.61,350.00,15.00,0.00,29.56,M,6.21,M,FEW,SCT,M,M,800.00,1500.00,M,M,M,M,M,M,M,M,M,44.12,LPOV 111400Z 35015KT 9999 FEW008 SCT015 10/07 Q1001
LPOV,2017-12-11 15:00,-8.6459,40.9159,51.80,44.60,76.34,360.00,14.00,0.00,29.59,M,6.21,27.00,FEW,SCT,M,M,1500.00,3000.00,M,M,M,M,M,M,M,M,M,51.80,LPOV 111500Z 36014G27KT 9999 FEW015 SCT030 11/07 Q1002
LPOV,2017-12-11 17:00,-8.6459,40.9159,50.00,41.00,71.07,340.00,10.00,0.00,29.71,M,6.21,M,FEW,M,M,M,1500.00,M,M,M,M,M,M,M,M,M,M,45.54,LPOV 111700Z 34010KT 340V040 9999 FEW015 10/05 Q1006
LPOV,2017-12-11 18:00,-8.6459,40.9159,48.20,42.80,81.47,340.00,7.00,0.00,29.74,M,6.21,M,FEW,M,M,M,1500.00,M,M,M,M,M,M,M,M,M,M,44.53,LPOV 111800Z 34007KT 9999 FEW015 09/06 Q1007
LPOV,2017-12-11 19:00,-8.6459,40.9159,48.20,39.20,70.88,340.00,6.00,0.00,29.77,M,6.21,M,FEW,M,M,M,1500.00,M,M,M,M,M,M,M,M,M,M,45.04,LPOV 111900Z 34006KT 340V040 9999 FEW015 09/04 Q1008
LPOV,2017-12-11 20:00,-8.6459,40.9159,46.40,41.00,81.34,M,2.00,0.00,29.80,M,6.21,M,FEW,M,M,M,1500.00,M,M,M,M,M,M,M,M,M,M,46.40,LPOV 112000Z VRB02KT 9999 FEW015 08/05 Q1009
LPOV,2017-12-11 21:00,-8.6459,40.9159,42.80,39.20,86.99,M,1.00,0.00,29.85,M,6.21,M,FEW,M,M,M,1500.00,M,M,M,M,M,M,M,M,M,M,42.80,LPOV 112100Z VRB01KT 9999 FEW015 06/04 Q1011
LPOV,2017-12-11 22:00,-8.6459,40.9159,41.00,37.40,86.89,M,2.00,0.00,29.85,M,6.21,M,FEW,M,M,M,3000.00,M,M,M,M,M,M,M,M,M,M,41.00,LPOV 112200Z VRB02KT 9999 FEW030 05/03 Q1011
LPOV,2017-12-11 23:00,-8.6459,40.9159,37.40,35.60,93.14,180.00,3.00,0.00,29.91,M,6.21,M,M,M,M,M,M,M,M,M,M,M,M,M,M,M,M,34.86,LPOV 112300Z 18003KT CAVOK 03/02 Q1013
LPOV,2017-12-12 00:00,-8.6459,40.9159,35.60,35.60,100.00,M,1.00,0.00,29.94,M,6.21,M,M,M,M,M,M,M,M,M,M,M,M,M,M,M,M,35.60,LPOV 120000Z VRB01KT CAVOK 02/02 Q1014
LPOV,2017-12-12 01:00,-8.6459,40.9159,35.60,33.80,93.08,M,1.00,0.00,29.94,M,6.21,M,M,M,M,M,M,M,M,M,M,M,M,M,M,M,M,35.60,LPOV 120100Z VRB01KT CAVOK 02/01 Q1014
LPOV,2017-12-12 02:00,-8.6459,40.9159,33.80,33.80,100.00,M,2.00,0.00,29.97,M,6.21,M,M,M,M,M,M,M,M,M,M,M,M,M,M,M,M,33.80,LPOV 120200Z VRB02KT CAVOK 01/01 Q1015
LPOV,2017-12-12 03:00,-8.6459,40.9159,33.80,33.80,100.00,M,2.00,0.00,29.97,M,6.21,M,M,M,M,M,M,M,M,M,M,M,M,M,M,M,M,33.80,LPOV 120300Z VRB02KT CAVOK 01/01 Q1015
LPOV,2017-12-12 04:00,-8.6459,40.9159,33.80,33.80,100.00,M,1.00,0.00,30.00,M,6.21,M,M,M,M,M,M,M,M,M,M,M,M,M,M,M,M,33.80,LPOV 120400Z VRB01KT CAVOK 01/01 Q1016
LPOV,2017-12-12 05:00,-8.6459,40.9159,33.80,33.80,100.00,M,1.00,0.00,30.00,M,6.21,M,FEW,M,M,M,1200.00,M,M,M,M,M,M,M,M,M,M,33.80,LPOV 120500Z VRB01KT 9999 FEW012 01/01 Q1016
LPOV,2017-12-12 06:00,-8.6459,40.9159,33.80,32.00,93.03,M,1.00,0.00,30.03,M,6.21,M,FEW,M,M,M,4000.00,M,M,M,M,M,M,M,M,M,M,33.80,LPOV 120600Z VRB01KT 9999 FEW040 01/00 Q1017
LPOV,2017-12-12 07:00,-8.6459,40.9159,32.00,32.00,100.00,M,1.00,0.00,30.03,M,6.21,M,FEW,M,M,M,4000.00,M,M,M,M,M,M,M,M,M,M,32.00,LPOV 120700Z VRB01KT 9999 FEW040 00/M00 Q1017
LPOV,2017-12-12 08:00,-8.6459,40.9159,32.00,32.00,100.00,M,1.00,0.00,30.09,M,6.21,M,FEW,M,M,M,1200.00,M,M,M,M,M,M,M,M,M,M,32.00,LPOV 120800Z VRB01KT 9999 FEW012 00/M00 Q1019
LPOV,2017-12-12 09:00,-8.6459,40.9159,35.60,33.80,93.08,170.00,3.00,0.00,30.09,M,6.21,M,FEW,M,M,M,3500.00,M,M,M,M,M,M,M,M,M,M,32.80,LPOV 120900Z 17003KT 9999 FEW035 02/01 Q1019
LPOV,2017-12-12 10:00,-8.6459,40.9159,42.80,41.00,93.30,180.00,4.00,0.00,30.15,M,6.21,M,FEW,M,M,M,3500.00,M,M,M,M,M,M,M,M,M,M,40.03,LPOV 121000Z 18004KT 9999 FEW035 06/05 Q1021
LPOV,2017-12-12 11:00,-8.6459,40.9159,48.20,42.80,81.47,M,1.00,0.00,30.15,M,6.21,M,SCT,M,M,M,3500.00,M,M,M,M,M,M,M,M,M,M,48.20,LPOV 121100Z VRB01KT 9999 SCT035 09/06 Q1021
LPOV,2017-12-12 12:00,-8.6459,40.9159,55.40,48.20,76.66,M,2.00,0.00,30.15,M,6.21,M,FEW,M,M,M,2200.00,M,M,M,M,M,M,M,M,M,M,55.40,LPOV 121200Z VRB02KT 9999 FEW022 13/09 Q1021
LPOV,2017-12-12 13:00,-8.6459,40.9159,53.60,44.60,71.45,290.00,4.00,0.00,30.15,M,6.21,M,FEW,M,M,M,2200.00,M,M,M,M,M,M,M,M,M,M,53.60,LPOV 121300Z 29004KT 250V340 9999 FEW022 12/07 Q1021
LPOV,2017-12-12 14:00,-8.6459,40.9159,53.60,46.40,76.50,290.00,5.00,0.00,30.18,M,6.21,M,FEW,BKN,M,M,2200.00,3500.00,M,M,M,M,M,M,M,M,M,53.60,LPOV 121400Z 29005KT 250V330 9999 FEW022 BKN035 12/08 Q1022
LPOV,2017-12-12 15:00,-8.6459,40.9159,53.60,48.20,81.87,310.00,3.00,0.00,30.15,M,6.21,M,FEW,BKN,M,M,2200.00,3500.00,M,M,M,M,M,M,M,M,M,53.60,LPOV 121500Z 31003KT 260V340 9999 FEW022 BKN035 12/09 Q1021
LPOV,2017-12-12 16:00,-8.6459,40.9159,55.40,44.60,66.91,M,2.00,0.00,30.18,M,6.21,M,BKN,M,M,M,3500.00,M,M,M,M,M,M,M,M,M,M,55.40,LPOV 121600Z VRB02KT 9999 BKN035 13/07 Q1022
LPOV,2017-12-12 17:00,-8.6459,40.9159,51.80,48.20,87.47,M,2.00,0.00,30.18,M,6.21,M,SCT,M,M,M,3500.00,M,M,M,M,M,M,M,M,M,M,51.80,LPOV 121700Z VRB02KT 9999 SCT035 11/09 Q1022
LPOV,2017-12-12 18:00,-8.6459,40.9159,48.20,44.60,87.28,M,1.00,0.00,30.21,M,6.21,M,SCT,M,M,M,3500.00,M,M,M,M,M,M,M,M,M,M,48.20,LPOV 121800Z VRB01KT 9999 SCT035 09/07 Q1023
LPOV,2017-12-12 19:00,-8.6459,40.9159,44.60,42.80,93.35,M,1.00,0.00,30.21,M,6.21,M,FEW,M,M,M,3500.00,M,M,M,M,M,M,M,M,M,M,44.60,LPOV 121900Z VRB01KT 9999 FEW035 07/06 Q1023
LPOV,2017-12-12 20:00,-8.6459,40.9159,42.80,41.00,93.30,M,2.00,0.00,30.24,M,6.21,M,M,M,M,M,M,M,M,M,M,M,M,M,M,M,M,42.80,LPOV 122000Z VRB02KT CAVOK 06/05 Q1024
LPOV,2017-12-12 21:00,-8.6459,40.9159,42.80,41.00,93.30,M,2.00,0.00,30.24,M,6.21,M,M,M,M,M,M,M,M,M,M,M,M,M,M,M,M,42.80,LPOV 122100Z VRB02KT CAVOK 06/05 Q1024
LPOV,2017-12-12 22:00,-8.6459,40.9159,41.00,41.00,100.00,170.00,3.00,0.00,30.24,M,6.21,M,M,M,M,M,M,M,M,M,M,M,M,M,M,M,M,38.98,LPOV 122200Z 17003KT CAVOK 05/05 Q1024
LPOV,2017-12-12 23:00,-8.6459,40.9159,42.80,42.80,100.00,M,2.00,0.00,30.27,M,6.21,M,M,M,M,M,M,M,M,M,M,M,M,M,M,M,M,42.80,LPOV 122300Z VRB02KT CAVOK 06/06 Q1025
LPOV,2017-12-13 00:00,-8.6459,40.9159,44.60,42.80,93.35,180.00,5.00,0.00,30.27,M,6.21,M,M,M,M,M,M,M,M,M,M,M,M,M,M,M,M,41.36,LPOV 130000Z 18005KT CAVOK 07/06 Q1025
LPOV,2017-12-13 01:00,-8.6459,40.9159,46.40,44.60,93.40,190.00,6.00,0.00,30.27,M,6.21,M,M,M,M,M,M,M,M,M,M,M,M,M,M,M,M,42.87,LPOV 130100Z 19006KT CAVOK 08/07 Q1025
LPOV,2017-12-13 02:00,-8.6459,40.9159,50.00,44.60,81.61,180.00,4.00,0.00,30.27,M,6.21,M,M,M,M,M,M,M,M,M,M,M,M,M,M,M,M,48.44,LPOV 130200Z 18004KT CAVOK 10/07 Q1025
LPOV,2017-12-13 03:00,-8.6459,40.9159,51.80,48.20,87.47,170.00,7.00,0.00,30.27,M,6.21,M,SCT,M,M,M,4000.00,M,M,M,M,M,M,M,M,M,M,51.80,LPOV 130300Z 17007KT 9999 SCT040 11/09 Q1025
LPOV,2017-12-13 04:00,-8.6459,40.9159,51.80,44.60,76.34,170.00,8.00,0.00,30.27,M,6.21,M,BKN,M,M,M,4000.00,M,M,M,M,M,M,M,M,M,M,51.80,LPOV 130400Z 17008KT 9999 BKN040 11/07 Q1025
LPOV,2017-12-13 05:00,-8.6459,40.9159,51.80,46.40,81.74,160.00,9.00,0.00,30.27,M,6.21,M,BKN,M,M,M,3000.00,M,M,M,M,M,M,M,M,M,M,51.80,LPOV 130500Z 16009KT 9999 BKN030 11/08 Q1025
LPOV,2017-12-13 06:00,-8.6459,40.9159,51.80,44.60,76.34,160.00,11.00,0.00,30.24,M,6.21,M,BKN,M,M,M,3000.00,M,M,M,M,M,M,M,M,M,M,51.80,LPOV 130600Z 16011KT 9999 BKN030 11/07 Q1024
LPOV,2017-12-13 07:00,-8.6459,40.9159,50.00,46.40,87.37,180.00,10.00,0.00,30.27,M,5.59,M,FEW,BKN,M,M,800.00,3000.00,M,M,-RADZ,M,M,M,M,M,M,45.54,LPOV 130700Z 18010KT 9000 -RADZ FEW008 BKN030 10/08 Q1025
LPOV,2017-12-13 08:00,-8.6459,40.9159,50.00,48.20,93.50,160.00,10.00,0.00,30.30,M,5.59,M,SCT,BKN,M,M,800.00,2500.00,M,M,-DZ,M,M,M,M,M,M,45.54,LPOV 130800Z 16010KT 9000 -DZ SCT008 BKN025 10/09 Q1026
LPOV,2017-12-13 09:00,-8.6459,40.9159,50.00,48.20,93.50,160.00,9.00,0.00,30.30,M,4.35,M,SCT,BKN,M,M,800.00,2500.00,M,M,-DZ,M,M,M,M,M,M,45.90,LPOV 130900Z 16009KT 120V190 7000 -DZ SCT008 BKN025 10/09 Q1026
LPOV,2017-12-13 10:00,-8.6459,40.9159,50.00,48.20,93.50,160.00,9.00,0.00,30.33,M,4.97,M,BKN,SCT,BKN,M,700.00,1000.00,2200.00,M,-DZ,M,M,M,M,M,M,45.90,LPOV 131000Z 16009KT 130V190 8000 -DZ BKN007 SCT010 BKN022 10/09 Q1027
LPOV,2017-12-13 11:00,-8.6459,40.9159,51.80,50.00,93.55,160.00,9.00,0.00,30.33,M,6.21,M,FEW,SCT,M,M,700.00,1200.00,M,M,M,M,M,M,M,M,M,51.80,LPOV 131100Z 16009KT 9999 FEW007 SCT012 11/10 Q1027
LPOV,2017-12-13 12:00,-8.6459,40.9159,53.60,51.80,93.60,170.00,11.00,0.00,30.33,M,6.21,M,FEW,BKN,M,M,800.00,1200.00,M,M,M,M,M,M,M,M,M,53.60,LPOV 131200Z 17011KT 9999 FEW008 BKN012 12/11 Q1027
LPOV,2017-12-13 13:00,-8.6459,40.9159,55.40,51.80,87.65,160.00,9.00,0.00,30.33,M,6.21,M,FEW,BKN,M,M,800.00,1300.00,M,M,M,M,M,M,M,M,M,55.40,LPOV 131300Z 16009KT 9999 FEW008 BKN013 13/11 Q1027
LPOV,2017-12-13 15:00,-8.6459,40.9159,55.40,51.80,87.65,160.00,10.00,0.00,30.27,M,6.21,M,FEW,SCT,BKN,M,800.00,1300.00,2000.00,M,M,M,M,M,M,M,M,55.40,LPOV 131500Z 16010KT 9999 FEW008 SCT013 BKN020 13/11 Q1025
LPOV,2017-12-13 16:00,-8.6459,40.9159,55.40,51.80,87.65,170.00,9.00,0.00,30.30,M,5.59,M,SCT,BKN,M,M,800.00,1300.00,M,M,-DZ,M,M,M,M,M,M,55.40,LPOV 131600Z 17009KT 9000 -DZ SCT008 BKN013 13/11 Q1026
LPOV,2017-12-13 17:00,-8.6459,40.9159,53.60,53.60,100.00,170.00,9.00,0.00,30.30,M,1.55,M,FEW,BKN,BKN,M,500.00,800.00,1200.00,M,-DZ BR,M,M,M,M,M,M,53.60,LPOV 131700Z 17009KT 2500 -DZ BR FEW005 BKN008 BKN012 12/12 Q1026
LPOV,2017-12-13 18:00,-8.6459,40.9159,53.60,51.80,93.60,180.00,9.00,0.00,30.30,M,1.24,M,SCT,OVC,M,M,400.00,700.00,M,M,-DZ BR,M,M,M,M,M,M,53.60,LPOV 131800Z 18009KT 2000 -DZ BR SCT004 OVC007 12/11 Q1026
LPOV,2017-12-13 19:00,-8.6459,40.9159,53.60,51.80,93.60,160.00,7.00,0.00,30.30,M,1.24,M,SCT,OVC,M,M,400.00,700.00,M,M,-DZ BR,M,M,M,M,M,M,53.60,LPOV 131900Z 16007KT 2000 -DZ BR SCT004 OVC007 12/11 Q1026
LPOV,2017-12-13 20:00,-8.6459,40.9159,53.60,53.60,100.00,160.00,9.00,0.00,30.30,M,1.24,M,BKN,OVC,M,M,400.00,600.00,M,M,-DZ BR,M,M,M,M,M,M,53.60,LPOV 132000Z 16009KT 2000 -DZ BR BKN004 OVC006 12/12 Q1026
LPOV,2017-12-13 21:00,-8.6459,40.9159,53.60,53.60,100.00,170.00,8.00,0.00,30.30,M,1.24,M,BKN,OVC,M,M,400.00,600.00,M,M,-DZ BR,M,M,M,M,M,M,53.60,LPOV 132100Z 17008KT 2000 -DZ BR BKN004 OVC006 12/12 Q1026
LPOV,2017-12-13 22:00,-8.6459,40.9159,55.40,51.80,87.65,190.00,10.00,0.00,30.30,M,1.24,M,BKN,OVC,M,M,500.00,700.00,M,M,-DZ BR,M,M,M,M,M,M,55.40,LPOV 132200Z 19010KT 2000 -DZ BR BKN005 OVC007 13/11 Q1026
LPOV,2017-12-13 23:00,-8.6459,40.9159,55.40,51.80,87.65,170.00,7.00,0.00,30.30,M,3.73,M,BKN,OVC,M,M,500.00,700.00,M,M,-DZ BR,M,M,M,M,M,M,55.40,LPOV 132300Z 17007KT 6000 -DZ BR BKN005 OVC007 13/11 Q1026
LPOV,2017-12-14 00:00,-8.6459,40.9159,53.60,53.60,100.00,170.00,7.00,0.00,30.27,M,3.73,M,BKN,OVC,M,M,400.00,600.00,M,M,-DZ,M,M,M,M,M,M,53.60,LPOV 140000Z 17007KT 6000 -DZ BKN004 OVC006 12/12 Q1025
LPOV,2017-12-14 02:00,-8.6459,40.9159,55.40,53.60,93.65,180.00,6.00,0.00,30.27,M,4.35,M,BKN,OVC,M,M,400.00,600.00,M,M,-RADZ,M,M,M,M,M,M,55.40,LPOV 140200Z 18006KT 7000 -RADZ BKN004 OVC006 13/12 Q1025
LPOV,2017-12-14 03:00,-8.6459,40.9159,55.40,53.60,93.65,180.00,6.00,0.00,30.24,M,3.11,M,BKN,OVC,M,M,400.00,600.00,M,M,-RADZ,M,M,M,M,M,M,55.40,LPOV 140300Z 18006KT 5000 -RADZ BKN004 OVC006 13/12 Q1024
LPOV,2017-12-14 04:00,-8.6459,40.9159,55.40,55.40,100.00,180.00,6.00,0.00,30.21,M,3.11,M,BKN,OVC,M,M,400.00,600.00,M,M,-RADZ,M,M,M,M,M,M,55.40,LPOV 140400Z 18006KT 5000 -RADZ BKN004 OVC006 13/13 Q1023
LPOV,2017-12-14 05:00,-8.6459,40.9159,53.60,53.60,100.00,180.00,7.00,0.00,30.18,M,3.73,M,BKN,OVC,M,M,400.00,600.00,M,M,-RADZ,M,M,M,M,M,M,53.60,LPOV 140500Z 18007KT 6000 -RADZ BKN004 OVC006 12/12 Q1022
LPOV,2017-12-14 06:00,-8.6459,40.9159,59.00,57.20,93.74,240.00,5.00,0.00,30.21,M,4.97,M,BKN,OVC,M,M,400.00,600.00,M,M,-RADZ,M,M,M,M,M,M,59.00,LPOV 140600Z 24005KT 8000 -RADZ BKN004 OVC006 15/14 Q1023 RMK RH98 YLO
LPOV,2017-12-14 07:00,-8.6459,40.9159,57.20,57.20,100.00,230.00,6.00,0.00,30.21,M,3.73,M,BKN,OVC,M,M,400.00,600.00,M,M,-RADZ,M,M,M,M,M,M,57.20,LPOV 140700Z 23006KT 200V270 6000 -RADZ BKN004 OVC006 14/14 Q1023
LPOV,2017-12-14 08:00,-8.6459,40.9159,59.00,57.20,93.74,270.00,4.00,0.00,30.18,M,6.21,M,SCT,OVC,M,M,400.00,600.00,M,M,M,M,M,M,M,M,M,59.00,LPOV 140800Z 27004KT 220V320 9999 SCT004 OVC006 15/14 Q1022
LPOV,2017-12-14 09:00,-8.6459,40.9159,57.20,57.20,100.00,230.00,5.00,0.00,30.21,M,6.21,M,FEW,SCT,BKN,M,400.00,600.00,1200.00,M,M,M,M,M,M,M,M,57.20,LPOV 140900Z 23005KT 180V280 9999 FEW004 SCT006 BKN012 14/14 Q1023
LPOV,2017-12-14 10:00,-8.6459,40.9159,59.00,57.20,93.74,220.00,3.00,0.00,30.18,M,6.21,M,FEW,BKN,BKN,M,600.00,1200.00,1800.00,M,M,M,M,M,M,M,M,59.00,LPOV 141000Z 22003KT 170V270 9999 FEW006 BKN012 BKN018 15/14 Q1022
LPOV,2017-12-14 11:00,-8.6459,40.9159,59.00,59.00,100.00,230.00,3.00,0.00,30.18,M,6.21,M,SCT,BKN,M,M,600.00,1200.00,M,M,M,M,M,M,M,M,M,59.00,LPOV 141100Z 23003KT 160V300 9999 SCT006 BKN012 15/15 Q1022
LPOV,2017-12-14 12:00,-8.6459,40.9159,59.00,57.20,93.74,230.00,6.00,0.00,30.18,M,6.21,M,FEW,BKN,BKN,M,600.00,1200.00,2000.00,M,M,M,M,M,M,M,M,59.00,LPOV 141200Z 23006KT 190V270 9999 FEW006 BKN012 BKN020 15/14 Q1022
LPOV,2017-12-14 13:00,-8.6459,40.9159,59.00,59.00,100.00,220.00,7.00,0.00,30.15,M,6.21,M,SCT,BKN,BKN,M,600.00,1200.00,2000.00,M,M,M,M,M,M,M,M,59.00,LPOV 141300Z 22007KT 180V260 9999 SCT006 BKN012 BKN020 15/15 Q1021
LPOV,2017-12-14 14:00,-8.6459,40.9159,59.00,57.20,93.74,220.00,5.00,0.00,30.12,M,4.97,M,SCT,BKN,BKN,M,600.00,1200.00,2000.00,M,-DZ,M,M,M,M,M,M,59.00,LPOV 141400Z 22005KT 180V250 8000 -DZ SCT006 BKN012 BKN020 15/14 Q1020
LPOV,2017-12-14 15:00,-8.6459,40.9159,59.00,57.20,93.74,220.00,8.00,0.00,30.09,M,3.73,M,BKN,BKN,M,M,400.00,900.00,M,M,-DZ,M,M,M,M,M,M,59.00,LPOV 141500Z 22008KT 190V260 6000 -DZ BKN004 BKN009 15/14 Q1019
LPOV,2017-12-14 16:00,-8.6459,40.9159,59.00,57.20,93.74,220.00,7.00,0.00,30.09,M,1.55,M,BKN,OVC,M,M,300.00,800.00,M,M,-RADZ BR,M,M,M,M,M,M,59.00,LPOV 141600Z 22007KT 170V260 2500 -RADZ BR BKN003 OVC008 15/14 Q1019
LPOV,2017-12-14 17:00,-8.6459,40.9159,57.20,55.40,93.69,330.00,8.00,0.00,30.09,M,2.49,M,SCT,BKN,BKN,M,300.00,800.00,2000.00,M,BR,M,M,M,M,M,M,57.20,LPOV 141700Z 33008KT 310V010 4000 BR SCT003 BKN008 BKN020 14/13 Q1019
LPOV,2017-12-14 18:00,-8.6459,40.9159,55.40,55.40,100.00,350.00,5.00,0.00,30.09,M,5.59,M,FEW,SCT,BKN,M,800.00,1500.00,2000.00,M,M,M,M,M,M,M,M,55.40,LPOV 141800Z 35005KT 320V020 9000 FEW008 SCT015 BKN020 13/13 Q1019
LPOV,2017-12-14 19:00,-8.6459,40.9159,57.20,55.40,93.69,330.00,3.00,0.00,30.09,M,4.97,M,FEW,SCT,BKN,M,400.00,800.00,2000.00,M,-DZ,M,M,M,M,M,M,57.20,LPOV 141900Z 33003KT 290V010 8000 -DZ FEW004 SCT008 BKN020 14/13 Q1019
LPOV,2017-12-14 20:00,-8.6459,40.9159,55.40,53.60,93.65,330.00,3.00,0.00,30.09,M,5.59,M,FEW,SCT,BKN,M,800.00,1500.00,2000.00,M,M,M,M,M,M,M,M,55.40,LPOV 142000Z 33003KT 290V360 9000 FEW008 SCT015 BKN020 13/12 Q1019
LPOV,2017-12-14 21:00,-8.6459,40.9159,55.40,53.60,93.65,M,1.00,0.00,30.09,M,5.59,M,FEW,BKN,M,M,800.00,2000.00,M,M,M,M,M,M,M,M,M,55.40,LPOV 142100Z VRB01KT 9000 FEW008 BKN020 13/12 Q1019
LPOV,2017-12-14 22:00,-8.6459,40.9159,55.40,53.60,93.65,M,1.00,0.00,30.09,M,4.97,M,FEW,SCT,BKN,M,800.00,1500.00,2000.00,M,M,M,M,M,M,M,M,55.40,LPOV 142200Z VRB01KT 8000 FEW008 SCT015 BKN020 13/12 Q1019
LPOV,2017-12-14 23:00,-8.6459,40.9159,53.60,53.60,100.00,M,1.00,0.00,30.09,M,3.73,M,FEW,BKN,M,M,1700.00,2200.00,M,M,M,M,M,M,M,M,M,53.60,LPOV 142300Z VRB01KT 6000 FEW017 BKN022 12/12 Q1019
LPOV,2017-12-15 00:00,-8.6459,40.9159,55.40,53.60,93.65,M,2.00,0.00,30.06,M,2.49,M,FEW,BKN,M,M,1700.00,2200.00,M,M,BR,M,M,M,M,M,M,55.40,LPOV 150000Z VRB02KT 4000 BR FEW017 BKN022 13/12 Q1018
LPOV,2017-12-15 01:00,-8.6459,40.9159,55.40,53.60,93.65,M,2.00,0.00,30.03,M,3.73,M,SCT,SCT,BKN,M,300.00,1400.00,2000.00,M,-DZ,M,M,M,M,M,M,55.40,LPOV 150100Z VRB02KT 6000 -DZ SCT003 SCT014 BKN020 13/12 Q1017
LPOV,2017-12-15 02:00,-8.6459,40.9159,55.40,53.60,93.65,190.00,4.00,0.00,30.00,M,2.49,M,SCT,SCT,BKN,M,300.00,1200.00,2000.00,M,-DZ BR,M,M,M,M,M,M,55.40,LPOV 150200Z 19004KT 4000 -DZ BR SCT003 SCT012 BKN020 13/12 Q1016
LPOV,2017-12-15 03:00,-8.6459,40.9159,53.60,53.60,100.00,160.00,4.00,0.00,30.00,M,2.17,M,BKN,BKN,M,M,300.00,1200.00,M,M,-DZ BR,M,M,M,M,M,M,53.60,LPOV 150300Z 16004KT 3500 -DZ BR BKN003 BKN012 12/12 Q1016
LPOV,2017-12-15 04:00,-8.6459,40.9159,53.60,53.60,100.00,160.00,4.00,0.00,29.97,M,1.86,M,BKN,BKN,M,M,300.00,600.00,M,M,-DZ BR,M,M,M,M,M,M,53.60,LPOV 150400Z 16004KT 3000 -DZ BR BKN003 BKN006 12/12 Q1015
LPOV,2017-12-15 05:00,-8.6459,40.9159,55.40,53.60,93.65,140.00,4.00,0.00,29.94,M,1.55,M,BKN,BKN,M,M,300.00,600.00,M,M,-RADZ BR,M,M,M,M,M,M,55.40,LPOV 150500Z 14004KT 2500 -RADZ BR BKN003 BKN006 13/12 Q1014
LPOV,2017-12-15 07:00,-8.6459,40.9159,55.40,55.40,100.00,M,1.00,0.00,29.94,M,3.73,M,FEW,SCT,BKN,M,400.00,600.00,1200.00,M,M,M,M,M,M,M,M,55.40,LPOV 150700Z VRB01KT 6000 FEW004 SCT006 BKN012 13/13 Q1014
LPOV,2017-12-15 08:00,-8.6459,40.9159,55.40,53.60,93.65,340.00,7.00,0.00,29.97,M,4.97,M,BKN,BKN,M,M,600.00,1200.00,M,M,M,M,M,M,M,M,M,55.40,LPOV 150800Z 34007KT 8000 BKN006 BKN012 13/12 Q1015
LPOV,2017-12-15 09:00,-8.6459,40.9159,53.60,51.80,93.60,10.00,9.00,0.00,29.97,M,5.59,M,SCT,BKN,M,M,600.00,1200.00,M,M,M,M,M,M,M,M,M,53.60,LPOV 150900Z 01009KT 9000 SCT006 BKN012 12/11 Q1015
LPOV,2017-12-15 10:00,-8.6459,40.9159,55.40,50.00,81.99,10.00,6.00,0.00,30.00,M,5.59,M,FEW,M,M,M,3000.00,M,M,M,M,M,M,M,M,M,M,55.40,LPOV 151000Z 01006KT 9000 FEW030 13/10 Q1016
LPOV,2017-12-15 11:00,-8.6459,40.9159,55.40,50.00,81.99,360.00,5.00,0.00,30.00,M,6.21,M,FEW,SCT,M,M,1800.00,2500.00,M,M,M,M,M,M,M,M,M,55.40,LPOV 151100Z 36005KT 330V030 9999 FEW018 SCT025 13/10 Q1016
LPOV,2017-12-15 12:00,-8.6459,40.9159,55.40,50.00,81.99,350.00,7.00,0.00,30.00,M,6.21,M,FEW,SCT,M,M,12800.00,4500.00,M,M,M,M,M,M,M,M,M,55.40,LPOV 151200Z 35007KT 320V020 9999 FEW0128 SCT045 13/10 Q1016
LPOV,2017-12-15 13:00,-8.6459,40.9159,55.40,50.00,81.99,350.00,8.00,0.00,30.00,M,6.21,M,FEW,M,M,M,1500.00,M,M,M,M,M,M,M,M,M,M,55.40,LPOV 151300Z 35008KT 9999 FEW015 13/10 Q1016
LPOV,2017-12-15 14:00,-8.6459,40.9159,55.40,46.40,71.64,350.00,10.00,0.00,30.00,M,6.21,M,FEW,M,M,M,1500.00,M,M,M,M,M,M,M,M,M,M,55.40,LPOV 151400Z 35010KT 9999 FEW015 13/08 Q1016
LPOV,2017-12-15 15:00,-8.6459,40.9159,55.40,44.60,66.91,340.00,10.00,0.00,30.00,M,6.21,M,FEW,M,M,M,1500.00,M,M,M,M,M,M,M,M,M,M,55.40,LPOV 151500Z 34010KT 310V010 9999 FEW015 13/07 Q1016
LPOV,2017-12-15 16:00,-8.6459,40.9159,55.40,44.60,66.91,350.00,12.00,0.00,30.00,M,6.21,M,FEW,M,M,M,1500.00,M,M,M,M,M,M,M,M,M,M,55.40,LPOV 151600Z 35012KT 320V020 9999 FEW015 13/07 Q1016
LPOV,2017-12-15 17:00,-8.6459,40.9159,51.80,44.60,76.34,360.00,9.00,0.00,30.03,M,6.21,M,FEW,M,M,M,1500.00,M,M,M,M,M,M,M,M,M,M,51.80,LPOV 151700Z 36009KT 9999 FEW015 11/07 Q1017
LPOV,2017-12-15 18:00,-8.6459,40.9159,48.20,41.00,76.01,10.00,6.00,0.00,30.03,M,6.21,M,FEW,M,M,M,1500.00,M,M,M,M,M,M,M,M,M,M,45.04,LPOV 151800Z 01006KT 9999 FEW015 09/05 Q1017
LPOV,2017-12-15 19:00,-8.6459,40.9159,46.40,41.00,81.34,360.00,5.00,0.00,30.06,M,6.21,M,M,M,M,M,M,M,M,M,M,M,M,M,M,M,M,43.50,LPOV 151900Z 36005KT CAVOK 08/05 Q1018
LPOV,2017-12-15 20:00,-8.6459,40.9159,48.20,41.00,76.01,360.00,7.00,0.00,30.09,M,6.21,M,M,M,M,M,M,M,M,M,M,M,M,M,M,M,M,44.53,LPOV 152000Z 36007KT CAVOK 09/05 Q1019
LPOV,2017-12-15 21:00,-8.6459,40.9159,44.60,41.00,87.09,10.00,3.00,0.00,30.12,M,6.21,M,M,M,M,M,M,M,M,M,M,M,M,M,M,M,M,43.09,LPOV 152100Z 01003KT CAVOK 07/05 Q1020
LPOV,2017-12-15 22:00,-8.6459,40.9159,41.00,39.20,93.24,M,1.00,0.00,30.12,M,6.21,M,M,M,M,M,M,M,M,M,M,M,M,M,M,M,M,41.00,LPOV 152200Z VRB01KT CAVOK 05/04 Q1020
LPOV,2017-12-15 23:00,-8.6459,40.9159,41.00,39.20,93.24,M,1.00,0.00,30.12,M,6.21,M,M,M,M,M,M,M,M,M,M,M,M,M,M,M,M,41.00,LPOV 152300Z VRB01KT CAVOK 05/04 Q1020
LPOV,2017-12-16 00:00,-8.6459,40.9159,39.20,37.40,93.19,350.00,3.00,0.00,30.15,M,6.21,M,M,M,M,M,M,M,M,M,M,M,M,M,M,M,M,36.92,LPOV 160000Z 35003KT 310V020 CAVOK 04/03 Q1021
LPOV,2017-12-16 01:00,-8.6459,40.9159,42.80,39.20,86.99,360.00,4.00,0.00,30.15,M,6.21,M,M,M,M,M,M,M,M,M,M,M,M,M,M,M,M,40.03,LPOV 160100Z 36004KT CAVOK 06/04 Q1021
LPOV,2017-12-16 02:00,-8.6459,40.9159,39.20,37.40,93.19,M,1.00,0.00,30.15,M,6.21,M,M,M,M,M,M,M,M,M,M,M,M,M,M,M,M,39.20,LPOV 160200Z VRB01KT CAVOK 04/03 Q1021
LPOV,2017-12-16 03:00,-8.6459,40.9159,37.40,35.60,93.14,M,2.00,0.00,30.18,M,6.21,M,M,M,M,M,M,M,M,M,M,M,M,M,M,M,M,37.40,LPOV 160300Z VRB02KT CAVOK 03/02 Q1022
LPOV,2017-12-16 04:00,-8.6459,40.9159,35.60,35.60,100.00,M,2.00,0.00,30.18,M,6.21,M,M,M,M,M,M,M,M,M,M,M,M,M,M,M,M,35.60,LPOV 160400Z VRB02KT CAVOK 02/02 Q1022
LPOV,2017-12-16 05:00,-8.6459,40.9159,33.80,33.80,100.00,0.00,0.00,0.00,30.18,M,6.21,M,M,M,M,M,M,M,M,M,M,M,M,M,M,M,M,33.80,LPOV 160500Z 00000KT CAVOK 01/01 Q1022
LPOV,2017-12-16 06:00,-8.6459,40.9159,33.80,33.80,100.00,M,1.00,0.00,30.18,M,6.21,M,M,M,M,M,M,M,M,M,M,M,M,M,M,M,M,33.80,LPOV 160600Z VRB01KT CAVOK 01/01 Q1022
LPOV,2017-12-16 07:00,-8.6459,40.9159,33.80,32.00,93.03,M,1.00,0.00,30.21,M,6.21,M,M,M,M,M,M,M,M,M,M,M,M,M,M,M,M,33.80,LPOV 160700Z VRB01KT CAVOK 01/00 Q1023
LPOV,2017-12-16 08:00,-8.6459,40.9159,32.00,32.00,100.00,M,1.00,0.00,30.24,M,6.21,M,NSC,M,M,M,M,M,M,M,MIFG,M,M,M,M,M,M,32.00,LPOV 160800Z VRB01KT 9999 MIFG NSC 00/00 Q1024
LPOV,2017-12-16 09:00,-8.6459,40.9159,33.80,33.80,100.00,M,1.00,0.00,30.24,M,6.21,M,M,M,M,M,M,M,M,M,M,M,M,M,M,M,M,33.80,LPOV 160900Z VRB01KT CAVOK 01/01 Q1024
LPOV,2017-12-16 10:00,-8.6459,40.9159,41.00,41.00,100.00,M,2.00,0.00,30.24,M,6.21,M,M,M,M,M,M,M,M,M,M,M,M,M,M,M,M,41.00,LPOV 161000Z VRB02KT CAVOK 05/05 Q1024
LPOV,2017-12-16 11:00,-8.6459,40.9159,50.00,41.00,71.07,50.00,6.00,0.00,30.30,M,6.21,M,M,M,M,M,M,M,M,M,M,M,M,M,M,M,M,47.21,LPOV 161100Z 05006KT CAVOK 10/05 Q1026
LPOV,2017-12-16 12:00,-8.6459,40.9159,51.80,41.00,66.48,340.00,7.00,0.00,30.27,M,6.21,M,M,M,M,M,M,M,M,M,M,M,M,M,M,M,M,51.80,LPOV 161200Z 34007KT CAVOK 11/05 Q1025
LPOV,2017-12-16 13:00,-8.6459,40.9159,53.60,39.20,58.02,360.00,6.00,0.00,30.27,M,6.21,M,M,M,M,M,M,M,M,M,M,M,M,M,M,M,M,53.60,LPOV 161300Z 36006KT 330V040 CAVOK 12/04 Q1025
LPOV,2017-12-16 14:00,-8.6459,40.9159,53.60,41.00,62.23,340.00,8.00,0.00,30.27,M,6.21,M,FEW,M,M,M,2000.00,M,M,M,M,M,M,M,M,M,M,53.60,LPOV 161400Z 34008KT 310V010 9999 FEW020 12/05 Q1025
LPOV,2017-12-16 15:00,-8.6459,40.9159,55.40,41.00,58.27,350.00,8.00,0.00,30.27,M,6.21,M,FEW,M,M,M,2000.00,M,M,M,M,M,M,M,M,M,M,55.40,LPOV 161500Z 35008KT 320V030 9999 FEW020 13/05 Q1025
LPOV,2017-12-16 16:00,-8.6459,40.9159,53.60,44.60,71.45,350.00,10.00,0.00,30.27,M,6.21,M,FEW,M,M,M,3000.00,M,M,M,M,M,M,M,M,M,M,53.60,LPOV 161600Z 35010KT 9999 FEW030 12/07 Q1025
LPOV,2017-12-16 17:00,-8.6459,40.9159,53.60,44.60,71.45,360.00,7.00,0.00,30.27,M,6.21,M,M,M,M,M,M,M,M,M,M,M,M,M,M,M,M,53.60,LPOV 161700Z 36007KT 330V030 CAVOK 12/07 Q1025
LPOV,2017-12-16 18:00,-8.6459,40.9159,50.00,42.80,76.18,M,2.00,0.00,30.30,M,6.21,M,M,M,M,M,M,M,M,M,M,M,M,M,M,M,M,50.00,LPOV 161800Z VRB02KT CAVOK 10/06 Q1026
LPOV,2017-12-16 19:00,-8.6459,40.9159,46.40,42.80,87.19,10.00,3.00,0.00,30.33,M,6.21,M,M,M,M,M,M,M,M,M,M,M,M,M,M,M,M,45.15,LPOV 161900Z 01003KT CAVOK 08/06 Q1027
LPOV,2017-12-16 20:00,-8.6459,40.9159,42.80,41.00,93.30,M,2.00,0.00,30.33,M,6.21,M,M,M,M,M,M,M,M,M,M,M,M,M,M,M,M,42.80,LPOV 162000Z VRB02KT CAVOK 06/05 Q1027
LPOV,2017-12-16 21:00,-8.6459,40.9159,41.00,37.40,86.89,M,2.00,0.00,30.36,M,6.21,M,M,M,M,M,M,M,M,M,M,M,M,M,M,M,M,41.00,LPOV 162100Z VRB02KT CAVOK 05/03 Q1028
LPOV,2017-12-16 22:00,-8.6459,40.9159,39.20,35.60,86.79,360.00,5.00,0.00,30.36,M,6.21,M,M,M,M,M,M,M,M,M,M,M,M,M,M,M,M,34.95,LPOV 162200Z 36005KT CAVOK 04/02 Q1028
LPOV,2017-12-16 23:00,-8.6459,40.9159,39.20,37.40,93.19,M,2.00,0.00,30.39,M,6.21,M,M,M,M,M,M,M,M,M,M,M,M,M,M,M,M,39.20,LPOV 162300Z VRB02KT CAVOK 04/03 Q1029
LPOV,2017-12-17 00:00,-8.6459,40.9159,39.20,35.60,86.79,340.00,4.00,0.00,30.39,M,6.21,M,M,M,M,M,M,M,M,M,M,M,M,M,M,M,M,35.83,LPOV 170000Z 34004KT CAVOK 04/02 Q1029
LPOV,2017-12-17 01:00,-8.6459,40.9159,37.40,35.60,93.14,M,1.00,0.00,30.39,M,6.21,M,M,M,M,M,M,M,M,M,M,M,M,M,M,M,M,37.40,LPOV 170100Z VRB01KT CAVOK 03/02 Q1029
LPOV,2017-12-17 02:00,-8.6459,40.9159,35.60,32.00,86.59,M,1.00,0.00,30.39,M,6.21,M,M,M,M,M,M,M,M,M,M,M,M,M,M,M,M,35.60,LPOV 170200Z VRB01KT CAVOK 02/00 Q1029
LPOV,2017-12-17 03:00,-8.6459,40.9159,33.80,32.00,93.03,M,1.00,0.00,30.39,M,6.21,M,M,M,M,M,M,M,M,M,M,M,M,M,M,M,M,33.80,LPOV 170300Z VRB01KT CAVOK 01/00 Q1029
LPOV,2017-12-17 04:00,-8.6459,40.9159,33.80,32.00,93.03,M,1.00,0.00,30.42,M,6.21,M,M,M,M,M,M,M,M,M,M,M,M,M,M,M,M,33.80,LPOV 170400Z VRB01KT CAVOK 01/00 Q1030
LPOV,2017-12-17 05:00,-8.6459,40.9159,32.00,28.40,86.39,M,1.00,0.00,30.36,M,6.21,M,M,M,M,M,M,M,M,M,M,M,M,M,M,M,M,32.00,LPOV 170500Z VRB01KT CAVOK 00/M02 Q1028
LPOV,2017-12-17 06:00,-8.6459,40.9159,30.20,28.40,92.92,M,1.00,0.00,30.39,M,6.21,M,M,M,M,M,M,M,M,M,M,M,M,M,M,M,M,30.20,LPOV 170600Z VRB01KT CAVOK M01/M02 Q1029
LPOV,2017-12-17 07:00,-8.6459,40.9159,30.20,28.40,92.92,M,1.00,0.00,30.42,M,6.21,M,M,M,M,M,M,M,M,M,M,M,M,M,M,M,M,30.20,LPOV 170700Z VRB01KT CAVOK M01/M02 Q1030
LPOV,2017-12-17 08:00,-8.6459,40.9159,30.20,28.40,92.92,0.00,0.00,0.00,30.45,M,6.21,M,M,M,M,M,M,M,M,M,M,M,M,M,M,M,M,30.20,LPOV 170800Z 00000KT CAVOK M01/M02 Q1031
LPOV,2017-12-17 09:00,-8.6459,40.9159,33.80,32.00,93.03,M,2.00,0.00,30.47,M,6.21,M,M,M,M,M,M,M,M,M,M,M,M,M,M,M,M,33.80,LPOV 170900Z VRB02KT CAVOK 01/00 Q1032
LPOV,2017-12-17 10:00,-8.6459,40.9159,41.00,39.20,93.24,M,1.00,0.00,30.47,M,6.21,M,M,M,M,M,M,M,M,M,M,M,M,M,M,M,M,41.00,LPOV 171000Z VRB01KT CAVOK 05/04 Q1032
LPOV,2017-12-17 11:00,-8.6459,40.9159,51.80,42.80,71.26,M,2.00,0.00,30.50,M,6.21,M,M,M,M,M,M,M,M,M,M,M,M,M,M,M,M,51.80,LPOV 171100Z VRB02KT CAVOK 11/06 Q1033
LPOV,2017-12-17 12:00,-8.6459,40.9159,55.40,39.20,54.34,M,3.00,0.00,30.47,M,6.21,M,M,M,M,M,M,M,M,M,M,M,M,M,M,M,M,55.40,LPOV 171200Z VRB03KT CAVOK 13/04 Q1032
LPOV,2017-12-17 13:00,-8.6459,40.9159,55.40,42.80,62.46,320.00,3.00,0.00,30.45,M,6.21,M,M,M,M,M,M,M,M,M,M,M,M,M,M,M,M,55.40,LPOV 171300Z 32003KT CAVOK 13/06 Q1031
LPOV,2017-12-17 14:00,-8.6459,40.9159,55.40,41.00,58.27,270.00,4.00,0.00,30.45,M,6.21,M,M,M,M,M,M,M,M,M,M,M,M,M,M,M,M,55.40,LPOV 171400Z 27004KT 250V330 CAVOK 13/05 Q1031
LPOV,2017-12-17 15:00,-8.6459,40.9159,57.20,41.00,54.60,260.00,4.00,0.00,30.45,M,6.21,M,M,M,M,M,M,M,M,M,M,M,M,M,M,M,M,57.20,LPOV 171500Z 26004KT 210V310 CAVOK 14/05 Q1031
LPOV,2017-12-17 16:00,-8.6459,40.9159,57.20,44.60,62.69,M,2.00,0.00,30.45,M,6.21,M,M,M,M,M,M,M,M,M,M,M,M,M,M,M,M,57.20,LPOV 171600Z VRB02KT CAVOK 14/07 Q1031
LPOV,2017-12-17 17:00,-8.6459,40.9159,51.80,44.60,76.34,340.00,3.00,0.00,30.45,M,6.21,M,M,M,M,M,M,M,M,M,M,M,M,M,M,M,M,51.80,LPOV 171700Z 34003KT CAVOK 11/07 Q1031
LPOV,2017-12-17 18:00,-8.6459,40.9159,46.40,41.00,81.34,M,2.00,0.00,30.47,M,6.21,M,M,M,M,M,M,M,M,M,M,M,M,M,M,M,M,46.40,LPOV 171800Z VRB02KT CAVOK 08/05 Q1032
LPOV,2017-12-17 19:00,-8.6459,40.9159,42.80,39.20,86.99,M,1.00,0.00,30.47,M,6.21,M,M,M,M,M,M,M,M,M,M,M,M,M,M,M,M,42.80,LPOV 171900Z VRB01KT CAVOK 06/04 Q1032
LPOV,2017-12-17 20:00,-8.6459,40.9159,39.20,37.40,93.19,M,1.00,0.00,30.50,M,6.21,M,M,M,M,M,M,M,M,M,M,M,M,M,M,M,M,39.20,LPOV 172000Z VRB01KT CAVOK 04/03 Q1033
LPOV,2017-12-17 21:00,-8.6459,40.9159,42.80,41.00,93.30,60.00,5.00,0.00,30.50,M,6.21,M,M,M,M,M,M,M,M,M,M,M,M,M,M,M,M,39.22,LPOV 172100Z 06005KT CAVOK 06/05 Q1033
LPOV,2017-12-17 22:00,-8.6459,40.9159,39.20,37.40,93.19,150.00,3.00,0.00,30.50,M,6.21,M,M,M,M,M,M,M,M,M,M,M,M,M,M,M,M,36.92,LPOV 172200Z 15003KT CAVOK 04/03 Q1033
LPOV,2017-12-17 23:00,-8.6459,40.9159,37.40,35.60,93.14,M,2.00,0.00,30.53,M,6.21,M,M,M,M,M,M,M,M,M,M,M,M,M,M,M,M,37.40,LPOV 172300Z VRB02KT CAVOK 03/02 Q1034
LPOV,2017-12-18 00:00,-8.6459,40.9159,37.40,35.60,93.14,M,2.00,0.00,30.53,M,6.21,M,M,M,M,M,M,M,M,M,M,M,M,M,M,M,M,37.40,LPOV 180000Z VRB02KT CAVOK 03/02 Q1034
LPOV,2017-12-18 01:00,-8.6459,40.9159,41.00,37.40,86.89,70.00,4.00,0.00,30.53,M,6.21,M,M,M,M,M,M,M,M,M,M,M,M,M,M,M,M,37.93,LPOV 180100Z 07004KT 040V120 CAVOK 05/03 Q1034
LPOV,2017-12-18 02:00,-8.6459,40.9159,35.60,33.80,93.08,60.00,3.00,0.00,30.50,M,6.21,M,M,M,M,M,M,M,M,M,M,M,M,M,M,M,M,32.80,LPOV 180200Z 06003KT CAVOK 02/01 Q1033
LPOV,2017-12-18 03:00,-8.6459,40.9159,35.60,33.80,93.08,M,2.00,0.00,30.50,M,6.21,M,M,M,M,M,M,M,M,M,M,M,M,M,M,M,M,35.60,LPOV 180300Z VRB02KT CAVOK 02/01 Q1033
LPOV,2017-12-18 04:00,-8.6459,40.9159,33.80,32.00,93.03,M,1.00,0.00,30.53,M,6.21,M,M,M,M,M,M,M,M,M,M,M,M,M,M,M,M,33.80,LPOV 180400Z VRB01KT CAVOK 01/00 Q1034
LPOV,2017-12-18 05:00,-8.6459,40.9159,32.00,30.20,92.97,M,2.00,0.00,30.50,M,6.21,M,M,M,M,M,M,M,M,M,M,M,M,M,M,M,M,32.00,LPOV 180500Z VRB02KT CAVOK 00/M01 Q1033
LPOV,2017-12-18 06:00,-8.6459,40.9159,32.00,32.00,100.00,M,2.00,0.00,30.50,M,6.21,M,M,M,M,M,M,M,M,M,M,M,M,M,M,M,M,32.00,LPOV 180600Z VRB02KT CAVOK 00/M00 Q1033
LPOV,2017-12-18 07:00,-8.6459,40.9159,32.00,30.20,92.97,M,1.00,0.00,30.50,M,6.21,M,M,M,M,M,M,M,M,M,M,M,M,M,M,M,M,32.00,LPOV 180700Z VRB01KT CAVOK M00/M01 Q1033
LPOV,2017-12-18 08:00,-8.6459,40.9159,33.80,32.00,93.03,M,1.00,0.00,30.50,M,6.21,M,M,M,M,M,M,M,M,M,M,M,M,M,M,M,M,33.80,LPOV 180800Z VRB01KT CAVOK 01/M00 Q1033
LPOV,2017-12-18 09:00,-8.6459,40.9159,35.60,33.80,93.08,M,1.00,0.00,30.53,M,6.21,M,M,M,M,M,M,M,M,M,M,M,M,M,M,M,M,35.60,LPOV 180900Z VRB01KT CAVOK 02/01 Q1034
LPOV,2017-12-18 10:00,-8.6459,40.9159,44.60,39.20,81.20,M,1.00,0.00,30.53,M,6.21,M,M,M,M,M,M,M,M,M,M,M,M,M,M,M,M,44.60,LPOV 181000Z VRB01KT CAVOK 07/04 Q1034
LPOV,2017-12-18 11:00,-8.6459,40.9159,51.80,39.20,61.99,60.00,3.00,0.00,30.53,M,6.21,M,M,M,M,M,M,M,M,M,M,M,M,M,M,M,M,51.80,LPOV 181100Z 06003KT CAVOK 11/04 Q1034
LPOV,2017-12-18 12:00,-8.6459,40.9159,55.40,37.40,50.64,40.00,3.00,0.00,30.53,M,6.21,M,M,M,M,M,M,M,M,M,M,M,M,M,M,M,M,55.40,LPOV 181200Z 04003KT CAVOK 13/03 Q1034
LPOV,2017-12-18 13:00,-8.6459,40.9159,55.40,41.00,58.27,320.00,6.00,0.00,30.50,M,6.21,M,M,M,M,M,M,M,M,M,M,M,M,M,M,M,M,55.40,LPOV 181300Z 32006KT CAVOK 13/05 Q1033
LPOV,2017-12-18 14:00,-8.6459,40.9159,55.40,41.00,58.27,340.00,8.00,0.00,30.47,M,6.21,M,M,M,M,M,M,M,M,M,M,M,M,M,M,M,M,55.40,LPOV 181400Z 34008KT CAVOK 13/05 Q1032
LPOV,2017-12-18 15:00,-8.6459,40.9159,53.60,42.80,66.70,340.00,9.00,0.00,30.47,M,6.21,M,M,M,M,M,M,M,M,M,M,M,M,M,M,M,M,53.60,LPOV 181500Z 34009KT CAVOK 12/06 Q1032
LPOV,2017-12-18 16:00,-8.6459,40.9159,53.60,44.60,71.45,340.00,7.00,0.00,30.45,M,6.21,M,M,M,M,M,M,M,M,M,M,M,M,M,M,M,M,53.60,LPOV 181600Z 34007KT CAVOK 12/07 Q1031
LPOV,2017-12-18 17:00,-8.6459,40.9159,51.80,46.40,81.74,M,2.00,0.00,30.45,M,6.21,M,M,M,M,M,M,M,M,M,M,M,M,M,M,M,M,51.80,LPOV 181700Z VRB02KT CAVOK 11/08 Q1031
LPOV,2017-12-18 18:00,-8.6459,40.9159,46.40,44.60,93.40,M,1.00,0.00,30.45,M,6.21,M,M,M,M,M,M,M,M,M,M,M,M,M,M,M,M,46.40,LPOV 181800Z VRB01KT CAVOK 08/07 Q1031
LPOV,2017-12-18 19:00,-8.6459,40.9159,44.60,42.80,93.35,M,2.00,0.00,30.45,M,6.21,M,M,M,M,M,M,M,M,M,M,M,M,M,M,M,M,44.60,LPOV 181900Z VRB02KT CAVOK 07/06 Q1031
LPOV,2017-12-18 20:00,-8.6459,40.9159,42.80,41.00,93.30,M,1.00,0.00,30.45,M,6.21,M,M,M,M,M,M,M,M,M,M,M,M,M,M,M,M,42.80,LPOV 182000Z VRB01KT CAVOK 06/05 Q1031
LPOV,2017-12-18 21:00,-8.6459,40.9159,41.00,39.20,93.24,M,2.00,0.00,30.45,M,6.21,M,M,M,M,M,M,M,M,M,M,M,M,M,M,M,M,41.00,LPOV 182100Z VRB02KT CAVOK 05/04 Q1031
LPOV,2017-12-18 22:00,-8.6459,40.9159,39.20,39.20,100.00,M,1.00,0.00,30.45,M,4.97,M,NSC,M,M,M,M,M,M,M,M,M,M,M,M,M,M,39.20,LPOV 182200Z VRB01KT 8000 NSC 04/04 Q1031
LPOV,2017-12-18 23:00,-8.6459,40.9159,39.20,39.20,100.00,M,1.00,0.00,30.45,M,4.35,M,NSC,M,M,M,M,M,M,M,M,M,M,M,M,M,M,39.20,LPOV 182300Z VRB01KT 7000 NSC 04/04 Q1031
LPOV,2017-12-19 00:00,-8.6459,40.9159,39.20,39.20,100.00,M,2.00,0.00,30.45,M,4.97,M,NSC,M,M,M,M,M,M,M,M,M,M,M,M,M,M,39.20,LPOV 190000Z VRB02KT 8000 NSC 04/04 Q1031
LPOV,2017-12-19 01:00,-8.6459,40.9159,39.20,37.40,93.19,M,1.00,0.00,30.42,M,5.59,M,NSC,M,M,M,M,M,M,M,M,M,M,M,M,M,M,39.20,LPOV 190100Z VRB01KT 9000 NSC 04/03 Q1030
LPOV,2017-12-19 02:00,-8.6459,40.9159,39.20,37.40,93.19,350.00,5.00,0.00,30.42,M,5.59,M,NSC,M,M,M,M,M,M,M,M,M,M,M,M,M,M,34.95,LPOV 190200Z 35005KT 9000 NSC 04/03 Q1030
LPOV,2017-12-19 03:00,-8.6459,40.9159,44.60,39.20,81.20,10.00,5.00,0.00,30.42,M,6.21,M,M,M,M,M,M,M,M,M,M,M,M,M,M,M,M,41.36,LPOV 190300Z 01005KT CAVOK 07/04 Q1030
LPOV,2017-12-19 04:00,-8.6459,40.9159,44.60,39.20,81.20,30.00,8.00,0.00,30.39,M,6.21,M,M,M,M,M,M,M,M,M,M,M,M,M,M,M,M,39.63,LPOV 190400Z 03008KT CAVOK 07/04 Q1029
LPOV,2017-12-19 05:00,-8.6459,40.9159,44.60,39.20,81.20,10.00,5.00,0.00,30.39,M,6.21,M,M,M,M,M,M,M,M,M,M,M,M,M,M,M,M,41.36,LPOV 190500Z 01005KT CAVOK 07/04 Q1029
LPOV,2017-12-19 06:00,-8.6459,40.9159,46.40,42.80,87.19,50.00,4.00,0.00,30.39,M,6.21,M,M,M,M,M,M,M,M,M,M,M,M,M,M,M,M,44.24,LPOV 190600Z 05004KT CAVOK 08/06 Q1029
LPOV,2017-12-19 07:00,-8.6459,40.9159,42.80,39.20,86.99,M,2.00,0.00,30.39,M,6.21,M,M,M,M,M,M,M,M,M,M,M,M,M,M,M,M,42.80,LPOV 190700Z VRB02KT CAVOK 06/04 Q1029
LPOV,2017-12-19 08:00,-8.6459,40.9159,39.20,37.40,93.19,190.00,3.00,0.00,30.39,M,6.21,M,NSC,M,M,M,M,M,M,M,MIFG,M,M,M,M,M,M,36.92,LPOV 190800Z 19003KT 9999 MIFG NSC 04/03 Q1029
LPOV,2017-12-19 09:00,-8.6459,40.9159,42.80,41.00,93.30,M,2.00,0.00,30.42,M,6.21,M,NSC,M,M,M,M,M,M,M,MIFG,M,M,M,M,M,M,42.80,LPOV 190900Z VRB02KT 9999 MIFG NSC 06/05 Q1030
LPOV,2017-12-19 10:00,-8.6459,40.9159,50.00,44.60,81.61,M,2.00,0.00,30.45,M,6.21,M,M,M,M,M,M,M,M,M,M,M,M,M,M,M,M,50.00,LPOV 191000Z VRB02KT CAVOK 10/07 Q1031
LPOV,2017-12-19 11:00,-8.6459,40.9159,57.20,46.40,67.12,350.00,5.00,0.00,30.45,M,6.21,M,M,M,M,M,M,M,M,M,M,M,M,M,M,M,M,57.20,LPOV 191100Z 35005KT 320V020 CAVOK 14/08 Q1031
LPOV,2017-12-19 12:00,-8.6459,40.9159,59.00,50.00,72.01,10.00,5.00,0.00,30.42,M,6.21,M,M,M,M,M,M,M,M,M,M,M,M,M,M,M,M,59.00,LPOV 191200Z 01005KT 330V060 CAVOK 15/10 Q1030
LPOV,2017-12-19 13:00,-8.6459,40.9159,64.40,51.80,63.60,200.00,3.00,0.00,30.42,M,6.21,M,M,M,M,M,M,M,M,M,M,M,M,M,M,M,M,64.40,LPOV 191300Z 20003KT CAVOK 18/11 Q1030
LPOV,2017-12-19 14:00,-8.6459,40.9159,66.20,51.80,59.74,M,3.00,0.00,30.39,M,6.21,M,M,M,M,M,M,M,M,M,M,M,M,M,M,M,M,66.20,LPOV 191400Z VRB03KT CAVOK 19/11 Q1029
LPOV,2017-12-19 15:00,-8.6459,40.9159,66.20,53.60,63.82,260.00,3.00,0.00,30.39,M,6.21,M,M,M,M,M,M,M,M,M,M,M,M,M,M,M,M,66.20,LPOV 191500Z 26003KT 220V330 CAVOK 19/12 Q1029
LPOV,2017-12-19 16:00,-8.6459,40.9159,62.60,55.40,77.29,330.00,5.00,0.00,30.39,M,6.21,M,M,M,M,M,M,M,M,M,M,M,M,M,M,M,M,62.60,LPOV 191600Z 33005KT CAVOK 17/13 Q1029
LPOV,2017-12-19 17:00,-8.6459,40.9159,57.20,53.60,87.74,M,1.00,0.00,30.39,M,6.21,M,M,M,M,M,M,M,M,M,M,M,M,M,M,M,M,57.20,LPOV 191700Z VRB01KT CAVOK 14/12 Q1029
LPOV,2017-12-19 18:00,-8.6459,40.9159,60.80,37.40,41.71,90.00,5.00,0.00,30.39,M,6.21,M,M,M,M,M,M,M,M,M,M,M,M,M,M,M,M,60.80,LPOV 191800Z 09005KT 050V130 CAVOK 16/03 Q1029
LPOV,2017-12-19 19:00,-8.6459,40.9159,53.60,39.20,58.02,200.00,4.00,0.00,30.42,M,6.21,M,M,M,M,M,M,M,M,M,M,M,M,M,M,M,M,53.60,LPOV 191900Z 20004KT CAVOK 12/04 Q1030
LPOV,2017-12-19 20:00,-8.6459,40.9159,55.40,39.20,54.34,140.00,3.00,0.00,30.42,M,6.21,M,M,M,M,M,M,M,M,M,M,M,M,M,M,M,M,55.40,LPOV 192000Z 14003KT CAVOK 13/04 Q1030
LPOV,2017-12-19 21:00,-8.6459,40.9159,48.20,39.20,70.88,180.00,3.00,0.00,30.45,M,6.21,M,M,M,M,M,M,M,M,M,M,M,M,M,M,M,M,47.21,LPOV 192100Z 18003KT CAVOK 09/04 Q1031
LPOV,2017-12-19 22:00,-8.6459,40.9159,46.40,35.60,65.83,190.00,3.00,0.00,30.45,M,6.21,M,M,M,M,M,M,M,M,M,M,M,M,M,M,M,M,45.15,LPOV 192200Z 19003KT CAVOK 08/02 Q1031
LPOV,2017-12-19 23:00,-8.6459,40.9159,53.60,39.20,58.02,80.00,3.00,0.00,30.45,M,6.21,M,M,M,M,M,M,M,M,M,M,M,M,M,M,M,M,53.60,LPOV 192300Z 08003KT 030V130 CAVOK 12/04 Q1031
LPOV,2017-12-20 00:00,-8.6459,40.9159,53.60,37.40,54.07,80.00,4.00,0.00,30.45,M,6.21,M,M,M,M,M,M,M,M,M,M,M,M,M,M,M,M,53.60,LPOV 200000Z 08004KT 040V120 CAVOK 12/03 Q1031
LPOV,2017-12-20 01:00,-8.6459,40.9159,53.60,33.80,46.88,70.00,5.00,0.00,30.45,M,6.21,M,M,M,M,M,M,M,M,M,M,M,M,M,M,M,M,53.60,LPOV 200100Z 07005KT 030V120 CAVOK 12/01 Q1031
LPOV,2017-12-20 02:00,-8.6459,40.9159,50.00,35.60,57.52,100.00,5.00,0.00,30.45,M,6.21,M,M,M,M,M,M,M,M,M,M,M,M,M,M,M,M,47.77,LPOV 200200Z 10005KT 050V130 CAVOK 10/02 Q1031
LPOV,2017-12-20 03:00,-8.6459,40.9159,42.80,33.80,70.28,210.00,3.00,0.00,30.47,M,6.21,M,M,M,M,M,M,M,M,M,M,M,M,M,M,M,M,41.03,LPOV 200300Z 21003KT CAVOK 06/01 Q1032
LPOV,2017-12-20 04:00,-8.6459,40.9159,39.20,33.80,80.79,M,1.00,0.00,30.47,M,6.21,M,M,M,M,M,M,M,M,M,M,M,M,M,M,M,M,39.20,LPOV 200400Z VRB01KT CAVOK 04/01 Q1032
LPOV,2017-12-20 05:00,-8.6459,40.9159,37.40,33.80,86.69,M,2.00,0.00,30.47,M,6.21,M,M,M,M,M,M,M,M,M,M,M,M,M,M,M,M,37.40,LPOV 200500Z VRB02KT CAVOK 03/01 Q1032
LPOV,2017-12-20 06:00,-8.6459,40.9159,37.40,33.80,86.69,M,2.00,0.00,30.47,M,6.21,M,M,M,M,M,M,M,M,M,M,M,M,M,M,M,M,37.40,LPOV 200600Z VRB02KT CAVOK 03/01 Q1032
LPOV,2017-12-20 07:00,-8.6459,40.9159,33.80,32.00,93.03,M,2.00,0.00,30.47,M,6.21,M,M,M,M,M,M,M,M,M,M,M,M,M,M,M,M,33.80,LPOV 200700Z VRB02KT CAVOK 01/M00 Q1032
LPOV,2017-12-20 08:00,-8.6459,40.9159,33.80,32.00,93.03,M,2.00,0.00,30.50,M,6.21,M,M,M,M,M,M,M,M,M,M,M,M,M,M,M,M,33.80,LPOV 200800Z VRB02KT CAVOK 01/00 Q1033
LPOV,2017-12-20 09:00,-8.6459,40.9159,35.60,33.80,93.08,M,1.00,0.00,30.50,M,6.21,M,M,M,M,M,M,M,M,M,M,M,M,M,M,M,M,35.60,LPOV 200900Z VRB01KT CAVOK 02/01 Q1033
LPOV,2017-12-20 10:00,-8.6459,40.9159,42.80,39.20,86.99,0.00,0.00,0.00,30.53,M,6.21,M,M,M,M,M,M,M,M,M,M,M,M,M,M,M,M,42.80,LPOV 201000Z 00000KT CAVOK 06/04 Q1034
LPOV,2017-12-20 11:00,-8.6459,40.9159,53.60,41.00,62.23,M,2.00,0.00,30.53,M,6.21,M,M,M,M,M,M,M,M,M,M,M,M,M,M,M,M,53.60,LPOV 201100Z VRB02KT CAVOK 12/05 Q1034
LPOV,2017-12-20 12:00,-8.6459,40.9159,57.20,44.60,62.69,M,2.00,0.00,30.50,M,6.21,M,M,M,M,M,M,M,M,M,M,M,M,M,M,M,M,57.20,LPOV 201200Z VRB02KT CAVOK 14/07 Q1033
LPOV,2017-12-20 13:00,-8.6459,40.9159,55.40,42.80,62.46,280.00,4.00,0.00,30.50,M,6.21,M,M,M,M,M,M,M,M,M,M,M,M,M,M,M,M,55.40,LPOV 201300Z 28004KT CAVOK 13/06 Q1033
LPOV,2017-12-20 14:00,-8.6459,40.9159,55.40,46.40,71.64,290.00,3.00,0.00,30.47,M,6.21,M,M,M,M,M,M,M,M,M,M,M,M,M,M,M,M,55.40,LPOV 201400Z 29003KT CAVOK 13/08 Q1032
LPOV,2017-12-20 15:00,-8.6459,40.9159,57.20,44.60,62.69,320.00,4.00,0.00,30.47,M,6.21,M,M,M,M,M,M,M,M,M,M,M,M,M,M,M,M,57.20,LPOV 201500Z 32004KT CAVOK 14/07 Q1032
LPOV,2017-12-20 16:00,-8.6459,40.9159,57.20,46.40,67.12,340.00,6.00,0.00,30.47,M,6.21,M,M,M,M,M,M,M,M,M,M,M,M,M,M,M,M,57.20,LPOV 201600Z 34006KT CAVOK 14/08 Q1032
LPOV,2017-12-20 17:00,-8.6459,40.9159,53.60,46.40,76.50,340.00,3.00,0.00,30.50,M,6.21,M,M,M,M,M,M,M,M,M,M,M,M,M,M,M,M,53.60,LPOV 201700Z 34003KT CAVOK 12/08 Q1033
LPOV,2017-12-20 18:00,-8.6459,40.9159,50.00,46.40,87.37,M,2.00,0.00,30.50,M,6.21,M,M,M,M,M,M,M,M,M,M,M,M,M,M,M,M,50.00,LPOV 201800Z VRB02KT CAVOK 10/08 Q1033
LPOV,2017-12-20 19:00,-8.6459,40.9159,46.40,44.60,93.40,M,2.00,0.00,30.50,M,6.21,M,M,M,M,M,M,M,M,M,M,M,M,M,M,M,M,46.40,LPOV 201900Z VRB02KT CAVOK 08/07 Q1033
LPOV,2017-12-20 20:00,-8.6459,40.9159,44.60,41.00,87.09,M,2.00,0.00,30.50,M,6.21,M,M,M,M,M,M,M,M,M,M,M,M,M,M,M,M,44.60,LPOV 202000Z VRB02KT CAVOK 07/05 Q1033
LPOV,2017-12-20 21:00,-8.6459,40.9159,41.00,39.20,93.24,M,1.00,0.00,30.50,M,6.21,M,M,M,M,M,M,M,M,M,M,M,M,M,M,M,M,41.00,LPOV 202100Z VRB01KT CAVOK 05/04 Q1033
LPOV,2017-12-20 22:00,-8.6459,40.9159,39.20,37.40,93.19,M,1.00,0.00,30.50,M,6.21,M,M,M,M,M,M,M,M,M,M,M,M,M,M,M,M,39.20,LPOV 202200Z VRB01KT CAVOK 04/03 Q1033
LPOV,2017-12-20 23:00,-8.6459,40.9159,37.40,37.40,100.00,M,2.00,0.00,30.50,M,6.21,M,M,M,M,M,M,M,M,M,M,M,M,M,M,M,M,37.40,LPOV 202300Z VRB02KT CAVOK 03/03 Q1033
LPOV,2017-12-21 00:00,-8.6459,40.9159,37.40,37.40,100.00,M,1.00,0.00,30.50,M,6.21,M,M,M,M,M,M,M,M,M,M,M,M,M,M,M,M,37.40,LPOV 210000Z VRB01KT CAVOK 03/03 Q1033
LPOV,2017-12-21 01:00,-8.6459,40.9159,37.40,35.60,93.14,M,2.00,0.00,30.50,M,6.21,M,M,M,M,M,M,M,M,M,M,M,M,M,M,M,M,37.40,LPOV 210100Z VRB02KT CAVOK 03/02 Q1033
LPOV,2017-12-21 02:00,-8.6459,40.9159,35.60,35.60,100.00,M,2.00,0.00,30.50,M,6.21,M,M,M,M,M,M,M,M,M,M,M,M,M,M,M,M,35.60,LPOV 210200Z VRB02KT CAVOK 02/02 Q1033
LPOV,2017-12-21 03:00,-8.6459,40.9159,35.60,35.60,100.00,M,2.00,0.00,30.50,M,6.21,M,M,M,M,M,M,M,M,M,M,M,M,M,M,M,M,35.60,LPOV 210300Z VRB02KT CAVOK 02/02 Q1033
LPOV,2017-12-21 04:00,-8.6459,40.9159,37.40,37.40,100.00,180.00,5.00,0.00,30.50,M,6.21,M,M,M,M,M,M,M,M,M,M,M,M,M,M,M,M,32.81,LPOV 210400Z 18005KT 150V210 CAVOK 03/03 Q1033
LPOV,2017-12-21 05:00,-8.6459,40.9159,37.40,37.40,100.00,80.00,3.00,0.00,30.50,M,6.21,M,M,M,M,M,M,M,M,M,M,M,M,M,M,M,M,34.86,LPOV 210500Z 08003KT CAVOK 03/03 Q1033
LPOV,2017-12-21 06:00,-8.6459,40.9159,50.00,39.20,66.27,80.00,4.00,0.00,30.50,M,6.21,M,M,M,M,M,M,M,M,M,M,M,M,M,M,M,M,48.44,LPOV 210600Z 08004KT 040V120 CAVOK 10/04 Q1033
LPOV,2017-12-21 07:00,-8.6459,40.9159,44.60,39.20,81.20,M,2.00,0.00,30.53,M,6.21,M,M,M,M,M,M,M,M,M,M,M,M,M,M,M,M,44.60,LPOV 210700Z VRB02KT CAVOK 07/04 Q1034
LPOV,2017-12-21 08:00,-8.6459,40.9159,41.00,37.40,86.89,M,2.00,0.00,30.56,M,6.21,M,M,M,M,M,M,M,M,M,M,M,M,M,M,M,M,41.00,LPOV 210800Z VRB02KT CAVOK 05/03 Q1035
LPOV,2017-12-21 09:00,-8.6459,40.9159,41.00,37.40,86.89,M,2.00,0.00,30.56,M,6.21,M,M,M,M,M,M,M,M,M,M,M,M,M,M,M,M,41.00,LPOV 210900Z VRB02KT CAVOK 05/03 Q1035
LPOV,2017-12-21 10:00,-8.6459,40.9159,48.20,42.80,81.47,M,2.00,0.00,30.59,M,6.21,M,M,M,M,M,M,M,M,M,M,M,M,M,M,M,M,48.20,LPOV 211000Z VRB02KT CAVOK 09/06 Q1036
LPOV,2017-12-21 11:00,-8.6459,40.9159,57.20,44.60,62.69,M,2.00,0.00,30.59,M,6.21,M,M,M,M,M,M,M,M,M,M,M,M,M,M,M,M,57.20,LPOV 211100Z VRB02KT CAVOK 14/07 Q1036
LPOV,2017-12-21 12:00,-8.6459,40.9159,60.80,46.40,59.01,30.00,4.00,0.00,30.59,M,6.21,M,M,M,M,M,M,M,M,M,M,M,M,M,M,M,M,60.80,LPOV 211200Z 03004KT CAVOK 16/08 Q1036
LPOV,2017-12-21 13:00,-8.6459,40.9159,60.80,46.40,59.01,330.00,3.00,0.00,30.62,M,6.21,M,M,M,M,M,M,M,M,M,M,M,M,M,M,M,M,60.80,LPOV 211300Z 33003KT CAVOK 16/08 Q1037
LPOV,2017-12-21 14:00,-8.6459,40.9159,60.80,48.20,63.15,270.00,8.00,0.00,30.56,M,6.21,M,M,M,M,M,M,M,M,M,M,M,M,M,M,M,M,60.80,LPOV 211400Z 27008KT 240V300 CAVOK 16/09 Q1035
LPOV,2017-12-21 15:00,-8.6459,40.9159,60.80,46.40,59.01,260.00,4.00,0.00,30.56,M,6.21,M,M,M,M,M,M,M,M,M,M,M,M,M,M,M,M,60.80,LPOV 211500Z 26004KT 230V300 CAVOK 16/08 Q1035
LPOV,2017-12-21 16:00,-8.6459,40.9159,59.00,46.40,62.92,300.00,3.00,0.00,30.59,M,6.21,M,M,M,M,M,M,M,M,M,M,M,M,M,M,M,M,59.00,LPOV 211600Z 30003KT 240V350 CAVOK 15/08 Q1036
LPOV,2017-12-21 17:00,-8.6459,40.9159,55.40,48.20,76.66,M,1.00,0.00,30.59,M,6.21,M,M,M,M,M,M,M,M,M,M,M,M,M,M,M,M,55.40,LPOV 211700Z VRB01KT CAVOK 13/09 Q1036
LPOV,2017-12-21 18:00,-8.6459,40.9159,51.80,48.20,87.47,M,2.00,0.00,30.59,M,6.21,M,M,M,M,M,M,M,M,M,M,M,M,M,M,M,M,51.80,LPOV 211800Z VRB02KT CAVOK 11/09 Q1036
LPOV,2017-12-21 19:00,-8.6459,40.9159,46.40,42.80,87.19,M,2.00,0.00,30.59,M,6.21,M,M,M,M,M,M,M,M,M,M,M,M,M,M,M,M,46.40,LPOV 211900Z VRB02KT CAVOK 08/06 Q1036
LPOV,2017-12-21 20:00,-8.6459,40.9159,44.60,41.00,87.09,M,1.00,0.00,30.62,M,6.21,M,M,M,M,M,M,M,M,M,M,M,M,M,M,M,M,44.60,LPOV 212000Z VRB01KT CAVOK 07/05 Q1037
LPOV,2017-12-21 21:00,-8.6459,40.9159,42.80,42.80,100.00,M,1.00,0.00,30.62,M,6.21,M,M,M,M,M,M,M,M,M,M,M,M,M,M,M,M,42.80,LPOV 212100Z VRB01KT CAVOK 06/06 Q1037
LPOV,2017-12-21 22:00,-8.6459,40.9159,42.80,41.00,93.30,M,1.00,0.00,30.65,M,6.21,M,M,M,M,M,M,M,M,M,M,M,M,M,M,M,M,42.80,LPOV 212200Z VRB01KT CAVOK 06/05 Q1038
LPOV,2017-12-21 23:00,-8.6459,40.9159,42.80,41.00,93.30,M,2.00,0.00,30.65,M,6.21,M,M,M,M,M,M,M,M,M,M,M,M,M,M,M,M,42.80,LPOV 212300Z VRB02KT CAVOK 06/05 Q1038
LPOV,2017-12-22 00:00,-8.6459,40.9159,39.20,39.20,100.00,M,2.00,0.00,30.65,M,6.21,M,M,M,M,M,M,M,M,M,M,M,M,M,M,M,M,39.20,LPOV 220000Z VRB02KT CAVOK 04/04 Q1038
LPOV,2017-12-22 01:00,-8.6459,40.9159,39.20,39.20,100.00,M,2.00,0.00,30.65,M,6.21,M,M,M,M,M,M,M,M,M,M,M,M,M,M,M,M,39.20,LPOV 220100Z VRB02KT CAVOK 04/04 Q1038
LPOV,2017-12-22 02:00,-8.6459,40.9159,39.20,39.20,100.00,180.00,3.00,0.00,30.65,M,6.21,M,M,M,M,M,M,M,M,M,M,M,M,M,M,M,M,36.92,LPOV 220200Z 18003KT CAVOK 04/04 Q1038
LPOV,2017-12-22 03:00,-8.6459,40.9159,35.60,35.60,100.00,M,2.00,0.00,30.65,M,6.21,M,M,M,M,M,M,M,M,M,M,M,M,M,M,M,M,35.60,LPOV 220300Z VRB02KT CAVOK 02/02 Q1038
LPOV,2017-12-22 04:00,-8.6459,40.9159,35.60,35.60,100.00,M,1.00,0.00,30.62,M,6.21,M,M,M,M,M,M,M,M,M,M,M,M,M,M,M,M,35.60,LPOV 220400Z VRB01KT CAVOK 02/02 Q1037
LPOV,2017-12-22 05:00,-8.6459,40.9159,35.60,35.60,100.00,M,2.00,0.00,30.62,M,6.21,M,M,M,M,M,M,M,M,M,M,M,M,M,M,M,M,35.60,LPOV 220500Z VRB02KT CAVOK 02/02 Q1037
LPOV,2017-12-22 06:00,-8.6459,40.9159,35.60,35.60,100.00,M,1.00,0.00,30.62,M,6.21,M,FEW,M,M,M,100.00,M,M,M,M,M,M,M,M,M,M,35.60,LPOV 220600Z VRB01KT 9999 FEW001 02/02 Q1037
LPOV,2017-12-22 07:00,-8.6459,40.9159,35.60,33.80,93.08,M,1.00,0.00,30.68,M,6.21,M,FEW,M,M,M,100.00,M,M,M,M,M,M,M,M,M,M,35.60,LPOV 220700Z VRB01KT 9999 FEW001 02/01 Q1039
LPOV,2017-12-22 08:00,-8.6459,40.9159,33.80,33.80,100.00,M,2.00,0.00,30.68,M,6.21,M,M,M,M,M,M,M,M,M,M,M,M,M,M,M,M,33.80,LPOV 220800Z VRB02KT CAVOK 01/01 Q1039
LPOV,2017-12-22 09:00,-8.6459,40.9159,37.40,33.80,86.69,M,2.00,0.00,30.65,M,6.21,M,M,M,M,M,M,M,M,M,M,M,M,M,M,M,M,37.40,LPOV 220900Z VRB02KT CAVOK 03/01 Q1038
LPOV,2017-12-22 10:00,-8.6459,40.9159,42.80,41.00,93.30,0.00,0.00,0.00,30.68,M,6.21,M,M,M,M,M,M,M,M,M,M,M,M,M,M,M,M,42.80,LPOV 221000Z 00000KT CAVOK 06/05 Q1039
LPOV,2017-12-22 11:00,-8.6459,40.9159,53.60,44.60,71.45,M,1.00,0.00,30.65,M,6.21,M,M,M,M,M,M,M,M,M,M,M,M,M,M,M,M,53.60,LPOV 221100Z VRB01KT CAVOK 12/07 Q1038
LPOV,2017-12-22 12:00,-8.6459,40.9159,59.00,42.80,54.86,M,1.00,0.00,30.65,M,6.21,M,M,M,M,M,M,M,M,M,M,M,M,M,M,M,M,59.00,LPOV 221200Z VRB01KT CAVOK 15/06 Q1038
LPOV,2017-12-22 13:00,-8.6459,40.9159,57.20,50.00,76.82,270.00,4.00,0.00,30.62,M,6.21,M,M,M,M,M,M,M,M,M,M,M,M,M,M,M,M,57.20,LPOV 221300Z 27004KT CAVOK 14/10 Q1037
LPOV,2017-12-22 14:00,-8.6459,40.9159,57.20,48.20,71.83,310.00,4.00,0.00,30.59,M,6.21,M,M,M,M,M,M,M,M,M,M,M,M,M,M,M,M,57.20,LPOV 221400Z 31004KT CAVOK 14/09 Q1036
LPOV,2017-12-22 15:00,-8.6459,40.9159,57.20,48.20,71.83,310.00,4.00,0.00,30.59,M,6.21,M,M,M,M,M,M,M,M,M,M,M,M,M,M,M,M,57.20,LPOV 221500Z 31004KT CAVOK 14/09 Q1036
LPOV,2017-12-22 16:00,-8.6459,40.9159,55.40,50.00,81.99,340.00,6.00,0.00,30.56,M,6.21,M,M,M,M,M,M,M,M,M,M,M,M,M,M,M,M,55.40,LPOV 221600Z 34006KT 310V010 CAVOK 13/10 Q1035
LPOV,2017-12-22 17:00,-8.6459,40.9159,55.40,46.40,71.64,350.00,4.00,0.00,30.56,M,6.21,M,M,M,M,M,M,M,M,M,M,M,M,M,M,M,M,55.40,LPOV 221700Z 35004KT CAVOK 13/08 Q1035
LPOV,2017-12-22 18:00,-8.6459,40.9159,50.00,48.20,93.50,M,2.00,0.00,30.56,M,6.21,M,NSC,M,M,M,M,M,M,M,MIFG,M,M,M,M,M,M,50.00,LPOV 221800Z VRB02KT 9999 MIFG NSC 10/09 Q1035
LPOV,2017-12-22 19:00,-8.6459,40.9159,46.40,44.60,93.40,M,2.00,0.00,30.56,M,6.21,M,M,M,M,M,M,M,M,M,M,M,M,M,M,M,M,46.40,LPOV 221900Z VRB02KT CAVOK 08/07 Q1035
LPOV,2017-12-22 20:00,-8.6459,40.9159,46.40,44.60,93.40,0.00,0.00,0.00,30.56,M,3.73,M,NSC,M,M,M,M,M,M,M,M,M,M,M,M,M,M,46.40,LPOV 222000Z 00000KT 6000 NSC 08/07 Q1035
LPOV,2017-12-22 21:00,-8.6459,40.9159,42.80,42.80,100.00,M,1.00,0.00,30.53,M,0.37,M,NSC,M,M,M,M,M,M,M,FG,M,M,M,M,M,M,42.80,LPOV 222100Z VRB01KT 0600 FG NSC 06/06 Q1034
LPOV,2017-12-22 22:00,-8.6459,40.9159,41.00,39.20,93.24,180.00,3.00,0.00,30.53,M,0.93,M,NSC,M,M,M,M,M,M,M,BR,M,M,M,M,M,M,38.98,LPOV 222200Z 18003KT 1500 BR NSC 05/04 Q1034
LPOV,2017-12-22 23:00,-8.6459,40.9159,39.20,39.20,100.00,M,2.00,0.00,30.53,M,0.93,M,NSC,M,M,M,M,M,M,M,BR,M,M,M,M,M,M,39.20,LPOV 222300Z VRB02KT 1500 BR NSC 04/04 Q1034
LPOV,2017-12-23 00:00,-8.6459,40.9159,37.40,37.40,100.00,M,2.00,0.00,30.53,M,0.93,M,NSC,M,M,M,M,M,M,M,BR,M,M,M,M,M,M,37.40,LPOV 230000Z VRB02KT 1500 BR NSC 03/03 Q1034
LPOV,2017-12-23 01:00,-8.6459,40.9159,37.40,35.60,93.14,M,2.00,0.00,30.53,M,0.93,M,NSC,M,M,M,M,M,M,M,BR,M,M,M,M,M,M,37.40,LPOV 230100Z VRB02KT 1500 BR NSC 03/02 Q1034
LPOV,2017-12-23 02:00,-8.6459,40.9159,35.60,33.80,93.08,M,2.00,0.00,30.50,M,0.93,M,NSC,M,M,M,M,M,M,M,BR,M,M,M,M,M,M,35.60,LPOV 230200Z VRB02KT 1500 BR NSC 02/01 Q1033
LPOV,2017-12-23 03:00,-8.6459,40.9159,35.60,33.80,93.08,0.00,0.00,0.00,30.50,M,0.93,M,NSC,M,M,M,M,M,M,M,BR,M,M,M,M,M,M,35.60,LPOV 230300Z 00000KT 1500 BR NSC 02/01 Q1033
LPOV,2017-12-23 04:00,-8.6459,40.9159,33.80,32.00,93.03,0.00,0.00,0.00,30.50,M,3.73,M,NSC,M,M,M,M,M,M,M,M,M,M,M,M,M,M,33.80,LPOV 230400Z 00000KT 6000 NSC 01/00 Q1033
LPOV,2017-12-23 05:00,-8.6459,40.9159,33.80,32.00,93.03,M,1.00,0.00,30.47,M,4.97,M,NSC,M,M,M,M,M,M,M,M,M,M,M,M,M,M,33.80,LPOV 230500Z VRB01KT 8000 NSC 01/00 Q1032
LPOV,2017-12-23 06:00,-8.6459,40.9159,33.80,33.80,100.00,M,2.00,0.00,30.47,M,6.21,M,M,M,M,M,M,M,M,M,M,M,M,M,M,M,M,33.80,LPOV 230600Z VRB02KT CAVOK 01/01 Q1032
LPOV,2017-12-23 08:00,-8.6459,40.9159,35.60,33.80,93.08,360.00,3.00,0.00,30.47,M,6.21,M,M,M,M,M,M,M,M,M,M,M,M,M,M,M,M,32.80,LPOV 230800Z 36003KT CAVOK 02/01 Q1032
LPOV,2017-12-23 09:00,-8.6459,40.9159,41.00,39.20,93.24,M,2.00,0.00,30.47,M,6.21,M,M,M,M,M,M,M,M,M,M,M,M,M,M,M,M,41.00,LPOV 230900Z VRB02KT CAVOK 05/04 Q1032
LPOV,2017-12-23 10:00,-8.6459,40.9159,51.80,44.60,76.34,40.00,4.00,0.00,30.50,M,6.21,M,M,M,M,M,M,M,M,M,M,M,M,M,M,M,M,51.80,LPOV 231000Z 04004KT 010V090 CAVOK 11/07 Q1033
LPOV,2017-12-23 11:00,-8.6459,40.9159,55.40,44.60,66.91,M,2.00,0.00,30.50,M,6.21,M,M,M,M,M,M,M,M,M,M,M,M,M,M,M,M,55.40,LPOV 231100Z VRB02KT CAVOK 13/07 Q1033
LPOV,2017-12-23 12:00,-8.6459,40.9159,59.00,46.40,62.92,50.00,4.00,0.00,30.47,M,6.21,M,M,M,M,M,M,M,M,M,M,M,M,M,M,M,M,59.00,LPOV 231200Z 05004KT 020V090 CAVOK 15/08 Q1032
LPOV,2017-12-23 13:00,-8.6459,40.9159,62.60,46.40,55.37,40.00,4.00,0.00,30.47,M,6.21,M,M,M,M,M,M,M,M,M,M,M,M,M,M,M,M,62.60,LPOV 231300Z 04004KT 350V080 CAVOK 17/08 Q1032
LPOV,2017-12-23 14:00,-8.6459,40.9159,64.40,48.20,55.63,M,2.00,0.00,30.45,M,6.21,M,M,M,M,M,M,M,M,M,M,M,M,M,M,M,M,64.40,LPOV 231400Z VRB02KT CAVOK 18/09 Q1031
LPOV,2017-12-23 15:00,-8.6459,40.9159,64.40,46.40,51.98,270.00,3.00,0.00,30.42,M,6.21,M,M,M,M,M,M,M,M,M,M,M,M,M,M,M,M,64.40,LPOV 231500Z 27003KT CAVOK 18/08 Q1030
LPOV,2017-12-23 16:00,-8.6459,40.9159,60.80,50.00,67.54,290.00,4.00,0.00,30.42,M,6.21,M,M,M,M,M,M,M,M,M,M,M,M,M,M,M,M,60.80,LPOV 231600Z 29004KT CAVOK 16/10 Q1030
LPOV,2017-12-23 18:00,-8.6459,40.9159,M,48.20,M,M,1.00,0.00,30.42,M,6.21,M,M,M,M,M,M,M,M,M,M,M,M,M,M,M,M,M,LPOV 231800Z VRB01KT CAVOK 113/09 Q1030
LPOV,2017-12-23 19:00,-8.6459,40.9159,46.40,42.80,87.19,160.00,4.00,0.00,30.42,M,6.21,M,M,M,M,M,M,M,M,M,M,M,M,M,M,M,M,44.24,LPOV 231900Z 16004KT CAVOK 08/06 Q1030
LPOV,2017-12-23 20:00,-8.6459,40.9159,46.40,42.80,87.19,M,2.00,0.00,30.45,M,6.21,M,M,M,M,M,M,M,M,M,M,M,M,M,M,M,M,46.40,LPOV 232000Z VRB02KT CAVOK 08/06 Q1031
LPOV,2017-12-23 21:00,-8.6459,40.9159,42.80,41.00,93.30,M,1.00,0.00,30.45,M,6.21,M,M,M,M,M,M,M,M,M,M,M,M,M,M,M,M,42.80,LPOV 232100Z VRB01KT CAVOK 06/05 Q1031
LPOV,2017-12-23 22:00,-8.6459,40.9159,41.00,39.20,93.24,M,1.00,0.00,30.45,M,6.21,M,M,M,M,M,M,M,M,M,M,M,M,M,M,M,M,41.00,LPOV 232200Z VRB01KT CAVOK 05/04 Q1031
LPOV,2017-12-23 23:00,-8.6459,40.9159,41.00,39.20,93.24,M,1.00,0.00,30.45,M,6.21,M,M,M,M,M,M,M,M,M,M,M,M,M,M,M,M,41.00,LPOV 232300Z VRB01KT CAVOK 05/04 Q1031
LPOV,2017-12-24 00:00,-8.6459,40.9159,39.20,37.40,93.19,M,2.00,0.00,30.45,M,6.21,M,M,M,M,M,M,M,M,M,M,M,M,M,M,M,M,39.20,LPOV 240000Z VRB02KT CAVOK 04/03 Q1031
LPOV,2017-12-24 01:00,-8.6459,40.9159,39.20,37.40,93.19,M,1.00,0.00,30.45,M,6.21,M,M,M,M,M,M,M,M,M,M,M,M,M,M,M,M,39.20,LPOV 240100Z VRB01KT CAVOK 04/03 Q1031
LPOV,2017-12-24 02:00,-8.6459,40.9159,39.20,37.40,93.19,M,1.00,0.00,30.45,M,6.21,M,M,M,M,M,M,M,M,M,M,M,M,M,M,M,M,39.20,LPOV 240200Z VRB01KT CAVOK 04/03 Q1031
LPOV,2017-12-24 03:00,-8.6459,40.9159,37.40,35.60,93.14,M,1.00,0.00,30.42,M,6.21,M,M,M,M,M,M,M,M,M,M,M,M,M,M,M,M,37.40,LPOV 240300Z VRB01KT CAVOK 03/02 Q1030
LPOV,2017-12-24 04:00,-8.6459,40.9159,37.40,35.60,93.14,M,1.00,0.00,30.42,M,6.21,M,M,M,M,M,M,M,M,M,M,M,M,M,M,M,M,37.40,LPOV 240400Z VRB01KT CAVOK 03/02 Q1030
LPOV,2017-12-24 05:00,-8.6459,40.9159,37.40,35.60,93.14,M,2.00,0.00,30.42,M,6.21,M,M,M,M,M,M,M,M,M,M,M,M,M,M,M,M,37.40,LPOV 240500Z VRB02KT CAVOK 03/02 Q1030
LPOV,2017-12-24 06:00,-8.6459,40.9159,33.80,33.80,100.00,M,1.00,0.00,30.42,M,6.21,M,M,M,M,M,M,M,M,M,M,M,M,M,M,M,M,33.80,LPOV 240600Z VRB01KT CAVOK 01/01 Q1030
LPOV,2017-12-24 07:00,-8.6459,40.9159,33.80,33.80,100.00,M,1.00,0.00,30.45,M,6.21,M,M,M,M,M,M,M,M,M,M,M,M,M,M,M,M,33.80,LPOV 240700Z VRB01KT CAVOK 01/01 Q1031
LPOV,2017-12-24 08:00,-8.6459,40.9159,33.80,33.80,100.00,M,2.00,0.00,30.45,M,6.21,M,M,M,M,M,M,M,M,M,M,M,M,M,M,M,M,33.80,LPOV 240800Z VRB02KT CAVOK 01/01 Q1031
LPOV,2017-12-24 09:00,-8.6459,40.9159,39.20,37.40,93.19,M,1.00,0.00,30.45,M,6.21,M,M,M,M,M,M,M,M,M,M,M,M,M,M,M,M,39.20,LPOV 240900Z VRB01KT CAVOK 04/03 Q1031
LPOV,2017-12-24 10:00,-8.6459,40.9159,55.40,51.80,87.65,170.00,3.00,0.00,30.45,M,6.21,M,M,M,M,M,M,M,M,M,M,M,M,M,M,M,M,55.40,LPOV 241000Z 17003KT CAVOK 13/11 Q1031
LPOV,2017-12-24 11:00,-8.6459,40.9159,55.40,48.20,76.66,M,1.00,0.00,30.45,M,6.21,M,M,M,M,M,M,M,M,M,M,M,M,M,M,M,M,55.40,LPOV 241100Z VRB01KT CAVOK 13/09 Q1031
LPOV,2017-12-24 12:00,-8.6459,40.9159,60.80,46.40,59.01,M,2.00,0.00,30.42,M,6.21,M,M,M,M,M,M,M,M,M,M,M,M,M,M,M,M,60.80,LPOV 241200Z VRB02KT CAVOK 16/08 Q1030
LPOV,2017-12-24 13:00,-8.6459,40.9159,62.60,46.40,55.37,190.00,6.00,0.00,30.39,M,6.21,M,M,M,M,M,M,M,M,M,M,M,M,M,M,M,M,62.60,LPOV 241300Z 19006KT 150V230 CAVOK 17/08 Q1029
LPOV,2017-12-24 14:00,-8.6459,40.9159,62.60,44.60,51.72,170.00,6.00,0.00,30.36,M,6.21,M,FEW,M,M,M,2200.00,M,M,M,M,M,M,M,M,M,M,62.60,LPOV 241400Z 17006KT 120V210 9999 FEW022 17/07 Q1028
LPOV,2017-12-24 15:00,-8.6459,40.9159,60.80,48.20,63.15,280.00,4.00,0.00,30.36,M,6.21,M,FEW,M,M,M,2200.00,M,M,M,M,M,M,M,M,M,M,60.80,LPOV 241500Z 28004KT 9999 FEW022 16/09 Q1028
LPOV,2017-12-24 16:00,-8.6459,40.9159,60.80,50.00,67.54,300.00,3.00,0.00,30.33,M,6.21,M,FEW,M,M,M,2200.00,M,M,M,M,M,M,M,M,M,M,60.80,LPOV 241600Z 30003KT 270V340 9999 FEW022 16/10 Q1027
LPOV,2017-12-24 17:00,-8.6459,40.9159,59.00,50.00,72.01,M,2.00,0.00,30.33,M,6.21,M,SCT,M,M,M,2200.00,M,M,M,M,M,M,M,M,M,M,59.00,LPOV 241700Z VRB02KT 9999 SCT022 15/10 Q1027
LPOV,2017-12-24 18:00,-8.6459,40.9159,55.40,50.00,81.99,40.00,3.00,0.00,30.33,M,6.21,M,SCT,M,M,M,2200.00,M,M,M,M,M,M,M,M,M,M,55.40,LPOV 241800Z 04003KT 9999 SCT022 13/10 Q1027
LPOV,2017-12-24 19:00,-8.6459,40.9159,50.00,48.20,93.50,M,1.00,0.00,30.33,M,6.21,M,SCT,M,M,M,2200.00,M,M,M,M,M,M,M,M,M,M,50.00,LPOV 241900Z VRB01KT 9999 SCT022 10/09 Q1027
LPOV,2017-12-24 20:00,-8.6459,40.9159,48.20,46.40,93.45,M,1.00,0.00,30.33,M,6.21,M,FEW,BKN,M,M,2000.00,3500.00,M,M,M,M,M,M,M,M,M,48.20,LPOV 242000Z VRB01KT 9999 FEW020 BKN035 09/08 Q1027
LPOV,2017-12-24 21:00,-8.6459,40.9159,48.20,44.60,87.28,M,1.00,0.00,30.33,M,6.21,M,FEW,SCT,M,M,2000.00,3500.00,M,M,M,M,M,M,M,M,M,48.20,LPOV 242100Z VRB01KT 9999 FEW020 SCT035 09/07 Q1027
LPOV,2017-12-24 22:00,-8.6459,40.9159,46.40,44.60,93.40,M,2.00,0.00,30.30,M,6.21,M,FEW,M,M,M,3500.00,M,M,M,M,M,M,M,M,M,M,46.40,LPOV 242200Z VRB02KT 9999 FEW035 08/07 Q1026
LPOV,2017-12-24 23:00,-8.6459,40.9159,46.40,42.80,87.19,M,2.00,0.00,30.30,M,6.21,M,FEW,M,M,M,3500.00,M,M,M,M,M,M,M,M,M,M,46.40,LPOV 242300Z VRB02KT 9999 FEW035 08/06 Q1026
LPOV,2017-12-25 00:00,-8.6459,40.9159,44.60,41.00,87.09,M,2.00,0.00,30.27,M,6.21,M,FEW,M,M,M,3500.00,M,M,M,M,M,M,M,M,M,M,44.60,LPOV 250000Z VRB02KT 9999 FEW035 07/05 Q1025
LPOV,2017-12-25 01:00,-8.6459,40.9159,42.80,41.00,93.30,M,2.00,0.00,30.27,M,6.21,M,FEW,M,M,M,3500.00,M,M,M,M,M,M,M,M,M,M,42.80,LPOV 250100Z VRB02KT 9999 FEW035 06/05 Q1025
LPOV,2017-12-25 02:00,-8.6459,40.9159,44.60,42.80,93.35,170.00,3.00,0.00,30.24,M,6.21,M,FEW,M,M,M,3500.00,M,M,M,M,M,M,M,M,M,M,43.09,LPOV 250200Z 17003KT 9999 FEW035 07/06 Q1024
LPOV,2017-12-25 03:00,-8.6459,40.9159,46.40,42.80,87.19,M,1.00,0.00,30.24,M,6.21,M,SCT,M,M,M,3500.00,M,M,M,M,M,M,M,M,M,M,46.40,LPOV 250300Z VRB01KT 9999 SCT035 08/06 Q1024
LPOV,2017-12-25 04:00,-8.6459,40.9159,48.20,44.60,87.28,M,2.00,0.00,30.24,M,6.21,M,SCT,M,M,M,3500.00,M,M,M,M,M,M,M,M,M,M,48.20,LPOV 250400Z VRB02KT 9999 SCT035 09/07 Q1024
LPOV,2017-12-25 05:00,-8.6459,40.9159,48.20,44.60,87.28,190.00,5.00,0.00,30.21,M,6.21,M,BKN,M,M,M,3500.00,M,M,M,M,M,M,M,M,M,M,45.63,LPOV 250500Z 19005KT 9999 BKN035 09/07 Q1023
LPOV,2017-12-25 06:00,-8.6459,40.9159,53.60,48.20,81.87,170.00,7.00,0.00,30.18,M,6.21,M,BKN,M,M,M,3500.00,M,M,M,M,M,M,M,M,M,M,53.60,LPOV 250600Z 17007KT 9999 BKN035 12/09 Q1022
LPOV,2017-12-25 07:00,-8.6459,40.9159,53.60,48.20,81.87,170.00,6.00,0.00,30.18,M,6.21,M,FEW,SCT,M,M,2000.00,3500.00,M,M,M,M,M,M,M,M,M,53.60,LPOV 250700Z 17006KT 9999 FEW020 SCT035 12/09 Q1022
LPOV,2017-12-25 08:00,-8.6459,40.9159,53.60,48.20,81.87,170.00,8.00,0.00,30.18,M,6.21,M,FEW,SCT,M,M,2000.00,3500.00,M,M,M,M,M,M,M,M,M,53.60,LPOV 250800Z 17008KT 9999 FEW020 SCT035 12/09 Q1022
LPOV,2017-12-25 09:00,-8.6459,40.9159,53.60,46.40,76.50,170.00,11.00,0.00,30.18,M,6.21,M,FEW,SCT,BKN,M,1400.00,2000.00,3500.00,M,M,M,M,M,M,M,M,53.60,LPOV 250900Z 17011KT 9999 FEW014 SCT020 BKN035 12/08 Q1022
LPOV,2017-12-25 10:00,-8.6459,40.9159,55.40,46.40,71.64,170.00,12.00,0.00,30.18,M,6.21,M,FEW,SCT,BKN,M,1400.00,2000.00,3500.00,M,M,M,M,M,M,M,M,55.40,LPOV 251000Z 17012KT 9999 FEW014 SCT020 BKN035 13/08 Q1022
LPOV,2017-12-25 11:00,-8.6459,40.9159,55.40,48.20,76.66,170.00,12.00,0.00,30.18,M,6.21,M,FEW,SCT,BKN,M,2000.00,2500.00,3500.00,M,M,M,M,M,M,M,M,55.40,LPOV 251100Z 17012KT 9999 FEW020 SCT025 BKN035 13/09 Q1022
LPOV,2017-12-25 12:00,-8.6459,40.9159,55.40,48.20,76.66,180.00,13.00,0.00,30.15,M,6.21,M,FEW,SCT,M,M,2000.00,3500.00,M,M,M,M,M,M,M,M,M,55.40,LPOV 251200Z 18013KT 140V210 9999 FEW020 SCT035 13/09 Q1021
LPOV,2017-12-25 13:00,-8.6459,40.9159,55.40,50.00,81.99,180.00,12.00,0.00,30.12,M,6.21,M,FEW,SCT,M,M,2000.00,3500.00,M,M,M,M,M,M,M,M,M,55.40,LPOV 251300Z 18012KT 150V210 9999 FEW020 SCT035 13/10 Q1020
LPOV,2017-12-25 14:00,-8.6459,40.9159,57.20,51.80,82.12,190.00,11.00,0.00,30.09,M,6.21,M,BKN,M,M,M,2000.00,M,M,M,M,M,M,M,M,M,M,57.20,LPOV 251400Z 19011KT 9999 BKN020 14/11 Q1019
LPOV,2017-12-25 15:00,-8.6459,40.9159,57.20,53.60,87.74,190.00,14.00,0.00,30.06,M,5.59,M,FEW,BKN,M,M,800.00,2000.00,M,M,-RA,M,M,M,M,M,M,57.20,LPOV 251500Z 19014KT 9000 -RA FEW008 BKN020 14/12 Q1018
LPOV,2017-12-25 16:00,-8.6459,40.9159,57.20,51.80,82.12,190.00,14.00,0.00,30.06,M,5.59,M,SCT,BKN,M,M,800.00,2000.00,M,M,-RA,M,M,M,M,M,M,57.20,LPOV 251600Z 19014KT 9000 -RA SCT008 BKN020 14/11 Q1018
LPOV,2017-12-25 17:00,-8.6459,40.9159,53.60,50.00,87.56,260.00,6.00,0.00,30.06,M,6.21,M,FEW,FEW,SCT,M,800.00,1500.00,2000.00,M,M,M,M,M,M,M,M,53.60,LPOV 251700Z 26006KT 9999 FEW008 FEW015CB SCT020 12/10 Q1018
LPOV,2017-12-25 18:00,-8.6459,40.9159,55.40,51.80,87.65,330.00,4.00,0.00,30.09,M,6.21,M,SCT,M,M,M,2000.00,M,M,M,M,M,M,M,M,M,M,55.40,LPOV 251800Z 33004KT 9999 SCT020 13/11 Q1019
LPOV,2017-12-25 19:00,-8.6459,40.9159,53.60,51.80,93.60,330.00,7.00,0.00,30.12,M,6.21,M,SCT,M,M,M,2000.00,M,M,M,M,M,M,M,M,M,M,53.60,LPOV 251900Z 33007KT 9999 SCT020 12/11 Q1020
LPOV,2017-12-25 20:00,-8.6459,40.9159,53.60,48.20,81.87,340.00,8.00,0.00,30.15,M,6.21,M,FEW,SCT,M,M,1500.00,2500.00,M,M,M,M,M,M,M,M,M,53.60,LPOV 252000Z 34008KT 9999 FEW015 SCT025 12/09 Q1021
LPOV,2017-12-25 21:00,-8.6459,40.9159,51.80,50.00,93.55,350.00,4.00,0.00,30.15,M,6.21,M,SCT,BKN,M,M,1500.00,2500.00,M,M,M,M,M,M,M,M,M,51.80,LPOV 252100Z 35004KT 310V020 9999 SCT015 BKN025 11/10 Q1021
LPOV,2017-12-25 22:00,-8.6459,40.9159,50.00,48.20,93.50,340.00,8.00,0.00,30.18,M,6.21,M,SCT,M,M,M,2500.00,M,M,M,M,M,M,M,M,M,M,46.29,LPOV 252200Z 34008KT 9999 SCT025 10/09 Q1022
LPOV,2017-12-25 23:00,-8.6459,40.9159,46.40,46.40,100.00,M,1.00,0.00,30.18,M,6.21,M,FEW,M,M,M,2500.00,M,M,M,M,M,M,M,M,M,M,46.40,LPOV 252300Z VRB01KT 9999 FEW025 08/08 Q1022
LPOV,2017-12-26 00:00,-8.6459,40.9159,48.20,48.20,100.00,360.00,6.00,0.00,30.21,M,6.21,M,FEW,BKN,M,M,800.00,2500.00,M,M,M,M,M,M,M,M,M,45.04,LPOV 260000Z 36006KT 300V030 9999 FEW008 BKN025 09/09 Q1023
LPOV,2017-12-26 01:00,-8.6459,40.9159,44.60,42.80,93.35,170.00,3.00,0.00,30.21,M,2.49,M,SCT,M,M,M,2500.00,M,M,M,BR,M,M,M,M,M,M,43.09,LPOV 260100Z 17003KT 4000 BR SCT025 07/06 Q1023
LPOV,2017-12-26 02:00,-8.6459,40.9159,44.60,42.80,93.35,M,2.00,0.00,30.21,M,4.97,M,SCT,M,M,M,2500.00,M,M,M,M,M,M,M,M,M,M,44.60,LPOV 260200Z VRB02KT 8000 SCT025 07/06 Q1023
LPOV,2017-12-26 03:00,-8.6459,40.9159,41.00,41.00,100.00,170.00,3.00,0.00,30.21,M,4.97,M,FEW,M,M,M,2500.00,M,M,M,M,M,M,M,M,M,M,38.98,LPOV 260300Z 17003KT 8000 FEW025 05/05 Q1023
LPOV,2017-12-26 04:00,-8.6459,40.9159,41.00,41.00,100.00,180.00,3.00,0.00,30.21,M,4.97,M,FEW,M,M,M,2500.00,M,M,M,M,M,M,M,M,M,M,38.98,LPOV 260400Z 18003KT 8000 FEW025 05/05 Q1023
LPOV,2017-12-26 05:00,-8.6459,40.9159,39.20,39.20,100.00,170.00,3.00,0.00,30.18,M,4.97,M,FEW,M,M,M,2500.00,M,M,M,M,M,M,M,M,M,M,36.92,LPOV 260500Z 17003KT 8000 FEW025 04/04 Q1022
LPOV,2017-12-26 06:00,-8.6459,40.9159,41.00,41.00,100.00,190.00,4.00,0.00,30.18,M,6.21,M,FEW,M,M,M,2500.00,M,M,M,M,M,M,M,M,M,M,37.93,LPOV 260600Z 19004KT 9999 FEW025 05/05 Q1022
LPOV,2017-12-26 07:00,-8.6459,40.9159,42.80,41.00,93.30,180.00,4.00,0.00,30.18,M,6.21,M,FEW,M,M,M,2500.00,M,M,M,M,M,M,M,M,M,M,40.03,LPOV 260700Z 18004KT 9999 FEW025 06/05 Q1022
LPOV,2017-12-26 08:00,-8.6459,40.9159,46.40,44.60,93.40,170.00,6.00,0.00,30.18,M,6.21,M,SCT,M,M,M,2500.00,M,M,M,M,M,M,M,M,M,M,42.87,LPOV 260800Z 17006KT 9999 SCT025 08/07 Q1022
LPOV,2017-12-26 09:00,-8.6459,40.9159,46.40,46.40,100.00,160.00,5.00,0.00,30.18,M,6.21,M,SCT,M,M,M,2500.00,M,M,M,M,M,M,M,M,M,M,43.50,LPOV 260900Z 16005KT 9999 SCT025 08/08 Q1022
LPOV,2017-12-26 11:00,-8.6459,40.9159,50.00,48.20,93.50,180.00,9.00,0.00,30.18,M,6.21,M,SCT,SCT,M,M,1800.00,2500.00,M,M,M,M,M,M,M,M,M,45.90,LPOV 261100Z 18009KT 9999 SCT018 SCT025 10/09 Q1022
LPOV,2017-12-26 12:00,-8.6459,40.9159,51.80,48.20,87.47,180.00,9.00,0.00,30.15,M,5.59,M,SCT,BKN,M,M,1800.00,2500.00,M,M,-SHRA,M,M,M,M,M,M,51.80,LPOV 261200Z 18009KT 9000 -SHRA SCT018 BKN025 11/09 Q1021
LPOV,2017-12-26 13:00,-8.6459,40.9159,53.60,50.00,87.56,190.00,8.00,0.00,30.12,M,6.21,M,SCT,SCT,M,M,1800.00,2500.00,M,M,M,M,M,M,M,M,M,53.60,LPOV 261300Z 19008KT 9999 SCT018 SCT025 12/10 Q1020
LPOV,2017-12-26 14:00,-8.6459,40.9159,53.60,51.80,93.60,220.00,9.00,0.00,30.06,M,6.21,M,FEW,SCT,M,M,800.00,1800.00,M,M,M,M,M,M,M,M,M,53.60,LPOV 261400Z 22009KT 9999 FEW008 SCT018 12/11 Q1018
LPOV,2017-12-26 15:00,-8.6459,40.9159,53.60,51.80,93.60,220.00,10.00,0.00,30.03,M,3.73,M,FEW,SCT,M,M,800.00,1800.00,M,M,-RA,M,M,M,M,M,M,53.60,LPOV 261500Z 22010KT 6000 -RA FEW008 SCT018 12/11 Q1017
LPOV,2017-12-26 16:00,-8.6459,40.9159,55.40,53.60,93.65,220.00,11.00,0.00,30.00,M,2.49,M,SCT,SCT,BKN,M,800.00,1600.00,2200.00,M,-RA,M,M,M,M,M,M,55.40,LPOV 261600Z 22011KT 4000 -RA SCT08 SCT016 BKN022 13/12 Q1016
LPOV,2017-12-26 17:00,-8.6459,40.9159,53.60,51.80,93.60,220.00,10.00,0.00,29.97,M,1.86,M,SCT,SCT,BKN,M,800.00,1600.00,2200.00,M,-RA,M,M,M,M,M,M,53.60,LPOV 261700Z 22010KT 3000 -RA SCT008 SCT016 BKN022 12/11 Q1015
LPOV,2017-12-26 18:00,-8.6459,40.9159,55.40,53.60,93.65,230.00,12.00,0.00,29.94,M,2.49,M,SCT,SCT,BKN,M,800.00,1600.00,2200.00,M,-RA,M,M,M,M,M,M,55.40,LPOV 261800Z 23012KT 4000 -RA SCT008 SCT016 BKN022 13/12 Q1014
LPOV,2017-12-26 19:00,-8.6459,40.9159,55.40,55.40,100.00,240.00,11.00,0.00,29.91,M,3.11,23.00,SCT,SCT,BKN,M,800.00,1600.00,2200.00,M,-RA,M,M,M,M,M,M,55.40,LPOV 261900Z 24011G23KT 5000 -RA SCT008 SCT016 BKN022 13/13 Q1013
LPOV,2017-12-26 20:00,-8.6459,40.9159,57.20,55.40,93.69,230.00,11.00,0.00,29.91,M,6.21,21.00,SCT,SCT,BKN,M,800.00,1600.00,2200.00,M,M,M,M,M,M,M,M,57.20,LPOV 262000Z 23011G21KT 9999 SCT008 SCT016 BKN022 14/13 Q1013
LPOV,2017-12-26 21:00,-8.6459,40.9159,57.20,53.60,87.74,260.00,10.00,0.00,29.91,M,6.21,21.00,SCT,SCT,BKN,M,800.00,1600.00,2200.00,M,M,M,M,M,M,M,M,57.20,LPOV 262100Z 26010G21KT 9999 SCT008 SCT016 BKN022 14/12 Q1013
LPOV,2017-12-26 22:00,-8.6459,40.9159,55.40,53.60,93.65,250.00,6.00,0.00,29.91,M,6.21,M,FEW,SCT,BKN,M,700.00,1500.00,2200.00,M,M,M,M,M,M,M,M,55.40,LPOV 262200Z 25006KT 9999 FEW007 SCT015 BKN022 13/12 Q1013
LPOV,2017-12-26 23:00,-8.6459,40.9159,57.20,55.40,93.69,290.00,8.00,0.00,29.88,M,6.21,M,SCT,BKN,M,M,1600.00,2400.00,M,M,M,M,M,M,M,M,M,57.20,LPOV 262300Z 29008KT 220V350 9999 SCT016 BKN024 14/13 Q1012
LPOV,2017-12-27 01:00,-8.6459,40.9159,55.40,51.80,87.65,330.00,11.00,0.00,29.88,M,6.21,21.00,SCT,BKN,M,M,1600.00,2400.00,M,M,M,M,M,M,M,M,M,55.40,LPOV 270100Z 33011G21KT 280V360 9999 SCT016 BKN024 13/11 Q1012
LPOV,2017-12-27 02:00,-8.6459,40.9159,55.40,51.80,87.65,330.00,8.00,0.00,29.88,M,6.21,M,SCT,BKN,M,M,1500.00,2400.00,M,M,M,M,M,M,M,M,M,55.40,LPOV 270200Z 33008KT 290V360 9999 SCT015 BKN024 13/11 Q1012
LPOV,2017-12-27 03:00,-8.6459,40.9159,51.80,48.20,87.47,320.00,10.00,0.00,29.91,M,6.21,20.00,SCT,FEW,BKN,M,1500.00,1800.00,2400.00,M,M,M,M,M,M,M,M,51.80,LPOV 270300Z 32010G20KT 290V360 9999 SCT015 FEW018TCU BKN024 11/09 Q1013
LPOV,2017-12-27 04:00,-8.6459,40.9159,53.60,48.20,81.87,310.00,8.00,0.00,29.91,M,6.21,M,FEW,BKN,M,M,1600.00,2500.00,M,M,M,M,M,M,M,M,M,53.60,LPOV 270400Z 31008KT 260V350 9999 FEW016 BKN025 12/09 Q1013
LPOV,2017-12-27 05:00,-8.6459,40.9159,53.60,46.40,76.50,330.00,10.00,0.00,29.94,M,6.21,M,FEW,BKN,M,M,1600.00,2500.00,M,M,M,M,M,M,M,M,M,53.60,LPOV 270500Z 33010KT 290V010 9999 FEW016 BKN025 12/08 Q1014
LPOV,2017-12-27 06:00,-8.6459,40.9159,51.80,46.40,81.74,330.00,10.00,0.00,29.97,M,6.21,M,FEW,SCT,M,M,1500.00,2400.00,M,M,M,M,M,M,M,M,M,51.80,LPOV 270600Z 33010KT 300V360 9999 FEW015 SCT024 11/08 Q1015
LPOV,2017-12-27 07:00,-8.6459,40.9159,51.80,44.60,76.34,330.00,10.00,0.00,29.97,M,6.21,M,FEW,SCT,M,M,1400.00,2300.00,M,M,M,M,M,M,M,M,M,51.80,LPOV 270700Z 33010KT 300V360 9999 FEW014 SCT023 11/07 Q1015
LPOV,2017-12-27 08:00,-8.6459,40.9159,51.80,46.40,81.74,330.00,10.00,0.00,30.00,M,6.21,M,FEW,SCT,M,M,1400.00,2300.00,M,M,M,M,M,M,M,M,M,51.80,LPOV 270800Z 33010KT 300V360 9999 FEW014 SCT023 11/08 Q1016
LPOV,2017-12-27 09:00,-8.6459,40.9159,55.40,44.60,66.91,330.00,9.00,0.00,30.00,M,6.21,M,FEW,M,M,M,1500.00,M,M,M,M,M,M,M,M,M,M,55.40,LPOV 270900Z 33009KT 290V010 9999 FEW015 13/07 Q1016
LPOV,2017-12-27 10:00,-8.6459,40.9159,55.40,46.40,71.64,330.00,9.00,0.00,30.03,M,6.21,M,FEW,M,M,M,1500.00,M,M,M,M,M,M,M,M,M,M,55.40,LPOV 271000Z 33009KT 290V360 9999 FEW015 13/08 Q1017
LPOV,2017-12-27 11:00,-8.6459,40.9159,57.20,46.40,67.12,320.00,8.00,0.00,30.03,M,6.21,M,FEW,M,M,M,1500.00,M,M,M,M,M,M,M,M,M,M,57.20,LPOV 271100Z 32008KT 290V360 9999 FEW015 14/08 Q1017
LPOV,2017-12-27 12:00,-8.6459,40.9159,57.20,48.20,71.83,320.00,8.00,0.00,30.03,M,6.21,M,SCT,M,M,M,1700.00,M,M,M,M,M,M,M,M,M,M,57.20,LPOV 271200Z 32008KT 290V360 9999 SCT017 14/09 Q1017
LPOV,2017-12-27 13:00,-8.6459,40.9159,57.20,48.20,71.83,300.00,7.00,0.00,30.03,M,6.21,M,FEW,SCT,M,M,1700.00,3000.00,M,M,M,M,M,M,M,M,M,57.20,LPOV 271300Z 30007KT 260V340 9999 FEW017 SCT030 14/09 Q1017
LPOV,2017-12-27 14:00,-8.6459,40.9159,55.40,50.00,81.99,310.00,9.00,0.00,30.03,M,6.21,M,SCT,M,M,M,1600.00,M,M,M,M,M,M,M,M,M,M,55.40,LPOV 271400Z 31009KT 270V340 9999 SCT016 13/10 Q1017
LPOV,2017-12-27 15:00,-8.6459,40.9159,53.60,48.20,81.87,310.00,8.00,0.00,30.03,M,4.97,M,FEW,BKN,M,M,1400.00,3000.00,M,M,-SHRA,M,M,M,M,M,M,53.60,LPOV 271500Z 31008KT 280V350 8000 -SHRA FEW014 BKN030 12/09 Q1017
LPOV,2017-12-27 16:00,-8.6459,40.9159,55.40,50.00,81.99,310.00,7.00,0.00,30.03,M,6.21,M,FEW,BKN,M,M,1400.00,3500.00,M,M,M,M,M,M,M,M,M,55.40,LPOV 271600Z 31007KT 280V340 9999 FEW014 BKN035 13/10 Q1017
LPOV,2017-12-27 17:00,-8.6459,40.9159,55.40,50.00,81.99,310.00,5.00,0.00,30.00,M,5.59,M,FEW,BKN,M,M,1400.00,3500.00,M,M,-RA,M,M,M,M,M,M,55.40,LPOV 271700Z 31005KT 270V340 9000 -RA FEW014 BKN035 13/10 Q1016
LPOV,2017-12-27 18:00,-8.6459,40.9159,51.80,48.20,87.47,290.00,6.00,0.00,30.00,M,5.59,M,SCT,SCT,M,M,1400.00,3500.00,M,M,-RA,M,M,M,M,M,M,51.80,LPOV 271800Z 29006KT 9000 -RA SCT014 SCT035 11/09 Q1016
LPOV,2017-12-27 19:00,-8.6459,40.9159,51.80,48.20,87.47,280.00,3.00,0.00,30.00,M,3.73,M,FEW,SCT,BKN,M,700.00,1400.00,3000.00,M,-RA,M,M,M,M,M,M,51.80,LPOV 271900Z 28003KT 6000 -RA FEW007 SCT014 BKN030 11/09 Q1016
LPOV,2017-12-27 20:00,-8.6459,40.9159,50.00,48.20,93.50,170.00,7.00,0.00,29.97,M,3.11,M,FEW,BKN,BKN,M,500.00,1200.00,2800.00,M,-RA BR,M,M,M,M,M,M,46.72,LPOV 272000Z 17007KT 5000 -RA BR FEW005 BKN012 BKN028 10/09 Q1015
LPOV,2017-12-27 21:00,-8.6459,40.9159,50.00,50.00,100.00,160.00,11.00,0.00,29.94,M,2.49,M,SCT,BKN,M,M,500.00,1200.00,M,M,-RADZ BR,M,M,M,M,M,M,45.21,LPOV 272100Z 16011KT 4000 -RADZ BR SCT005 BKN012 10/10 Q1014
LPOV,2017-12-27 22:00,-8.6459,40.9159,50.00,50.00,100.00,180.00,11.00,0.00,29.94,M,2.49,M,BKN,BKN,M,M,500.00,1200.00,M,M,-RADZ BR,M,M,M,M,M,M,45.21,LPOV 272200Z 18011KT 4000 -RADZ BR BKN005 BKN012 10/10 Q1014
LPOV,2017-12-27 23:00,-8.6459,40.9159,57.20,55.40,93.69,280.00,11.00,0.00,29.94,M,4.35,M,BKN,BKN,M,M,500.00,1200.00,M,M,-RADZ,M,M,M,M,M,M,57.20,LPOV 272300Z 28011KT 7000 -RADZ BKN005 BKN012 14/13 Q1014
LPOV,2017-12-28 00:00,-8.6459,40.9159,59.00,57.20,93.74,300.00,7.00,0.00,29.97,M,3.73,M,BKN,BKN,M,M,500.00,1200.00,M,M,-RADZ,M,M,M,M,M,M,59.00,LPOV 280000Z 30007KT 230V360 6000 -RADZ BKN005 BKN012 15/14 Q1015
LPOV,2017-12-28 01:00,-8.6459,40.9159,59.00,57.20,93.74,290.00,8.00,0.00,29.94,M,4.97,M,BKN,BKN,M,M,500.00,1200.00,M,M,-RADZ,M,M,M,M,M,M,59.00,LPOV 280100Z 29008KT 240V320 8000 -RADZ BKN005 BKN012 15/14 Q1014
LPOV,2017-12-28 02:00,-8.6459,40.9159,57.20,57.20,100.00,310.00,5.00,0.00,29.97,M,4.97,M,FEW,BKN,BKN,M,200.00,500.00,1200.00,M,M,M,M,M,M,M,M,57.20,LPOV 280200Z 31005KT 250V360 8000 FEW002 BKN005 BKN012 14/14 Q1015
LPOV,2017-12-28 03:00,-8.6459,40.9159,57.20,57.20,100.00,330.00,4.00,0.00,29.97,M,5.59,M,FEW,BKN,BKN,M,200.00,500.00,1200.00,M,M,M,M,M,M,M,M,57.20,LPOV 280300Z 33004KT 290V020 9000 FEW002 BKN005 BKN012 14/14 Q1015
LPOV,2017-12-28 04:00,-8.6459,40.9159,57.20,57.20,100.00,330.00,5.00,0.00,29.97,M,4.35,M,BKN,BKN,M,M,500.00,1200.00,M,M,-RA,M,M,M,M,M,M,57.20,LPOV 280400Z 33005KT 7000 -RA BKN005 BKN012 14/14 Q1015
LPOV,2017-12-28 05:00,-8.6459,40.9159,57.20,55.40,93.69,340.00,3.00,0.00,29.97,M,3.73,M,BKN,BKN,M,M,500.00,1200.00,M,M,M,M,M,M,M,M,M,57.20,LPOV 280500Z 34003T 6000 BKN005 BKN012 14/13 Q1015
LPOV,2017-12-28 06:00,-8.6459,40.9159,57.20,57.20,100.00,320.00,3.00,0.00,29.97,M,3.73,M,BKN,BKN,M,M,500.00,1200.00,M,M,M,M,M,M,M,M,M,57.20,LPOV 280600Z 32003KT 6000 BKN005 BKN012 14/14 Q1015
LPOV,2017-12-28 07:00,-8.6459,40.9159,57.20,57.20,100.00,300.00,4.00,0.00,29.97,M,3.11,M,BKN,BKN,M,M,500.00,1200.00,M,M,-RA BR,M,M,M,M,M,M,57.20,LPOV 280700Z 30004KT 5000 -RA BR BKN005 BKN012 14/14 Q1015
LPOV,2017-12-28 08:00,-8.6459,40.9159,57.20,57.20,100.00,330.00,5.00,0.00,29.97,M,3.73,M,FEW,BKN,BKN,M,200.00,500.00,1200.00,M,-RA,M,M,M,M,M,M,57.20,LPOV 280800Z 33005KT 6000 -RA FEW002 BKN005 BKN012 14/14 Q1015
LPOV,2017-12-28 09:00,-8.6459,40.9159,57.20,57.20,100.00,260.00,4.00,0.00,29.97,M,2.49,M,SCT,BKN,M,M,200.00,500.00,M,M,-RADZ BR,M,M,M,M,M,M,57.20,LPOV 280900Z 26004KT 4000 -RADZ BR SCT002 BKN005 14/14 Q1015
LPOV,2017-12-28 10:00,-8.6459,40.9159,59.00,57.20,93.74,290.00,8.00,0.00,30.00,M,1.86,M,SCT,BKN,M,M,200.00,500.00,M,M,-RADZ BR,M,M,M,M,M,M,59.00,LPOV 281000Z 29008KT 3000 -RADZ BR SCT002 BKN005 15/14 Q1016
LPOV,2017-12-28 11:00,-8.6459,40.9159,59.00,57.20,93.74,300.00,6.00,0.00,30.03,M,2.49,M,SCT,BKN,M,M,200.00,500.00,M,M,-RADZ BR,M,M,M,M,M,M,59.00,LPOV 281100Z 30006KT 4000 -RADZ BR SCT002 BKN005 15/14 Q1017
LPOV,2017-12-28 12:00,-8.6459,40.9159,59.00,57.20,93.74,290.00,6.00,0.00,30.03,M,3.11,M,SCT,BKN,M,M,200.00,500.00,M,M,BR,M,M,M,M,M,M,59.00,LPOV 281200Z 29006KT 5000 BR SCT002 BKN005 15/14 Q1017
LPOV,2017-12-28 13:00,-8.6459,40.9159,59.00,57.20,93.74,300.00,8.00,0.00,30.03,M,3.11,M,SCT,BKN,M,M,200.00,500.00,M,M,BR,M,M,M,M,M,M,59.00,LPOV 281300Z 30008KT 5000 BR SCT002 BKN005 15/14 Q1017
LPOV,2017-12-28 14:00,-8.6459,40.9159,59.00,57.20,93.74,290.00,8.00,0.00,30.03,M,1.86,M,SCT,BKN,M,M,200.00,500.00,M,M,BR,M,M,M,M,M,M,59.00,LPOV 281400Z 29008KT 3000 BR SCT002 BKN005 15/14 Q1017
LPOV,2017-12-28 15:00,-8.6459,40.9159,57.20,55.40,93.69,340.00,7.00,0.00,30.03,M,2.49,M,SCT,BKN,M,M,200.00,500.00,M,M,-DZ BR,M,M,M,M,M,M,57.20,LPOV 281500Z 34007KT 4000 -DZ BR SCT002 BKN005 14/13 Q1017
LPOV,2017-12-28 16:00,-8.6459,40.9159,57.20,57.20,100.00,340.00,4.00,0.00,30.03,M,3.11,M,FEW,BKN,BKN,M,200.00,500.00,2000.00,M,BR,M,M,M,M,M,M,57.20,LPOV 281600Z 34004KT 5000 BR FEW002 BKN005 BKN020 14/14 Q1017
LPOV,2017-12-28 17:00,-8.6459,40.9159,57.20,55.40,93.69,350.00,4.00,0.00,30.06,M,4.35,M,FEW,SCT,BKN,M,200.00,500.00,2000.00,M,M,M,M,M,M,M,M,57.20,LPOV 281700Z 35004KT 7000 FEW002 SCT005 BKN020 14/13 Q1018
LPOV,2017-12-28 18:00,-8.6459,40.9159,57.20,55.40,93.69,M,2.00,0.00,30.06,M,1.86,M,FEW,SCT,M,M,200.00,500.00,M,M,BR,M,M,M,M,M,M,57.20,LPOV 281800Z VRB02KT 3000 BR FEW002 SCT005 14/13 Q1018
LPOV,2017-12-28 19:00,-8.6459,40.9159,57.20,55.40,93.69,M,2.00,0.00,30.06,M,2.49,M,FEW,SCT,M,M,200.00,500.00,M,M,BR,M,M,M,M,M,M,57.20,LPOV 281900Z VRB02KT 4000 BR FEW002 SCT005 14/13 Q1018
LPOV,2017-12-28 20:00,-8.6459,40.9159,55.40,55.40,100.00,M,1.00,0.00,30.09,M,0.50,M,FEW,SCT,M,M,200.00,1800.00,M,M,FG,M,M,M,M,M,M,55.40,LPOV 282000Z VRB01KT 0800 FG FEW002 SCT018 13/13 Q1019
LPOV,2017-12-28 21:00,-8.6459,40.9159,53.60,53.60,100.00,M,2.00,0.00,30.12,M,0.56,M,FEW,BKN,M,M,200.00,1800.00,M,M,FG,M,M,M,M,M,M,53.60,LPOV 282100Z VRB02KT 0900 FG FEW002 BKN018 12/12 Q1020
LPOV,2017-12-28 22:00,-8.6459,40.9159,53.60,51.80,93.60,180.00,3.00,0.00,30.12,M,0.50,M,SCT,BKN,M,M,200.00,1800.00,M,M,FG,M,M,M,M,M,M,53.60,LPOV 282200Z 18003KT 0800 FG SCT002 BKN018 12/11 Q1020
LPOV,2017-12-28 23:00,-8.6459,40.9159,53.60,51.80,93.60,M,2.00,0.00,30.12,M,0.50,M,SCT,BKN,M,M,200.00,1800.00,M,M,FG,M,M,M,M,M,M,53.60,LPOV 282300Z VRB02KT 0800 FG SCT002 BKN018 12/11 Q1020
LPOV,2017-12-29 00:00,-8.6459,40.9159,55.40,53.60,93.65,180.00,6.00,0.00,30.15,M,0.50,M,SCT,BKN,M,M,200.00,1800.00,M,M,-DZ FG,M,M,M,M,M,M,55.40,LPOV 290000Z 18006KT 0800 -DZ FG SCT002 BKN018 13/12 Q1021
LPOV,2017-12-29 01:00,-8.6459,40.9159,55.40,55.40,100.00,170.00,6.00,0.00,30.12,M,0.50,M,SCT,BKN,M,M,200.00,1800.00,M,M,-DZ FG,M,M,M,M,M,M,55.40,LPOV 290100Z 17006KT 0800 -DZ FG SCT002 BKN018 13/13 Q1020
LPOV,2017-12-29 02:00,-8.6459,40.9159,55.40,55.40,100.00,190.00,4.00,0.00,30.12,M,0.75,M,SCT,BKN,M,M,200.00,1200.00,M,M,-RADZ BR,M,M,M,M,M,M,55.40,LPOV 290200Z 19004KT 1200 -RADZ BR SCT002 BKN012 13/13 Q1020
LPOV,2017-12-29 03:00,-8.6459,40.9159,57.20,57.20,100.00,200.00,7.00,0.00,30.15,M,1.86,M,FEW,BKN,M,M,200.00,1200.00,M,M,BR,M,M,M,M,M,M,57.20,LPOV 290300Z 20007KT 3000 BR FEW002 BKN012 14/14 Q1021
LPOV,2017-12-29 04:00,-8.6459,40.9159,57.20,57.20,100.00,210.00,4.00,0.00,30.12,M,4.35,M,FEW,BKN,M,M,200.00,1200.00,M,M,M,M,M,M,M,M,M,57.20,LPOV 290400Z 21004KT 7000 FEW002 BKN012 14/14 Q1020
LPOV,2017-12-29 05:00,-8.6459,40.9159,59.00,57.20,93.74,210.00,6.00,0.00,30.12,M,4.97,M,FEW,BKN,M,M,200.00,1200.00,M,M,M,M,M,M,M,M,M,59.00,LPOV 290500Z 21006KT 8000 FEW002 BKN012 15/14 Q1020
LPOV,2017-12-29 06:00,-8.6459,40.9159,59.00,57.20,93.74,220.00,6.00,0.00,30.12,M,4.97,M,FEW,BKN,M,M,200.00,1200.00,M,M,M,M,M,M,M,M,M,59.00,LPOV 290600Z 22006KT 8000 FEW002 BKN012 15/14 Q1020
LPOV,2017-12-29 07:00,-8.6459,40.9159,59.00,57.20,93.74,230.00,6.00,0.00,30.15,M,4.97,M,SCT,BKN,M,M,200.00,1200.00,M,M,M,M,M,M,M,M,M,59.00,LPOV 290700Z 23006KT 8000 SCT002 BKN012 15/14 Q1021
LPOV,2017-12-29 08:00,-8.6459,40.9159,59.00,57.20,93.74,240.00,6.00,0.00,30.18,M,5.59,M,BKN,BKN,M,M,200.00,1200.00,M,M,M,M,M,M,M,M,M,59.00,LPOV 290800Z 24006KT 9000 BKN002 BKN012 15/14 Q1022
LPOV,2017-12-29 09:00,-8.6459,40.9159,59.00,59.00,100.00,250.00,5.00,0.00,30.21,M,4.97,M,FEW,SCT,BKN,M,200.00,400.00,1500.00,M,M,M,M,M,M,M,M,59.00,LPOV 290900Z 25005KT 8000 FEW002 SCT004 BKN015 15/15 Q1023
LPOV,2017-12-29 10:00,-8.6459,40.9159,59.00,57.20,93.74,270.00,3.00,0.00,30.21,M,3.73,M,FEW,SCT,BKN,M,200.00,500.00,1500.00,M,M,M,M,M,M,M,M,59.00,LPOV 291000Z 27003KT 220V330 6000 FEW002 SCT005 BKN015 15/14 Q1023
LPOV,2017-12-29 11:00,-8.6459,40.9159,59.00,M,M,260.00,3.00,0.00,30.24,M,3.73,M,FEW,BKN,M,M,200.00,900.00,M,M,M,M,M,M,M,M,M,M,LPOV 291100Z 26003KT 200V320 6000 FEW002 BKN009 15/145 Q1024
LPOV,2017-12-29 12:00,-8.6459,40.9159,60.80,59.00,93.79,250.00,5.00,0.00,30.24,M,3.73,M,FEW,BKN,M,M,200.00,900.00,M,M,M,M,M,M,M,M,M,60.80,LPOV 291200Z 25005KT 180V310 6000 FEW002 BKN009 16/15 Q1024
LPOV,2017-12-29 13:00,-8.6459,40.9159,59.00,59.00,100.00,250.00,5.00,0.00,30.24,M,3.73,M,FEW,BKN,BKN,M,200.00,800.00,1500.00,M,M,M,M,M,M,M,M,59.00,LPOV 291300Z 25005KT 210V280 6000 FEW002 BKN008 BKN015 15/15 Q1024
LPOV,2017-12-29 14:00,-8.6459,40.9159,60.80,60.80,100.00,240.00,4.00,0.00,30.24,M,4.35,M,FEW,BKN,M,M,300.00,3000.00,M,M,M,M,M,M,M,M,M,60.80,LPOV 291400Z 24004KT 200V290 7000 FEW003 BKN030 16/16 Q1024
LPOV,2017-12-29 15:00,-8.6459,40.9159,60.80,59.00,93.79,250.00,4.00,0.00,30.24,M,4.35,M,FEW,BKN,BKN,M,300.00,700.00,3000.00,M,M,M,M,M,M,M,M,60.80,LPOV 291500Z 25004KT 210V290 7000 FEW003 BKN007 BKN030 16/15 Q1024
LPOV,2017-12-29 16:00,-8.6459,40.9159,60.80,59.00,93.79,210.00,5.00,0.00,30.24,M,3.73,M,FEW,BKN,M,M,200.00,600.00,M,M,M,M,M,M,M,M,M,60.80,LPOV 291600Z 21005KT 180V240 6000 FEW002 BKN006 16/15 Q1024
LPOV,2017-12-29 17:00,-8.6459,40.9159,59.00,59.00,100.00,210.00,7.00,0.00,30.24,M,4.97,M,FEW,SCT,BKN,M,200.00,600.00,3000.00,M,M,M,M,M,M,M,M,59.00,LPOV 291700Z 21007KT 180V240 8000 FEW002 SCT006 BKN030 15/15 Q1024
LPOV,2017-12-29 18:00,-8.6459,40.9159,59.00,59.00,100.00,210.00,7.00,0.00,30.27,M,4.97,M,FEW,BKN,BKN,M,200.00,400.00,3000.00,M,M,M,M,M,M,M,M,59.00,LPOV 291800Z 21007KT 180V240 8000 FEW002 BKN004 BKN030 15/15 Q1025
LPOV,2017-12-29 19:00,-8.6459,40.9159,59.00,59.00,100.00,200.00,5.00,0.00,30.27,M,5.59,M,FEW,BKN,M,M,200.00,800.00,M,M,M,M,M,M,M,M,M,59.00,LPOV 291900Z 20005KT 9000 FEW002 BKN008 15/15 Q1025
LPOV,2017-12-29 20:00,-8.6459,40.9159,59.00,59.00,100.00,200.00,5.00,0.00,30.30,M,5.59,M,FEW,BKN,M,M,200.00,800.00,M,M,M,M,M,M,M,M,M,59.00,LPOV 292000Z 20005KT 9000 FEW002 BKN008 15/15 Q1026
LPOV,2017-12-29 21:00,-8.6459,40.9159,59.00,59.00,100.00,180.00,6.00,0.00,30.30,M,6.21,M,SCT,BKN,M,M,600.00,3000.00,M,M,M,M,M,M,M,M,M,59.00,LPOV 292100Z 18006KT 9999 SCT006 BKN030 15/15 Q1026
LPOV,2017-12-29 22:00,-8.6459,40.9159,59.00,59.00,100.00,210.00,6.00,0.00,30.30,M,4.35,M,FEW,BKN,M,M,600.00,800.00,M,M,M,M,M,M,M,M,M,59.00,LPOV 292200Z 21006KT 7000 FEW006 BKN008 15/15 Q1026
LPOV,2017-12-29 23:00,-8.6459,40.9159,59.00,59.00,100.00,200.00,5.00,0.00,30.33,M,6.21,M,FEW,BKN,M,M,200.00,800.00,M,M,M,M,M,M,M,M,M,59.00,LPOV 292300Z 20005KT 9999 FEW002 BKN008 15/15 Q1027
LPOV,2017-12-30 00:00,-8.6459,40.9159,59.00,57.20,93.74,190.00,6.00,0.00,30.33,M,6.21,M,FEW,BKN,M,M,400.00,800.00,M,M,M,M,M,M,M,M,M,59.00,LPOV 300000Z 19006KT 9999 FEW004 BKN008 15/14 Q1027
LPOV,2017-12-30 01:00,-8.6459,40.9159,59.00,57.20,93.74,210.00,5.00,0.00,30.33,M,6.21,M,FEW,BKN,M,M,200.00,700.00,M,M,M,M,M,M,M,M,M,59.00,LPOV 300100Z 21005KT 9999 FEW002 BKN007 15/14 Q1027
LPOV,2017-12-30 03:00,-8.6459,40.9159,59.00,57.20,93.74,180.00,2.00,0.00,30.33,M,3.73,M,FEW,BKN,M,M,200.00,400.00,M,M,M,M,M,M,M,M,M,59.00,LPOV 300300Z 18002KT 6000 FEW002 BKN004 15/14 Q1027
LPOV,2017-12-30 04:00,-8.6459,40.9159,59.00,57.20,93.74,190.00,6.00,0.00,30.30,M,3.73,M,FEW,BKN,M,M,200.00,400.00,M,M,M,M,M,M,M,M,M,59.00,LPOV 300400Z 19006KT 6000 FEW002 BKN004 15/14 Q1026
LPOV,2017-12-30 05:00,-8.6459,40.9159,57.20,57.20,100.00,190.00,5.00,0.00,30.30,M,4.35,M,FEW,BKN,M,M,200.00,400.00,M,M,M,M,M,M,M,M,M,57.20,LPOV 300500Z 19005KT 7000 FEW002 BKN004 14/14 Q1026
LPOV,2017-12-30 06:00,-8.6459,40.9159,57.20,57.20,100.00,180.00,6.00,0.00,30.30,M,5.59,M,FEW,BKN,M,M,200.00,400.00,M,M,M,M,M,M,M,M,M,57.20,LPOV 300600Z 18006KT 9000 FEW002 BKN004 14/14 Q1026
LPOV,2017-12-30 07:00,-8.6459,40.9159,57.20,57.20,100.00,190.00,4.00,0.00,30.33,M,5.59,M,FEW,BKN,M,M,200.00,1500.00,M,M,M,M,M,M,M,M,M,57.20,LPOV 300700Z 19004KT 9000 FEW002 BKN015 14/14 Q1027
LPOV,2017-12-30 08:00,-8.6459,40.9159,57.20,57.20,100.00,180.00,4.00,0.00,30.33,M,3.73,M,FEW,BKN,M,M,200.00,500.00,M,M,M,M,M,M,M,M,M,57.20,LPOV 300800Z 18004KT 6000 FEW002 BKN005 14/14 Q1027
LPOV,2017-12-30 09:00,-8.6459,40.9159,57.20,57.20,100.00,190.00,5.00,0.00,30.33,M,3.73,M,FEW,BKN,M,M,200.00,500.00,M,M,M,M,M,M,M,M,M,57.20,LPOV 300900Z 19005KT 6000 FEW002 BKN005 14/14 Q1027
LPOV,2017-12-30 10:00,-8.6459,40.9159,59.00,57.20,93.74,190.00,6.00,0.00,30.36,M,4.35,M,BKN,BKN,M,M,500.00,1100.00,M,M,M,M,M,M,M,M,M,59.00,LPOV 301000Z 19006KT 7000 BKN005 BKN011 15/14 Q1028
LPOV,2017-12-30 11:00,-8.6459,40.9159,59.00,57.20,93.74,190.00,7.00,0.00,30.36,M,4.97,M,SCT,BKN,M,M,600.00,1100.00,M,M,M,M,M,M,M,M,M,59.00,LPOV 301100Z 19007KT 8000 SCT006 BKN011 15/14 Q1028
LPOV,2017-12-30 12:00,-8.6459,40.9159,60.80,57.20,87.92,200.00,7.00,0.00,30.33,M,4.97,M,FEW,BKN,BKN,M,700.00,1200.00,2000.00,M,M,M,M,M,M,M,M,60.80,LPOV 301200Z 20007KT 8000 FEW007 BKN012 BKN020 16/14 Q1027
LPOV,2017-12-30 13:00,-8.6459,40.9159,62.60,57.20,82.50,220.00,9.00,0.00,30.33,M,6.21,M,SCT,SCT,M,M,1200.00,2000.00,M,M,M,M,M,M,M,M,M,62.60,LPOV 301300Z 22009KT 9999 SCT012 SCT020 17/14 Q1027
LPOV,2017-12-30 14:00,-8.6459,40.9159,62.60,55.40,77.29,220.00,10.00,0.00,30.30,M,6.21,M,FEW,M,M,M,1300.00,M,M,M,M,M,M,M,M,M,M,62.60,LPOV 301400Z 22010KT 9999 FEW013 17/13 Q1026
LPOV,2017-12-30 15:00,-8.6459,40.9159,60.80,55.40,82.37,220.00,8.00,0.00,30.30,M,6.21,M,FEW,SCT,M,M,1300.00,2500.00,M,M,M,M,M,M,M,M,M,60.80,LPOV 301500Z 22008KT 9999 FEW013 SCT025 16/13 Q1026
LPOV,2017-12-30 16:00,-8.6459,40.9159,60.80,55.40,82.37,210.00,8.00,0.00,30.30,M,6.21,M,FEW,BKN,M,M,1300.00,2500.00,M,M,M,M,M,M,M,M,M,60.80,LPOV 301600Z 21008KT 9999 FEW013 BKN025 16/13 Q1026
LPOV,2017-12-30 17:00,-8.6459,40.9159,60.80,55.40,82.37,210.00,7.00,0.00,30.30,M,6.21,M,FEW,BKN,M,M,1300.00,2500.00,M,M,M,M,M,M,M,M,M,60.80,LPOV 301700Z 21007KT 9999 FEW013 BKN025 16/13 Q1026
LPOV,2017-12-30 18:00,-8.6459,40.9159,59.00,55.40,87.83,190.00,5.00,0.00,30.30,M,6.21,M,SCT,BKN,M,M,1200.00,2500.00,M,M,M,M,M,M,M,M,M,59.00,LPOV 301800Z 19005KT 9999 SCT012 BKN025 15/13 Q1026
LPOV,2017-12-30 19:00,-8.6459,40.9159,59.00,55.40,87.83,190.00,5.00,0.00,30.30,M,6.21,M,FEW,BKN,M,M,1200.00,2500.00,M,M,M,M,M,M,M,M,M,59.00,LPOV 301900Z 19005KT 9999 FEW012 BKN025 15/13 Q1026
LPOV,2017-12-30 20:00,-8.6459,40.9159,57.20,55.40,93.69,180.00,6.00,0.00,30.30,M,6.21,M,FEW,BKN,M,M,1200.00,2500.00,M,M,M,M,M,M,M,M,M,57.20,LPOV 302000Z 18006KT 9999 FEW012 BKN025 14/13 Q1026
LPOV,2017-12-30 21:00,-8.6459,40.9159,57.20,55.40,93.69,170.00,5.00,0.00,30.30,M,6.21,M,SCT,BKN,M,M,1200.00,2500.00,M,M,M,M,M,M,M,M,M,57.20,LPOV 302100Z 17005KT 9999 SCT012 BKN025 14/13 Q1026
LPOV,2017-12-30 22:00,-8.6459,40.9159,57.20,55.40,93.69,180.00,5.00,0.00,30.30,M,6.21,M,SCT,BKN,M,M,1200.00,2500.00,M,M,M,M,M,M,M,M,M,57.20,LPOV 302200Z 18005KT 9999 SCT012 BKN025 14/13 Q1026
LPOV,2017-12-30 23:00,-8.6459,40.9159,57.20,55.40,93.69,180.00,5.00,0.00,30.27,M,6.21,M,FEW,BKN,M,M,1200.00,2500.00,M,M,M,M,M,M,M,M,M,57.20,LPOV 302300Z 18005KT 9999 FEW012 BKN025 14/13 Q1025
LPOV,2017-12-31 00:00,-8.6459,40.9159,57.20,55.40,93.69,170.00,8.00,0.00,30.24,M,6.21,M,FEW,BKN,M,M,1200.00,2500.00,M,M,M,M,M,M,M,M,M,57.20,LPOV 310000Z 17008KT 9999 FEW012 BKN025 14/13 Q1024
LPOV,2017-12-31 01:00,-8.6459,40.9159,57.20,53.60,87.74,170.00,7.00,0.00,30.24,M,6.21,M,SCT,BKN,M,M,1200.00,2500.00,M,M,M,M,M,M,M,M,M,57.20,LPOV 310100Z 17007KT 9999 SCT012 BKN025 14/12 Q1024
LPOV,2017-12-31 03:00,-8.6459,40.9159,57.20,53.60,87.74,190.00,8.00,0.00,30.21,M,6.21,M,FEW,BKN,M,M,1300.00,2500.00,M,M,M,M,M,M,M,M,M,57.20,LPOV 310300Z 19008KT 9999 FEW013 BKN025 14/12 Q1023
LPOV,2017-12-31 04:00,-8.6459,40.9159,57.20,53.60,87.74,180.00,10.00,0.00,30.18,M,6.21,M,FEW,BKN,M,M,1300.00,2500.00,M,M,M,M,M,M,M,M,M,57.20,LPOV 310400Z 18010KT 9999 FEW013 BKN025 14/12 Q1022
LPOV,2017-12-31 05:00,-8.6459,40.9159,57.20,53.60,87.74,170.00,11.00,0.00,30.15,M,6.21,M,FEW,BKN,M,M,1300.00,2500.00,M,M,M,M,M,M,M,M,M,57.20,LPOV 310500Z 17011KT 9999 FEW013 BKN025 14/12 Q1021
LPOV,2017-12-31 06:00,-8.6459,40.9159,57.20,51.80,82.12,170.00,9.00,0.00,30.15,M,6.21,M,BKN,M,M,M,2500.00,M,M,M,M,M,M,M,M,M,M,57.20,LPOV 310600Z 17009KT 9999 BKN025 14/11 Q1021
LPOV,2017-12-31 07:00,-8.6459,40.9159,57.20,53.60,87.74,180.00,10.00,0.00,30.15,M,6.21,M,FEW,BKN,M,M,1300.00,2500.00,M,M,M,M,M,M,M,M,M,57.20,LPOV 310700Z 18010KT 9999 FEW013 BKN025 14/12 Q1021
LPOV,2017-12-31 08:00,-8.6459,40.9159,57.20,53.60,87.74,180.00,11.00,0.00,30.15,M,6.21,M,FEW,BKN,M,M,1500.00,2800.00,M,M,M,M,M,M,M,M,M,57.20,LPOV 310800Z 18011KT 9999 FEW015 BKN028 14/12 Q1021
LPOV,2017-12-31 09:00,-8.6459,40.9159,57.20,51.80,82.12,180.00,16.00,0.00,30.12,M,6.21,M,FEW,SCT,BKN,M,700.00,2800.00,4000.00,M,M,M,M,M,M,M,M,57.20,LPOV 310900Z 18016KT 9999 FEW007 SCT028 BKN040 14/11 Q1020
LPOV,2017-12-31 10:00,-8.6459,40.9159,57.20,53.60,87.74,190.00,13.00,0.00,30.15,M,3.73,M,SCT,SCT,BKN,M,700.00,2800.00,4000.00,M,-DZRA,M,M,M,M,M,M,57.20,LPOV 311000Z 19013KT 6000 -DZRA SCT007 SCT028 BKN040 14/12 Q1021
LPOV,2017-12-31 11:00,-8.6459,40.9159,55.40,53.60,93.65,210.00,16.00,0.00,30.21,M,2.49,M,SCT,BKN,BKN,M,700.00,2800.00,3500.00,M,RA,M,M,M,M,M,M,55.40,LPOV 311100Z 21016KT 4000 RA SCT007 BKN028 BKN035 13/12 Q1023
LPOV,2017-12-31 12:00,-8.6459,40.9159,53.60,51.80,93.60,10.00,3.00,0.00,30.21,M,4.97,M,SCT,BKN,BKN,M,700.00,2800.00,3500.00,M,-RA,M,M,M,M,M,M,53.60,LPOV 311200Z 01003KT 8000 -RA SCT007 BKN028 BKN035 12/11 Q1023
LPOV,2017-12-31 13:00,-8.6459,40.9159,57.20,55.40,93.69,270.00,3.00,0.00,30.24,M,5.59,M,FEW,SCT,BKN,M,700.00,1200.00,3500.00,M,M,M,M,M,M,M,M,57.20,LPOV 311300Z 27003KT 9000 FEW007 SCT012 BKN035 14/13 Q1024
LPOV,2017-12-31 14:00,-8.6459,40.9159,57.20,53.60,87.74,260.00,4.00,0.00,30.24,M,6.21,M,FEW,SCT,M,M,1000.00,1200.00,M,M,M,M,M,M,M,M,M,57.20,LPOV 311400Z 26004KT 9999 FEW010 SCT012 14/12 Q1024
LPOV,2017-12-31 15:00,-8.6459,40.9159,60.80,51.80,72.20,320.00,8.00,0.00,30.24,M,6.21,M,FEW,M,M,M,1800.00,M,M,M,M,M,M,M,M,M,M,60.80,LPOV 311500Z 32008KT 9999 FEW018 16/11 Q1024
LPOV,2017-12-31 16:00,-8.6459,40.9159,57.20,53.60,87.74,320.00,7.00,0.00,30.30,M,6.21,M,SCT,M,M,M,1800.00,M,M,M,M,M,M,M,M,M,M,57.20,LPOV 311600Z 32007KT 9999 SCT018 14/12 Q1026
LPOV,2017-12-31 17:00,-8.6459,40.9159,57.20,51.80,82.12,320.00,6.00,0.00,30.30,M,6.21,M,SCT,M,M,M,1500.00,M,M,M,M,M,M,M,M,M,M,57.20,LPOV 311700Z 32006KT 9999 SCT015 14/11 Q1026
LPOV,2017-12-31 18:00,-8.6459,40.9159,55.40,50.00,81.99,310.00,4.00,0.00,30.36,M,6.21,M,FEW,M,M,M,1500.00,M,M,M,M,M,M,M,M,M,M,55.40,LPOV 311800Z 31004KT 9999 FEW015 13/10 Q1028
LPOV,2017-12-31 19:00,-8.6459,40.9159,53.60,46.40,76.50,330.00,5.00,0.00,30.39,M,6.21,M,FEW,M,M,M,1500.00,M,M,M,M,M,M,M,M,M,M,53.60,LPOV 311900Z 33005KT 9999 FEW015 12/08 Q1029
LPOV,2017-12-31 20:00,-8.6459,40.9159,50.00,48.20,93.50,M,2.00,0.00,30.45,M,6.21,M,FEW,M,M,M,3500.00,M,M,M,M,M,M,M,M,M,M,50.00,LPOV 312000Z VRB02KT 9999 FEW035 10/09 Q1031
LPOV,2017-12-31 21:00,-8.6459,40.9159,46.40,42.80,87.19,190.00,4.00,0.00,30.45,M,6.21,M,FEW,M,M,M,3000.00,M,M,M,M,M,M,M,M,M,M,44.24,LPOV 312100Z 19004KT 9999 FEW030 08/06 Q1031
LPOV,2017-12-31 22:00,-8.6459,40.9159,42.80,41.00,93.30,180.00,4.00,0.00,30.47,M,6.21,M,M,M,M,M,M,M,M,M,M,M,M,M,M,M,M,40.03,LPOV 312200Z 18004KT CAVOK 06/05 Q1032
LPOV,2017-12-31 23:00,-8.6459,40.9159,42.80,39.20,86.99,180.00,5.00,0.00,30.47,M,6.21,M,M,M,M,M,M,M,M,M,M,M,M,M,M,M,M,39.22,LPOV 312300Z 18005KT CAVOK 06/04 Q1032
LPOV,2018-01-01 00:00,-8.6459,40.9159,42.80,41.00,93.30,190.00,4.00,0.00,30.47,M,4.97,M,FEW,M,M,M,2800.00,M,M,M,M,M,M,M,M,M,M,40.03,LPOV 010000Z 19004KT 8000 FEW028 06/05 Q1032
LPOV,2018-01-01 01:00,-8.6459,40.9159,44.60,41.00,87.09,180.00,3.00,0.00,30.47,M,4.97,M,FEW,M,M,M,2800.00,M,M,M,M,M,M,M,M,M,M,43.09,LPOV 010100Z 18003KT 8000 FEW028 07/05 Q1032
LPOV,2018-01-01 02:00,-8.6459,40.9159,44.60,42.80,93.35,190.00,3.00,0.00,30.45,M,4.97,M,FEW,M,M,M,2500.00,M,M,M,M,M,M,M,M,M,M,43.09,LPOV 010200Z 19003KT 8000 FEW025 07/06 Q1031
LPOV,2018-01-01 03:00,-8.6459,40.9159,44.60,44.60,100.00,180.00,6.00,0.00,30.47,M,5.59,M,FEW,M,M,M,2500.00,M,M,M,M,M,M,M,M,M,M,40.71,LPOV 010300Z 18006KT 9000 FEW025 07/07 Q1032
LPOV,2018-01-01 04:00,-8.6459,40.9159,44.60,42.80,93.35,180.00,6.00,0.00,30.47,M,5.59,M,SCT,M,M,M,2500.00,M,M,M,M,M,M,M,M,M,M,40.71,LPOV 010400Z 18006KT 9000 SCT025 07/06 Q1032
LPOV,2018-01-01 05:00,-8.6459,40.9159,46.40,44.60,93.40,170.00,6.00,0.00,30.47,M,6.21,M,FEW,SCT,M,M,2500.00,3000.00,M,M,M,M,M,M,M,M,M,42.87,LPOV 010500Z 17006KT 9999 FEW025 SCT030 08/07 Q1032
LPOV,2018-01-01 06:00,-8.6459,40.9159,48.20,46.40,93.45,190.00,6.00,0.00,30.47,M,6.21,M,FEW,SCT,M,M,2500.00,3000.00,M,M,M,M,M,M,M,M,M,45.04,LPOV 010600Z 19006KT 9999 FEW025 SCT030 09/08 Q1032
LPOV,2018-01-01 07:00,-8.6459,40.9159,48.20,44.60,87.28,170.00,7.00,0.00,30.50,M,6.21,M,SCT,SCT,M,M,2500.00,3000.00,M,M,M,M,M,M,M,M,M,44.53,LPOV 010700Z 17007KT 9999 SCT025 SCT030 09/07 Q1033
LPOV,2018-01-01 09:00,-8.6459,40.9159,50.00,50.00,100.00,180.00,7.00,0.00,30.50,M,5.59,M,FEW,SCT,BKN,M,400.00,2500.00,3000.00,M,M,M,M,M,M,M,M,46.72,LPOV 010900Z 18007KT 9000 FEW004 SCT025 BKN030 10/10 Q1033
LPOV,2018-01-01 10:00,-8.6459,40.9159,51.80,50.00,93.55,180.00,7.00,0.00,30.53,M,4.35,M,BKN,M,M,M,3000.00,M,M,M,M,M,M,M,M,M,M,51.80,LPOV 011000Z 18007KT 7000 BKN030 11/10 Q1034
LPOV,2018-01-01 11:00,-8.6459,40.9159,53.60,51.80,93.60,180.00,7.00,0.00,30.53,M,5.59,M,FEW,BKN,M,M,1200.00,3000.00,M,M,M,M,M,M,M,M,M,53.60,LPOV 011100Z 18007KT 9000 FEW012 BKN030 12/11 Q1034
LPOV,2018-01-01 12:00,-8.6459,40.9159,57.20,53.60,87.74,190.00,6.00,0.00,30.53,M,6.21,M,FEW,BKN,M,M,1200.00,3000.00,M,M,M,M,M,M,M,M,M,57.20,LPOV 011200Z 19006KT 9999 FEW012 BKN030 14/12 Q1034
LPOV,2018-01-01 13:00,-8.6459,40.9159,59.00,53.60,82.25,230.00,6.00,0.00,30.50,M,6.21,M,FEW,BKN,M,M,1200.00,3000.00,M,M,M,M,M,M,M,M,M,59.00,LPOV 011300Z 23006KT 9999 FEW012 BKN030 15/12 Q1033
LPOV,2018-01-01 14:00,-8.6459,40.9159,59.00,55.40,87.83,230.00,5.00,0.00,30.50,M,6.21,M,FEW,BKN,M,M,1800.00,3000.00,M,M,M,M,M,M,M,M,M,59.00,LPOV 011400Z 23005KT 9999 FEW018 BKN030 15/13 Q1033
LPOV,2018-01-01 15:00,-8.6459,40.9159,59.00,53.60,82.25,230.00,3.00,0.00,30.47,M,6.21,M,SCT,BKN,M,M,1500.00,3000.00,M,M,M,M,M,M,M,M,M,59.00,LPOV 011500Z 23003KT 150V280 9999 SCT015 BKN030 15/12 Q1032
LPOV,2018-01-01 16:00,-8.6459,40.9159,59.00,55.40,87.83,M,1.00,0.00,30.47,M,6.21,M,FEW,BKN,M,M,1500.00,2500.00,M,M,M,M,M,M,M,M,M,59.00,LPOV 011600Z VRB01KT 9999 FEW015 BKN025 15/13 Q1032
LPOV,2018-01-01 17:00,-8.6459,40.9159,57.20,55.40,M,M,M,0.00,30.50,M,6.21,M,FEW,BKN,M,M,1500.00,2500.00,M,M,M,M,M,M,M,M,M,M,LPOV 011700Z 2003KT 9999 FEW015 BKN025 14/13 Q1033
LPOV,2018-01-01 18:00,-8.6459,40.9159,57.20,53.60,87.74,M,2.00,0.00,30.50,M,4.97,M,FEW,BKN,M,M,1500.00,2500.00,M,M,M,M,M,M,M,M,M,57.20,LPOV 011800Z VRB02KT 8000 FEW015 BKN025 14/12 Q1033
LPOV,2018-01-01 19:00,-8.6459,40.9159,55.40,53.60,93.65,M,2.00,0.00,30.50,M,6.21,M,FEW,BKN,M,M,1500.00,2500.00,M,M,M,M,M,M,M,M,M,55.40,LPOV 011900Z VRB02KT 9999 FEW015 BKN025 13/12 Q1033
LPOV,2018-01-01 20:00,-8.6459,40.9159,55.40,53.60,93.65,220.00,4.00,0.00,30.53,M,6.21,M,FEW,BKN,M,M,1500.00,3000.00,M,M,M,M,M,M,M,M,M,55.40,LPOV 012000Z 22004KT 9999 FEW015 BKN030 13/12 Q1034
LPOV,2018-01-01 21:00,-8.6459,40.9159,55.40,51.80,87.65,180.00,4.00,0.00,30.53,M,6.21,M,FEW,BKN,M,M,1500.00,3000.00,M,M,M,M,M,M,M,M,M,55.40,LPOV 012100Z 18004KT 9999 FEW015 BKN030 13/11 Q1034
LPOV,2018-01-01 22:00,-8.6459,40.9159,55.40,53.60,93.65,160.00,3.00,0.00,30.53,M,6.21,M,FEW,BKN,M,M,1500.00,3000.00,M,M,M,M,M,M,M,M,M,55.40,LPOV 012200Z 16003KT 9999 FEW015 BKN030 13/12 Q1034
LPOV,2018-01-01 23:00,-8.6459,40.9159,53.60,51.80,93.60,190.00,4.00,0.00,30.53,M,6.21,M,FEW,BKN,M,M,1500.00,3000.00,M,M,M,M,M,M,M,M,M,53.60,LPOV 012300Z 19004KT 9999 FEW015 BKN030 12/11 Q1034
